{"type":"FeatureCollection","features":[{"type":"Feature","properties":{"id":"ad-02","lat":42.58661,"lng":1.65801},"geometry":{"type":"Polygon","coordinates":[[[1.59735,42.62192],[1.72199,42.60986],[1.76509,42.56337],[1.55561,42.56265],[1.59735,42.62192]]]}},{"type":"Feature","properties":{"id":"ad-03","lat":42.5152,"lng":1.66465},"geometry":{"type":"Polygon","coordinates":[[[1.71709,42.53989],[1.67424,42.49051],[1.55561,42.56265],[1.68277,42.57455],[1.71709,42.53989]]]}},{"type":"Feature","properties":{"id":"ad-04","lat":42.55038,"lng":1.48487},"geometry":{"type":"Polygon","coordinates":[[[1.4293,42.59539],[1.55561,42.56265],[1.55635,42.53811],[1.44997,42.50407],[1.40646,42.52924],[1.4293,42.59539]]]}},{"type":"Feature","properties":{"id":"ad-05","lat":42.58235,"lng":1.5365},"geometry":{"type":"Polygon","coordinates":[[[1.45141,42.60205],[1.59735,42.62192],[1.55561,42.56265],[1.45141,42.60205]]]}},{"type":"Feature","properties":{"id":"ad-06","lat":42.46276,"lng":1.46419},"geometry":{"type":"Polygon","coordinates":[[[1.57494,42.48457],[1.43643,42.44095],[1.40759,42.48676],[1.57494,42.48457]]]}},{"type":"Feature","properties":{"id":"ad-07","lat":42.508,"lng":1.50904},"geometry":{"type":"Polygon","coordinates":[[[1.55635,42.53811],[1.51917,42.49796],[1.49314,42.49349],[1.48719,42.51803],[1.55635,42.53811]]]}},{"type":"Feature","properties":{"id":"ad-08","lat":42.49334,"lng":1.57698},"geometry":{"type":"Polygon","coordinates":[[[1.65698,42.49764],[1.57266,42.45307],[1.49909,42.48903],[1.56899,42.53886],[1.65698,42.49764]]]}}]}
