{"type":"FeatureCollection","features":[{"type":"Feature","properties":{"id":"ae-aj","lat":25.3862,"lng":55.56648},"geometry":{"type":"MultiPolygon","coordinates":[[[[55.96695,25.31915],[56.00266,25.30132],[55.97734,25.28205],[55.96695,25.31915]]],[[[55.43897,25.41279],[55.4921,25.46016],[55.63224,25.41315],[55.59746,25.35962],[55.43897,25.41279]]]]}},{"type":"Feature","properties":{"id":"ae-az","lat":23.86661,"lng":53.64358},"geometry":{"type":"MultiPolygon","coordinates":[[[[55.79993,24.69325],[55.80737,24.34079],[55.7557,24.23033],[55.93315,24.22072],[55.99785,24.08127],[55.4568,23.96316],[55.53835,23.77005],[55.22591,23.12125],[55.18684,22.70358],[55.1053,22.62095],[52.55848,22.93858],[51.57316,24.12783],[51.59376,24.38491],[51.63445,24.22687],[51.67262,24.27806],[51.70069,24.22191],[51.77947,24.26203],[51.80942,24.00068],[51.92872,23.96475],[52.34107,24.00751],[52.60027,24.20954],[52.68133,24.14081],[53.00587,24.16584],[53.1465,24.12132],[53.16529,24.17031],[53.25375,24.09878],[53.44581,24.11982],[53.58961,24.04706],[53.87892,24.06485],[54.32301,24.27066],[54.38258,24.25458],[54.48561,24.44697],[54.57439,24.44697],[54.41733,24.5351],[54.48561,24.56989],[54.5818,24.50845],[54.67058,24.66608],[54.64332,24.74868],[55.00586,24.96991],[55.16038,24.60297],[55.44016,24.60832],[55.6709,24.70898],[55.79993,24.69325]]],[[[52.00473,24.25283],[52.0079,24.21084],[51.99431,24.21918],[52.00473,24.25283]]],[[[52.64538,24.35072],[52.64877,24.30952],[52.59215,24.25337],[52.55824,24.32681],[52.64538,24.35072]]],[[[53.32276,24.26269],[53.18409,24.28124],[53.36671,24.31924],[53.41676,24.41283],[53.44703,24.37983],[53.32276,24.26269]]],[[[52.33924,24.50155],[52.28321,24.49702],[52.30974,24.5395],[52.33924,24.50155]]],[[[51.73536,24.59947],[51.73024,24.56521],[51.71168,24.60216],[51.73536,24.59947]]],[[[53.07936,24.89102],[53.06316,24.87328],[53.0608,24.89354],[53.07936,24.89102]]],[[[53.64332,24.18626],[53.84815,24.27505],[53.96485,24.17259],[53.77467,24.13011],[53.64332,24.18626]]],[[[54.11256,24.27167],[54.13697,24.32689],[54.19077,24.22724],[54.18084,24.24506],[54.11256,24.27167]]],[[[54.27345,24.30292],[54.17945,24.32144],[54.21803,24.35798],[54.27345,24.30292]]],[[[54.30893,24.31387],[54.27906,24.36445],[54.292,24.38451],[54.3353,24.364],[54.30893,24.31387]]],[[[54.38941,24.52269],[54.39666,24.48347],[54.47055,24.42504],[54.33481,24.45319],[54.38941,24.52269]]],[[[54.23984,25.20865],[54.19793,25.232],[54.21111,25.24942],[54.23984,25.20865]]]]}},{"type":"Feature","properties":{"id":"ae-du","lat":24.84965,"lng":55.36608},"geometry":{"type":"MultiPolygon","coordinates":[[[[56.17118,24.82399],[56.11826,24.73542],[56.07627,24.72997],[56.1057,24.82037],[56.17118,24.82399]]],[[[55.02223,24.97883],[55.2824,25.26069],[55.32887,25.20148],[55.32482,25.30709],[55.44884,25.30678],[55.62868,25.16441],[55.67632,24.72048],[55.44016,24.60832],[55.16038,24.60297],[55.02223,24.97883]]]]}},{"type":"Feature","properties":{"id":"ae-fu","lat":25.4515,"lng":56.23478},"geometry":{"type":"MultiPolygon","coordinates":[[[[56.3136,24.90507],[56.27468,24.87195],[56.25293,24.89481],[56.25928,24.9151],[56.3136,24.90507]]],[[[56.16012,25.2159],[56.38299,25.32127],[56.36223,25.06826],[56.28554,25.07844],[56.2705,24.93915],[56.15252,25.09064],[56.16012,25.2159]]],[[[56.20559,25.30789],[56.12942,25.31427],[56.17986,25.2953],[56.11935,25.21942],[55.98618,25.22533],[56.00126,25.38093],[56.13655,25.37228],[56.0917,25.41754],[56.12245,25.47984],[55.98478,25.49284],[55.96974,25.59087],[56.1525,25.65796],[56.34002,25.60456],[56.365,25.42317],[56.20559,25.30789]]]]}},{"type":"Feature","properties":{"id":"ae-rk","lat":25.71721,"lng":55.98633},"geometry":{"type":"MultiPolygon","coordinates":[[[[56.23567,25.29629],[56.16012,25.2159],[56.15221,25.03579],[56.18621,24.91145],[56.27468,24.87195],[56.1057,24.82037],[55.97587,24.97211],[55.95191,25.18699],[56.12555,25.22244],[56.17986,25.2953],[56.15082,25.33246],[56.23567,25.29629]]],[[[56.1627,26.07355],[56.1525,25.65796],[55.96571,25.57671],[55.98478,25.49284],[56.10942,25.49586],[56.13655,25.37228],[56.08782,25.34194],[55.97331,25.38868],[55.94432,25.32592],[55.74598,25.6623],[55.95973,25.82368],[55.93718,25.77668],[55.95232,25.77212],[56.0774,26.06105],[56.1627,26.07355]]]]}},{"type":"Feature","properties":{"id":"ae-sh","lat":25.07858,"lng":55.79643},"geometry":{"type":"MultiPolygon","coordinates":[[[[56.18234,25.0464],[56.2537,24.977],[56.25293,24.89481],[56.18621,24.91145],[56.18234,25.0464]]],[[[56.38331,24.97822],[56.28228,24.95145],[56.28554,25.07844],[56.36223,25.06826],[56.38331,24.97822]]],[[[55.97587,24.97211],[55.7991,24.88611],[55.79993,24.69325],[55.6709,24.70898],[55.61674,25.18505],[55.44884,25.30678],[55.32482,25.30709],[55.4245,25.39452],[55.60976,25.36514],[55.6279,25.41801],[55.4921,25.46016],[55.51516,25.51325],[55.71513,25.40641],[55.82277,25.27776],[56.00126,25.38093],[55.95191,25.18699],[55.97587,24.97211]]],[[[56.28298,25.25548],[56.26508,25.28118],[56.28833,25.27193],[56.28298,25.25548]]],[[[56.38299,25.32127],[56.27246,25.35923],[56.365,25.42317],[56.38299,25.32127]]]]}},{"type":"Feature","properties":{"id":"ae-uq","lat":25.45983,"lng":55.73725},"geometry":{"type":"Polygon","coordinates":[[[55.51516,25.51325],[55.56813,25.58466],[55.54819,25.52949],[55.62631,25.53632],[55.74598,25.6623],[55.802,25.62621],[55.91279,25.30476],[55.81332,25.28112],[55.71513,25.40641],[55.51516,25.51325]]]}},{"type":"Feature","properties":{"id":"ae-x01~","lat":24.93453,"lng":56.29012},"geometry":{"type":"Polygon","coordinates":[[[56.31605,24.92991],[56.27561,24.91396],[56.2705,24.93915],[56.28228,24.95145],[56.31605,24.92991]]]}},{"type":"Feature","properties":{"id":"ae-x02~","lat":24.77517,"lng":56.0643},"geometry":{"type":"Polygon","coordinates":[[[55.95765,24.86866],[56.1057,24.82037],[56.07627,24.72997],[55.95765,24.86866]]]}}]}
