{"type":"FeatureCollection","features":[{"type":"Feature","properties":{"id":"af-bal","lat":36.50883,"lng":67.02733},"geometry":{"type":"Polygon","coordinates":[[[67.78054,37.18887],[67.78535,37.09655],[68.02482,36.92552],[68.0381,36.817],[68.1891,36.59325],[68.07985,36.56216],[67.68804,36.64794],[67.48583,36.63616],[67.37194,36.56128],[67.42005,36.47157],[67.33489,36.21156],[67.06751,36.06395],[67.11996,35.93352],[66.90489,35.71808],[66.50533,35.67116],[66.62976,35.87561],[66.60232,36.16343],[66.4614,36.22425],[66.67989,36.54609],[66.47101,36.63673],[66.41768,36.74608],[66.56894,36.79801],[66.4628,36.99046],[66.50362,37.11241],[66.40197,37.25625],[66.25521,37.30253],[66.25085,37.35965],[66.45106,37.32294],[66.53902,37.36909],[67.00592,37.38439],[67.25913,37.18515],[67.50315,37.28196],[67.56139,37.2199],[67.63316,37.25406],[67.78054,37.18887]]]}},{"type":"Feature","properties":{"id":"af-bam","lat":34.74309,"lng":67.38205},"geometry":{"type":"Polygon","coordinates":[[[67.43137,34.13864],[67.31468,34.01087],[67.03351,33.93793],[66.78324,34.00387],[66.64465,33.97444],[66.53003,34.04614],[66.53044,34.26111],[66.5801,34.3068],[66.46869,34.3685],[66.73591,34.48735],[66.71513,34.55657],[66.7741,34.62161],[66.33789,34.93177],[66.35774,35.1715],[66.66904,35.20281],[66.80743,35.37061],[67.01677,35.35247],[67.57353,35.46936],[68.08854,35.46122],[68.10099,35.30795],[68.01206,35.17217],[68.01547,35.06442],[68.23659,34.96324],[68.28269,34.80031],[68.03903,34.68587],[67.97433,34.59595],[67.50697,34.68114],[67.29902,34.63499],[67.34744,34.52719],[67.25107,34.43092],[67.40966,34.40904],[67.38036,34.33873],[67.54811,34.2777],[67.42207,34.20037],[67.43137,34.13864]]]}},{"type":"Feature","properties":{"id":"af-bdg","lat":35.28359,"lng":63.60592},"geometry":{"type":"Polygon","coordinates":[[[63.34293,35.85626],[63.58209,35.95905],[63.93566,36.0177],[63.8874,35.72051],[63.98858,35.64589],[64.00253,35.50168],[64.24712,35.46843],[64.29833,35.39838],[64.41579,35.41766],[64.41083,35.23966],[64.73014,35.21315],[64.86796,35.13377],[65.04469,34.95043],[65.01441,34.79359],[64.70874,34.69473],[64.2018,34.68031],[64.01173,34.56218],[63.78549,34.50937],[63.3603,34.63463],[63.03427,34.64559],[62.99469,34.72633],[62.6684,34.84345],[62.67181,35.042],[62.82306,35.32751],[63.08021,35.43706],[63.07665,35.6247],[63.21359,35.69229],[63.08863,35.8434],[63.34293,35.85626]]]}},{"type":"Feature","properties":{"id":"af-bds","lat":36.94227,"lng":73.25514},"geometry":{"type":"Polygon","coordinates":[[[74.79402,37.21393],[74.72146,37.29778],[74.36831,37.16706],[74.54742,37.01568],[74.53739,36.96224],[74.39404,36.99402],[74.0353,36.81558],[73.77289,36.89201],[73.19184,36.87703],[72.6296,36.83295],[72.16968,36.71135],[72.17165,36.65363],[71.77322,36.48005],[71.78263,36.39654],[71.61044,36.45793],[71.55835,36.32786],[71.22307,36.12539],[70.97322,35.77541],[71.01368,35.69917],[70.87793,35.62571],[70.86444,35.48424],[70.68724,35.537],[70.57691,35.44241],[70.47945,35.66694],[70.2312,35.67036],[70.27336,35.85021],[70.46178,35.97052],[70.42901,36.03785],[70.47247,36.28357],[70.22401,36.32703],[70.03844,36.46212],[70.00382,36.61505],[70.00661,36.92229],[70.12412,37.04254],[70.03302,37.1351],[69.99855,37.53091],[70.15787,37.54143],[70.28308,37.70483],[70.17213,37.94608],[70.26153,37.93929],[70.4703,38.12052],[70.66487,38.40541],[70.93622,38.433],[70.95074,38.47305],[71.35816,38.25126],[71.25826,37.92647],[71.34115,37.8933],[71.53706,37.94445],[71.59773,37.89836],[71.52952,37.76113],[71.43112,37.06699],[71.55287,36.76959],[71.65302,36.68701],[71.83658,36.69916],[72.25981,36.96731],[72.65771,37.02883],[72.79073,37.22026],[73.06751,37.31506],[73.29633,37.46495],[73.75346,37.42839],[73.7391,37.33834],[73.5973,37.26181],[73.70923,37.21701],[74.18765,37.33839],[74.3156,37.42692],[74.66038,37.39397],[74.89231,37.23111],[74.79402,37.21393]]]}},{"type":"Feature","properties":{"id":"af-bgl","lat":35.74319,"lng":69.0465},"geometry":{"type":"Polygon","coordinates":[[[69.96103,35.80986],[69.79143,35.67327],[69.7489,35.54109],[69.33988,35.40244],[69.18532,35.42011],[68.91391,35.24829],[68.80963,35.25754],[68.57564,35.06385],[68.28145,35.07254],[68.17344,35.0067],[68.01795,35.05678],[68.00973,35.16545],[68.10099,35.30795],[68.08854,35.46122],[68.18879,35.58307],[68.15618,35.67653],[68.31168,35.85352],[68.33762,35.98835],[68.5314,36.1526],[68.32454,36.31411],[68.17344,36.51519],[68.20181,36.55746],[68.72276,36.53431],[68.84239,36.41977],[68.99923,36.41739],[69.30061,36.22818],[69.6811,36.35008],[69.96103,35.80986]]]}},{"type":"Feature","properties":{"id":"af-fra","lat":32.51085,"lng":62.3843},"geometry":{"type":"Polygon","coordinates":[[[61.60626,31.38874],[60.82174,31.49467],[60.77493,32.02719],[60.83032,32.24889],[60.5615,33.13731],[60.82908,33.41628],[60.83218,33.4845],[61.43804,33.45868],[61.55023,33.51604],[61.84737,33.47646],[61.75502,33.27166],[61.84334,33.15583],[61.67668,33.01199],[61.66629,32.91249],[61.85574,32.81681],[61.99542,32.89748],[62.05981,32.78206],[62.34889,32.84272],[62.38351,32.9839],[62.50872,33.05772],[63.01458,33.15392],[63.14026,33.31949],[63.55114,33.34401],[63.93365,33.51444],[64.01153,33.48739],[64.10728,33.27823],[64.22939,33.15898],[64.3993,33.14082],[64.37636,33.18232],[64.55108,33.32295],[64.7382,33.21157],[64.56271,33.01054],[64.57438,32.90884],[64.39543,32.84893],[64.26665,32.71953],[64.29352,32.63],[64.01421,32.57166],[64.02088,32.45003],[63.82673,32.32247],[63.72648,32.31958],[63.53005,32.2002],[63.15747,32.25258],[63.03365,32.01805],[62.74333,31.93002],[62.53942,32.07176],[61.97925,32.02112],[61.88556,31.794],[61.66505,31.59789],[61.66831,31.51601],[61.60531,31.51751],[61.60626,31.38874]]]}},{"type":"Feature","properties":{"id":"af-fyb","lat":36.22195,"lng":64.80051},"geometry":{"type":"Polygon","coordinates":[[[64.72855,36.85057],[64.80791,37.13551],[65.06309,37.23323],[65.48792,37.242],[65.33144,36.95087],[65.44456,36.75869],[65.39242,36.61957],[65.44751,36.5788],[65.48477,36.38564],[65.24546,36.34589],[65.18169,36.04863],[65.10226,35.97442],[65.41526,35.90954],[65.53086,35.96003],[65.57649,35.92789],[65.73333,36.02075],[65.81669,35.83657],[65.67995,35.78735],[65.623,35.67607],[65.48353,35.65105],[65.40762,35.42316],[65.45139,35.25395],[65.38204,35.20387],[65.26628,35.187],[65.13301,35.25645],[64.63273,35.19956],[64.41641,35.23682],[64.42401,35.41133],[64.29833,35.39838],[64.24712,35.46843],[64.01638,35.49186],[63.98858,35.64589],[63.88926,35.71276],[63.94745,35.9438],[63.90633,36.03173],[64.04511,35.99873],[64.05726,36.10524],[64.26613,36.15247],[64.49816,36.29143],[64.60586,36.46108],[64.60482,36.66055],[64.72855,36.85057]]]}},{"type":"Feature","properties":{"id":"af-gha","lat":33.17874,"lng":67.77176},"geometry":{"type":"Polygon","coordinates":[[[67.00034,33.22771],[66.82918,33.28094],[66.84437,33.58022],[67.18203,33.68389],[67.38269,33.86532],[67.3276,33.94728],[67.37742,34.09947],[67.57958,34.19636],[67.86726,34.14401],[68.05428,34.19884],[68.11246,34.14727],[68.14517,33.95633],[68.45616,33.78652],[68.45694,33.69448],[68.55419,33.68084],[68.71186,33.79006],[68.77268,33.71525],[68.76881,33.39328],[68.25953,32.79549],[68.05272,32.71953],[67.90808,32.81701],[67.81884,32.70692],[68.07691,32.45014],[68.08482,32.17892],[68.00539,32.07319],[67.74437,32.14452],[67.70696,32.24441],[67.63265,32.25219],[67.7807,32.37862],[67.59461,32.5137],[67.6637,32.5808],[67.40656,32.79885],[67.44088,32.85228],[67.3768,32.89936],[67.43747,32.94107],[67.42754,33.00675],[67.29422,32.94709],[67.09547,33.06351],[67.05356,32.93357],[66.93905,32.9453],[66.91465,33.12976],[67.00034,33.22771]]]}},{"type":"Feature","properties":{"id":"af-gho","lat":34.15032,"lng":64.45586},"geometry":{"type":"Polygon","coordinates":[[[66.24012,34.91622],[66.51943,34.84433],[66.63782,34.68532],[66.76495,34.64497],[66.73591,34.48735],[66.48703,34.38922],[66.21206,34.40632],[65.94546,34.32098],[65.52182,34.34496],[65.46735,34.07508],[65.52048,33.97333],[65.3994,33.86625],[65.57691,33.60477],[65.37025,33.42483],[64.81768,33.20312],[64.53402,33.31965],[64.33151,33.12258],[64.10728,33.27823],[64.06837,33.40943],[63.95866,33.51669],[63.55114,33.34401],[63.14026,33.31949],[63.07463,33.53284],[63.47729,33.6597],[63.50458,33.76716],[63.58297,33.80282],[63.38789,34.07399],[63.49311,34.26845],[64.11798,34.22556],[64.20862,34.28731],[64.19777,34.46991],[64.48157,34.49242],[64.4963,34.70031],[64.70874,34.69473],[65.01084,34.78925],[65.04733,34.93973],[64.99937,35.02582],[64.73014,35.21315],[65.13301,35.25645],[65.33284,35.18829],[65.64228,35.26955],[65.79741,35.10817],[66.03688,35.06277],[66.10499,34.78436],[66.24012,34.91622]]]}},{"type":"Feature","properties":{"id":"af-hel","lat":31.56077,"lng":64.07227},"geometry":{"type":"Polygon","coordinates":[[[64.49948,29.5702],[64.20774,29.49998],[64.08609,29.3866],[63.5686,29.49748],[62.60258,29.41807],[62.76752,30.20454],[63.0923,30.51871],[63.05737,30.68177],[63.15654,30.77365],[63.14305,30.93635],[63.34293,31.12528],[63.31637,31.31662],[63.40763,31.80493],[63.56964,32.0799],[63.53005,32.2002],[64.01437,32.44487],[64.01421,32.57166],[64.28463,32.6215],[64.26665,32.71953],[64.39543,32.84893],[64.57888,32.91381],[64.56271,33.01054],[64.71587,33.13338],[64.72518,33.22779],[64.82388,33.20443],[65.2191,33.36295],[65.36173,33.22019],[65.34819,33.09248],[65.18437,32.89618],[65.17781,32.68532],[65.26969,32.6471],[65.27357,32.44014],[65.10986,32.06086],[64.94615,32.0444],[64.81225,31.83891],[64.66017,30.4153],[64.49948,29.5702]]]}},{"type":"Feature","properties":{"id":"af-her","lat":34.18229,"lng":61.98911},"geometry":{"type":"Polygon","coordinates":[[[62.60453,35.2194],[62.82306,35.32751],[62.6898,35.09212],[62.65502,34.87195],[62.99469,34.72633],[63.03427,34.64559],[63.3603,34.63463],[63.78549,34.50937],[64.01173,34.56218],[64.2018,34.68031],[64.4763,34.67142],[64.48157,34.49242],[64.19777,34.46991],[64.20862,34.28731],[64.11798,34.22556],[63.49311,34.26845],[63.38789,34.07399],[63.58297,33.80282],[63.50458,33.76716],[63.47729,33.6597],[63.07463,33.53284],[63.14026,33.31949],[63.0414,33.17648],[62.50872,33.05772],[62.38351,32.9839],[62.34889,32.84272],[62.07376,32.78322],[61.99542,32.89748],[61.85574,32.81681],[61.66629,32.91249],[61.67668,33.01199],[61.84334,33.15583],[61.75502,33.27166],[61.84737,33.47646],[61.55023,33.51604],[61.45153,33.45966],[61.16446,33.46147],[60.65555,33.55989],[60.51179,33.63839],[60.49277,34.13903],[60.64367,34.30664],[60.89047,34.31891],[60.69969,34.5164],[60.94752,34.63799],[60.95993,34.72321],[61.06545,34.81472],[61.14731,35.1021],[61.10245,35.25666],[61.1871,35.30038],[61.29004,35.54806],[61.26968,35.6185],[61.35153,35.6278],[61.60475,35.4306],[62.00746,35.43892],[62.2337,35.29376],[62.2862,35.14065],[62.43188,35.28064],[62.60453,35.2194]]]}},{"type":"Feature","properties":{"id":"af-jow","lat":36.74897,"lng":65.94172},"geometry":{"type":"Polygon","coordinates":[[[65.76144,37.57838],[66.40941,37.24961],[66.50362,37.11241],[66.4628,36.99046],[66.56894,36.79801],[66.41748,36.73926],[66.52734,36.58769],[66.07145,36.53782],[65.71194,36.35734],[65.52709,36.33962],[65.49066,36.09681],[65.52709,35.97786],[65.67468,35.97233],[65.41526,35.90954],[65.14494,35.93708],[65.1035,35.98917],[65.18169,36.04863],[65.24546,36.34589],[65.48477,36.38564],[65.44751,36.5788],[65.39242,36.61957],[65.44456,36.75869],[65.34028,36.90679],[65.33889,36.9964],[65.48792,37.242],[65.62409,37.34514],[65.65871,37.51027],[65.76144,37.57838]]]}},{"type":"Feature","properties":{"id":"af-kab","lat":34.54053,"lng":69.34021},"geometry":{"type":"Polygon","coordinates":[[[69.89706,34.85361],[69.9278,34.75385],[69.85334,34.6816],[69.81205,34.41103],[69.6626,34.39317],[69.46943,34.14329],[69.28149,34.36408],[69.18113,34.30953],[68.96916,34.34914],[68.84193,34.49275],[68.87154,34.70419],[68.9828,34.89539],[69.29921,34.83224],[69.46959,34.5883],[69.55708,34.65538],[69.71924,34.65039],[69.77975,34.77814],[69.89706,34.85361]]]}},{"type":"Feature","properties":{"id":"af-kan","lat":31.0864,"lng":65.67768},"geometry":{"type":"Polygon","coordinates":[[[67.74828,31.54439],[67.55611,31.51219],[67.61146,31.4108],[67.77036,31.39467],[67.76473,31.33406],[67.3462,31.20776],[67.03527,31.23592],[67.01682,31.30915],[66.90592,31.30553],[66.69699,31.19582],[66.55003,30.97697],[66.37536,30.93672],[66.26798,30.60139],[66.32182,30.43737],[66.30529,30.24477],[66.2193,30.05786],[66.34053,29.95657],[66.19563,29.83534],[65.03637,29.54016],[64.49948,29.5702],[64.66017,30.4153],[64.81225,31.83891],[64.94615,32.0444],[65.10986,32.06086],[65.23538,32.32395],[65.44286,32.28147],[65.45728,32.42732],[65.58905,32.57266],[65.71504,32.56835],[65.71674,32.43983],[65.80656,32.48802],[66.13196,32.42032],[66.18628,32.47024],[66.38709,32.48316],[66.44481,32.55695],[66.53747,32.51295],[66.49866,32.37224],[66.32549,32.20439],[66.32968,31.93017],[66.18209,31.83511],[66.31164,31.69481],[66.69276,31.87694],[66.95424,31.73101],[67.18854,31.76096],[67.29313,31.64073],[67.39664,31.62985],[67.41664,31.5464],[67.74828,31.54439]]]}},{"type":"Feature","properties":{"id":"af-kap","lat":34.88194,"lng":69.72958},"geometry":{"type":"Polygon","coordinates":[[[69.89706,34.85361],[69.77975,34.77814],[69.71924,34.65039],[69.60426,34.64931],[69.56597,34.91027],[69.29766,35.01386],[69.28335,35.1617],[69.72808,35.15036],[69.85241,35.01145],[69.89706,34.85361]]]}},{"type":"Feature","properties":{"id":"af-kdz","lat":36.81945,"lng":68.66252},"geometry":{"type":"Polygon","coordinates":[[[68.98522,37.32036],[69.33937,37.07748],[69.29301,36.82189],[69.21524,36.78897],[69.2556,36.61224],[69.14713,36.48726],[69.22066,36.29696],[68.98698,36.42194],[68.85309,36.41457],[68.72276,36.53431],[68.20693,36.57896],[68.0381,36.817],[68.02482,36.92552],[68.18641,37.01831],[68.27778,37.01007],[68.28832,37.10321],[68.6269,37.20626],[68.66886,37.27829],[68.82038,37.25091],[68.83583,37.32914],[68.90471,37.27669],[68.88787,37.33814],[68.98522,37.32036]]]}},{"type":"Feature","properties":{"id":"af-kho","lat":33.3603,"lng":69.88354},"geometry":{"type":"Polygon","coordinates":[[[69.99648,33.74209],[70.11813,33.71652],[70.17409,33.63211],[70.15497,33.50661],[70.29445,33.31895],[69.88093,33.08925],[69.54752,33.07501],[69.47813,33.01135],[69.34531,33.04328],[69.40613,33.2651],[69.54561,33.40166],[69.58364,33.55465],[69.79593,33.59986],[69.99648,33.74209]]]}},{"type":"Feature","properties":{"id":"af-knr","lat":35.03166,"lng":71.05635},"geometry":{"type":"Polygon","coordinates":[[[71.44524,34.93776],[71.28948,34.87503],[71.0806,34.67292],[71.06582,34.55846],[70.74186,34.53104],[70.76527,34.58427],[70.65277,34.62998],[70.66688,34.74935],[70.57443,34.99404],[70.652,35.1316],[70.85297,35.06928],[71.1113,35.10344],[71.20845,35.29989],[71.44322,35.34296],[71.59342,35.46419],[71.62088,35.41014],[71.52983,35.30089],[71.63793,35.18969],[71.44524,34.93776]]]}},{"type":"Feature","properties":{"id":"af-lag","lat":34.85214,"lng":70.25227},"geometry":{"type":"Polygon","coordinates":[[[69.81205,34.41103],[69.85334,34.6816],[69.92889,34.78015],[69.79686,35.08086],[69.97219,35.23578],[70.02682,35.10757],[70.15017,35.09099],[70.27088,34.93611],[70.3916,34.90407],[70.58683,34.98081],[70.61551,34.8002],[70.40576,34.65468],[70.39408,34.51329],[70.0647,34.41159],[69.81205,34.41103]]]}},{"type":"Feature","properties":{"id":"af-log","lat":33.96342,"lng":69.13104},"geometry":{"type":"Polygon","coordinates":[[[69.28149,34.36408],[69.4623,34.14314],[69.7351,34.25016],[69.89757,34.04508],[69.81825,34.07849],[69.70544,34.00617],[69.54266,34.05007],[69.00951,33.61304],[68.77237,33.61296],[68.71186,33.79006],[68.76214,33.93398],[68.88813,33.99286],[68.80668,34.08908],[68.84084,34.19709],[68.96916,34.34914],[69.18113,34.30953],[69.28149,34.36408]]]}},{"type":"Feature","properties":{"id":"af-nan","lat":34.375,"lng":70.3732},"geometry":{"type":"Polygon","coordinates":[[[70.98336,34.55526],[70.97084,34.46888],[71.12205,34.35682],[71.10809,34.16523],[71.06262,34.05425],[70.86222,33.96478],[70.49149,33.93961],[69.90545,34.03585],[69.72777,34.25166],[69.48587,34.159],[69.6626,34.39317],[70.0647,34.41159],[70.35346,34.48689],[70.41956,34.55722],[70.40576,34.65468],[70.58528,34.79232],[70.65851,34.76894],[70.65277,34.62998],[70.76527,34.58427],[70.74186,34.53104],[70.98336,34.55526]]]}},{"type":"Feature","properties":{"id":"af-nim","lat":30.81036,"lng":62.4601},"geometry":{"type":"Polygon","coordinates":[[[60.84438,29.85818],[61.80225,30.84706],[61.82633,31.03459],[61.74923,31.30238],[61.60626,31.38874],[61.60531,31.51751],[61.66831,31.51601],[61.66505,31.59789],[61.88556,31.794],[61.97925,32.02112],[62.53942,32.07176],[62.74333,31.93002],[63.03365,32.01805],[63.15747,32.25258],[63.53005,32.2002],[63.56964,32.0799],[63.40763,31.80493],[63.31637,31.31662],[63.34293,31.12528],[63.14305,30.93635],[63.15654,30.77365],[63.05737,30.68177],[63.0923,30.51871],[62.76752,30.20454],[62.60258,29.41807],[62.37447,29.42487],[60.84438,29.85818]]]}},{"type":"Feature","properties":{"id":"af-nur","lat":35.46572,"lng":71.07822},"geometry":{"type":"Polygon","coordinates":[[[71.16991,36.0308],[71.43102,35.8437],[71.5198,35.68377],[71.48332,35.62656],[71.59349,35.54936],[71.57964,35.44719],[71.44322,35.34296],[71.20845,35.29989],[71.1113,35.10344],[70.85297,35.06928],[70.652,35.1316],[70.55578,34.97275],[70.3916,34.90407],[70.25957,34.94216],[70.15017,35.09099],[70.02682,35.10757],[69.9216,35.35583],[70.16381,35.50006],[70.2312,35.67036],[70.47945,35.66694],[70.55469,35.56687],[70.54353,35.44631],[70.68724,35.537],[70.86444,35.48424],[70.87793,35.62571],[71.01368,35.69917],[70.97322,35.77541],[71.16991,36.0308]]]}},{"type":"Feature","properties":{"id":"af-par","lat":35.24204,"lng":69.38053},"geometry":{"type":"Polygon","coordinates":[[[68.9828,34.89539],[68.8627,34.62223],[68.55595,34.69153],[68.38056,34.62719],[68.18398,35.00959],[68.28145,35.07254],[68.57564,35.06385],[68.80963,35.25754],[68.91391,35.24829],[69.18532,35.42011],[69.2635,35.39241],[69.57294,35.46213],[69.7489,35.54109],[69.79143,35.67327],[69.96103,35.80986],[70.11275,35.81931],[70.17683,35.89225],[70.27336,35.85021],[70.17249,35.51303],[69.92982,35.36645],[69.97219,35.23578],[69.79686,35.08086],[69.678,35.16457],[69.28335,35.1617],[69.29766,35.01386],[69.56597,34.91027],[69.60426,34.64931],[69.4483,34.59122],[69.29921,34.83224],[68.9828,34.89539]]]}},{"type":"Feature","properties":{"id":"af-pia","lat":32.55888,"lng":68.64853},"geometry":{"type":"Polygon","coordinates":[[[69.30116,31.94128],[69.04011,31.67311],[68.84353,31.6065],[68.77728,31.61859],[68.68829,31.76861],[68.52748,31.82297],[68.41875,31.78302],[68.5498,31.75352],[68.49802,31.72525],[68.15913,31.82591],[68.09834,31.75912],[68.00896,31.87353],[68.07645,32.00345],[68.07691,32.45014],[67.81884,32.70692],[67.90808,32.81701],[68.04466,32.72025],[68.23333,32.77244],[68.76881,33.39328],[68.95443,33.39747],[69.00357,33.15369],[69.2078,33.2752],[69.40117,33.24456],[69.34531,33.04328],[69.47813,33.01135],[69.48721,32.88587],[69.37631,32.77188],[69.42602,32.65509],[69.23286,32.46267],[69.30116,31.94128]]]}},{"type":"Feature","properties":{"id":"af-pka","lat":33.66282,"lng":69.46519},"geometry":{"type":"Polygon","coordinates":[[[69.90545,34.03585],[69.84109,33.94181],[69.98878,33.71259],[69.58364,33.55465],[69.54561,33.40166],[69.40117,33.24456],[69.2078,33.2752],[69.00357,33.15369],[68.95443,33.39747],[68.76881,33.39328],[68.77237,33.61296],[69.00951,33.61304],[69.52065,34.03872],[69.70544,34.00617],[69.81825,34.07849],[69.90545,34.03585]]]}},{"type":"Feature","properties":{"id":"af-sam","lat":36.02283,"lng":67.73102},"geometry":{"type":"Polygon","coordinates":[[[67.68804,36.64794],[67.83238,36.5896],[68.23954,36.5712],[68.17267,36.52118],[68.20708,36.46475],[68.52908,36.16082],[68.33297,35.98171],[68.31168,35.85352],[68.15618,35.67653],[68.19406,35.61333],[68.14254,35.50703],[68.00074,35.44567],[67.57353,35.46936],[67.01677,35.35247],[66.83461,35.37515],[66.99134,35.48584],[67.02235,35.66555],[66.90365,35.72909],[67.11996,35.93352],[67.06751,36.06395],[67.27577,36.15821],[67.3738,36.28936],[67.42005,36.47157],[67.37194,36.56128],[67.50015,36.64022],[67.68804,36.64794]]]}},{"type":"Feature","properties":{"id":"af-sar","lat":35.69707,"lng":66.07506},"geometry":{"type":"Polygon","coordinates":[[[66.52734,36.58769],[66.6802,36.54211],[66.4614,36.22425],[66.60232,36.16343],[66.62976,35.87561],[66.503,35.67601],[66.90489,35.71808],[67.02235,35.66555],[67.01274,35.56258],[66.97718,35.46471],[66.79657,35.36317],[66.66904,35.20281],[66.36477,35.17801],[66.36363,34.9142],[66.24012,34.91622],[66.10499,34.78436],[66.03688,35.06277],[65.79741,35.10817],[65.64228,35.26955],[65.47159,35.23609],[65.42131,35.29009],[65.41103,35.44784],[65.48353,35.65105],[65.623,35.67607],[65.67995,35.78735],[65.81669,35.83657],[65.74548,36.01677],[65.52709,35.97786],[65.50198,36.31654],[65.71194,36.35734],[66.07145,36.53782],[66.52734,36.58769]]]}},{"type":"Feature","properties":{"id":"af-tak","lat":36.66716,"lng":69.62782},"geometry":{"type":"Polygon","coordinates":[[[69.89525,37.61817],[70.00419,37.55137],[70.03302,37.1351],[70.12412,37.04254],[70.00661,36.92229],[70.03844,36.46212],[70.23502,36.32233],[70.46002,36.29701],[70.47759,36.17808],[70.45692,35.96463],[70.27336,35.85021],[70.17683,35.89225],[70.13559,35.8283],[69.98212,35.79141],[69.6811,36.35008],[69.30061,36.22818],[69.14728,36.48304],[69.2556,36.61224],[69.20718,36.72207],[69.21617,36.79274],[69.30464,36.8499],[69.30862,37.11688],[69.44215,37.22362],[69.38448,37.45327],[69.52866,37.58603],[69.89525,37.61817]]]}},{"type":"Feature","properties":{"id":"af-uru","lat":33.34652,"lng":66.05127},"geometry":{"type":"Polygon","coordinates":[[[66.84422,33.24913],[67.00034,33.22771],[66.90628,33.04837],[66.93005,32.95259],[67.0115,32.92714],[66.98731,32.8305],[66.79409,32.80658],[66.61643,32.66506],[66.62372,32.75994],[66.56088,32.75986],[66.33588,32.58855],[66.32658,32.49166],[66.16457,32.42513],[65.80656,32.48802],[65.7138,32.44017],[65.71504,32.56835],[65.59758,32.57476],[65.45728,32.42732],[65.43712,32.27687],[65.23538,32.32395],[65.29372,32.55892],[65.26969,32.6471],[65.17781,32.68532],[65.18437,32.89618],[65.34819,33.09248],[65.36219,33.20312],[65.29744,33.33008],[65.2191,33.36295],[65.57691,33.60477],[65.3994,33.86625],[65.52048,33.97333],[65.46735,34.07508],[65.52182,34.34496],[65.94546,34.32098],[66.21206,34.40632],[66.4645,34.39645],[66.5801,34.3068],[66.53044,34.26111],[66.51587,34.06107],[66.64465,33.97444],[66.78324,34.00387],[67.03351,33.93793],[67.36543,34.02407],[67.3276,33.94728],[67.38269,33.86532],[67.18203,33.68389],[66.84437,33.58022],[66.84422,33.24913]]]}},{"type":"Feature","properties":{"id":"af-war","lat":34.24297,"lng":68.19268},"geometry":{"type":"Polygon","coordinates":[[[68.8627,34.62223],[68.84193,34.49275],[68.96916,34.34914],[68.8101,34.12489],[68.88813,33.99286],[68.77351,33.94687],[68.7454,33.82179],[68.54567,33.678],[68.4543,33.69712],[68.45616,33.78652],[68.14517,33.95633],[68.06916,34.19042],[67.86726,34.14401],[67.64753,34.20825],[67.43137,34.13864],[67.42207,34.20037],[67.54811,34.2777],[67.38036,34.33873],[67.40966,34.40904],[67.24843,34.43945],[67.34744,34.52719],[67.30895,34.63907],[67.50697,34.68114],[67.97433,34.59595],[68.03903,34.68587],[68.28269,34.80031],[68.37498,34.62861],[68.55595,34.69153],[68.8627,34.62223]]]}},{"type":"Feature","properties":{"id":"af-zab","lat":32.3152,"lng":67.07038},"geometry":{"type":"Polygon","coordinates":[[[68.09834,31.75912],[67.74828,31.54439],[67.41664,31.5464],[67.39664,31.62985],[67.29313,31.64073],[67.18854,31.76096],[66.95424,31.73101],[66.69276,31.87694],[66.31164,31.69481],[66.18209,31.83511],[66.32968,31.93017],[66.32549,32.20439],[66.49866,32.37224],[66.53964,32.50732],[66.44481,32.55695],[66.35836,32.48091],[66.3272,32.57747],[66.56088,32.75986],[66.62372,32.75994],[66.61643,32.66506],[66.79409,32.80658],[66.98731,32.8305],[67.09712,32.99985],[67.08209,33.05997],[67.29422,32.94709],[67.42517,33.00912],[67.43747,32.94107],[67.3768,32.89936],[67.44088,32.85228],[67.40656,32.79885],[67.6637,32.5808],[67.59461,32.5137],[67.7807,32.37862],[67.62924,32.25816],[67.70696,32.24441],[67.72003,32.15889],[67.9211,32.07659],[68.05133,32.0984],[68.07645,32.00345],[68.01004,31.85816],[68.09834,31.75912]]]}}]}
