{"type":"FeatureCollection","features":[{"type":"Feature","properties":{"id":"ag-03","lat":17.11882,"lng":-61.78094},"geometry":{"type":"Polygon","coordinates":[[[-61.79337,17.16494],[-61.75642,17.11416],[-61.77421,17.07143],[-61.80482,17.12347],[-61.79337,17.16494]]]}},{"type":"Feature","properties":{"id":"ag-04","lat":17.13274,"lng":-61.81562},"geometry":{"type":"Polygon","coordinates":[[[-61.77421,17.0602],[-61.89415,17.10053],[-61.79337,17.16494],[-61.77421,17.0602]]]}},{"type":"Feature","properties":{"id":"ag-05","lat":17.05254,"lng":-61.85052},"geometry":{"type":"Polygon","coordinates":[[[-61.80407,17.00731],[-61.88366,17.02627],[-61.88244,17.0788],[-61.82727,17.08265],[-61.80407,17.00731]]]}},{"type":"Feature","properties":{"id":"ag-06","lat":17.0186,"lng":-61.75587},"geometry":{"type":"Polygon","coordinates":[[[-61.73339,17.06429],[-61.73713,16.98924],[-61.81503,17.04796],[-61.73339,17.06429]]]}},{"type":"Feature","properties":{"id":"ag-07","lat":17.10881,"lng":-61.72964},"geometry":{"type":"Polygon","coordinates":[[[-61.75584,17.0898],[-61.70861,17.12783],[-61.77421,17.0602],[-61.75584,17.0898]]]}},{"type":"Feature","properties":{"id":"ag-08","lat":17.06456,"lng":-61.68849},"geometry":{"type":"Polygon","coordinates":[[[-61.72623,17.03848],[-61.67211,17.09064],[-61.6857,17.02855],[-61.72623,17.03848]]]}},{"type":"Feature","properties":{"id":"ag-10","lat":17.65249,"lng":-61.80599},"geometry":{"type":"Polygon","coordinates":[[[-61.83894,17.59333],[-61.87385,17.69115],[-61.83145,17.61384],[-61.8378,17.72769],[-61.72777,17.58845],[-61.77066,17.54556],[-61.83894,17.59333]]]}},{"type":"Feature","properties":{"id":"ag-11","lat":16.93281,"lng":-62.34682},"geometry":{"type":"Polygon","coordinates":[[[-62.34826,16.93366],[-62.34306,16.93506],[-62.34707,16.93197],[-62.34826,16.93366]]]}}]}
