{"type":"FeatureCollection","features":[{"type":"Feature","properties":{"id":"al-01","lat":40.64855,"lng":20.08912},"geometry":{"type":"Polygon","coordinates":[[[20.00207,40.88169],[20.14495,40.7433],[20.30541,40.71483],[20.43015,40.58228],[20.44261,40.4397],[20.26939,40.36002],[20.14836,40.47262],[19.8489,40.56858],[19.7319,40.81198],[20.00207,40.88169]]]}},{"type":"Feature","properties":{"id":"al-02","lat":41.42984,"lng":19.51865},"geometry":{"type":"Polygon","coordinates":[[[19.58726,41.24399],[19.41896,41.32258],[19.39324,41.41352],[19.51661,41.51341],[19.44093,41.58539],[19.77877,41.58976],[19.91112,41.50982],[19.73733,41.40724],[19.68751,41.46349],[19.62204,41.44615],[19.63925,41.29619],[19.58726,41.24399]]]}},{"type":"Feature","properties":{"id":"al-03","lat":41.21039,"lng":20.25272},"geometry":{"type":"Polygon","coordinates":[[[20.44943,41.38833],[20.59883,41.02747],[20.43579,40.99708],[20.38132,40.92466],[20.44478,40.76583],[20.2542,40.71617],[20.01788,40.82523],[20.01059,40.87937],[19.82688,40.87722],[19.81195,40.99949],[19.66968,41.04651],[20.29502,41.37427],[20.44943,41.38833]]]}},{"type":"Feature","properties":{"id":"al-04","lat":40.72486,"lng":19.56292},"geometry":{"type":"Polygon","coordinates":[[[19.30468,40.65264],[19.40675,40.82075],[19.3812,40.90827],[19.44093,40.94864],[19.44093,40.87226],[19.52345,40.92064],[19.49545,41.00263],[19.47967,40.95392],[19.44777,40.93431],[19.46778,41.04675],[19.66968,41.07044],[19.68457,41.02287],[19.81195,40.99949],[19.80311,40.9013],[19.87468,40.85725],[19.73066,40.79707],[19.90491,40.52729],[19.79056,40.42089],[19.73934,40.43017],[19.71113,40.52613],[19.45042,40.65075],[19.30468,40.65264]]]}},{"type":"Feature","properties":{"id":"al-05","lat":40.15323,"lng":20.21902},"geometry":{"type":"Polygon","coordinates":[[[20.61536,40.08102],[20.43279,40.06381],[20.29791,39.98691],[20.39703,39.81809],[20.29958,39.80506],[20.15942,39.97345],[19.93938,40.06531],[19.75924,40.34312],[19.77645,40.42296],[19.90491,40.52729],[20.09188,40.49835],[20.29099,40.35591],[20.46028,40.43699],[20.49599,40.22545],[20.61536,40.08102]]]}},{"type":"Feature","properties":{"id":"al-06","lat":40.61101,"lng":20.71115},"geometry":{"type":"Polygon","coordinates":[[[20.59742,41.08627],[20.65386,41.07527],[20.74088,40.89797],[20.95668,40.89477],[20.94366,40.76526],[21.03668,40.63974],[20.93684,40.47252],[20.77065,40.42198],[20.61536,40.08102],[20.49599,40.22545],[20.43015,40.58228],[20.29316,40.72604],[20.44478,40.76583],[20.38132,40.92466],[20.43579,40.99708],[20.59526,41.02168],[20.59742,41.08627]]]}},{"type":"Feature","properties":{"id":"al-07","lat":42.12187,"lng":20.36247},"geometry":{"type":"Polygon","coordinates":[[[20.56715,41.87318],[20.35765,41.82065],[20.32024,41.89656],[20.21807,41.87217],[20.26722,41.9931],[20.14247,42.05139],[20.23559,42.19236],[20.00036,42.26205],[19.8306,42.23094],[19.78931,42.42049],[20.03922,42.55777],[20.13555,42.50963],[20.23776,42.31992],[20.5008,42.21122],[20.59929,41.96057],[20.56715,41.87318]]]}},{"type":"Feature","properties":{"id":"al-08","lat":41.78071,"lng":19.869},"geometry":{"type":"Polygon","coordinates":[[[19.55641,41.58308],[19.61297,41.60529],[19.55763,41.66055],[19.59978,41.79975],[19.47321,41.91393],[19.56152,41.89328],[19.58772,41.94403],[19.72291,41.8953],[19.90166,41.96891],[19.99168,41.87525],[20.09689,41.9702],[20.25854,42.01123],[20.26086,41.9469],[20.11441,41.82882],[20.1557,41.76166],[19.94651,41.68314],[19.8135,41.70691],[19.83619,41.56666],[19.55641,41.58308]]]}},{"type":"Feature","properties":{"id":"al-09","lat":41.6342,"lng":20.17434},"geometry":{"type":"Polygon","coordinates":[[[20.53905,41.40294],[20.47811,41.32158],[20.44943,41.38833],[20.23575,41.3444],[20.05111,41.39099],[19.83619,41.56666],[19.8135,41.70691],[19.94651,41.68314],[20.1557,41.76166],[20.11441,41.82882],[20.20717,41.8992],[20.32024,41.89656],[20.35765,41.82065],[20.54079,41.84486],[20.50038,41.7341],[20.53469,41.58527],[20.44416,41.54966],[20.53905,41.40294]]]}},{"type":"Feature","properties":{"id":"al-10","lat":42.24709,"lng":19.57203},"geometry":{"type":"Polygon","coordinates":[[[19.72213,42.64608],[19.75159,42.4934],[19.82906,42.46872],[19.78761,42.41757],[19.82394,42.23453],[20.02387,42.25964],[20.23559,42.19236],[20.14247,42.05139],[20.21265,42.02821],[19.99959,41.8768],[19.93907,41.88207],[19.8953,41.96922],[19.72291,41.8953],[19.58772,41.94403],[19.56152,41.89328],[19.47321,41.91393],[19.52955,41.83571],[19.36508,41.85236],[19.37249,42.10425],[19.27493,42.19128],[19.64793,42.62784],[19.72213,42.64608]]]}},{"type":"Feature","properties":{"id":"al-11","lat":41.25223,"lng":19.82939},"geometry":{"type":"Polygon","coordinates":[[[19.44801,41.00932],[19.4419,41.14387],[19.51596,41.26046],[19.58726,41.24399],[19.63925,41.29619],[19.62204,41.44615],[19.68751,41.46349],[19.73733,41.40724],[19.92259,41.50946],[20.05111,41.39099],[20.23575,41.3444],[19.69201,41.05372],[19.44801,41.00932]]]}},{"type":"Feature","properties":{"id":"al-12","lat":40.1395,"lng":19.76909},"geometry":{"type":"Polygon","coordinates":[[[20.29958,39.80506],[20.29647,39.71737],[20.19993,39.64006],[19.98902,39.68671],[20.00978,39.86567],[19.90642,39.90644],[19.94117,39.94001],[19.86345,40.04536],[19.47625,40.21369],[19.28956,40.4204],[19.34815,40.43065],[19.42359,40.33002],[19.47495,40.34837],[19.47877,40.45392],[19.41879,40.49189],[19.39137,40.5218],[19.3864,40.54328],[19.4336,40.50593],[19.4546,40.55386],[19.3864,40.55073],[19.30468,40.65264],[19.45042,40.65075],[19.71113,40.52613],[19.79598,40.39526],[19.75924,40.34312],[19.93938,40.06531],[20.15942,39.97345],[20.29958,39.80506]]]}}]}
