{"type":"FeatureCollection","features":[{"type":"Feature","properties":{"id":"am-ag","lat":40.45884,"lng":44.30002},"geometry":{"type":"Polygon","coordinates":[[[43.69035,40.24044],[43.59422,40.34544],[43.7124,40.46991],[44.00474,40.48678],[44.04804,40.44776],[44.19868,40.51045],[44.19186,40.58336],[44.07936,40.64408],[44.16581,40.74054],[44.37432,40.72175],[44.42864,40.61341],[44.55328,40.56422],[44.50455,40.38007],[44.40833,40.29671],[44.4184,40.18928],[44.17465,40.24271],[44.15785,40.19191],[44.01776,40.18582],[43.81555,40.28457],[43.69035,40.24044]]]}},{"type":"Feature","properties":{"id":"am-ar","lat":39.93779,"lng":44.77542},"geometry":{"type":"Polygon","coordinates":[[[45.075,39.74982],[44.77456,39.7028],[44.38093,40.0098],[44.35231,40.08748],[44.45256,40.15559],[44.56444,40.0543],[44.64759,40.11561],[44.6926,40.08329],[45.02979,40.16334],[45.01475,40.07939],[45.10953,39.86578],[45.075,39.74982]]]}},{"type":"Feature","properties":{"id":"am-av","lat":40.13176,"lng":44.0487},"geometry":{"type":"Polygon","coordinates":[[[43.66543,40.11016],[43.72139,40.16938],[43.67307,40.22773],[43.81012,40.28493],[44.01776,40.18582],[44.27459,40.24065],[44.44047,40.15336],[44.35231,40.08748],[44.38093,40.0098],[43.91213,40.02433],[43.66543,40.11016]]]}},{"type":"Feature","properties":{"id":"am-er","lat":40.16398,"lng":44.52187},"geometry":{"type":"Polygon","coordinates":[[[44.57188,40.22917],[44.61814,40.19507],[44.58351,40.13869],[44.64759,40.11561],[44.55886,40.05409],[44.4184,40.18928],[44.57188,40.22917]]]}},{"type":"Feature","properties":{"id":"am-gr","lat":40.32416,"lng":45.35807},"geometry":{"type":"MultiPolygon","coordinates":[[[[45.37354,40.63271],[45.58541,40.39872],[45.95356,40.24959],[45.96296,40.14169],[45.87377,40.00975],[45.63957,40.02541],[45.10953,39.86578],[44.91078,40.4251],[44.79905,40.54393],[44.79657,40.65008],[45.03878,40.64408],[45.18125,40.73379],[45.37354,40.63271]]],[[[45.47927,40.65023],[45.54717,40.62155],[45.47927,40.60982],[45.47927,40.65023]]]]}},{"type":"Feature","properties":{"id":"am-kt","lat":40.33675,"lng":44.69328},"geometry":{"type":"Polygon","coordinates":[[[44.77249,40.66517],[44.80324,40.53639],[44.91078,40.4251],[44.94302,40.2484],[45.02979,40.16334],[44.68578,40.08401],[44.58351,40.13869],[44.58909,40.22287],[44.41329,40.22406],[44.55328,40.56422],[44.42864,40.61341],[44.4184,40.68176],[44.77249,40.66517]]]}},{"type":"Feature","properties":{"id":"am-lo","lat":40.93361,"lng":44.49446},"geometry":{"type":"Polygon","coordinates":[[[44.45494,41.18048],[44.9221,41.19627],[44.87972,41.13909],[44.93868,41.06946],[44.77239,40.99959],[44.90768,40.91417],[44.75203,40.77751],[44.77249,40.66517],[44.2271,40.71741],[44.01822,40.81663],[44.12762,40.95306],[43.96965,41.07842],[43.97776,41.16454],[44.18033,41.22994],[44.45494,41.18048]]]}},{"type":"Feature","properties":{"id":"am-sh","lat":40.78488,"lng":43.89565},"geometry":{"type":"Polygon","coordinates":[[[43.44043,41.10659],[43.97776,41.16454],[43.96965,41.07842],[44.12762,40.95306],[44.01528,40.8234],[44.16581,40.74054],[44.07936,40.64408],[44.19186,40.58336],[44.19868,40.51045],[44.04804,40.44776],[43.80067,40.4997],[43.64176,40.40932],[43.56363,40.46471],[43.70718,40.61194],[43.72413,40.74635],[43.63618,40.93352],[43.46048,41.02287],[43.44043,41.10659]]]}},{"type":"Feature","properties":{"id":"am-su","lat":39.38233,"lng":46.08358},"geometry":{"type":"Polygon","coordinates":[[[45.80912,39.85124],[46.18424,39.59324],[46.34371,39.61862],[46.52427,39.55464],[46.49141,39.46643],[46.36087,39.41026],[46.60261,39.21549],[46.39529,39.19518],[46.49192,39.0819],[46.51404,38.88218],[46.37823,38.92471],[46.13587,38.8637],[45.9581,39.15151],[45.9858,39.24944],[45.767,39.35439],[45.79708,39.53635],[45.70339,39.58019],[45.71254,39.73416],[45.80912,39.85124]]]}},{"type":"Feature","properties":{"id":"am-tv","lat":40.96608,"lng":45.12106},"geometry":{"type":"Polygon","coordinates":[[[44.80127,41.25852],[45.0024,41.29045],[45.03485,41.19769],[45.19975,41.14266],[45.06782,41.11093],[45.0917,41.05103],[45.41912,41.01734],[45.41643,40.96133],[45.59916,40.86268],[45.58221,40.79937],[45.37358,40.6513],[45.18125,40.73379],[45.03878,40.64408],[44.77249,40.66517],[44.75203,40.77751],[44.90768,40.91417],[44.77239,40.99959],[44.93868,41.06946],[44.87972,41.13909],[44.9221,41.19627],[44.80127,41.25852]],[[45.01573,41.02323],[45.01888,41.07491],[44.96395,41.07377],[44.96695,41.04483],[45.01573,41.02323]],[[45.18678,40.97083],[45.22047,40.97905],[45.17717,40.99383],[45.18678,40.97083]]]}},{"type":"Feature","properties":{"id":"am-vd","lat":39.70639,"lng":45.41454},"geometry":{"type":"Polygon","coordinates":[[[45.57758,39.98398],[45.74277,39.94051],[45.80912,39.85124],[45.71486,39.74507],[45.70907,39.56842],[45.44609,39.48751],[45.25995,39.5997],[45.14833,39.57526],[45.15154,39.66771],[45.075,39.74982],[45.10953,39.86578],[45.25308,39.93896],[45.57758,39.98398]]]}}]}
