{"type":"FeatureCollection","features":[{"type":"Feature","properties":{"id":"ao-bgo","lat":-9.06188,"lng":13.79975},"geometry":{"type":"Polygon","coordinates":[[[13.371,-8.58156],[13.37892,-8.3471],[13.09413,-7.79278],[13.3819,-7.69405],[13.50391,-7.73452],[13.81702,-7.61984],[14.09292,-7.63313],[14.41832,-7.8929],[14.70849,-7.90468],[14.7105,-8.08989],[14.63945,-8.23412],[14.66177,-8.39845],[14.393,-8.38507],[14.30117,-8.43065],[14.26174,-8.50589],[14.3637,-8.76324],[14.08036,-8.93682],[14.1432,-9.00958],[14.07416,-9.11417],[14.16821,-9.15887],[14.2003,-9.26553],[14.08455,-9.52562],[14.16149,-9.62809],[14.56519,-9.76917],[14.55578,-10.21271],[14.6179,-10.32257],[14.55005,-10.439],[14.26128,-10.2771],[14.00807,-10.40536],[13.70343,-10.36392],[13.63765,-10.27829],[13.45509,-10.20176],[13.19117,-9.69004],[13.22389,-9.61419],[13.1434,-9.33025],[13.28077,-9.17252],[13.47471,-9.17169],[13.50422,-8.97041],[13.63734,-8.83569],[13.58458,-8.64903],[13.371,-8.58156]]]}},{"type":"Feature","properties":{"id":"ao-bgu","lat":-12.78691,"lng":13.89637},"geometry":{"type":"Polygon","coordinates":[[[12.53336,-13.56704],[12.52215,-13.41058],[12.94483,-12.98235],[12.93946,-12.81666],[13.17856,-12.60174],[13.39291,-12.57041],[13.63022,-12.26344],[13.7926,-11.74874],[14.07587,-11.78765],[14.23616,-12.00154],[14.48302,-11.8354],[14.67113,-12.08216],[14.85453,-12.09058],[15.02118,-12.20597],[15.06929,-12.51598],[14.82114,-12.66434],[14.80843,-12.75715],[14.90868,-13.01114],[14.91938,-13.20994],[15.11084,-13.4029],[15.08821,-13.47551],[14.67919,-13.65813],[14.4762,-13.61431],[14.30195,-13.87409],[13.40149,-13.83192],[13.29348,-13.68707],[13.28651,-13.56212],[13.10109,-13.52166],[12.89113,-13.6124],[12.61322,-13.53411],[12.53336,-13.56704]]]}},{"type":"Feature","properties":{"id":"ao-bie","lat":-12.44779,"lng":17.41162},"geometry":{"type":"Polygon","coordinates":[[[16.61158,-10.57419],[16.61349,-10.63315],[16.76692,-10.76001],[17.1503,-10.80875],[17.37174,-10.92719],[17.45426,-11.12242],[17.39204,-11.20929],[17.51912,-11.39584],[17.50057,-11.68404],[17.58785,-11.72616],[17.83491,-11.53087],[17.82887,-11.36236],[17.91155,-11.52043],[18.04002,-11.55671],[18.40563,-11.54043],[18.58763,-11.41274],[18.82798,-11.36354],[18.76266,-10.96135],[19.23488,-11.27053],[19.18863,-11.45604],[19.09954,-11.53392],[19.06419,-11.65882],[18.96642,-11.70688],[18.84756,-11.92666],[18.8626,-12.03766],[18.72545,-12.17895],[18.72638,-12.24571],[18.43265,-12.45996],[18.29917,-12.73007],[18.16047,-12.8417],[18.17117,-12.96412],[18.04095,-13.15036],[18.07123,-13.29991],[17.94726,-13.39427],[17.94183,-13.61059],[17.79734,-13.71379],[17.79998,-13.87021],[17.64789,-13.99067],[17.46542,-14.0301],[17.35014,-14.14844],[17.31773,-14.30941],[17.08586,-14.20322],[16.95336,-13.99837],[16.4736,-14.01031],[16.53272,-13.54997],[16.50522,-12.75488],[16.38901,-12.69664],[16.30322,-12.55355],[16.38203,-12.43562],[16.34213,-12.26111],[16.47965,-12.1512],[16.57566,-11.90811],[16.31733,-11.61516],[16.28193,-11.49697],[15.74817,-11.44375],[15.9511,-10.94677],[16.20654,-10.99406],[16.61158,-10.57419]]]}},{"type":"Feature","properties":{"id":"ao-cab","lat":-5.12135,"lng":12.27878},"geometry":{"type":"Polygon","coordinates":[[[12.78266,-4.40007],[12.86989,-4.41198],[13.06533,-4.66395],[12.80292,-4.73981],[12.6789,-4.9243],[12.44439,-5.05509],[12.53069,-5.16268],[12.50898,-5.72626],[12.21054,-5.76344],[12.14723,-5.61793],[12.22926,-5.46689],[12.02312,-5.04599],[12.10053,-5.08002],[12.13705,-5.015],[12.09786,-5.05404],[12.00961,-5.01963],[12.13082,-4.91293],[12.19221,-4.76348],[12.2352,-4.80399],[12.32191,-4.77816],[12.38703,-4.60545],[12.62381,-4.55926],[12.78266,-4.40007]]]}},{"type":"Feature","properties":{"id":"ao-ccu","lat":-15.7009,"lng":19.38738},"geometry":{"type":"Polygon","coordinates":[[[21.98381,-16.16589],[22.05584,-16.36463],[22.10555,-16.37941],[22.07992,-16.45775],[22.15165,-16.59769],[22.33365,-16.67366],[22.76515,-17.16965],[22.99863,-17.29378],[23.18973,-17.53655],[23.32016,-17.54637],[23.38165,-17.64114],[21.38684,-18.01446],[21.16132,-17.93064],[20.8062,-18.0314],[20.56549,-17.98521],[20.33615,-17.85488],[19.77102,-17.89033],[19.67263,-17.84268],[18.89004,-17.79927],[18.64282,-17.63804],[18.45358,-17.38989],[17.27897,-17.38893],[17.2274,-16.83577],[17.41747,-16.36546],[17.38352,-15.92476],[17.1672,-15.58236],[16.913,-15.37379],[16.69596,-15.09722],[16.60367,-14.77693],[16.63256,-14.73445],[16.50228,-14.62681],[16.4736,-14.01031],[16.95336,-13.99837],[17.0423,-14.16539],[17.30078,-14.31163],[17.35014,-14.14844],[17.46542,-14.0301],[17.77874,-13.89884],[17.79734,-13.71379],[17.92519,-13.64723],[17.95315,-13.57235],[18.53223,-13.79771],[18.72747,-13.94928],[18.89722,-14.38367],[19.15881,-14.38956],[19.22186,-14.25329],[19.52783,-14.28972],[19.68844,-14.54009],[20.16511,-14.94756],[20.92764,-15.00451],[21.39097,-15.43622],[21.59613,-15.81945],[21.70971,-15.85423],[21.84066,-16.07333],[21.98381,-16.16589]]]}},{"type":"Feature","properties":{"id":"ao-cnn","lat":-16.29562,"lng":15.58018},"geometry":{"type":"Polygon","coordinates":[[[13.98057,-17.42359],[13.52132,-17.1219],[13.49466,-17.02402],[13.34595,-16.96871],[13.15473,-16.71402],[13.24754,-16.53537],[13.22708,-16.42882],[13.48091,-16.24821],[13.61594,-16.36655],[13.69971,-16.34303],[13.89463,-16.15612],[14.0307,-16.19348],[14.35812,-16.01499],[14.52695,-15.85702],[14.84879,-15.89629],[15.00315,-15.96083],[15.03947,-16.04238],[15.14794,-16.05251],[15.53945,-15.48489],[15.7399,-15.39296],[16.21227,-15.39353],[16.37722,-15.2154],[16.55303,-15.15065],[16.78154,-15.17323],[16.84531,-15.30335],[17.1672,-15.58236],[17.37515,-15.89412],[17.41747,-16.36546],[17.2274,-16.83577],[17.27897,-17.38893],[13.98057,-17.42359]]]}},{"type":"Feature","properties":{"id":"ao-cno","lat":-8.85003,"lng":14.95951},"geometry":{"type":"Polygon","coordinates":[[[15.40788,-7.93409],[15.44162,-8.04773],[15.71613,-8.01135],[15.79726,-8.11997],[15.81612,-8.40285],[15.67954,-8.46408],[15.61686,-8.60164],[15.72238,-8.72066],[15.63784,-9.15159],[15.28556,-9.23256],[15.23094,-9.33824],[15.12061,-9.35524],[15.17368,-9.45911],[15.12019,-9.52676],[15.15539,-9.64964],[15.10939,-9.72375],[14.94847,-9.67347],[14.93178,-9.72059],[14.53827,-9.78173],[14.41135,-9.68747],[14.16149,-9.62809],[14.08455,-9.52562],[14.2003,-9.26553],[14.16821,-9.15887],[14.07416,-9.11417],[14.1432,-9.00958],[14.08036,-8.93682],[14.3637,-8.76324],[14.26314,-8.46718],[14.393,-8.38507],[14.78921,-8.40497],[14.92046,-8.27531],[15.1127,-8.29779],[15.22179,-8.1071],[15.19249,-7.9698],[15.40788,-7.93409]]]}},{"type":"Feature","properties":{"id":"ao-cus","lat":-10.85499,"lng":15.06407},"geometry":{"type":"Polygon","coordinates":[[[13.7926,-11.74874],[13.84343,-10.94573],[13.73146,-10.76426],[13.76498,-10.66204],[13.5276,-10.40651],[13.50499,-10.21586],[13.70343,-10.36392],[14.00807,-10.40536],[14.26128,-10.2771],[14.55005,-10.439],[14.6179,-10.32257],[14.55578,-10.21271],[14.56519,-9.76917],[14.93178,-9.72059],[14.94847,-9.67347],[15.30297,-9.81677],[16.02794,-9.72059],[16.18214,-9.74922],[16.30477,-9.89283],[16.378,-10.13892],[16.33604,-10.24919],[16.61158,-10.57419],[16.20654,-10.99406],[15.9511,-10.94677],[15.74817,-11.44375],[15.36628,-11.59397],[15.38255,-11.96687],[15.11642,-12.04888],[15.02118,-12.20597],[14.85453,-12.09058],[14.67113,-12.08216],[14.48302,-11.8354],[14.23616,-12.00154],[14.07587,-11.78765],[13.7926,-11.74874]]]}},{"type":"Feature","properties":{"id":"ao-hua","lat":-12.61926,"lng":15.62567},"geometry":{"type":"Polygon","coordinates":[[[15.74817,-11.44375],[16.28193,-11.49697],[16.31733,-11.61516],[16.57566,-11.90811],[16.47965,-12.1512],[16.34213,-12.26111],[16.38203,-12.43562],[16.30322,-12.55355],[16.38901,-12.69664],[16.50522,-12.75488],[16.53892,-13.27283],[16.52621,-13.35634],[16.24302,-13.34105],[16.09714,-13.44481],[15.9604,-13.40016],[15.53417,-13.76407],[15.4949,-13.64465],[15.39015,-13.62201],[15.31274,-13.38988],[15.11084,-13.4029],[14.96206,-13.28544],[14.80657,-12.68496],[15.06929,-12.51598],[15.01684,-12.33072],[15.06976,-12.09699],[15.38255,-11.96687],[15.36628,-11.59397],[15.74817,-11.44375]]]}},{"type":"Feature","properties":{"id":"ao-hui","lat":-14.81806,"lng":15.02213},"geometry":{"type":"Polygon","coordinates":[[[16.52621,-13.35634],[16.46177,-14.26822],[16.50228,-14.62681],[16.62977,-14.72835],[16.65235,-14.95609],[16.748,-15.16305],[16.42657,-15.18698],[16.21227,-15.39353],[15.82263,-15.38568],[15.61236,-15.44309],[15.45909,-15.57125],[15.14794,-16.05251],[15.03947,-16.04238],[15.00315,-15.96083],[14.84879,-15.89629],[14.52695,-15.85702],[14.35812,-16.01499],[14.0307,-16.19348],[13.89463,-16.15612],[13.69971,-16.34303],[13.61594,-16.36655],[13.48091,-16.24821],[13.52685,-16.18552],[13.50252,-16.01902],[13.58861,-15.84663],[13.54577,-15.53094],[13.43813,-15.42841],[13.41559,-15.32428],[13.33338,-15.33338],[13.22072,-15.22925],[13.28217,-15.17711],[13.24181,-15.0952],[13.27751,-14.90777],[13.57124,-14.70205],[13.68111,-14.43798],[13.58489,-14.08229],[13.62463,-13.95734],[13.56473,-13.84685],[13.67134,-13.81125],[14.30195,-13.87409],[14.4762,-13.61431],[14.67919,-13.65813],[15.08821,-13.47551],[15.11084,-13.4029],[15.28525,-13.38807],[15.34204,-13.42709],[15.39015,-13.62201],[15.4949,-13.64465],[15.53417,-13.76407],[15.9604,-13.40016],[16.09714,-13.44481],[16.24302,-13.34105],[16.52621,-13.35634]]]}},{"type":"Feature","properties":{"id":"ao-lno","lat":-8.7173,"lng":19.2252},"geometry":{"type":"Polygon","coordinates":[[[20.61149,-6.91596],[20.52053,-7.28638],[21.80252,-7.29888],[21.8541,-7.586],[21.75395,-7.99734],[21.92055,-8.329],[21.5522,-8.54165],[20.9804,-8.62893],[20.78734,-8.80566],[20.69443,-8.98477],[20.42736,-9.10027],[20.3498,-9.23721],[20.00232,-9.45653],[19.95111,-9.71936],[19.86394,-9.84307],[19.47212,-9.99339],[19.11711,-10.20873],[18.89459,-10.26072],[18.70587,-10.38882],[18.37255,-10.39983],[18.17675,-10.21276],[18.24626,-10.01076],[17.64588,-9.79847],[17.42507,-9.59487],[17.33649,-9.32791],[17.53679,-9.22889],[17.58506,-9.10983],[17.53622,-8.0754],[17.86798,-8.04447],[18.09815,-8.10927],[18.12037,-8.02246],[18.50764,-7.99755],[18.51652,-7.93223],[18.73852,-7.93233],[18.77377,-8.00199],[19.35554,-8.00199],[19.35564,-7.57411],[19.44391,-7.57525],[19.51316,-7.47944],[19.47636,-7.31593],[19.52184,-7.00195],[20.2943,-7.00195],[20.31951,-6.91854],[20.61149,-6.91596]]]}},{"type":"Feature","properties":{"id":"ao-lsu","lat":-9.90815,"lng":20.93187},"geometry":{"type":"Polygon","coordinates":[[[21.91315,-8.333],[21.93595,-8.58314],[21.79198,-9.40614],[21.8789,-9.65708],[22.15992,-9.93149],[22.3134,-10.36857],[22.27185,-10.48174],[22.30857,-10.61252],[21.79488,-10.63041],[21.65044,-10.99618],[21.69623,-11.1325],[21.22478,-11.27833],[21.0341,-11.41894],[21.03549,-11.4716],[20.74734,-11.44354],[20.18454,-11.20867],[20.09498,-11.28505],[19.96775,-11.26215],[19.92383,-11.30163],[19.84223,-11.25259],[19.73035,-11.30851],[19.56788,-11.26355],[19.39998,-11.41093],[19.18863,-11.45604],[19.22124,-11.24794],[18.76266,-10.96135],[18.62871,-10.77598],[18.60675,-10.68157],[18.66711,-10.58457],[18.45126,-10.39466],[18.70587,-10.38882],[19.47212,-9.99339],[19.79769,-9.88482],[19.93995,-9.74628],[20.00232,-9.45653],[20.3498,-9.23721],[20.42736,-9.10027],[20.69443,-8.98477],[20.94036,-8.65756],[21.15295,-8.5755],[21.5522,-8.54165],[21.91315,-8.333]]]}},{"type":"Feature","properties":{"id":"ao-lua","lat":-8.9153,"lng":13.34323},"geometry":{"type":"Polygon","coordinates":[[[13.1434,-9.33025],[12.99635,-9.09384],[12.99236,-9.03802],[13.03028,-8.95957],[13.13657,-8.87103],[13.04282,-8.9625],[13.01303,-9.08375],[13.22413,-8.77386],[13.25953,-8.75482],[13.19801,-8.82318],[13.38014,-8.75506],[13.4109,-8.65195],[13.371,-8.58156],[13.58458,-8.64903],[13.63734,-8.83569],[13.50422,-8.97041],[13.47471,-9.17169],[13.28077,-9.17252],[13.1434,-9.33025]]]}},{"type":"Feature","properties":{"id":"ao-mal","lat":-9.49293,"lng":16.26722},"geometry":{"type":"Polygon","coordinates":[[[17.0979,-7.37829],[17.17655,-7.42818],[17.14854,-7.47262],[17.28642,-7.62517],[17.31598,-7.75363],[17.54004,-8.03207],[17.58506,-9.10983],[17.53679,-9.22889],[17.33649,-9.32791],[17.41359,-9.5773],[17.64588,-9.79847],[18.24626,-10.01076],[18.18466,-10.23674],[18.66711,-10.58457],[18.60675,-10.68157],[18.75398,-10.9352],[18.77558,-11.23275],[18.83268,-11.30649],[18.82798,-11.36354],[18.58763,-11.41274],[18.40563,-11.54043],[17.92007,-11.5257],[17.82887,-11.36236],[17.83491,-11.53087],[17.58785,-11.72616],[17.50057,-11.68404],[17.51912,-11.39584],[17.39204,-11.20929],[17.45426,-11.12242],[17.37174,-10.92719],[17.1503,-10.80875],[16.78624,-10.76885],[16.66537,-10.68762],[16.61349,-10.63315],[16.63865,-10.5914],[16.33604,-10.24919],[16.378,-10.13892],[16.34043,-9.98869],[16.19987,-9.76152],[15.81969,-9.71377],[15.75824,-9.78266],[15.30297,-9.81677],[15.10939,-9.72375],[15.15539,-9.64964],[15.12019,-9.52676],[15.17368,-9.45911],[15.12061,-9.35524],[15.23094,-9.33824],[15.28556,-9.23256],[15.63784,-9.15159],[15.72238,-8.72066],[15.61686,-8.60164],[15.67954,-8.46408],[15.81612,-8.40285],[15.80046,-8.21154],[15.91901,-8.21299],[16.09202,-8.11516],[16.13533,-7.95037],[16.07497,-7.61158],[16.58982,-7.32162],[16.8019,-7.57184],[16.89068,-7.60093],[17.00333,-7.42358],[17.0979,-7.37829]]]}},{"type":"Feature","properties":{"id":"ao-mox","lat":-13.34709,"lng":19.99477},"geometry":{"type":"Polygon","coordinates":[[[21.97988,-13.00148],[21.98381,-16.16589],[21.84066,-16.07333],[21.70971,-15.85423],[21.59613,-15.81945],[21.39097,-15.43622],[20.92764,-15.00451],[20.16511,-14.94756],[19.68844,-14.54009],[19.52783,-14.28972],[19.22186,-14.25329],[19.15881,-14.38956],[18.89722,-14.38367],[18.71367,-13.93274],[18.55492,-13.80665],[17.95315,-13.57235],[17.94726,-13.39427],[18.07123,-13.29991],[18.04095,-13.15036],[18.17117,-12.96412],[18.16047,-12.8417],[18.29917,-12.73007],[18.43265,-12.45996],[18.72638,-12.24571],[18.72545,-12.17895],[18.8626,-12.03766],[18.84756,-11.92666],[18.96642,-11.70688],[19.06419,-11.65882],[19.16615,-11.46013],[19.39998,-11.41093],[19.56788,-11.26355],[19.73035,-11.30851],[19.84223,-11.25259],[19.92383,-11.30163],[19.96775,-11.26215],[20.09498,-11.28505],[20.18454,-11.20867],[20.74734,-11.44354],[21.03549,-11.4716],[21.0341,-11.41894],[21.22478,-11.27833],[21.69623,-11.1325],[21.65044,-10.99618],[21.78201,-10.64524],[22.08633,-10.58886],[22.30857,-10.61252],[22.31949,-10.76131],[22.1655,-10.85236],[22.24384,-11.07829],[22.23764,-11.24954],[22.44031,-11.14691],[22.50098,-11.04243],[23.01434,-11.10247],[23.45596,-10.96098],[23.83372,-11.02847],[23.96746,-10.87231],[24.06171,-11.40695],[23.95464,-11.63691],[23.99019,-11.82408],[23.95433,-12.15192],[24.03081,-12.38508],[23.86565,-12.78971],[24.00063,-13.00148],[21.97988,-13.00148]]]}},{"type":"Feature","properties":{"id":"ao-nam","lat":-15.3809,"lng":12.73164},"geometry":{"type":"MultiPolygon","coordinates":[[[[11.70198,-16.50039],[11.73851,-16.70582],[11.66939,-16.55721],[11.70198,-16.50039]]],[[[13.16631,-16.95106],[12.88715,-17.02981],[12.56717,-17.23455],[12.24264,-17.22484],[12.08813,-17.13916],[11.82241,-17.26442],[11.75278,-17.22918],[11.82195,-16.4791],[11.80698,-16.01881],[11.73553,-15.85711],[12.00514,-15.59433],[12.05641,-15.23309],[12.14527,-15.16863],[12.115,-15.09393],[12.27272,-14.75058],[12.34213,-14.36712],[12.32879,-14.09222],[12.41554,-13.8786],[12.50245,-13.85524],[12.51271,-13.61679],[12.5851,-13.53742],[12.89113,-13.6124],[13.10109,-13.52166],[13.28651,-13.56212],[13.29348,-13.68707],[13.38211,-13.8221],[13.56473,-13.84685],[13.62463,-13.95734],[13.58489,-14.08229],[13.68111,-14.43798],[13.57124,-14.70205],[13.27751,-14.90777],[13.24181,-15.0952],[13.28217,-15.17711],[13.22072,-15.22925],[13.33338,-15.33338],[13.41559,-15.32428],[13.43813,-15.42841],[13.54577,-15.53094],[13.58861,-15.84663],[13.49487,-16.04848],[13.51011,-16.22681],[13.22708,-16.42882],[13.23917,-16.56808],[13.14683,-16.66213],[13.34595,-16.96871],[13.16631,-16.95106]]]]}},{"type":"Feature","properties":{"id":"ao-uig","lat":-7.12825,"lng":15.41071},"geometry":{"type":"Polygon","coordinates":[[[16.31573,-5.85463],[16.59736,-5.9247],[16.61111,-6.08976],[16.72676,-6.18918],[16.69297,-6.39837],[16.76035,-6.69199],[16.97315,-7.01476],[16.92913,-7.06065],[16.94566,-7.20462],[17.0978,-7.3674],[16.99202,-7.43644],[16.93569,-7.58378],[16.8019,-7.57184],[16.64661,-7.34828],[16.56837,-7.32519],[16.3457,-7.43402],[16.2194,-7.56863],[16.07497,-7.61158],[16.13533,-7.95037],[16.04903,-8.15759],[15.80046,-8.21154],[15.72109,-8.01393],[15.47526,-8.05584],[15.40788,-7.93409],[15.28137,-7.93827],[15.19249,-7.9698],[15.22179,-8.1071],[15.11689,-8.29531],[14.92046,-8.27531],[14.77319,-8.40822],[14.66177,-8.39845],[14.63898,-8.31339],[14.7105,-8.08989],[14.69407,-7.88923],[14.41832,-7.8929],[14.12491,-7.64175],[13.81702,-7.61984],[13.9567,-7.4999],[13.86513,-7.34947],[13.92409,-7.19584],[13.79748,-6.97947],[14.23151,-6.81411],[14.34076,-6.68032],[14.77365,-6.54761],[14.96129,-6.29409],[14.75965,-5.88047],[16.31573,-5.85463]]]}},{"type":"Feature","properties":{"id":"ao-zai","lat":-6.8632,"lng":13.41835},"geometry":{"type":"Polygon","coordinates":[[[13.94357,-5.84161],[14.75965,-5.88047],[14.96129,-6.29409],[14.77365,-6.54761],[14.34076,-6.68032],[14.23151,-6.81411],[13.79748,-6.97947],[13.92409,-7.19584],[13.86513,-7.34947],[13.9567,-7.4999],[13.80927,-7.62651],[13.50391,-7.73452],[13.3819,-7.69405],[13.09413,-7.79278],[12.84996,-7.26592],[12.83351,-6.91229],[12.77963,-6.91473],[12.62042,-6.73482],[12.27506,-6.11477],[12.81743,-6.03175],[12.98588,-5.90114],[13.18391,-5.85643],[13.34252,-5.8906],[13.94357,-5.84161]]]}}]}
