{"type":"FeatureCollection","features":[{"type":"Feature","properties":{"id":"ar-a","lat":-24.18713,"lng":-63.25636},"geometry":{"type":"Polygon","coordinates":[[[-67.36237,-24.03037],[-67.25133,-23.73309],[-66.67533,-24.19914],[-66.50449,-24.23712],[-66.35199,-24.04137],[-66.37757,-23.39072],[-66.25717,-23.39128],[-65.99209,-23.53386],[-66.0002,-23.94133],[-65.75911,-24.07682],[-65.75154,-24.17511],[-65.58036,-24.40797],[-65.27686,-24.50181],[-65.16488,-24.45427],[-64.92231,-24.59953],[-64.82818,-24.45546],[-64.61801,-24.61395],[-64.50298,-24.48073],[-64.29803,-24.40161],[-64.17709,-24.24069],[-64.18341,-23.52595],[-64.36749,-23.50957],[-64.43828,-23.61959],[-64.66011,-23.45464],[-64.86895,-23.49629],[-64.95254,-23.3084],[-65.03688,-23.26581],[-65.013,-23.03399],[-65.22718,-22.95064],[-65.26524,-22.6382],[-65.34549,-22.58823],[-65.19048,-22.09847],[-64.58688,-22.21275],[-64.32529,-22.87194],[-64.25083,-22.54069],[-63.93317,-22.00181],[-63.74042,-22.05059],[-63.63939,-21.99747],[-62.80435,-22.00408],[-62.78348,-22.1309],[-62.62483,-22.24727],[-62.62529,-22.30505],[-62.34136,-22.47226],[-62.33438,-24.4029],[-63.39858,-25.65936],[-63.92439,-25.65234],[-64.19176,-25.57989],[-64.48634,-26.22021],[-64.76736,-26.21137],[-64.94572,-26.27411],[-65.25281,-26.17236],[-65.31438,-26.07603],[-65.44207,-26.12006],[-65.66534,-26.07479],[-65.71901,-26.29902],[-66.05382,-26.25349],[-66.20905,-26.16574],[-66.39935,-26.38733],[-66.81584,-25.81248],[-66.74571,-25.6774],[-66.57128,-25.66711],[-66.49503,-25.60851],[-66.46925,-25.47979],[-66.56035,-25.27236],[-67.80686,-25.28321],[-68.49647,-25.16],[-68.36665,-25.12343],[-68.57801,-24.80872],[-68.49553,-24.6018],[-68.4515,-24.6293],[-68.39766,-24.50052],[-68.32681,-24.49825],[-68.24449,-24.38538],[-67.36237,-24.03037]]]}},{"type":"Feature","properties":{"id":"ar-b","lat":-37.17018,"lng":-60.12769},"geometry":{"type":"MultiPolygon","coordinates":[[[[-62.094,-40.37742],[-62.02852,-40.45488],[-62.08588,-40.54321],[-62.23733,-40.50995],[-62.17284,-40.37505],[-62.094,-40.37742]]],[[[-62.07039,-40.13676],[-62.01466,-40.17516],[-62.02117,-40.34355],[-62.13318,-40.18109],[-62.07039,-40.13676]]],[[[-61.89476,-39.13983],[-61.86828,-39.23944],[-62.02685,-39.18288],[-62.09801,-39.08782],[-61.89476,-39.13983]]],[[[-62.13077,-39.0206],[-62.04019,-39.00547],[-61.96728,-39.04697],[-62.01024,-39.06439],[-62.13077,-39.0206]]],[[[-56.68643,-36.92767],[-57.0559,-37.41269],[-57.48742,-37.83221],[-57.55842,-38.12086],[-58.33096,-38.49277],[-59.79686,-38.83847],[-61.14338,-39.00107],[-61.83902,-38.98089],[-62.06404,-38.92295],[-62.15734,-38.81048],[-62.37975,-38.79843],[-62.37393,-38.9],[-62.27404,-38.95452],[-62.35782,-39.10223],[-62.25723,-39.25555],[-62.32559,-39.25465],[-62.02392,-39.36484],[-62.057,-39.41155],[-62.18834,-39.31072],[-62.28393,-39.31072],[-62.05578,-39.45192],[-62.11437,-39.82147],[-62.16417,-39.85882],[-62.30504,-39.81113],[-62.35969,-40.19183],[-62.49006,-40.30788],[-62.41491,-40.46209],[-62.26415,-40.55153],[-62.2672,-40.63348],[-62.34602,-40.5993],[-62.32974,-40.66912],[-62.18155,-40.62664],[-62.3378,-40.87273],[-62.75133,-41.0442],[-63.1178,-40.74614],[-63.38742,-40.70909],[-63.38189,-34.57965],[-63.33962,-34.38049],[-61.71052,-34.37682],[-60.96307,-33.67722],[-60.91046,-33.56374],[-60.47566,-33.62219],[-60.27753,-33.30644],[-60.29409,-33.25657],[-59.64062,-33.67102],[-59.26893,-33.72125],[-59.23131,-33.79799],[-59.03182,-33.82956],[-58.63851,-34.04852],[-58.39538,-34.03118],[-58.37857,-34.18825],[-58.46019,-34.27288],[-58.57042,-34.28818],[-58.45461,-34.36618],[-58.51147,-34.43594],[-58.47419,-34.52158],[-58.53848,-34.56701],[-58.54163,-34.71035],[-58.44397,-34.77493],[-58.31503,-34.6572],[-57.87103,-34.82991],[-57.52203,-35.01315],[-57.24877,-35.24879],[-57.12814,-35.44132],[-57.35263,-35.72752],[-57.3706,-35.97698],[-57.24804,-36.17034],[-56.9392,-36.38486],[-56.74059,-36.31658],[-56.67227,-36.60052],[-56.68643,-36.92767]]]]}},{"type":"Feature","properties":{"id":"ar-c","lat":-34.58761,"lng":-58.45703},"geometry":{"type":"Polygon","coordinates":[[[-58.47419,-34.52158],[-58.31503,-34.6572],[-58.44397,-34.77493],[-58.56053,-34.65364],[-58.47419,-34.52158]]]}},{"type":"Feature","properties":{"id":"ar-d","lat":-33.74662,"lng":-66.03635},"geometry":{"type":"Polygon","coordinates":[[[-65.1317,-33.20547],[-65.08778,-35.99878],[-66.62311,-35.99791],[-66.50513,-35.12416],[-66.572,-34.85291],[-66.73796,-34.61541],[-66.81261,-34.38462],[-66.82137,-34.22928],[-66.7592,-34.18453],[-66.74706,-34.06417],[-67.15194,-33.42907],[-67.22695,-32.91613],[-67.19212,-32.7611],[-67.38986,-32.30433],[-67.36697,-31.85795],[-66.37385,-31.93381],[-66.05439,-31.87144],[-65.67152,-31.8857],[-65.31053,-32.06114],[-65.18966,-32.32764],[-64.92283,-32.29917],[-64.88319,-32.61951],[-65.03248,-33.11126],[-65.1317,-33.20547]]]}},{"type":"Feature","properties":{"id":"ar-e","lat":-32.11109,"lng":-59.42211},"geometry":{"type":"Polygon","coordinates":[[[-58.20011,-32.44713],[-58.1468,-33.04998],[-58.43017,-33.10263],[-58.41234,-33.29827],[-58.5065,-33.40586],[-58.54939,-33.68304],[-58.43936,-33.97967],[-58.63851,-34.04852],[-59.03182,-33.82956],[-59.23131,-33.79799],[-59.26893,-33.72125],[-59.39265,-33.73939],[-59.5207,-33.65531],[-59.60276,-33.67779],[-59.77239,-33.61051],[-60.49542,-33.12206],[-60.67546,-32.84652],[-60.76701,-32.57832],[-60.6618,-32.06926],[-60.71996,-31.92234],[-60.64776,-31.71605],[-60.41411,-31.67352],[-60.16366,-31.44206],[-59.71984,-30.83099],[-59.62235,-30.57483],[-59.66152,-30.33691],[-59.38854,-30.30595],[-59.24131,-30.34347],[-59.005,-30.2041],[-58.87617,-30.22699],[-58.58714,-30.15304],[-58.22964,-30.25298],[-58.068,-30.42073],[-57.98726,-30.60351],[-57.80187,-30.77331],[-57.80724,-30.90757],[-57.91173,-30.94736],[-57.85525,-31.05898],[-57.90512,-31.24099],[-58.07524,-31.47518],[-57.98682,-31.55414],[-57.98863,-31.64282],[-58.05927,-31.81149],[-58.20262,-31.89314],[-58.14531,-32.01789],[-58.18655,-32.15292],[-58.09653,-32.28097],[-58.20011,-32.44713]]]}},{"type":"Feature","properties":{"id":"ar-f","lat":-29.9137,"lng":-66.78525},"geometry":{"type":"Polygon","coordinates":[[[-69.42031,-28.21264],[-69.30323,-27.99953],[-69.19019,-27.95137],[-69.13406,-27.77234],[-68.84962,-27.79344],[-68.49917,-27.73577],[-68.42856,-27.76022],[-68.44222,-27.99943],[-68.09209,-28.15435],[-67.93195,-28.12407],[-67.8241,-28.3824],[-67.70416,-28.33925],[-67.18711,-28.3563],[-66.97616,-28.26742],[-66.51834,-28.46751],[-66.4647,-28.63107],[-66.33553,-28.74067],[-66.3623,-28.85452],[-66.12182,-28.97063],[-65.79244,-29.2501],[-65.7295,-29.50218],[-65.40189,-30.14017],[-65.76727,-31.09624],[-65.75965,-31.88549],[-66.05439,-31.87144],[-66.37385,-31.93381],[-66.73052,-31.87655],[-66.83674,-31.74747],[-66.85447,-31.63574],[-67.04892,-31.5233],[-67.10394,-31.35426],[-67.08363,-30.8916],[-67.63452,-30.24787],[-68.33546,-29.68723],[-68.70058,-29.60212],[-69.01294,-29.62238],[-68.94188,-29.31061],[-69.0041,-29.15026],[-68.91341,-29.00205],[-69.19019,-28.59402],[-69.47304,-28.42643],[-69.65404,-28.40099],[-69.49051,-28.19838],[-69.42031,-28.21264]]]}},{"type":"Feature","properties":{"id":"ar-g","lat":-27.83393,"lng":-63.37337},"geometry":{"type":"Polygon","coordinates":[[[-63.92439,-25.65234],[-61.75387,-25.66143],[-61.72232,-25.74416],[-61.70995,-28.00041],[-62.08714,-30.15661],[-62.28816,-29.77673],[-63.38406,-29.77131],[-63.46271,-29.65524],[-63.80765,-29.64977],[-64.02759,-29.54517],[-64.04906,-29.47303],[-64.25375,-29.4243],[-64.88247,-29.55711],[-65.03543,-29.29268],[-65.09258,-28.72135],[-65.18,-28.64507],[-65.07222,-28.42405],[-65.16909,-27.90967],[-65.07261,-27.88972],[-64.99915,-27.77815],[-65.06941,-27.60069],[-64.96959,-27.51372],[-65.06359,-27.47238],[-64.87983,-27.30918],[-64.67437,-26.80482],[-64.58145,-26.67651],[-64.50063,-26.6776],[-64.52326,-26.43746],[-64.425,-26.02756],[-64.19176,-25.57989],[-63.92439,-25.65234]]]}},{"type":"Feature","properties":{"id":"ar-h","lat":-26.07285,"lng":-60.70726},"geometry":{"type":"Polygon","coordinates":[[[-58.35128,-26.88581],[-58.47547,-26.93799],[-58.51154,-27.06016],[-58.65329,-27.15627],[-58.6042,-27.31626],[-58.88653,-27.47894],[-58.81573,-27.71686],[-58.86475,-27.99932],[-61.70995,-28.00041],[-61.75387,-25.66143],[-63.39858,-25.65936],[-62.33438,-24.4029],[-62.33921,-24.12065],[-61.77571,-24.34172],[-61.44366,-24.62398],[-61.20853,-24.66578],[-61.07647,-24.89528],[-60.49966,-25.20957],[-60.23869,-25.49524],[-60.17805,-25.6651],[-60.03863,-25.69719],[-59.67356,-26.0135],[-59.6632,-26.1322],[-59.41962,-26.18445],[-59.34699,-26.3401],[-59.1523,-26.29638],[-58.95353,-26.40562],[-58.35128,-26.88581]]]}},{"type":"Feature","properties":{"id":"ar-j","lat":-30.36972,"lng":-68.74588},"geometry":{"type":"Polygon","coordinates":[[[-69.95766,-30.09274],[-69.9156,-29.80562],[-70.04066,-29.29754],[-69.80393,-29.09869],[-69.75339,-28.67339],[-69.6784,-28.57386],[-69.65404,-28.40099],[-69.47304,-28.42643],[-69.16179,-28.62135],[-69.10299,-28.77767],[-68.90863,-29.01415],[-68.99883,-29.11791],[-68.94188,-29.31061],[-69.01726,-29.61778],[-68.70058,-29.60212],[-68.33546,-29.68723],[-67.63452,-30.24787],[-67.08363,-30.8916],[-67.10394,-31.35426],[-67.04892,-31.5233],[-66.85447,-31.63574],[-66.83674,-31.74747],[-66.73052,-31.87655],[-67.36697,-31.85795],[-67.39301,-32.26217],[-67.49326,-32.21349],[-67.83185,-32.23917],[-68.05584,-32.06843],[-68.3937,-32.15013],[-68.6896,-32.33508],[-68.88618,-32.33658],[-68.92217,-32.07623],[-69.03906,-32.07075],[-69.175,-31.95567],[-69.29179,-32.05386],[-69.60815,-32.12026],[-69.66231,-32.25803],[-70.30971,-32.28831],[-70.38748,-32.04171],[-70.2847,-32.04678],[-70.24447,-31.94224],[-70.47523,-31.82007],[-70.58977,-31.56768],[-70.56897,-31.30424],[-70.4798,-31.09671],[-70.40864,-31.15004],[-70.33979,-31.04172],[-70.26656,-31.03645],[-70.33922,-30.93816],[-70.21711,-30.51514],[-70.14393,-30.43959],[-70.17341,-30.36466],[-69.96459,-30.37479],[-69.83576,-30.16188],[-69.95766,-30.09274]]]}},{"type":"Feature","properties":{"id":"ar-k","lat":-27.56845,"lng":-67.47836},"geometry":{"type":"Polygon","coordinates":[[[-68.33776,-27.04558],[-68.30536,-26.898],[-68.59532,-26.4573],[-68.57516,-26.30351],[-68.40902,-26.14424],[-68.60994,-25.47421],[-68.49647,-25.16],[-67.80686,-25.28321],[-66.5551,-25.27546],[-66.46925,-25.47979],[-66.49503,-25.60851],[-66.79925,-25.71791],[-66.80287,-25.8592],[-66.41059,-26.38273],[-66.22482,-26.17096],[-66.05382,-26.25349],[-66.15203,-26.53786],[-65.85202,-26.73036],[-65.88378,-26.94027],[-66.19464,-27.31937],[-65.98188,-27.39383],[-65.85083,-27.78016],[-65.70304,-27.81789],[-65.5707,-28.05023],[-65.34895,-27.86326],[-65.16909,-27.90967],[-65.07222,-28.42405],[-65.18,-28.64507],[-65.09258,-28.72135],[-65.03543,-29.29268],[-64.88247,-29.55711],[-64.96164,-29.61049],[-64.94339,-29.87833],[-65.13819,-30.06307],[-65.40189,-30.14017],[-65.7295,-29.50218],[-65.79244,-29.2501],[-66.12182,-28.97063],[-66.3623,-28.85452],[-66.33757,-28.73571],[-66.4647,-28.63107],[-66.58435,-28.40416],[-66.97616,-28.26742],[-67.18711,-28.3563],[-67.70416,-28.33925],[-67.8241,-28.3824],[-67.93195,-28.12407],[-68.09209,-28.15435],[-68.44222,-27.99943],[-68.4423,-27.74306],[-69.13406,-27.77234],[-68.81432,-27.12031],[-68.58586,-27.16278],[-68.51801,-27.0769],[-68.33776,-27.04558]]]}},{"type":"Feature","properties":{"id":"ar-l","lat":-36.78176,"lng":-65.82184},"geometry":{"type":"Polygon","coordinates":[[[-65.09579,-36.00132],[-65.08662,-35.00179],[-63.38406,-35.0021],[-63.38858,-39.32576],[-63.5164,-39.30597],[-64.01022,-38.99979],[-64.47149,-38.8537],[-64.97016,-38.80357],[-65.3674,-38.83835],[-65.563,-38.77582],[-65.68955,-38.81789],[-65.96018,-38.74213],[-66.56195,-38.70157],[-66.64794,-38.55739],[-67.06983,-38.40897],[-67.17659,-38.22263],[-67.59199,-38.24712],[-67.70565,-38.10057],[-67.87174,-38.00724],[-67.84826,-37.90776],[-67.72369,-37.81686],[-67.7486,-37.66907],[-67.85032,-37.60024],[-68.24939,-37.55703],[-68.26611,-36.00648],[-65.09579,-36.00132]]]}},{"type":"Feature","properties":{"id":"ar-m","lat":-34.77193,"lng":-68.46871},"geometry":{"type":"Polygon","coordinates":[[[-70.01001,-33.2991],[-70.10946,-33.1696],[-70.11119,-33.03845],[-70.00022,-32.8766],[-70.15574,-32.73841],[-70.18109,-32.60757],[-70.13773,-32.56902],[-70.25612,-32.31428],[-69.66231,-32.25803],[-69.60815,-32.12026],[-69.29179,-32.05386],[-69.18427,-31.95676],[-69.02498,-32.07732],[-68.92217,-32.07623],[-68.88618,-32.33658],[-68.6896,-32.33508],[-68.3937,-32.15013],[-68.02073,-32.06905],[-67.83185,-32.23917],[-67.46719,-32.21793],[-67.39301,-32.26217],[-67.32072,-32.43099],[-67.19212,-32.7611],[-67.22695,-32.91613],[-67.15194,-33.42907],[-66.74706,-34.06417],[-66.7592,-34.18453],[-66.82137,-34.22928],[-66.81261,-34.38462],[-66.73796,-34.61541],[-66.54609,-34.9249],[-66.52113,-35.49422],[-66.61717,-35.99992],[-68.28224,-36.02106],[-68.24939,-37.55703],[-68.42752,-37.53776],[-68.50685,-37.44738],[-68.75668,-37.37167],[-68.98506,-37.36382],[-69.15466,-37.18269],[-69.531,-37.17365],[-69.70336,-37.11215],[-69.81589,-36.99738],[-69.79013,-36.86323],[-70.163,-36.58159],[-70.26025,-36.37282],[-70.378,-36.32533],[-70.42024,-35.86835],[-70.35733,-35.81523],[-70.47177,-35.37939],[-70.42838,-35.35707],[-70.57889,-35.25971],[-70.38663,-35.16669],[-70.27671,-34.79824],[-70.3163,-34.74563],[-70.06758,-34.41459],[-70.05758,-34.29119],[-69.82888,-34.23331],[-69.91425,-33.77194],[-69.86005,-33.72636],[-69.87883,-33.558],[-69.78767,-33.37941],[-69.86968,-33.2496],[-70.01001,-33.2991]]]}},{"type":"Feature","properties":{"id":"ar-n","lat":-26.8257,"lng":-54.40018},"geometry":{"type":"Polygon","coordinates":[[[-54.64289,-25.66158],[-54.56005,-25.57022],[-54.44734,-25.68918],[-54.39541,-25.58107],[-54.19025,-25.58076],[-54.2148,-25.53146],[-54.11641,-25.49457],[-54.09889,-25.5972],[-54.08272,-25.55007],[-53.99745,-25.57497],[-53.96773,-25.65321],[-53.89813,-25.63947],[-53.83343,-25.96224],[-53.66672,-26.21917],[-53.77431,-26.71434],[-53.7246,-26.94047],[-53.83002,-27.15679],[-53.88221,-27.11989],[-53.96412,-27.154],[-54.09176,-27.28515],[-54.17702,-27.2434],[-54.28689,-27.4284],[-54.34771,-27.3943],[-54.37159,-27.45445],[-54.44455,-27.40897],[-54.44838,-27.45889],[-54.58945,-27.45259],[-54.69033,-27.55129],[-54.80505,-27.52638],[-54.89827,-27.62364],[-54.91321,-27.73691],[-55.08116,-27.77825],[-55.02963,-27.8507],[-55.31411,-27.91499],[-55.44075,-28.0789],[-55.62304,-28.14435],[-55.83266,-27.9184],[-56.01448,-27.39378],[-55.91309,-27.32784],[-55.75473,-27.4437],[-55.59133,-27.32836],[-55.59828,-27.16754],[-55.46185,-27.09798],[-55.414,-26.97985],[-55.13836,-26.9537],[-55.12578,-26.86358],[-54.97527,-26.78782],[-54.9199,-26.67413],[-54.79306,-26.64499],[-54.63829,-26.19695],[-54.66227,-25.97991],[-54.6064,-25.94663],[-54.5879,-25.81083],[-54.64289,-25.66158]]]}},{"type":"Feature","properties":{"id":"ar-p","lat":-24.72128,"lng":-60.04393},"geometry":{"type":"Polygon","coordinates":[[[-62.34136,-22.47226],[-62.24118,-22.53842],[-62.25281,-22.60363],[-62.19297,-22.62823],[-62.18827,-22.70833],[-61.95645,-23.03441],[-61.733,-23.24339],[-61.51606,-23.34498],[-61.50107,-23.40782],[-61.10986,-23.60698],[-61.11885,-23.66641],[-61.00635,-23.80547],[-60.33737,-24.01641],[-60.03367,-24.00701],[-59.4659,-24.35355],[-59.34097,-24.4876],[-58.8092,-24.77678],[-58.4734,-24.8513],[-58.33599,-24.99186],[-58.22406,-24.94122],[-57.75407,-25.18089],[-57.55811,-25.44351],[-57.57532,-25.56443],[-57.77458,-25.70169],[-57.74037,-25.72215],[-57.82063,-25.77827],[-57.80187,-25.83139],[-57.90584,-25.96865],[-57.87272,-26.0103],[-58.1513,-26.18145],[-58.10598,-26.23953],[-58.16996,-26.27033],[-58.21306,-26.41865],[-58.17864,-26.65067],[-58.23554,-26.64984],[-58.24794,-26.75816],[-58.34003,-26.8086],[-58.31579,-26.87412],[-58.45759,-26.83423],[-58.9821,-26.3896],[-59.1523,-26.29638],[-59.34699,-26.3401],[-59.41962,-26.18445],[-59.6632,-26.1322],[-59.67356,-26.0135],[-60.03863,-25.69719],[-60.17805,-25.6651],[-60.23869,-25.49524],[-60.49966,-25.20957],[-61.07647,-24.89528],[-61.20853,-24.66578],[-61.44366,-24.62398],[-61.77571,-24.34172],[-62.33921,-24.12065],[-62.34136,-22.47226]]]}},{"type":"Feature","properties":{"id":"ar-q","lat":-38.61185,"lng":-69.55753},"geometry":{"type":"Polygon","coordinates":[[[-70.58142,-36.14317],[-70.43075,-36.1294],[-70.37203,-36.17216],[-70.35619,-36.366],[-70.26025,-36.37282],[-70.163,-36.58159],[-69.79013,-36.86323],[-69.81589,-36.99738],[-69.70336,-37.11215],[-69.531,-37.17365],[-69.15466,-37.18269],[-68.98506,-37.36382],[-68.75668,-37.37167],[-68.50685,-37.44738],[-68.42752,-37.53776],[-68.24939,-37.55703],[-68.25213,-38.65929],[-68.01042,-38.9755],[-68.32091,-38.96181],[-68.60457,-39.1296],[-68.96222,-39.4887],[-69.24448,-39.58549],[-69.51606,-39.82191],[-69.68039,-39.82315],[-69.94472,-39.94738],[-70.09564,-40.4413],[-70.23894,-40.54982],[-70.44482,-40.56688],[-70.53631,-40.5122],[-70.9715,-40.64036],[-71.13023,-40.77947],[-71.02628,-40.9068],[-71.148,-41.05124],[-71.29732,-41.09511],[-71.8674,-41.01024],[-71.85145,-40.93833],[-71.95558,-40.72036],[-71.8531,-40.61638],[-71.79641,-40.41454],[-71.72929,-40.42136],[-71.67404,-40.3241],[-71.816,-40.22716],[-71.81404,-40.0929],[-71.68371,-40.099],[-71.61663,-39.90986],[-71.68459,-39.83349],[-71.71435,-39.60135],[-71.50351,-39.60166],[-71.54196,-39.53231],[-71.41205,-39.31796],[-71.3999,-38.91054],[-71.23604,-38.81164],[-70.94504,-38.74725],[-70.8343,-38.56441],[-70.97375,-38.42468],[-71.00742,-38.07101],[-71.18503,-37.70607],[-71.1177,-37.4665],[-71.2056,-37.29266],[-71.08912,-37.10342],[-71.20715,-36.97237],[-71.13568,-36.95149],[-71.19516,-36.83915],[-71.14534,-36.68825],[-71.05744,-36.68763],[-71.04328,-36.48434],[-70.93497,-36.47255],[-70.89037,-36.40041],[-70.71865,-36.41457],[-70.71051,-36.26585],[-70.58142,-36.14317]]]}},{"type":"Feature","properties":{"id":"ar-r","lat":-39.7037,"lng":-66.38427},"geometry":{"type":"Polygon","coordinates":[[[-71.76926,-41.99961],[-71.92592,-41.65301],[-71.85326,-41.56733],[-71.90395,-41.36765],[-71.8674,-41.01024],[-71.29732,-41.09511],[-71.148,-41.05124],[-71.02628,-40.9068],[-71.13023,-40.77947],[-70.9715,-40.64036],[-70.53631,-40.5122],[-70.44482,-40.56688],[-70.23894,-40.54982],[-70.09564,-40.4413],[-69.94472,-39.94738],[-69.68039,-39.82315],[-69.51606,-39.82191],[-69.24448,-39.58549],[-68.96222,-39.4887],[-68.60457,-39.1296],[-68.32091,-38.96181],[-68.01042,-38.9755],[-68.25213,-38.65929],[-68.24939,-37.55703],[-67.85032,-37.60024],[-67.7486,-37.66907],[-67.72369,-37.81686],[-67.84826,-37.90776],[-67.87174,-38.00724],[-67.70565,-38.10057],[-67.59199,-38.24712],[-67.17659,-38.22263],[-67.06983,-38.40897],[-66.64794,-38.55739],[-66.56195,-38.70157],[-65.96018,-38.74213],[-65.68955,-38.81789],[-65.563,-38.77582],[-65.3674,-38.83835],[-64.97016,-38.80357],[-64.47149,-38.8537],[-64.01022,-38.99979],[-63.5164,-39.30597],[-63.38858,-39.32576],[-63.38742,-40.70909],[-63.10302,-40.75395],[-62.80163,-41.04168],[-63.09952,-41.15488],[-63.77941,-41.15879],[-64.06286,-41.04127],[-64.06212,-40.99944],[-64.9112,-40.82383],[-64.74498,-40.7973],[-64.79621,-40.72332],[-64.98184,-40.72332],[-64.90884,-40.77011],[-65.12194,-40.83367],[-65.17569,-40.96917],[-65.10489,-41.32977],[-64.99136,-41.5241],[-65.0546,-42.01067],[-71.76926,-41.99961]]]}},{"type":"Feature","properties":{"id":"ar-s","lat":-31.08906,"lng":-60.93853},"geometry":{"type":"Polygon","coordinates":[[[-61.70995,-28.00041],[-58.86475,-27.99932],[-58.9203,-28.09482],[-59.08752,-28.17523],[-59.08696,-28.62709],[-59.19744,-29.02205],[-59.51127,-29.20757],[-59.5829,-29.37779],[-59.59109,-29.61499],[-59.67279,-29.84712],[-59.59535,-30.04917],[-59.6693,-30.29386],[-59.61478,-30.46269],[-59.66064,-30.73606],[-60.16366,-31.44206],[-60.41411,-31.67352],[-60.64776,-31.71605],[-60.71996,-31.92234],[-60.6618,-32.06926],[-60.76701,-32.57832],[-60.55211,-33.06108],[-60.27753,-33.30644],[-60.49992,-33.63402],[-60.91046,-33.56374],[-60.96307,-33.67722],[-61.71052,-34.37682],[-62.85381,-34.38214],[-61.91991,-33.1141],[-61.76284,-32.99985],[-61.7353,-32.81226],[-61.89449,-32.65878],[-61.86612,-32.58618],[-61.91412,-32.46293],[-62.21857,-32.1385],[-62.18408,-31.96275],[-62.23754,-31.73098],[-62.12155,-31.60856],[-61.8571,-30.73146],[-62.13408,-30.41685],[-61.70995,-28.00041]]]}},{"type":"Feature","properties":{"id":"ar-t","lat":-27.12473,"lng":-65.41986},"geometry":{"type":"Polygon","coordinates":[[[-65.6587,-26.07458],[-65.44207,-26.12006],[-65.31438,-26.07603],[-65.25281,-26.17236],[-64.94572,-26.27411],[-64.76736,-26.21137],[-64.48634,-26.22021],[-64.50063,-26.6776],[-64.58145,-26.67651],[-64.67437,-26.80482],[-64.87983,-27.30918],[-65.06359,-27.47238],[-64.96959,-27.51372],[-65.06941,-27.60069],[-64.99915,-27.77815],[-65.0915,-27.89907],[-65.22759,-27.92351],[-65.34895,-27.86326],[-65.55801,-28.05436],[-65.70304,-27.81789],[-65.85083,-27.78016],[-65.98188,-27.39383],[-66.19464,-27.31937],[-65.88378,-26.94027],[-65.85096,-26.75278],[-66.15203,-26.53786],[-66.10017,-26.32155],[-66.05382,-26.25349],[-65.71182,-26.2954],[-65.6587,-26.07458]]]}},{"type":"Feature","properties":{"id":"ar-u","lat":-43.99979,"lng":-68.48487},"geometry":{"type":"Polygon","coordinates":[[[-71.9238,-42.17691],[-71.74944,-42.10435],[-71.76926,-41.99961],[-65.12721,-42.00023],[-64.85729,-42.19362],[-64.48086,-42.25465],[-64.60228,-42.42205],[-64.44506,-42.44671],[-64.10359,-42.42783],[-64.05158,-42.37225],[-64.06843,-42.26963],[-64.33971,-42.2374],[-63.76865,-42.07772],[-63.59797,-42.29998],[-63.57934,-42.59295],[-63.6715,-42.80218],[-64.1079,-42.88372],[-64.25133,-42.77508],[-64.20238,-42.63543],[-64.38805,-42.51727],[-64.61486,-42.51531],[-64.94603,-42.65423],[-64.99714,-42.78484],[-64.6455,-42.92539],[-64.30211,-42.98089],[-64.94392,-43.23944],[-65.03234,-43.29941],[-65.03905,-43.3956],[-65.3308,-43.66334],[-65.27196,-43.96404],[-65.18671,-44.03554],[-65.23786,-44.08416],[-65.21482,-44.13744],[-65.30871,-44.20009],[-65.21689,-44.36641],[-65.33159,-44.46076],[-65.27928,-44.51626],[-65.3731,-44.51618],[-65.36868,-44.58606],[-65.46181,-44.57656],[-65.64321,-44.668],[-65.7271,-44.8096],[-65.71544,-44.86996],[-65.5214,-44.9319],[-65.69062,-45.06272],[-65.84159,-45.00322],[-65.93624,-45.04868],[-66.20037,-44.99292],[-66.28158,-45.0576],[-66.49659,-45.08838],[-66.5253,-45.13188],[-66.4733,-45.16867],[-66.5878,-45.13934],[-66.524,-45.2161],[-66.92927,-45.25653],[-67.33192,-45.61349],[-67.3646,-45.78661],[-67.45587,-45.825],[-67.58166,-46.00003],[-71.64916,-45.99941],[-71.62438,-45.93415],[-71.75848,-45.84816],[-71.79853,-45.73995],[-71.7651,-45.57241],[-71.48909,-45.49851],[-71.50832,-45.40839],[-71.38936,-45.37077],[-71.31717,-45.26721],[-71.58873,-44.97813],[-72.0735,-44.90217],[-72.08875,-44.7828],[-71.4971,-44.7429],[-71.29784,-44.79561],[-71.12266,-44.5303],[-71.20978,-44.42757],[-71.8606,-44.37714],[-71.80401,-44.31481],[-71.85874,-44.1078],[-71.65989,-43.92631],[-71.76184,-43.82843],[-71.75502,-43.77138],[-71.8192,-43.75805],[-71.70918,-43.68436],[-71.7143,-43.6022],[-71.95511,-43.44355],[-71.90173,-43.32201],[-71.75068,-43.29534],[-71.74298,-43.19013],[-72.05443,-43.10538],[-72.14854,-42.99872],[-72.14321,-42.55709],[-72.03919,-42.48123],[-72.13371,-42.2876],[-72.00984,-42.12471],[-71.9238,-42.17691]]]}},{"type":"Feature","properties":{"id":"ar-v","lat":-53.87208,"lng":-68.10035},"geometry":{"type":"MultiPolygon","coordinates":[[[[-68.65413,-54.88625],[-68.642,-54.79917],[-68.56823,-54.87835],[-68.65413,-54.88625]]],[[[-63.84582,-54.7221],[-63.96679,-54.81504],[-63.97964,-54.75742],[-64.24454,-54.83709],[-64.25158,-54.77703],[-64.31111,-54.7776],[-64.62442,-54.90374],[-64.75866,-54.83229],[-64.68309,-54.7702],[-64.52257,-54.78167],[-64.54235,-54.71559],[-64.38439,-54.78444],[-64.36388,-54.70599],[-64.18716,-54.747],[-63.84582,-54.7221]]],[[[-68.64188,-54.78297],[-68.62762,-52.63957],[-68.31143,-52.91204],[-68.22582,-53.10247],[-68.28043,-53.01539],[-68.34957,-53.01616],[-68.52071,-53.12063],[-68.55075,-53.23854],[-68.1114,-53.3438],[-67.98363,-53.60133],[-67.70878,-53.80457],[-67.55825,-53.83619],[-67.57152,-53.90797],[-66.76658,-54.24984],[-66.48221,-54.4658],[-65.84423,-54.64739],[-65.14192,-54.6469],[-65.35896,-54.92669],[-65.46272,-54.88445],[-65.6691,-54.97178],[-65.71886,-54.90928],[-65.96622,-54.90207],[-65.99335,-54.97237],[-66.45067,-55.05202],[-67.031,-54.90521],[-67.93196,-54.86248],[-68.30207,-54.79217],[-68.32824,-54.84238],[-68.52033,-54.85223],[-68.64188,-54.78297]]]]}},{"type":"Feature","properties":{"id":"ar-w","lat":-28.9011,"lng":-57.75448},"geometry":{"type":"Polygon","coordinates":[[[-58.51076,-27.27844],[-57.94403,-27.27461],[-57.1801,-27.48731],[-56.90435,-27.41869],[-56.77116,-27.50674],[-56.54644,-27.45507],[-56.39973,-27.58684],[-56.27984,-27.38965],[-56.14998,-27.31182],[-55.96609,-27.33172],[-56.01732,-27.45155],[-55.87328,-27.71578],[-55.83863,-27.90662],[-55.62304,-28.14435],[-55.77253,-28.23197],[-55.6636,-28.32654],[-55.69424,-28.40013],[-55.84235,-28.34638],[-55.9056,-28.37801],[-55.90203,-28.46514],[-56.01159,-28.49655],[-56.04081,-28.609],[-56.28615,-28.78015],[-56.42797,-29.06985],[-56.61729,-29.16091],[-56.68865,-29.32958],[-57.02093,-29.68335],[-57.29151,-29.81513],[-57.32515,-29.98101],[-57.50617,-30.14431],[-57.64247,-30.19309],[-57.65273,-30.3291],[-57.88977,-30.5508],[-57.80866,-30.74733],[-57.98726,-30.60351],[-58.068,-30.42073],[-58.26075,-30.23071],[-58.62975,-30.15227],[-58.87617,-30.22699],[-59.005,-30.2041],[-59.24131,-30.34347],[-59.38854,-30.30595],[-59.66152,-30.33691],[-59.6693,-30.29386],[-59.59535,-30.04917],[-59.67279,-29.84712],[-59.59109,-29.61499],[-59.5829,-29.37779],[-59.51127,-29.20757],[-59.19744,-29.02205],[-59.08696,-28.62709],[-59.08752,-28.17523],[-58.89472,-28.07079],[-58.84157,-27.91633],[-58.81573,-27.71686],[-58.88653,-27.47894],[-58.51076,-27.27844]]]}},{"type":"Feature","properties":{"id":"ar-x","lat":-32.22333,"lng":-63.68782},"geometry":{"type":"Polygon","coordinates":[[[-62.08714,-30.15661],[-62.13207,-30.44104],[-61.8571,-30.73146],[-62.12155,-31.60856],[-62.23589,-31.71977],[-62.18408,-31.96275],[-62.21857,-32.1385],[-61.91699,-32.45869],[-61.86612,-32.58618],[-61.89449,-32.65878],[-61.74227,-32.79696],[-61.78025,-33.02992],[-61.91991,-33.1141],[-62.85381,-34.38214],[-63.37359,-34.41361],[-63.38406,-35.0021],[-65.08662,-35.00179],[-65.1317,-33.20547],[-65.03248,-33.11126],[-64.88319,-32.61951],[-64.91939,-32.30816],[-65.18966,-32.32764],[-65.31053,-32.06114],[-65.64059,-31.89325],[-65.75965,-31.88549],[-65.76727,-31.09624],[-65.40189,-30.14017],[-65.13819,-30.06307],[-64.94339,-29.87833],[-64.95115,-29.57897],[-64.25375,-29.4243],[-64.04906,-29.47303],[-64.02759,-29.54517],[-63.80765,-29.64977],[-63.46271,-29.65524],[-63.38406,-29.77131],[-62.28816,-29.77673],[-62.08714,-30.15661]]]}},{"type":"Feature","properties":{"id":"ar-y","lat":-23.14169,"lng":-66.04452},"geometry":{"type":"Polygon","coordinates":[[[-67.25133,-23.73309],[-67.01397,-23.00071],[-67.1939,-22.82222],[-67.02663,-22.63939],[-67.03272,-22.52457],[-66.78509,-22.42762],[-66.7359,-22.22505],[-66.3076,-22.07705],[-66.22246,-21.78694],[-65.93269,-21.94455],[-65.77531,-22.10506],[-65.19048,-22.09847],[-65.34549,-22.58823],[-65.26524,-22.6382],[-65.23103,-22.94506],[-65.01742,-23.02671],[-65.04135,-23.25667],[-64.95254,-23.3084],[-64.87474,-23.49407],[-64.66011,-23.45464],[-64.43828,-23.61959],[-64.36749,-23.50957],[-64.18884,-23.51329],[-64.15877,-24.18364],[-64.29803,-24.40161],[-64.50298,-24.48073],[-64.60936,-24.61054],[-64.82818,-24.45546],[-64.93588,-24.59767],[-65.16488,-24.45427],[-65.27686,-24.50181],[-65.5871,-24.40259],[-65.75154,-24.17511],[-65.75911,-24.07682],[-66.0002,-23.94133],[-65.98682,-23.54332],[-66.17019,-23.42069],[-66.37757,-23.39072],[-66.35199,-24.04137],[-66.50449,-24.23712],[-66.67533,-24.19914],[-67.25133,-23.73309]]]}},{"type":"Feature","properties":{"id":"ar-z","lat":-49.2142,"lng":-70.41646},"geometry":{"type":"Polygon","coordinates":[[[-71.91253,-47.23453],[-71.87413,-47.14255],[-72.00519,-47.06193],[-71.91481,-46.99847],[-71.97036,-46.94845],[-71.9501,-46.81399],[-71.83409,-46.78856],[-71.68019,-46.65958],[-71.76334,-46.24451],[-71.91263,-46.14209],[-71.77016,-46.11264],[-71.64916,-45.99941],[-67.58166,-46.00003],[-67.62247,-46.16375],[-67.42322,-46.56742],[-67.12999,-46.7066],[-66.78645,-47.00661],[-66.20049,-47.08959],[-65.97956,-47.06618],[-65.7449,-47.20416],[-65.73566,-47.50953],[-65.84563,-47.74221],[-66.03206,-47.73953],[-66.38915,-47.86386],[-65.90182,-47.76995],[-65.76195,-47.94855],[-65.92739,-47.94141],[-65.96845,-48.04717],[-65.91724,-48.11381],[-66.10863,-48.12331],[-66.31688,-48.26425],[-66.34112,-48.35272],[-66.65099,-48.43109],[-66.86643,-48.58983],[-67.11435,-48.67375],[-67.19828,-48.81835],[-67.55655,-49.01582],[-67.63256,-49.12998],[-67.60993,-49.17811],[-67.73233,-49.27467],[-67.7119,-49.31561],[-67.83088,-49.37957],[-67.72518,-49.39075],[-67.66321,-49.26715],[-67.60765,-49.26507],[-67.73201,-49.7813],[-67.83321,-49.95454],[-68.07635,-50.08727],[-68.34187,-50.11761],[-68.65404,-49.75791],[-68.73973,-49.72772],[-68.57727,-49.92762],[-69.0135,-50.00774],[-68.58347,-49.97034],[-68.34987,-50.14881],[-68.87643,-50.33057],[-69.07652,-50.56017],[-69.14997,-50.74212],[-69.1368,-50.90348],[-69.41071,-51.08392],[-69.16778,-50.97823],[-68.96255,-51.56015],[-69.11962,-51.60475],[-69.37719,-51.5569],[-69.61681,-51.62518],[-69.30456,-51.59349],[-69.15698,-51.63488],[-69.19896,-51.68662],[-68.97351,-51.61995],[-68.68506,-52.00501],[-68.36561,-52.3062],[-68.41782,-52.38605],[-68.4545,-52.29991],[-69.95275,-52.00742],[-71.9177,-51.99005],[-71.96524,-51.97062],[-71.98173,-51.84495],[-72.30072,-51.69147],[-72.3309,-51.59938],[-72.45007,-51.55267],[-72.35121,-51.47598],[-72.25881,-51.24519],[-72.40459,-51.10582],[-72.26595,-50.96071],[-72.26347,-50.83628],[-72.34739,-50.74316],[-72.30284,-50.6489],[-72.50598,-50.60125],[-72.66261,-50.66781],[-72.75579,-50.61644],[-73.05174,-50.75783],[-73.17772,-50.74946],[-73.28433,-50.33305],[-73.53057,-50.14081],[-73.47858,-50.00945],[-73.5684,-49.92005],[-73.4651,-49.75996],[-73.19675,-49.68242],[-73.05975,-49.55497],[-73.11865,-49.39243],[-73.09763,-49.26655],[-73.18315,-49.23906],[-73.17132,-49.18935],[-73.00973,-48.99039],[-72.78121,-48.93386],[-72.61879,-48.81965],[-72.57678,-48.45213],[-72.29509,-48.33328],[-72.34305,-48.07045],[-72.54391,-47.9148],[-72.34444,-47.60226],[-72.36119,-47.45095],[-72.17055,-47.40754],[-72.03816,-47.28704],[-72.0303,-47.19753],[-71.91253,-47.23453]]]}}]}
