{"type":"FeatureCollection","features":[{"type":"Feature","properties":{"id":"at-1","lat":47.47713,"lng":16.45876},"geometry":{"type":"Polygon","coordinates":[[[17.14834,48.00544],[17.00406,47.86328],[17.07537,47.70848],[16.79745,47.67546],[16.5678,47.75419],[16.40781,47.66133],[16.63023,47.622],[16.68914,47.53803],[16.64088,47.45292],[16.43396,47.39685],[16.47324,47.27681],[16.41278,47.18717],[16.50951,47.13754],[16.45432,47.0817],[16.49318,47.04915],[16.42466,47.02408],[16.48636,46.99855],[16.2749,47.00431],[16.02844,46.83695],[16.01151,46.91326],[16.13734,47.0317],[16.01864,47.38104],[16.32446,47.50134],[16.37583,47.6449],[16.28974,47.79362],[16.37521,47.89144],[16.6123,47.9332],[16.87967,48.07045],[16.96225,48.04583],[17.00349,48.10913],[17.06245,48.11272],[17.06969,48.03567],[17.14834,48.00544]]]}},{"type":"Feature","properties":{"id":"at-2","lat":46.75812,"lng":13.92896},"geometry":{"type":"Polygon","coordinates":[[[14.39584,46.44099],[12.67137,46.65247],[12.72432,46.74885],[12.95118,46.76738],[12.73889,46.9855],[12.75274,47.05015],[12.63678,47.09284],[12.66505,47.13648],[13.02952,47.03098],[13.30821,47.0872],[13.60618,47.04421],[13.84389,46.92269],[14.16526,47.0571],[14.39461,46.99817],[14.86522,47.03956],[15.00831,46.91125],[15.02258,46.72717],[15.10559,46.64632],[14.85039,46.60114],[14.78858,46.50665],[14.54033,46.37864],[14.39584,46.44099]]]}},{"type":"Feature","properties":{"id":"at-3","lat":48.23499,"lng":15.58714},"geometry":{"type":"Polygon","coordinates":[[[15.00397,49.00977],[15.1374,48.99303],[15.14195,48.93748],[15.27455,48.98673],[15.68135,48.85847],[15.8185,48.87232],[16.08535,48.74287],[16.35831,48.72726],[16.51954,48.8056],[16.87301,48.71899],[16.95434,48.5574],[16.84448,48.3656],[17.06245,48.11272],[16.37521,47.89144],[16.28927,47.73254],[16.37583,47.6449],[16.32446,47.50134],[16.23088,47.44553],[15.91668,47.53322],[15.71432,47.70192],[15.3593,47.82408],[14.90419,47.72282],[14.73412,47.75016],[14.69934,47.76892],[14.74373,47.90951],[14.42716,48.05735],[14.51997,48.24481],[14.67547,48.18249],[14.96795,48.22517],[14.96377,48.38314],[14.88233,48.4712],[14.91612,48.51611],[14.69114,48.58653],[14.80037,48.77651],[14.93958,48.76281],[15.00397,49.00977]],[[16.53768,48.28041],[16.41541,48.33013],[16.2084,48.26207],[16.2025,48.17427],[16.57137,48.15308],[16.53768,48.28041]]]}},{"type":"Feature","properties":{"id":"at-4","lat":48.14122,"lng":13.62429},"geometry":{"type":"Polygon","coordinates":[[[14.45817,48.64318],[14.91612,48.51611],[14.88233,48.4712],[14.96377,48.38314],[14.96795,48.22517],[14.67547,48.18249],[14.49021,48.22874],[14.42716,48.05735],[14.75024,47.88318],[14.69934,47.76892],[14.34727,47.62567],[14.05974,47.62603],[13.99675,47.69859],[13.82327,47.7205],[13.68716,47.66396],[13.72844,47.50121],[13.58179,47.4864],[13.48107,47.54929],[13.52561,47.7175],[13.44464,47.76153],[13.52096,47.78354],[13.28775,47.84953],[13.27953,47.96074],[13.35245,47.98764],[13.01076,48.03324],[12.84825,47.98239],[12.73698,48.09996],[12.86255,48.19665],[13.40557,48.37658],[13.45456,48.57344],[13.71651,48.52169],[13.80239,48.61171],[13.81573,48.76643],[13.98233,48.70649],[14.07483,48.59171],[14.32536,48.55864],[14.45817,48.64318]]]}},{"type":"Feature","properties":{"id":"at-5","lat":47.48972,"lng":13.29992},"geometry":{"type":"Polygon","coordinates":[[[12.50273,47.15544],[12.13315,47.07883],[12.09604,47.2799],[12.42547,47.32396],[12.5988,47.406],[12.67884,47.49886],[12.56338,47.64176],[12.59838,47.66288],[12.76199,47.66686],[12.81315,47.61182],[12.77894,47.55483],[12.94255,47.47049],[13.03732,47.49305],[13.07205,47.65947],[12.89201,47.72355],[12.99123,47.84711],[12.84825,47.98239],[12.96839,48.03164],[13.36097,47.98059],[13.27953,47.96074],[13.28775,47.84953],[13.52096,47.78354],[13.44464,47.76153],[13.52561,47.7175],[13.48107,47.54929],[13.58179,47.4864],[13.60447,47.34254],[13.67925,47.27722],[13.80989,47.29624],[13.93934,47.16084],[13.78229,46.95419],[13.60618,47.04421],[13.30821,47.0872],[13.02952,47.03098],[12.50273,47.15544]]]}},{"type":"Feature","properties":{"id":"at-6","lat":47.22854,"lng":14.97253},"geometry":{"type":"Polygon","coordinates":[[[16.02844,46.83695],[15.97198,46.82063],[16.01672,46.67069],[15.63598,46.71756],[15.46265,46.61465],[15.10559,46.64632],[15.02258,46.72717],[15.00831,46.91125],[14.86522,47.03956],[14.39461,46.99817],[14.16526,47.0571],[13.84389,46.92269],[13.78229,46.95419],[13.93934,47.16084],[13.80989,47.29624],[13.63067,47.30564],[13.56659,47.45312],[13.72844,47.50121],[13.68716,47.66396],[13.82327,47.7205],[13.99675,47.69859],[14.05974,47.62603],[14.18573,47.65911],[14.32278,47.62056],[14.69934,47.76892],[14.90419,47.72282],[15.3593,47.82408],[15.71432,47.70192],[15.7432,47.63673],[15.81752,47.64397],[15.91668,47.53322],[16.0852,47.51519],[16.14788,47.44305],[16.01864,47.38104],[16.13734,47.0317],[16.01151,46.91326],[16.02844,46.83695]]]}},{"type":"Feature","properties":{"id":"at-7","lat":47.21669,"lng":11.14813},"geometry":{"type":"MultiPolygon","coordinates":[[[[12.44563,46.6787],[12.2691,46.78857],[12.26662,46.86815],[12.12689,46.90887],[12.11118,46.993],[12.3969,47.14937],[12.57766,47.14423],[12.74432,47.05803],[12.73889,46.9855],[12.95118,46.76738],[12.72432,46.74885],[12.67137,46.65247],[12.44563,46.6787]]],[[[10.12519,46.84675],[10.08112,46.91783],[10.20215,47.161],[10.17495,47.27238],[10.42828,47.39605],[10.42921,47.57702],[10.48254,47.53286],[10.85864,47.53067],[10.97946,47.39055],[11.19382,47.42894],[11.23702,47.39396],[11.38388,47.44486],[11.41262,47.50609],[11.55121,47.51369],[11.62046,47.58965],[12.1736,47.60508],[12.1766,47.70582],[12.24223,47.73202],[12.23871,47.6789],[12.56338,47.64176],[12.67884,47.49886],[12.45741,47.33344],[12.09604,47.2799],[12.13315,47.07883],[11.73487,46.97062],[11.47184,47.00708],[11.17449,46.96385],[10.99693,46.76911],[10.72294,46.78645],[10.73896,46.82955],[10.64708,46.86376],[10.48626,46.84637],[10.3734,46.99625],[10.12519,46.84675]]]]}},{"type":"Feature","properties":{"id":"at-8","lat":47.2119,"lng":9.86645},"geometry":{"type":"Polygon","coordinates":[[[9.86057,47.0016],[9.5812,47.05687],[9.61572,47.10676],[9.52116,47.2628],[9.65035,47.45209],[9.54748,47.53455],[9.6767,47.52263],[9.79628,47.58495],[10.02262,47.48795],[10.08288,47.35907],[10.20928,47.37248],[10.15543,47.27288],[10.20215,47.161],[10.08112,46.91783],[10.12519,46.84675],[9.87514,46.92742],[9.86057,47.0016]]]}},{"type":"Feature","properties":{"id":"at-9","lat":48.21548,"lng":16.37829},"geometry":{"type":"Polygon","coordinates":[[[16.41541,48.33013],[16.53768,48.28041],[16.57137,48.15308],[16.2025,48.17427],[16.20096,48.25669],[16.41541,48.33013]]]}}]}
