{"type":"FeatureCollection","features":[{"type":"Feature","properties":{"id":"au-act","lat":-35.55165,"lng":148.94117},"geometry":{"type":"Polygon","coordinates":[[[149.12711,-35.13951],[149.4044,-35.3302],[149.20033,-35.37262],[149.14266,-35.43453],[149.08643,-35.61002],[149.10462,-35.83972],[149.036,-35.91936],[148.92272,-35.86763],[148.88304,-35.7279],[148.7956,-35.7127],[148.77054,-35.49329],[148.81772,-35.32048],[149.12711,-35.13951]]]}},{"type":"Feature","properties":{"id":"au-nsw","lat":-32.83023,"lng":146.49613},"geometry":{"type":"MultiPolygon","coordinates":[[[[153.53199,-28.17791],[153.59107,-28.26849],[153.60597,-28.86745],[153.4756,-29.00018],[153.3506,-29.28102],[153.29493,-29.82659],[152.9878,-30.73463],[153.0879,-30.92669],[152.95989,-31.24031],[152.9345,-31.48281],[152.84538,-31.56932],[152.74722,-31.84258],[152.54637,-32.04368],[152.53989,-32.44209],[152.29476,-32.55959],[152.19199,-32.65267],[152.21925,-32.6972],[152.06088,-32.69793],[152.1902,-32.72527],[152.18507,-32.76678],[151.79924,-32.89368],[151.56896,-33.29223],[151.51534,-33.32708],[151.51611,-33.26111],[151.4538,-33.3042],[151.45123,-33.35546],[151.50383,-33.36001],[151.42416,-33.52777],[151.23072,-33.53493],[151.2256,-33.60906],[151.29934,-33.57062],[151.29526,-33.64878],[151.34075,-33.61747],[151.3047,-33.82537],[151.24692,-33.85638],[151.29444,-33.87038],[151.28142,-33.95233],[151.24936,-34.00384],[151.20192,-33.95916],[151.09522,-34.01442],[151.23121,-34.04046],[150.96895,-34.26268],[150.91887,-34.4864],[150.80095,-34.54827],[150.917,-34.60345],[150.72706,-34.87412],[150.77849,-34.90163],[150.77622,-34.98699],[150.85157,-35.01491],[150.84474,-35.07724],[150.80714,-35.11053],[150.78736,-35.01491],[150.69557,-35.02614],[150.70378,-35.12044],[150.49952,-35.28973],[150.29168,-35.72283],[150.19093,-35.72682],[150.23862,-35.8331],[150.14975,-35.89821],[150.14869,-36.0626],[150.10678,-36.0486],[150.08155,-36.08375],[150.14332,-36.11444],[150.14235,-36.32],[149.90968,-36.90553],[149.94158,-37.06219],[149.87615,-37.09588],[149.99757,-37.15049],[150.05356,-37.26873],[149.95102,-37.28428],[149.97207,-37.51029],[148.12329,-36.78825],[148.21486,-36.61689],[148.06758,-36.40971],[147.99689,-36.05925],[147.90971,-36.00504],[147.71381,-35.93941],[147.55676,-35.99636],[147.48369,-35.94597],[147.3822,-35.97961],[147.34029,-36.07635],[147.13472,-36.03935],[147.09379,-36.16803],[147.19632,-36.22032],[147.10692,-36.2412],[147.00532,-36.09015],[146.84688,-36.09743],[146.50427,-35.97393],[146.3695,-36.05273],[146.21622,-36.05584],[145.93975,-35.96685],[145.78695,-35.97997],[145.49379,-35.82898],[145.00844,-35.86763],[144.93392,-36.00555],[144.97547,-36.09743],[144.74071,-36.135],[144.45256,-35.94716],[144.35329,-35.77756],[144.10007,-35.58677],[143.586,-35.35293],[143.5814,-35.24942],[143.41836,-35.18803],[143.36399,-35.10721],[143.32813,-34.78439],[143.14261,-34.69902],[142.88035,-34.67933],[142.79002,-34.58233],[142.7261,-34.60321],[142.6428,-34.78764],[142.54797,-34.7709],[142.38576,-34.5334],[142.39646,-34.33801],[142.30514,-34.31713],[142.23512,-34.19192],[142.05126,-34.11595],[141.70611,-34.11001],[141.54617,-34.21863],[141.00011,-34.01854],[141.00011,-28.99994],[148.9714,-28.99973],[149.09357,-28.84842],[149.41634,-28.68073],[149.48445,-28.58394],[149.59524,-28.56539],[149.70449,-28.62745],[150.29814,-28.53495],[150.44956,-28.64647],[150.79351,-28.63505],[151.0459,-28.73489],[151.06213,-28.82801],[151.28744,-28.92082],[151.37611,-29.17062],[151.52019,-29.06138],[151.56442,-28.95058],[151.72514,-28.88666],[151.82415,-28.97358],[151.85877,-28.91632],[152.01365,-28.89922],[152.06703,-28.70316],[151.96399,-28.54007],[152.38696,-28.36576],[152.48716,-28.26339],[152.56416,-28.333],[152.61666,-28.29321],[152.75102,-28.35801],[153.10665,-28.35388],[153.19249,-28.25982],[153.53199,-28.17791]],[[149.20033,-35.37262],[149.40301,-35.32404],[149.24942,-35.26394],[149.12711,-35.13951],[148.81772,-35.32048],[148.77255,-35.65111],[148.83245,-35.74417],[148.88784,-35.73317],[148.93363,-35.87926],[149.04241,-35.91962],[149.09951,-35.85683],[149.08643,-35.61002],[149.14555,-35.43034],[149.20033,-35.37262]]],[[[159.04444,-31.51922],[159.10646,-31.56764],[159.07887,-31.59336],[159.04444,-31.51922]]]]}},{"type":"Feature","properties":{"id":"au-nt","lat":-21.27076,"lng":133.50015},"geometry":{"type":"MultiPolygon","coordinates":[[[[129.00012,-14.86815],[129.18393,-14.98187],[129.1526,-15.22373],[129.22145,-15.16969],[129.21412,-15.2374],[129.26303,-15.1076],[129.22877,-14.8366],[129.26303,-14.88787],[129.32439,-14.86207],[129.47657,-14.93377],[129.57244,-15.05364],[129.58522,-15.16969],[129.64552,-15.13494],[129.71599,-15.19541],[129.61183,-14.94256],[129.64918,-14.8327],[129.78565,-14.8615],[129.98243,-14.80592],[129.98243,-14.70973],[129.7986,-14.81683],[129.76271,-14.81959],[129.79689,-14.76442],[129.66993,-14.75311],[129.58806,-14.61346],[129.71762,-14.59588],[129.7894,-14.53167],[129.66733,-14.57537],[129.53533,-14.54534],[129.35808,-14.40879],[129.37289,-14.32928],[129.49318,-14.14446],[129.48219,-14.05185],[129.58522,-14.09287],[129.60572,-13.99725],[129.63258,-14.03525],[129.73561,-13.99179],[129.71599,-13.86745],[129.81593,-13.76198],[129.78549,-13.67571],[129.89129,-13.43768],[129.96892,-13.53045],[130.13396,-13.46103],[130.25416,-13.32383],[130.33229,-13.34637],[130.12273,-13.16465],[130.12989,-12.94052],[130.31861,-12.90602],[130.35434,-12.67205],[130.51612,-12.65407],[130.50685,-12.59645],[130.58644,-12.70924],[130.69288,-12.70062],[130.56039,-12.62835],[130.61752,-12.60394],[130.57838,-12.40081],[130.78386,-12.43499],[130.79005,-12.58514],[130.81105,-12.53737],[130.89991,-12.63983],[130.90919,-12.59783],[130.9686,-12.62672],[130.87379,-12.5136],[130.9686,-12.53737],[130.82472,-12.40081],[130.90724,-12.33196],[131.05128,-12.37347],[131.02613,-12.14715],[131.25734,-12.23626],[131.29623,-12.04388],[131.34685,-12.21966],[131.44777,-12.28981],[131.78435,-12.27044],[131.89698,-12.21592],[132.05787,-12.30674],[132.25131,-12.15634],[132.27833,-12.2282],[132.37989,-12.216],[132.42164,-12.30364],[132.38754,-12.3803],[132.44939,-12.30039],[132.43963,-12.15488],[132.56397,-12.09157],[132.67905,-12.13681],[132.75758,-12.1334],[132.63453,-12.06715],[132.65219,-11.84857],[132.59303,-11.78444],[132.69557,-11.6535],[132.57887,-11.61102],[132.49537,-11.47617],[132.36988,-11.43499],[132.10646,-11.52313],[132.0407,-11.41863],[131.94777,-11.39446],[131.97609,-11.35125],[131.76759,-11.31081],[131.8825,-11.17197],[131.94028,-11.2514],[131.98325,-11.22625],[131.98162,-11.13006],[132.11451,-11.20875],[132.10727,-11.33196],[132.14064,-11.3034],[132.17465,-11.40643],[132.23618,-11.35125],[132.16131,-11.12371],[132.28517,-11.26849],[132.27752,-11.16221],[132.34303,-11.122],[132.37794,-11.28314],[132.47495,-11.23414],[132.67416,-11.5084],[132.73699,-11.50823],[132.83326,-11.39967],[132.89487,-11.41888],[132.86744,-11.33815],[132.91098,-11.3318],[133.07602,-11.50994],[133.16676,-11.70436],[133.34669,-11.68825],[133.32374,-11.75945],[133.40724,-11.72381],[133.47853,-11.79078],[133.53207,-11.74912],[133.53207,-11.86582],[133.8025,-11.71494],[133.91578,-11.72235],[133.93897,-11.75791],[133.84376,-11.85524],[133.94313,-11.91367],[134.056,-11.84482],[134.08709,-11.92791],[134.13795,-11.87949],[134.19508,-11.94769],[134.19288,-12.07871],[134.285,-11.96819],[134.42897,-12.05755],[134.59425,-12.06439],[134.76856,-11.94769],[134.8611,-12.12656],[135.21759,-12.30082],[135.17007,-12.22822],[135.34929,-12.23602],[135.22268,-12.19133],[135.32473,-12.11087],[135.53624,-12.06227],[135.5879,-12.09857],[135.712,-12.01848],[135.56583,-12.0255],[135.6006,-11.95672],[135.73927,-11.9415],[135.87526,-11.84588],[135.87818,-11.75628],[135.93678,-11.77703],[135.90342,-11.8499],[135.71691,-12.00302],[135.91627,-11.96819],[135.65007,-12.16458],[135.73194,-12.31146],[135.88014,-12.15162],[135.91261,-12.18231],[136.05348,-12.06439],[135.93539,-12.21364],[135.97446,-12.26458],[136.06023,-12.23219],[135.98512,-12.36297],[136.0232,-12.45566],[136.2527,-12.4411],[136.36818,-12.23944],[136.17701,-12.17083],[136.56432,-11.89156],[136.47025,-11.98643],[136.53329,-11.99325],[136.66359,-12.2636],[136.74537,-12.2658],[136.67944,-12.2047],[136.76092,-12.16448],[136.87638,-12.22341],[136.92782,-12.34898],[136.98365,-12.34547],[136.77118,-12.54141],[136.80551,-12.45648],[136.74024,-12.47576],[136.76128,-12.57434],[136.69014,-12.71327],[136.60841,-12.71494],[136.61069,-12.83034],[136.55926,-12.74521],[136.53243,-12.80443],[136.47169,-12.77386],[136.48976,-12.85076],[136.65749,-12.99574],[136.49676,-12.97519],[136.56723,-13.0582],[136.47234,-13.24236],[136.44386,-13.2164],[136.322,-13.30799],[136.38819,-13.22576],[136.33286,-13.04688],[136.30836,-13.16277],[136.24928,-13.12965],[136.15862,-13.26288],[136.14763,-13.12225],[136.05348,-13.23008],[136.05348,-13.31194],[136.00829,-13.21551],[135.91111,-13.2842],[135.88343,-13.36731],[135.96944,-13.42565],[135.85475,-13.45599],[135.84484,-13.60019],[135.92311,-13.67506],[135.88673,-13.71364],[135.9699,-13.74228],[136.07789,-13.66269],[135.92311,-13.95965],[135.90943,-14.19524],[135.75913,-14.26539],[135.52263,-14.65154],[135.36818,-14.72283],[135.46957,-14.94801],[136.22462,-15.40862],[136.2732,-15.5595],[136.52857,-15.71901],[136.59474,-15.71087],[136.72291,-15.86224],[136.71559,-15.93597],[136.78696,-15.90049],[136.92555,-15.93467],[136.99187,-15.86419],[137.36118,-16.12217],[137.7461,-16.25213],[138.00017,-16.5416],[138.00019,-25.99991],[129.00012,-25.99991],[129.00012,-14.86815]]],[[[129.58912,-14.95233],[129.51979,-14.83636],[129.50815,-14.78574],[129.57781,-14.86053],[129.58912,-14.95233]]],[[[135.7052,-14.91311],[135.70806,-14.85304],[135.74922,-14.83847],[135.76268,-14.9009],[135.7052,-14.91311]]],[[[129.63364,-14.8707],[129.58522,-14.82643],[129.58302,-14.80381],[129.63364,-14.8707]]],[[[132.33985,-12.09857],[132.38754,-12.07187],[132.41578,-12.11028],[132.38754,-12.1334],[132.33985,-12.09857]]],[[[134.92628,-12.06813],[134.88836,-12.11224],[134.85426,-12.03777],[134.92628,-12.06813]]],[[[134.94873,-12.05467],[134.95625,-12.01647],[134.98599,-12.04145],[134.94873,-12.05467]]],[[[135.0577,-11.95318],[135.08447,-11.92004],[135.12196,-11.9297],[135.0577,-11.95318]]],[[[136.05521,-11.65005],[135.98618,-11.71637],[135.95153,-11.68348],[136.05521,-11.65005]]],[[[132.64112,-11.64471],[132.55885,-11.71917],[132.5088,-11.64959],[132.64112,-11.64471]]],[[[133.47438,-11.6111],[133.39617,-11.62322],[133.4087,-11.6535],[133.3602,-11.66033],[133.4087,-11.59206],[133.47438,-11.6111]]],[[[130.63502,-11.76816],[130.49635,-11.83904],[130.32106,-11.7702],[130.11891,-11.82781],[130.01661,-11.77703],[130.06959,-11.75563],[130.07154,-11.67116],[130.18539,-11.67653],[130.1985,-11.50661],[130.14698,-11.48903],[130.34498,-11.31707],[130.38648,-11.51971],[130.46168,-11.59206],[130.44801,-11.70135],[130.63502,-11.76816]]],[[[131.5337,-11.39739],[131.47397,-11.60019],[131.38657,-11.57781],[131.29314,-11.72405],[130.96119,-11.93385],[130.49659,-11.64951],[130.36744,-11.20428],[130.40016,-11.15325],[130.51612,-11.29656],[130.58717,-11.2868],[130.56617,-11.39463],[130.65846,-11.33131],[130.69557,-11.43434],[130.92091,-11.30934],[131.02328,-11.41326],[131.04884,-11.31504],[131.15309,-11.24928],[131.21925,-11.39967],[131.20533,-11.24652],[131.27443,-11.18963],[131.30144,-11.27744],[131.42774,-11.24969],[131.47462,-11.39056],[131.5337,-11.39739]]],[[[133.49334,-11.50897],[133.44288,-11.50319],[133.39503,-11.5442],[133.39503,-11.48903],[133.4769,-11.45485],[133.49334,-11.50897]]],[[[132.48943,-11.16009],[132.46811,-11.02996],[132.55128,-11.0324],[132.59929,-10.96836],[132.59929,-11.34498],[132.48943,-11.16009]]],[[[136.71193,-15.70355],[136.66359,-15.77858],[136.61573,-15.71404],[136.67042,-15.66318],[136.71193,-15.70355]]],[[[137.10018,-15.80342],[137.04391,-15.8342],[136.98162,-15.71201],[136.93472,-15.72132],[136.99476,-15.59278],[137.08319,-15.6522],[137.10018,-15.80342]]],[[[136.80063,-15.64202],[136.78004,-15.67295],[136.79078,-15.72226],[136.73178,-15.7444],[136.73178,-15.64886],[136.80063,-15.64202]]],[[[136.60035,-15.61159],[136.49855,-15.5875],[136.60279,-15.51637],[136.60035,-15.61159]]],[[[136.86671,-15.62396],[136.84164,-15.55332],[136.88331,-15.49814],[136.89568,-15.5875],[136.86671,-15.62396]]],[[[136.97885,-14.14739],[136.95151,-14.27777],[136.90309,-14.29892],[136.63942,-14.28021],[136.42677,-14.19524],[136.32407,-14.22959],[136.43735,-14.12037],[136.40968,-13.81854],[136.59474,-13.81227],[136.62859,-13.7763],[136.57228,-13.68621],[136.62094,-13.71771],[136.71827,-13.64772],[136.67652,-13.74375],[136.73178,-13.83953],[136.81422,-13.84971],[136.84164,-13.75018],[136.90309,-13.75758],[136.85597,-13.91522],[136.76832,-13.94459],[136.8108,-14.02939],[136.7046,-14.07293],[136.7046,-14.12689],[136.7234,-14.18548],[136.78924,-14.14951],[136.87184,-14.20794],[136.97885,-14.14739]]],[[[136.81813,-13.80137],[136.80909,-13.81341],[136.80747,-13.81854],[136.81813,-13.80137]]],[[[136.28688,-13.70582],[136.2361,-13.84726],[136.17701,-13.76385],[136.15651,-13.83953],[136.11671,-13.81666],[136.11476,-13.72357],[136.16489,-13.74236],[136.21111,-13.66139],[136.28688,-13.70582]]],[[[136.11785,-13.36224],[136.20314,-13.4612],[136.15455,-13.47291],[136.14296,-13.56045],[136.11785,-13.36224]]],[[[136.82936,-12.13226],[136.79707,-12.10835],[136.81696,-12.07608],[136.82936,-12.13226]]],[[[136.31625,-11.9874],[136.15105,-12.07448],[136.12916,-12.0167],[136.31625,-11.9874]]],[[[136.47779,-11.81422],[136.48325,-11.88942],[136.46909,-11.90651],[136.47779,-11.81422]]],[[[136.62371,-11.73659],[136.58155,-11.79811],[136.51954,-11.7907],[136.62371,-11.73659]]],[[[136.47804,-11.46111],[136.37566,-11.59206],[136.17701,-11.68825],[136.26686,-11.57293],[136.31951,-11.60296],[136.47804,-11.46111]]],[[[136.70818,-11.20957],[136.53529,-11.44317],[136.47802,-11.44793],[136.76246,-11.0193],[136.70818,-11.20957]]]]}},{"type":"Feature","properties":{"id":"au-qld","lat":-19.93165,"lng":143.09976},"geometry":{"type":"MultiPolygon","coordinates":[[[[148.48097,-20.00457],[148.45045,-20.0416],[148.45045,-19.96575],[148.48097,-20.00457]]],[[[138.18426,-16.6972],[139.00831,-16.89544],[139.15805,-17.03297],[139.15252,-17.16855],[139.23992,-17.32342],[139.43865,-17.37567],[139.64096,-17.5324],[139.9253,-17.62135],[139.99952,-17.70615],[140.5075,-17.63633],[140.84522,-17.44118],[140.94703,-17.01832],[141.19947,-16.70306],[141.29265,-16.49554],[141.43116,-16.06178],[141.3777,-15.92938],[141.43971,-15.64886],[141.65895,-15.09393],[141.52166,-14.48382],[141.59848,-14.11452],[141.46778,-13.86549],[141.52703,-13.57138],[141.69361,-13.25058],[141.58375,-12.98577],[141.75473,-12.81846],[141.80974,-12.66766],[141.88209,-12.71803],[141.93873,-12.90846],[141.90528,-12.75709],[142.00831,-12.71494],[141.82325,-12.65407],[141.97413,-12.58514],[141.79762,-12.58001],[141.69361,-12.50319],[141.7448,-12.45477],[141.65895,-12.44793],[141.69996,-12.54437],[141.59059,-12.54078],[141.71713,-12.23284],[141.80974,-12.23626],[141.75343,-12.2081],[141.83123,-12.00596],[141.91334,-11.95452],[141.91961,-12.10605],[141.96388,-12.03777],[142.03297,-12.04119],[141.95297,-11.97568],[141.9476,-11.89617],[142.13185,-11.33815],[142.15105,-10.95062],[142.32342,-10.90162],[142.44858,-10.71453],[142.55006,-10.6902],[142.6159,-10.75237],[142.51539,-10.85166],[142.50172,-10.94785],[142.59083,-10.86492],[142.66627,-11.00311],[142.74195,-10.97503],[142.80128,-11.27777],[142.87224,-11.3825],[142.82106,-11.47763],[142.86231,-11.83685],[142.9922,-11.93402],[143.10418,-11.90211],[143.24903,-11.96819],[143.08627,-12.14902],[143.07716,-12.32879],[143.25294,-12.38893],[143.29493,-12.53485],[143.43393,-12.61305],[143.3589,-12.88055],[143.54379,-12.83278],[143.50294,-13.07513],[143.59791,-13.52418],[143.53012,-13.75018],[143.68727,-14.01434],[143.78272,-14.40228],[143.94117,-14.51116],[144.16163,-14.37314],[144.20118,-14.25042],[144.30356,-14.31259],[144.44028,-14.25026],[144.48634,-14.16188],[144.58473,-14.26483],[144.58041,-14.36419],[144.63315,-14.33994],[144.61598,-14.46771],[144.67758,-14.55584],[144.90073,-14.61419],[145.03053,-14.80592],[145.22283,-14.8327],[145.27711,-14.94703],[145.34571,-14.94256],[145.23585,-15.16595],[145.26881,-15.24944],[145.34946,-15.25042],[145.24391,-15.4284],[145.36638,-15.74928],[145.35581,-15.90342],[145.46241,-16.06048],[145.4686,-16.26067],[145.4004,-16.44329],[145.7225,-16.80023],[145.77426,-16.98838],[145.83912,-16.88152],[145.95509,-16.87314],[145.88185,-17.05967],[146.14772,-17.63258],[146.0101,-18.23651],[146.18344,-18.38014],[146.20916,-18.51336],[146.33937,-18.52703],[146.27662,-18.87428],[146.46225,-19.07496],[146.6548,-19.18255],[146.74635,-19.17278],[146.90512,-19.30462],[147.01043,-19.25262],[147.0241,-19.17742],[147.13396,-19.41082],[147.4214,-19.41277],[147.42262,-19.31463],[147.55909,-19.53753],[147.56528,-19.70517],[147.68426,-19.82806],[147.785,-19.83538],[147.75082,-19.6915],[147.8239,-19.71429],[147.92905,-19.89756],[148.07244,-19.87705],[148.27857,-19.96575],[148.30641,-20.03395],[148.2649,-20.0831],[148.40203,-20.1985],[148.46404,-20.18548],[148.42254,-20.16497],[148.47641,-20.13201],[148.44418,-20.06194],[148.56007,-20.05267],[148.61085,-20.21364],[148.64845,-20.16497],[148.68312,-20.27418],[148.78199,-20.24082],[148.93702,-20.53493],[148.86818,-20.52809],[148.80828,-20.43336],[148.75831,-20.47283],[148.70102,-20.43922],[148.72413,-20.50075],[148.66017,-20.5722],[148.73976,-20.71893],[148.84352,-20.77752],[148.82716,-20.89056],[148.87501,-20.84287],[149.05633,-20.89853],[149.02662,-20.97625],[149.15064,-20.99619],[149.23121,-21.08978],[149.19654,-21.22015],[149.29273,-21.28167],[149.28647,-21.39772],[149.34107,-21.42441],[149.29217,-21.51067],[149.39519,-21.50384],[149.42937,-21.58375],[149.48715,-21.5359],[149.43539,-21.78973],[149.58758,-22.28216],[149.69744,-22.34433],[149.66326,-22.49383],[149.81276,-22.37811],[150.04672,-22.64528],[149.92351,-22.29827],[149.9782,-22.17376],[150.05356,-22.14153],[150.19402,-22.37868],[150.60914,-22.61053],[150.53452,-22.42702],[150.56764,-22.32317],[150.66383,-22.41937],[150.6775,-22.358],[150.7562,-22.45875],[150.67164,-22.5206],[150.73194,-22.62811],[150.77345,-22.53021],[150.82643,-22.69793],[150.78736,-22.92645],[150.7365,-22.93287],[150.76442,-23.15887],[150.83904,-23.24896],[150.78736,-23.30934],[150.88234,-23.48887],[150.81397,-23.50921],[150.88575,-23.57155],[151.01128,-23.5665],[151.18718,-23.80413],[151.27784,-23.82391],[151.44093,-24.00555],[151.53728,-24.02174],[151.55055,-24.0914],[151.5818,-24.04371],[151.69166,-24.09832],[151.64137,-23.97828],[151.7326,-24.01637],[151.72104,-24.05869],[151.78045,-24.02256],[151.81137,-24.14235],[151.89772,-24.14544],[152.12306,-24.59173],[152.46974,-24.8056],[152.50603,-24.99944],[152.63697,-25.16033],[152.56772,-25.17864],[152.91383,-25.28769],[152.93181,-25.41668],[152.87037,-25.47568],[152.96241,-25.43743],[152.96616,-25.49725],[152.88404,-25.67425],[153.02125,-25.82513],[153.02125,-25.96901],[153.06153,-25.81756],[153.12159,-25.93377],[153.20558,-25.93499],[153.07407,-26.31658],[153.13722,-26.393],[153.11004,-26.64691],[153.21022,-27.07724],[153.0822,-27.11045],[153.03826,-27.19346],[153.11744,-27.19695],[153.06495,-27.31048],[153.16798,-27.3637],[153.40187,-27.80918],[153.44581,-27.79144],[153.39991,-27.9542],[153.43897,-27.94899],[153.50652,-28.14926],[153.35419,-28.25001],[153.19249,-28.25982],[153.10665,-28.35388],[152.75102,-28.35801],[152.61666,-28.29321],[152.56416,-28.333],[152.48716,-28.26339],[152.38696,-28.36576],[151.96399,-28.54007],[152.06703,-28.70316],[152.01365,-28.89922],[151.85877,-28.91632],[151.82415,-28.97358],[151.72514,-28.88666],[151.56442,-28.95058],[151.52019,-29.06138],[151.37611,-29.17062],[151.28744,-28.92082],[151.06213,-28.82801],[151.0459,-28.73489],[150.79351,-28.63505],[150.44956,-28.64647],[150.29814,-28.53495],[149.70449,-28.62745],[149.59524,-28.56539],[149.48445,-28.58394],[149.41634,-28.68073],[149.09357,-28.84842],[148.9714,-28.99973],[141.00011,-28.99994],[141.00011,-25.99991],[138.00019,-25.99991],[138.00017,-16.5416],[138.18426,-16.6972]]],[[[146.86866,-19.10231],[146.82008,-19.17506],[146.78028,-19.13201],[146.86866,-19.10231]]],[[[146.68344,-18.74358],[146.57016,-18.76084],[146.58131,-18.68222],[146.68344,-18.74358]]],[[[146.34702,-18.4262],[146.29168,-18.49285],[146.2234,-18.46551],[146.19923,-18.37526],[146.09734,-18.24521],[146.21746,-18.27793],[146.2295,-18.19801],[146.30209,-18.23724],[146.27833,-18.30739],[146.34702,-18.4262]]],[[[139.56935,-17.10036],[139.43238,-17.14284],[139.40398,-17.10068],[139.49391,-16.98512],[139.56935,-17.10036]]],[[[139.15504,-16.81292],[139.10768,-16.86248],[139.0892,-16.82757],[139.15504,-16.81292]]],[[[139.73414,-16.50547],[139.61052,-16.55316],[139.5525,-16.48333],[139.48707,-16.51784],[139.52467,-16.5569],[139.47364,-16.55739],[139.44467,-16.66465],[139.23756,-16.72487],[139.17799,-16.66237],[139.14487,-16.75604],[139.17262,-16.60036],[139.30828,-16.4612],[139.58269,-16.3956],[139.73414,-16.44329],[139.73414,-16.50547]]],[[[142.27345,-10.71836],[142.15317,-10.75563],[142.11818,-10.6535],[142.21225,-10.59759],[142.27345,-10.71836]]],[[[142.27443,-10.6408],[142.24732,-10.59979],[142.29428,-10.57318],[142.32521,-10.6124],[142.27443,-10.6408]]],[[[142.29347,-10.13893],[142.28981,-10.26019],[142.19321,-10.19362],[142.29347,-10.13893]]],[[[142.17595,-10.16082],[142.09913,-10.13568],[142.1421,-10.05039],[142.19752,-10.09246],[142.17595,-10.16082]]],[[[142.77101,-9.37371],[142.64161,-9.4284],[142.60125,-9.39951],[142.77101,-9.37371]]],[[[142.28012,-9.26165],[142.18084,-9.28476],[142.15089,-9.27142],[142.28012,-9.26165]]],[[[153.54884,-27.41522],[153.4559,-27.7208],[153.40333,-27.72625],[153.44239,-27.3873],[153.54884,-27.41522]]],[[[153.42302,-27.35817],[153.36313,-27.05527],[153.46274,-27.0206],[153.42302,-27.35817]]],[[[152.96372,-25.29909],[152.99366,-25.30397],[152.99391,-25.33847],[152.96372,-25.29909]]],[[[153.36997,-24.98903],[153.16065,-25.46315],[153.05535,-25.79713],[152.9463,-25.58294],[153.06853,-25.32903],[153.01442,-25.21152],[153.22609,-25.02752],[153.23959,-24.91326],[153.13722,-24.81707],[153.28126,-24.69354],[153.28492,-24.87664],[153.36997,-24.98903]]],[[[151.38307,-23.87957],[151.32862,-23.80291],[151.33326,-23.75018],[151.38307,-23.87957]]],[[[151.29103,-23.74993],[151.21388,-23.77809],[150.97961,-23.48739],[151.0713,-23.4472],[151.19508,-23.53387],[151.23911,-23.48887],[151.29103,-23.74993]]],[[[149.72779,-22.34051],[149.75196,-22.39886],[149.72478,-22.43987],[149.72779,-22.34051]]],[[[150.5608,-22.29583],[150.48227,-22.34499],[150.47836,-22.21624],[150.50457,-22.21673],[150.5608,-22.29583]]],[[[149.91652,-22.04192],[149.92156,-22.19069],[149.88852,-22.22682],[149.86939,-22.14227],[149.91652,-22.04192]]],[[[150.36891,-21.72674],[150.34278,-21.77174],[150.29322,-21.74773],[150.36891,-21.72674]]],[[[150.30535,-21.65976],[150.2461,-21.67889],[150.2461,-21.62363],[150.30535,-21.65976]]],[[[149.11508,-20.47967],[149.04314,-20.51751],[149.09409,-20.41823],[149.11508,-20.47967]]],[[[149.07342,-20.29998],[148.92701,-20.28729],[148.98487,-20.15146],[149.07342,-20.29998]]],[[[148.95753,-20.14381],[148.88185,-20.13763],[148.96372,-20.0416],[148.95753,-20.14381]]]]}},{"type":"Feature","properties":{"id":"au-sa","lat":-32.06732,"lng":136.95391},"geometry":{"type":"MultiPolygon","coordinates":[[[[138.12818,-35.84881],[138.0477,-35.91863],[137.82179,-35.86403],[137.62875,-35.91033],[137.60231,-36.02581],[137.45924,-36.0827],[137.22788,-35.97975],[137.1399,-36.04225],[136.71559,-36.06276],[136.53256,-35.91188],[136.59783,-35.7575],[137.33513,-35.58294],[137.62289,-35.58213],[137.60182,-35.74391],[137.77849,-35.73952],[137.81276,-35.81146],[137.96559,-35.73024],[138.12818,-35.84881]]],[[[136.4629,-35.13974],[136.4922,-35.17889],[136.43995,-35.16172],[136.4629,-35.13974]]],[[[136.19972,-35.03281],[136.16212,-35.06553],[136.08611,-34.94817],[136.12696,-34.94842],[136.19972,-35.03281]]],[[[137.37379,-34.49822],[137.33619,-34.51531],[137.36915,-34.47243],[137.37379,-34.49822]]],[[[134.53956,-33.69647],[134.51157,-33.74627],[134.47902,-33.78362],[134.48634,-33.71168],[134.53956,-33.69647]]],[[[133.56568,-32.32122],[133.59799,-32.25115],[133.67555,-32.23935],[133.56568,-32.32122]]],[[[134.11801,-32.45208],[133.8567,-32.54111],[133.86915,-32.43255],[133.94996,-32.38942],[133.64918,-32.10166],[133.58619,-32.10312],[133.56137,-32.17213],[133.47682,-32.11191],[133.41871,-32.13348],[133.49431,-32.19964],[133.27084,-32.21885],[132.97657,-32.10898],[132.77622,-31.95086],[132.51612,-31.94134],[132.45289,-31.98398],[132.47185,-32.03045],[132.23373,-32.03297],[131.78297,-31.7278],[131.1775,-31.47763],[130.79005,-31.60809],[130.15691,-31.57391],[129.00009,-31.68922],[129.00012,-25.99991],[141.00011,-25.99991],[140.96817,-38.05943],[140.6902,-38.06813],[140.3982,-37.91985],[140.11427,-37.51751],[139.98805,-37.48707],[139.74155,-37.18084],[139.78834,-37.12624],[139.67205,-36.95338],[139.81544,-36.879],[139.86354,-36.76727],[139.85369,-36.62176],[139.72902,-36.37233],[139.45672,-35.95794],[138.91782,-35.57675],[139.00099,-35.58538],[139.44752,-35.92734],[139.67205,-36.2278],[139.59376,-36.02256],[139.47543,-35.89642],[139.04135,-35.6041],[139.15528,-35.50335],[139.23414,-35.54754],[139.2295,-35.68939],[139.33806,-35.68743],[139.35572,-35.59336],[139.21892,-35.50726],[139.36101,-35.48952],[139.36297,-35.37689],[139.17799,-35.31536],[139.10206,-35.38925],[138.96119,-35.41383],[139.03093,-35.51751],[138.79379,-35.48398],[138.99342,-35.54754],[138.74586,-35.53875],[138.53126,-35.64593],[138.20167,-35.67164],[138.10743,-35.6207],[138.13901,-35.54046],[138.43816,-35.34271],[138.51393,-35.03826],[138.49391,-34.7916],[138.55063,-34.78191],[138.2942,-34.50457],[138.07814,-34.12835],[138.00929,-34.24432],[138.03777,-34.30804],[137.89226,-34.52606],[137.91041,-34.62396],[137.74952,-35.13104],[137.6714,-35.18084],[137.42555,-35.11826],[137.1692,-35.24228],[137.03972,-35.22723],[136.91359,-35.29656],[136.83937,-35.25612],[136.96095,-35.09645],[136.94125,-35.02988],[137.01979,-34.90146],[137.39129,-34.95403],[137.44614,-34.91741],[137.51271,-34.61777],[137.47853,-34.46624],[137.41432,-34.47243],[137.4839,-34.3554],[137.4524,-34.15569],[137.5486,-34.08717],[137.53191,-34.01539],[137.62794,-33.9201],[137.60206,-33.87664],[137.87884,-33.59787],[137.93092,-33.61647],[137.81044,-33.25999],[137.85499,-33.19061],[138.03712,-33.13958],[138.04021,-33.08164],[137.95777,-33.00465],[137.90235,-32.78753],[137.93849,-32.75262],[137.84913,-32.69793],[137.77394,-32.51979],[137.77833,-32.98284],[137.63209,-32.96152],[137.45216,-33.14007],[137.36964,-33.41326],[137.22486,-33.65325],[137.02019,-33.73016],[136.94557,-33.68231],[136.88315,-33.75482],[136.96461,-33.75311],[136.60743,-33.90293],[136.36939,-34.07342],[136.23219,-34.30869],[136.11476,-34.38372],[136.10141,-34.53484],[136.06935,-34.48187],[135.93678,-34.5346],[135.94361,-34.63746],[135.86842,-34.66863],[135.88299,-34.76849],[135.79949,-34.80527],[136.01637,-34.74407],[135.96949,-34.87664],[136.01246,-34.97967],[135.96461,-35.0075],[135.78272,-34.8576],[135.63258,-34.95289],[135.45753,-34.73154],[135.31967,-34.68597],[135.28785,-34.59246],[135.10808,-34.59596],[135.20981,-34.43157],[135.21372,-34.49236],[135.32716,-34.52777],[135.37086,-34.62819],[135.50359,-34.61191],[135.43702,-34.59979],[135.43849,-34.54567],[135.38917,-34.56927],[135.34645,-34.27557],[135.23097,-34.13681],[135.26515,-34.01751],[135.18979,-33.893],[134.84083,-33.63128],[134.86101,-33.47942],[134.81397,-33.3528],[134.67661,-33.23333],[134.73072,-33.22552],[134.70623,-33.17295],[134.58155,-33.14593],[134.66236,-33.22552],[134.62827,-33.24668],[134.47755,-33.15732],[134.35914,-33.15398],[134.33351,-33.20501],[134.23373,-33.0473],[134.14861,-33.02752],[134.20997,-33.00018],[134.19068,-32.94647],[134.0687,-32.9293],[134.13282,-32.83563],[134.07407,-32.71396],[134.21681,-32.72584],[134.21404,-32.80625],[134.29762,-32.67848],[134.22983,-32.5237],[134.11801,-32.45208]]]]}},{"type":"Feature","properties":{"id":"au-tas","lat":-42.13535,"lng":146.66712},"geometry":{"type":"MultiPolygon","coordinates":[[[[147.36402,-43.37933],[147.30388,-43.50888],[147.21559,-43.41522],[147.16773,-43.50164],[147.08619,-43.42962],[147.17921,-43.45403],[147.16814,-43.36826],[147.2256,-43.38551],[147.30445,-43.26181],[147.36402,-43.37933]]],[[[147.99855,-43.2304],[147.88282,-43.13152],[147.79249,-43.24407],[147.70021,-43.16277],[147.74789,-43.10573],[147.62062,-43.02313],[147.71518,-42.93743],[147.76303,-43.03753],[147.8755,-43.04095],[147.90919,-43.01873],[147.84506,-42.9887],[147.84034,-42.90203],[147.53354,-42.8366],[147.50294,-42.88209],[147.55909,-42.97723],[147.43621,-43.04608],[147.40211,-42.99822],[147.46901,-43.01133],[147.47731,-42.90887],[147.42221,-42.92694],[147.2837,-42.7785],[147.3602,-42.92523],[147.33318,-43.04266],[147.2544,-43.02728],[147.30128,-43.0831],[147.24773,-43.12916],[147.25758,-43.25433],[147.16383,-43.27011],[147.09213,-43.23187],[147.10662,-43.15472],[147.06056,-43.20159],[147.01783,-43.1124],[146.97291,-43.13112],[146.96648,-43.19899],[147.09978,-43.29941],[146.96266,-43.34027],[147.05535,-43.35621],[146.92164,-43.42962],[147.01783,-43.47812],[146.9017,-43.532],[146.92701,-43.61175],[146.7107,-43.629],[146.5547,-43.46941],[146.51352,-43.53395],[146.29168,-43.532],[146.23813,-43.48455],[146.18922,-43.53948],[146.14991,-43.50563],[146.02418,-43.5525],[146.02394,-43.45184],[145.94321,-43.36484],[146.08562,-43.35394],[146.16139,-43.41595],[146.18019,-43.36484],[146.23023,-43.3956],[146.2295,-43.31976],[146.16822,-43.2776],[146.11101,-43.33603],[146.06764,-43.28191],[146.0254,-43.32488],[145.91717,-43.1959],[145.86931,-43.27305],[145.92579,-43.28916],[145.8318,-43.29258],[145.72999,-43.10003],[145.67408,-43.0993],[145.68824,-43.04974],[145.5975,-42.97186],[145.51027,-42.95843],[145.36622,-42.7575],[145.35271,-42.65081],[145.26547,-42.60426],[145.29786,-42.55885],[145.18873,-42.19573],[145.43482,-42.37933],[145.47202,-42.51279],[145.55812,-42.34157],[145.46314,-42.32724],[145.34571,-42.14723],[145.27003,-42.22373],[145.22902,-42.19573],[145.26637,-42.12347],[145.20655,-41.96657],[144.92018,-41.70289],[144.74985,-41.41424],[144.7811,-41.36517],[144.60581,-40.99652],[144.70379,-40.87135],[144.69858,-40.66025],[144.76629,-40.72649],[144.98471,-40.74481],[145.11883,-40.82138],[145.25026,-40.79168],[145.26922,-40.71999],[145.30787,-40.75514],[145.27003,-40.7973],[145.33237,-40.83807],[145.52394,-40.8458],[145.80982,-41.02695],[146.21437,-41.15537],[146.5464,-41.13274],[146.58562,-41.18011],[146.74415,-41.06553],[146.80812,-41.15667],[146.94956,-41.16107],[146.81935,-41.07537],[147.01759,-40.97666],[147.17107,-41.00652],[147.34278,-40.94215],[147.44484,-41.0084],[147.65056,-40.82855],[147.84946,-40.88877],[147.98422,-40.73651],[148.20932,-40.84075],[148.33139,-41.00221],[148.27231,-41.04502],[148.32154,-41.26849],[148.25799,-41.34661],[148.35418,-41.29144],[148.27947,-41.45037],[148.31495,-41.60654],[148.261,-41.80039],[148.32692,-41.91578],[148.29933,-42.05055],[148.36378,-42.11028],[148.31593,-42.17018],[148.36427,-42.20436],[148.32179,-42.27801],[148.25799,-42.24424],[148.32008,-42.1194],[148.16245,-42.05918],[148.24171,-42.00742],[148.181,-41.94736],[148.13136,-42.06194],[148.21705,-42.09336],[148.09295,-42.10019],[147.96388,-42.33978],[148.03093,-42.33229],[148.00603,-42.51409],[147.88868,-42.5451],[147.95314,-42.71999],[147.84457,-42.86614],[147.91529,-42.88844],[147.8816,-42.87168],[147.92075,-42.83831],[148.00473,-42.90887],[147.94956,-43.07285],[147.99855,-43.2304]]],[[[145.0652,-40.70916],[144.89031,-40.72812],[144.86964,-40.66481],[144.93051,-40.61533],[145.0652,-40.70916]]],[[[144.77914,-40.40537],[144.74244,-40.59246],[144.70826,-40.48944],[144.77914,-40.40537]]],[[[144.83123,-40.42799],[144.89698,-40.37957],[144.96046,-40.39788],[144.90073,-40.4695],[144.83123,-40.42799]]],[[[144.10922,-39.66578],[144.11248,-40.03086],[143.88648,-40.10654],[143.85174,-39.75644],[143.94801,-39.65398],[143.94459,-39.57887],[144.10922,-39.66578]]],[[[147.36004,-43.07488],[147.43751,-43.23895],[147.36085,-43.25791],[147.38787,-43.19622],[147.29176,-43.15301],[147.35418,-43.13942],[147.36004,-43.07488]]],[[[148.17604,-42.64821],[148.07301,-42.66676],[148.11012,-42.71648],[148.01157,-42.75124],[148.03956,-42.6032],[148.13445,-42.5901],[148.17604,-42.64821]]],[[[148.34059,-42.3541],[148.2492,-42.32391],[148.23072,-42.29941],[148.3169,-42.31439],[148.34059,-42.3541]]],[[[148.10499,-40.53004],[148.25115,-40.48944],[148.19418,-40.59629],[148.10499,-40.53004]]],[[[148.46892,-40.44069],[148.34059,-40.50368],[148.32732,-40.43597],[147.99855,-40.41774],[148.07407,-40.35117],[148.1941,-40.36565],[148.3235,-40.30446],[148.46892,-40.44069]]],[[[147.99106,-40.09222],[147.88502,-40.03086],[147.88087,-39.89495],[147.75766,-39.87933],[147.9533,-39.71168],[148.167,-39.93564],[148.299,-39.96185],[148.28321,-40.08148],[148.22389,-40.1264],[148.299,-40.09905],[148.32692,-40.22259],[148.07472,-40.25514],[147.99106,-40.09222]]]]}},{"type":"Feature","properties":{"id":"au-vic","lat":-36.5133,"lng":144.55449},"geometry":{"type":"MultiPolygon","coordinates":[[[[146.64259,-38.75254],[146.53891,-38.79705],[146.47136,-38.74725],[146.53468,-38.75596],[146.64259,-38.75254]]],[[[145.27931,-38.45159],[145.36101,-38.54852],[145.35255,-38.57098],[145.26368,-38.51922],[145.11297,-38.53053],[145.27931,-38.45159]]],[[[145.29786,-38.29656],[145.49439,-38.36517],[145.35328,-38.4284],[145.27003,-38.35866],[145.29786,-38.29656]]],[[[149.89633,-37.5486],[149.71843,-37.5158],[149.76629,-37.58408],[149.67848,-37.69101],[149.47902,-37.7859],[148.30641,-37.82342],[147.75758,-37.98512],[146.84767,-38.68499],[146.22413,-38.71445],[146.18238,-38.75596],[146.28639,-38.90984],[146.47674,-38.81048],[146.43507,-39.01995],[146.48341,-39.06463],[146.39422,-39.14495],[146.18165,-38.86834],[146.09181,-38.81976],[145.92115,-38.90667],[145.75717,-38.6596],[145.85353,-38.70062],[145.80934,-38.65016],[145.59962,-38.68011],[145.51368,-38.57838],[145.37306,-38.5368],[145.43385,-38.50213],[145.42075,-38.42694],[145.55689,-38.38519],[145.46437,-38.23455],[145.25587,-38.24147],[145.2024,-38.32448],[145.22902,-38.41326],[145.11297,-38.40643],[144.94459,-38.51035],[144.67677,-38.33319],[144.80397,-38.37908],[144.98292,-38.3414],[145.11931,-38.15936],[145.1102,-38.05169],[144.93482,-37.86793],[144.5171,-38.11159],[144.37306,-38.11842],[144.52361,-38.17799],[144.70476,-38.14609],[144.65284,-38.28582],[144.40187,-38.3012],[143.53696,-38.85833],[143.35743,-38.75823],[143.2234,-38.75628],[143.06007,-38.63592],[142.81023,-38.57838],[142.50245,-38.37444],[142.17547,-38.3987],[141.94679,-38.28289],[141.76197,-38.26181],[141.63209,-38.30877],[141.65398,-38.39984],[141.55787,-38.43971],[141.48308,-38.37624],[141.39454,-38.40163],[141.37477,-38.29119],[140.96817,-38.05943],[140.96709,-33.98645],[141.04558,-34.06221],[141.24185,-34.07601],[141.54617,-34.21863],[141.74854,-34.10319],[142.05126,-34.11595],[142.23512,-34.19192],[142.30514,-34.31713],[142.39646,-34.33801],[142.38576,-34.5334],[142.5566,-34.77416],[142.6428,-34.78764],[142.7261,-34.60321],[142.79002,-34.58233],[142.88035,-34.67933],[143.14261,-34.69902],[143.32813,-34.78439],[143.36399,-35.10721],[143.41836,-35.18803],[143.5814,-35.24942],[143.586,-35.35293],[144.10007,-35.58677],[144.35329,-35.77756],[144.45256,-35.94716],[144.74071,-36.135],[144.97547,-36.09743],[144.93392,-36.00555],[145.00844,-35.86763],[145.49379,-35.82898],[145.78695,-35.97997],[145.93975,-35.96685],[146.21622,-36.05584],[146.3695,-36.05273],[146.50427,-35.97393],[146.84688,-36.09743],[147.00532,-36.09015],[147.10692,-36.2412],[147.19632,-36.22032],[147.09379,-36.16803],[147.13472,-36.03935],[147.34029,-36.07635],[147.3822,-35.97961],[147.48369,-35.94597],[147.55676,-35.99636],[147.71381,-35.93941],[147.90971,-36.00504],[147.99689,-36.05925],[148.06758,-36.40971],[148.21486,-36.61689],[148.12329,-36.78825],[149.97207,-37.51029],[149.89633,-37.5486]]]]}},{"type":"Feature","properties":{"id":"au-wa","lat":-24.57098,"lng":121.249},"geometry":{"type":"MultiPolygon","coordinates":[[[[115.67848,-32.21648],[115.66,-32.23252],[115.66,-32.14984],[115.67848,-32.21648]]],[[[115.52461,-31.99381],[115.51476,-32.02536],[115.44014,-32.02183],[115.52461,-31.99381]]],[[[113.67962,-28.45224],[113.74954,-28.42758],[113.6846,-28.48628],[113.67962,-28.45224]]],[[[113.20704,-26.13974],[112.95387,-25.77304],[112.91944,-25.52361],[112.95948,-25.48252],[113.00782,-25.49619],[113.13754,-25.88592],[113.11557,-25.96331],[113.209,-26.03655],[113.20704,-26.13974]]],[[[113.05128,-25.23968],[113.11769,-25.00945],[113.06316,-25.27646],[113.05128,-25.23968]]],[[[113.11769,-24.98577],[113.13282,-24.80234],[113.15187,-24.75563],[113.15187,-24.92694],[113.11769,-24.98577]]],[[[129.00009,-31.68922],[128.01735,-32.08424],[127.28875,-32.27337],[126.67775,-32.31658],[126.18572,-32.23252],[126.00758,-32.27337],[125.53727,-32.54838],[125.00025,-32.73724],[124.83399,-32.8677],[124.31495,-32.96608],[124.09474,-33.15569],[123.95248,-33.56732],[123.52662,-33.93865],[123.38331,-33.89088],[123.15463,-34.00945],[123.11362,-33.90447],[123.02312,-33.86061],[122.60743,-33.89479],[122.56031,-33.95916],[122.34986,-33.9153],[122.25782,-34.02207],[122.09474,-34.01914],[122.00571,-33.82073],[121.79371,-33.89715],[121.33375,-33.8152],[121.16635,-33.86793],[120.56218,-33.893],[120.3943,-33.97381],[120.00221,-33.92604],[119.80616,-33.98496],[119.57203,-34.14202],[119.46949,-34.31341],[119.55925,-34.38372],[119.40846,-34.37005],[119.36402,-34.49505],[119.30144,-34.4459],[119.22999,-34.53216],[119.11695,-34.47243],[118.83985,-34.45257],[118.88771,-34.50042],[118.72731,-34.55804],[118.72495,-34.63584],[118.44264,-34.74],[118.39845,-34.90097],[118.16082,-34.94549],[118.19939,-35.01678],[117.83546,-35.03143],[118.00147,-35.08815],[117.93287,-35.12038],[117.68434,-35.04632],[117.61964,-35.13787],[117.19166,-35.0075],[117.14039,-35.06276],[116.73634,-35.0075],[116.63787,-35.05023],[116.39503,-34.94948],[116.50367,-34.93922],[116.38754,-34.85752],[116.37615,-34.91741],[115.97853,-34.83563],[115.91578,-34.70192],[115.61231,-34.4459],[115.29078,-34.30185],[115.18377,-34.30185],[115.11883,-34.36338],[115.01043,-34.24505],[114.96119,-33.85955],[114.98854,-33.52109],[115.19467,-33.64463],[115.3672,-33.63128],[115.5171,-33.51238],[115.62599,-33.30804],[115.70167,-33.29713],[115.71013,-33.27069],[115.69793,-33.19313],[115.66684,-33.28769],[115.67457,-33.025],[115.60092,-32.66172],[115.70094,-32.51295],[115.63966,-32.65691],[115.71412,-32.78045],[115.65887,-32.62851],[115.7693,-32.60231],[115.71453,-32.53704],[115.73585,-32.33319],[115.67368,-32.27337],[115.73585,-32.26442],[115.75685,-32.18564],[115.72153,-31.77264],[115.18092,-30.82724],[115.0608,-30.52239],[114.94264,-30.03102],[114.97877,-29.47991],[114.84246,-29.10857],[114.60377,-28.83856],[114.5311,-28.52239],[114.16603,-28.1067],[114.09791,-27.86273],[114.14389,-27.68776],[114.01254,-27.31536],[113.59058,-26.67565],[113.31262,-26.41595],[113.15698,-26.15193],[113.27597,-26.23486],[113.30622,-25.99665],[113.328,-26.2749],[113.38427,-26.38275],[113.36267,-26.01281],[113.39664,-26.17658],[113.45163,-26.15938],[113.48676,-26.47994],[113.54357,-26.28712],[113.56551,-26.56508],[113.62515,-26.44],[113.66959,-26.65289],[113.87029,-26.52213],[113.88477,-26.34267],[113.57724,-26.08934],[113.55755,-25.94099],[113.42078,-25.72821],[113.51525,-25.50934],[113.5208,-25.60095],[113.75695,-25.88522],[113.728,-26.19703],[113.79539,-26.20671],[113.84807,-26.12171],[113.8545,-25.94427],[113.90958,-25.97637],[113.90602,-26.11932],[114.02153,-26.39089],[114.10378,-26.44788],[114.23437,-26.31658],[114.18653,-25.97894],[114.26856,-25.98952],[114.25856,-25.84189],[114.15528,-25.78973],[113.80242,-25.17181],[113.69215,-25.10524],[113.60434,-24.72828],[113.39145,-24.41367],[113.45973,-23.91033],[113.60434,-23.62469],[113.76881,-23.4577],[113.7483,-23.16229],[113.80738,-22.9306],[113.75978,-22.78875],[113.65895,-22.7278],[113.64666,-22.57773],[114.03582,-21.83782],[114.17604,-21.8222],[114.07748,-22.17547],[114.10971,-22.33099],[114.1714,-22.31748],[114.12241,-22.50416],[114.1797,-22.52174],[114.28663,-22.44329],[114.33741,-22.49383],[114.49781,-22.16367],[114.49562,-22.00449],[114.5503,-22.04192],[114.64674,-21.84336],[115.47853,-21.50115],[115.62599,-21.32195],[115.8187,-21.22576],[115.9367,-21.05901],[116.15154,-20.96999],[116.1963,-20.84686],[116.45151,-20.81471],[116.69939,-20.65936],[116.79086,-20.53493],[116.84539,-20.53932],[116.78395,-20.65716],[116.85548,-20.71209],[117.15406,-20.59637],[117.18133,-20.67352],[117.31153,-20.72283],[117.67481,-20.67213],[117.83937,-20.61688],[118.15089,-20.35613],[118.80567,-20.28102],[119.09547,-19.96673],[119.46306,-19.99993],[119.58985,-20.06585],[119.73439,-19.96266],[120.23829,-19.90683],[120.95436,-19.63372],[121.19353,-19.47243],[121.41619,-19.22161],[121.64259,-18.81023],[121.61329,-18.7125],[121.76905,-18.6574],[121.73162,-18.58099],[121.81105,-18.46258],[121.91033,-18.46445],[122.34702,-18.12119],[122.34409,-17.983],[122.16977,-17.97828],[122.20786,-17.91131],[122.14324,-17.56365],[122.17205,-17.26116],[122.27605,-17.08929],[122.47828,-16.97096],[122.47291,-16.92018],[122.59498,-16.97096],[122.52613,-16.86175],[122.58237,-16.77955],[122.82097,-16.77972],[122.7461,-16.7029],[122.7588,-16.60442],[122.8864,-16.5123],[122.91619,-16.41595],[123.02027,-16.38258],[123.05372,-16.47064],[122.99,-16.4734],[122.95981,-16.58034],[123.04282,-16.69248],[123.13217,-16.68629],[123.09449,-16.7693],[123.15089,-16.80771],[123.14332,-16.91375],[123.26043,-17.01474],[123.57081,-17.59515],[123.56764,-17.36199],[123.6443,-17.18475],[123.5796,-17.09401],[123.59498,-16.98512],[123.91334,-17.21559],[123.79461,-17.0001],[123.86305,-17.02557],[123.84164,-16.94655],[123.9533,-16.82855],[123.79249,-16.89072],[123.70826,-16.74188],[123.50994,-16.6539],[123.60922,-16.54632],[123.51254,-16.56666],[123.42416,-16.49114],[123.64332,-16.52597],[123.58814,-16.50547],[123.65406,-16.48447],[123.50611,-16.40797],[123.71168,-16.42978],[123.6316,-16.36468],[123.71168,-16.38128],[123.71168,-16.33359],[123.53972,-16.26523],[123.57016,-16.17694],[123.72413,-16.13633],[123.80689,-16.1911],[123.76686,-16.20436],[123.81349,-16.24603],[123.73268,-16.25897],[123.86264,-16.32732],[123.86305,-16.42978],[123.89186,-16.3388],[123.99285,-16.37786],[123.95143,-16.29363],[123.98601,-16.2789],[123.9109,-16.21746],[124.12623,-16.27223],[124.22267,-16.3956],[124.34213,-16.40797],[124.38608,-16.35117],[124.87892,-16.42067],[124.69728,-16.34442],[124.40154,-16.32928],[124.37843,-16.21494],[124.43434,-16.05779],[124.52036,-16.17645],[124.5962,-16.115],[124.60971,-15.8987],[124.73268,-15.80657],[124.60971,-15.80657],[124.48634,-15.99831],[124.43849,-15.82635],[124.40431,-15.87477],[124.37647,-15.6762],[124.4275,-15.62152],[124.37647,-15.52532],[124.44777,-15.52508],[124.47291,-15.46868],[124.62965,-15.50498],[124.64015,-15.41595],[124.68263,-15.47389],[124.73268,-15.35752],[124.66969,-15.35231],[124.66375,-15.25042],[124.7566,-15.28525],[124.73951,-15.33294],[124.79786,-15.29193],[124.82203,-15.3541],[124.92042,-15.36102],[124.99334,-15.4223],[124.97975,-15.47763],[125.04981,-15.49822],[125.0617,-15.44964],[125.18523,-15.51784],[125.07252,-15.41888],[125.1443,-15.31308],[125.0381,-15.28143],[124.91773,-15.33978],[124.88527,-15.29681],[125.05543,-15.16229],[124.86988,-15.25042],[124.83424,-15.16473],[124.88364,-15.10475],[125.02125,-15.10027],[125.00017,-14.97039],[125.08204,-14.97666],[125.0617,-15.03191],[125.12371,-15.03875],[125.16529,-15.16229],[125.14576,-15.02801],[125.16529,-15.01141],[125.28826,-15.14056],[125.43214,-15.13795],[125.36647,-15.05145],[125.42954,-15.00905],[125.18678,-14.94549],[125.30885,-14.88502],[125.20216,-14.84482],[125.136,-14.73593],[125.30128,-14.6347],[125.23292,-14.61419],[125.34767,-14.49871],[125.34278,-14.60735],[125.39064,-14.53916],[125.43946,-14.63885],[125.49366,-14.49066],[125.5892,-14.54534],[125.58562,-14.2457],[125.73316,-14.27093],[125.65805,-14.3331],[125.68434,-14.50677],[125.63771,-14.6347],[125.73292,-14.39853],[125.73316,-14.47015],[125.84995,-14.45762],[125.83302,-14.58457],[125.91814,-14.63779],[125.92506,-14.51865],[126.04127,-14.50872],[125.98023,-14.38079],[126.06088,-14.35003],[126.063,-14.23561],[126.14479,-14.19524],[126.13445,-14.0949],[125.99244,-14.07147],[125.98023,-13.99041],[126.09637,-14.02508],[126.01735,-13.92205],[126.15162,-13.92213],[126.11061,-14.01775],[126.22047,-13.95623],[126.16586,-14.08538],[126.21225,-14.08148],[126.19109,-14.1596],[126.28883,-14.23008],[126.34506,-14.18467],[126.29371,-14.13649],[126.32911,-14.05926],[126.43214,-13.9699],[126.56918,-13.94199],[126.4533,-14.07757],[126.52768,-14.07293],[126.49366,-14.11338],[126.56918,-14.14056],[126.60353,-14.23008],[126.65187,-14.0661],[126.69272,-14.12078],[126.73373,-14.07293],[126.70721,-13.98358],[126.85727,-13.9494],[126.74741,-13.79176],[126.81446,-13.76832],[126.84303,-13.81854],[126.84539,-13.75433],[126.95289,-13.72357],[127.12973,-13.96771],[127.16521,-13.88055],[127.19695,-13.94931],[127.23683,-13.89202],[127.33269,-13.9612],[127.33025,-13.90106],[127.41847,-13.94199],[127.45021,-14.05731],[127.66603,-14.1784],[127.94728,-14.57318],[128.00538,-14.56072],[128.22779,-14.70973],[128.1906,-14.82985],[128.11793,-14.85377],[128.02426,-15.49652],[128.10133,-15.42457],[128.12517,-15.18206],[128.28932,-15.40179],[128.19581,-15.05682],[128.31349,-14.90496],[128.35011,-15.03729],[128.36492,-14.98406],[128.41798,-15.03973],[128.45021,-15.04266],[128.39576,-14.79599],[128.5324,-14.75286],[129.00012,-14.86815],[129.00009,-31.68922]]],[[[115.43922,-20.80234],[115.36525,-20.87689],[115.2964,-20.85654],[115.45118,-20.66839],[115.43922,-20.80234]]],[[[124.63543,-15.40439],[124.53126,-15.44036],[124.58253,-15.37396],[124.45883,-15.36093],[124.5687,-15.24424],[124.55144,-15.30625],[124.63543,-15.40439]]],[[[124.42286,-15.24619],[124.43165,-15.30869],[124.33473,-15.29681],[124.42286,-15.24619]]],[[[128.13136,-15.03753],[128.18678,-15.1902],[128.12599,-15.1347],[128.13136,-15.03753]]],[[[124.92457,-14.93629],[124.92701,-15.02923],[124.86378,-14.97259],[124.92457,-14.93629]]],[[[128.44068,-15.03875],[128.35825,-14.95631],[128.35377,-14.86924],[128.42953,-14.96592],[128.44068,-15.03875]]],[[[125.20875,-14.48162],[125.20493,-14.59303],[125.13746,-14.64764],[125.09156,-14.61858],[125.16066,-14.43792],[125.20875,-14.48162]]],[[[126.61085,-13.89422],[126.51515,-13.90488],[126.50099,-13.87371],[126.55397,-13.87526],[126.61085,-13.89422]]]]}},{"type":"Feature","properties":{"id":"au-x02~","lat":-35.15154,"lng":150.73166},"geometry":{"type":"Polygon","coordinates":[[[150.61305,-35.18727],[150.76686,-35.1242],[150.75945,-35.17889],[150.61305,-35.18727]]]}},{"type":"Feature","properties":{"id":"au-x03~","lat":-54.62827,"lng":158.89084},"geometry":{"type":"Polygon","coordinates":[[[158.8934,-54.51084],[158.96241,-54.46933],[158.88054,-54.7457],[158.83823,-54.75042],[158.8934,-54.51084]]]}},{"type":"Feature","properties":{"id":"au-x04~","lat":-12.4317,"lng":123.58001},"geometry":{"type":"Polygon","coordinates":[[[123.57504,-12.42661],[123.59775,-12.43857],[123.57561,-12.43678],[123.57504,-12.42661]]]}}]}
