{"type":"FeatureCollection","features":[{"type":"Feature","properties":{"id":"az-abs","lat":40.31001,"lng":49.19364},"geometry":{"type":"MultiPolygon","coordinates":[[[[49.0391,40.1522],[48.85059,40.32849],[48.93627,40.29152],[49.26312,40.50562],[49.40125,40.52983],[49.4827,40.63685],[49.58905,40.54383],[49.8883,40.51319],[49.54347,40.46908],[49.41934,40.3981],[49.42565,40.23656],[49.29191,39.95301],[49.16907,40.14453],[49.0391,40.1522]]],[[[49.62227,40.37221],[49.62861,40.42588],[49.70217,40.38803],[49.66821,40.37007],[49.62227,40.37221]]]]}},{"type":"Feature","properties":{"id":"az-aga","lat":41.18901,"lng":45.52887},"geometry":{"type":"Polygon","coordinates":[[[45.44284,40.94838],[45.3799,41.01941],[45.3922,41.24562],[45.09836,41.34327],[45.24962,41.4445],[45.74406,41.33536],[45.68587,41.29624],[45.77034,41.2321],[45.56691,41.14591],[45.58061,41.05305],[45.44284,40.94838]]]}},{"type":"Feature","properties":{"id":"az-agc","lat":40.04448,"lng":47.43179},"geometry":{"type":"Polygon","coordinates":[[[47.09447,39.92557],[47.22697,40.18561],[47.31559,40.16192],[47.48427,40.25372],[47.54385,40.17274],[47.72415,40.20318],[47.7566,40.15949],[47.6549,39.91617],[47.46328,39.84847],[47.46592,39.73835],[47.31151,39.70802],[47.33936,39.75016],[47.24898,39.857],[47.26299,39.92947],[47.09447,39.92557]]]}},{"type":"Feature","properties":{"id":"az-agm","lat":39.99645,"lng":46.91524},"geometry":{"type":"Polygon","coordinates":[[[46.92363,39.90371],[46.6979,40.01815],[46.76157,40.03298],[46.81407,40.15073],[47.00383,40.21406],[47.05819,40.16396],[47.22888,40.16977],[47.07235,39.97474],[47.09447,39.92557],[47.28572,39.90051],[47.15643,39.82873],[46.96042,39.87511],[46.85273,39.79527],[46.92363,39.90371]]]}},{"type":"Feature","properties":{"id":"az-ags","lat":40.57654,"lng":47.41867},"geometry":{"type":"Polygon","coordinates":[[[47.52302,40.39069],[47.44282,40.29842],[47.32412,40.41358],[47.36076,40.45668],[47.2633,40.54331],[47.22216,40.51463],[47.26283,40.78885],[47.52561,40.76147],[47.5317,40.674],[47.61873,40.60977],[47.58638,40.52538],[47.48044,40.51657],[47.46545,40.45097],[47.52302,40.39069]]]}},{"type":"Feature","properties":{"id":"az-agu","lat":40.5497,"lng":48.31084},"geometry":{"type":"Polygon","coordinates":[[[48.52151,40.42048],[48.44007,40.27842],[48.32587,40.35294],[48.32204,40.43004],[48.07963,40.44823],[48.10841,40.53231],[48.41134,40.7032],[48.46116,40.79387],[48.52694,40.71157],[48.43547,40.56708],[48.6521,40.48688],[48.52151,40.42048]]]}},{"type":"Feature","properties":{"id":"az-ast","lat":38.50387,"lng":48.71209},"geometry":{"type":"Polygon","coordinates":[[[48.61296,38.39565],[48.53564,38.46915],[48.56895,38.53858],[48.8685,38.6025],[48.87428,38.43407],[48.61296,38.39565]]]}},{"type":"Feature","properties":{"id":"az-ba","lat":40.13986,"lng":49.44246},"geometry":{"type":"MultiPolygon","coordinates":[[[[49.72381,40.58076],[50.05201,40.5843],[50.23756,40.49616],[50.3506,40.38589],[50.38787,40.22114],[50.25261,40.33633],[49.98374,40.3242],[49.8934,40.36904],[49.81902,40.29206],[49.57716,40.21674],[49.43263,40.06297],[49.4839,39.98867],[49.42368,39.93549],[49.42359,39.70954],[49.35874,39.66657],[49.35149,39.86315],[49.29191,39.95301],[49.42565,40.23656],[49.41934,40.3981],[49.54347,40.46908],[49.8883,40.51319],[49.70956,40.53701],[49.72381,40.58076]],[[49.59943,40.40777],[49.62227,40.37221],[49.70217,40.38803],[49.66989,40.42758],[49.59943,40.40777]]],[[[50.62127,40.32608],[50.563,40.32486],[50.56528,40.33784],[50.62127,40.32608]]],[[[50.39527,40.4204],[50.35865,40.42422],[50.32643,40.48188],[50.39527,40.4204]]]]}},{"type":"Feature","properties":{"id":"az-bab","lat":39.26661,"lng":45.33583},"geometry":{"type":"Polygon","coordinates":[[[45.26619,39.59292],[45.42394,39.49383],[45.35706,39.43351],[45.5495,39.2882],[45.5309,39.24502],[45.31153,39.21967],[45.52748,39.16298],[45.53556,38.96845],[45.42708,39.01488],[45.31112,39.20053],[45.15273,39.21352],[45.11435,39.30935],[45.23153,39.32303],[45.20518,39.47113],[45.26619,39.59292]]]}},{"type":"Feature","properties":{"id":"az-bal","lat":41.67516,"lng":46.37962},"geometry":{"type":"Polygon","coordinates":[[[46.43089,41.89044],[46.54355,41.87429],[46.56758,41.78668],[46.71641,41.81249],[46.48851,41.60108],[46.33415,41.55467],[46.19277,41.61017],[46.18899,41.74014],[46.31374,41.75665],[46.43089,41.89044]]]}},{"type":"Feature","properties":{"id":"az-bar","lat":40.33281,"lng":47.24002},"geometry":{"type":"Polygon","coordinates":[[[47.31559,40.16192],[47.08631,40.16685],[47.07773,40.30168],[46.96931,40.41573],[47.20769,40.56259],[47.36076,40.45668],[47.32412,40.41358],[47.42251,40.36395],[47.44484,40.29005],[47.524,40.28261],[47.31559,40.16192]]]}},{"type":"Feature","properties":{"id":"az-bey","lat":39.88355,"lng":47.65444},"geometry":{"type":"Polygon","coordinates":[[[47.88972,39.76995],[47.62498,39.57141],[47.43254,39.78191],[47.46328,39.84847],[47.6549,39.91617],[47.7566,40.15949],[47.79102,40.11401],[47.74869,40.08399],[47.81747,40.02572],[47.74182,39.94105],[47.74885,39.85093],[47.88972,39.76995]]]}},{"type":"Feature","properties":{"id":"az-bil","lat":39.50578,"lng":48.49006},"geometry":{"type":"Polygon","coordinates":[[[48.37796,39.3007],[48.28861,39.44503],[47.95876,39.71636],[48.27249,39.56653],[48.43423,39.66202],[48.76698,39.6057],[48.76377,39.40884],[48.68161,39.41956],[48.61029,39.30238],[48.50849,39.3822],[48.37796,39.3007]]]}},{"type":"Feature","properties":{"id":"az-cab","lat":39.33739,"lng":46.95611},"geometry":{"type":"Polygon","coordinates":[[[47.01363,39.18696],[46.86639,39.16544],[46.75573,39.26218],[46.70989,39.39858],[46.81004,39.40139],[46.82942,39.47744],[46.99179,39.38124],[47.05339,39.46596],[47.26132,39.36638],[47.10222,39.3084],[47.01363,39.18696]]]}},{"type":"Feature","properties":{"id":"az-cal","lat":39.17763,"lng":48.44963},"geometry":{"type":"Polygon","coordinates":[[[48.30159,39.01795],[48.2713,39.10831],[48.11776,39.20805],[48.12459,39.2976],[48.3284,39.37633],[48.37796,39.3007],[48.50849,39.3822],[48.61029,39.30238],[48.68161,39.41956],[48.76377,39.40884],[48.70796,39.31688],[48.74052,39.14722],[48.65091,39.13102],[48.666,39.08524],[48.52766,38.99607],[48.30159,39.01795]]]}},{"type":"Feature","properties":{"id":"az-cul","lat":39.11278,"lng":45.6496},"geometry":{"type":"Polygon","coordinates":[[[45.76437,39.35914],[45.90179,39.29412],[45.73305,39.06258],[45.72127,39.00821],[45.78685,38.96462],[45.53556,38.96845],[45.52748,39.16298],[45.46764,39.18784],[45.5495,39.2882],[45.76437,39.35914]]]}},{"type":"Feature","properties":{"id":"az-das","lat":40.46527,"lng":46.00742},"geometry":{"type":"Polygon","coordinates":[[[45.88173,40.26044],[45.81915,40.29714],[45.84039,40.52368],[46.03097,40.66672],[46.20238,40.58083],[46.13344,40.50117],[46.22641,40.42937],[46.15577,40.30751],[45.95366,40.31506],[45.88173,40.26044]]]}},{"type":"Feature","properties":{"id":"az-fuz","lat":39.51217,"lng":47.29958},"geometry":{"type":"Polygon","coordinates":[[[47.62498,39.57141],[47.26132,39.36638],[47.05339,39.46596],[47.10511,39.55839],[47.01907,39.57262],[47.09896,39.6166],[47.04677,39.64202],[47.46592,39.73835],[47.62498,39.57141]]]}},{"type":"Feature","properties":{"id":"az-ga","lat":40.67145,"lng":46.35757},"geometry":{"type":"Polygon","coordinates":[[[46.34589,40.6226],[46.29837,40.65747],[46.39148,40.72376],[46.41179,40.68544],[46.34589,40.6226]]]}},{"type":"Feature","properties":{"id":"az-gad","lat":40.57606,"lng":45.67007},"geometry":{"type":"Polygon","coordinates":[[[45.37358,40.6513],[45.47834,40.74818],[45.67755,40.59494],[45.72261,40.82322],[45.91258,40.6261],[45.9117,40.55719],[45.84039,40.52368],[45.81915,40.29714],[45.52619,40.44105],[45.37358,40.6513]],[[45.47927,40.65023],[45.54717,40.62155],[45.56071,40.64765],[45.47927,40.65023]]]}},{"type":"Feature","properties":{"id":"az-gor","lat":40.59436,"lng":46.6895},"geometry":{"type":"Polygon","coordinates":[[[46.96213,40.52458],[46.42934,40.26299],[46.31777,40.27617],[46.34873,40.40239],[46.50489,40.54331],[46.48841,40.7279],[46.75971,40.96598],[46.73118,40.76532],[46.82803,40.71408],[46.77227,40.65114],[46.86461,40.6454],[46.89433,40.5374],[46.96213,40.52458]],[[46.81161,40.50663],[46.84089,40.50638],[46.8272,40.52016],[46.81161,40.50663]]]}},{"type":"Feature","properties":{"id":"az-goy","lat":40.54818,"lng":47.82082},"geometry":{"type":"Polygon","coordinates":[[[48.04795,40.59902],[47.99261,40.44167],[47.62436,40.49735],[47.5886,40.63946],[47.73247,40.67496],[48.00568,40.62615],[48.04795,40.59902]]]}},{"type":"Feature","properties":{"id":"az-gyg","lat":40.56207,"lng":46.3432},"geometry":{"type":"Polygon","coordinates":[[[46.47068,40.68176],[46.50489,40.54331],[46.34873,40.40239],[46.31777,40.27617],[46.15577,40.30751],[46.22641,40.42937],[46.13344,40.50117],[46.20238,40.58083],[46.07898,40.64716],[46.21576,40.68894],[46.27731,40.83286],[46.34073,40.72462],[46.30757,40.62643],[46.47068,40.68176]]]}},{"type":"Feature","properties":{"id":"az-hac","lat":40.08511,"lng":48.92876},"geometry":{"type":"Polygon","coordinates":[[[48.85059,40.32849],[49.00438,40.15993],[49.16907,40.14453],[49.35681,39.81212],[49.26467,39.87664],[48.93146,39.91389],[48.9475,39.98112],[48.66884,40.05223],[48.64094,40.11799],[48.45754,40.13778],[48.47371,40.33131],[48.67184,40.26801],[48.74693,40.34472],[48.85059,40.32849]]]}},{"type":"Feature","properties":{"id":"az-imi","lat":39.89599,"lng":47.98322},"geometry":{"type":"Polygon","coordinates":[[[47.95771,39.70726],[47.78821,39.65765],[47.88972,39.76995],[47.74885,39.85093],[47.74182,39.94105],[47.81747,40.02572],[47.74869,40.08399],[47.96361,40.07631],[47.97214,40.12246],[48.07276,40.13605],[48.16081,40.04986],[48.31233,40.04577],[48.22587,39.94591],[48.21466,39.82847],[48.34866,39.73667],[48.3794,39.62167],[48.27249,39.56653],[47.95771,39.70726]]]}},{"type":"Feature","properties":{"id":"az-ism","lat":40.77021,"lng":48.14872},"geometry":{"type":"Polygon","coordinates":[[[48.41134,40.7032],[48.02723,40.5129],[48.04795,40.59902],[48.00568,40.62615],[47.73247,40.67496],[47.9801,40.88373],[47.94884,40.979],[48.0311,41.06313],[48.33042,40.9882],[48.49263,40.83722],[48.41134,40.7032]]]}},{"type":"Feature","properties":{"id":"az-kal","lat":40.08321,"lng":46.31709},"geometry":{"type":"Polygon","coordinates":[[[45.57627,39.99389],[45.8872,40.01844],[45.96296,40.14169],[45.97924,40.22359],[45.8885,40.26196],[45.95366,40.31506],[46.42934,40.26299],[46.53445,40.31309],[46.53228,40.13344],[46.63703,40.14794],[46.76157,40.03298],[46.20884,39.89377],[46.01619,39.91198],[45.88319,39.79615],[45.74277,39.94051],[45.57627,39.99389]]]}},{"type":"Feature","properties":{"id":"az-kan","lat":39.42911,"lng":45.14568},"geometry":{"type":"Polygon","coordinates":[[[45.25995,39.5997],[45.20518,39.47113],[45.23153,39.32303],[45.11435,39.30935],[45.05124,39.38709],[45.16792,39.56555],[45.25995,39.5997]]]}},{"type":"Feature","properties":{"id":"az-kur","lat":40.29581,"lng":48.17444},"geometry":{"type":"Polygon","coordinates":[[[48.44007,40.27842],[48.45754,40.13778],[48.31719,40.03983],[48.16081,40.04986],[48.07276,40.13605],[47.97214,40.12246],[47.96361,40.07631],[47.85117,40.10086],[47.94434,40.16714],[47.93426,40.3132],[48.02723,40.5129],[48.10841,40.53231],[48.07963,40.44823],[48.18091,40.40554],[48.32204,40.43004],[48.32587,40.35294],[48.44007,40.27842]]]}},{"type":"Feature","properties":{"id":"az-la","lat":38.72738,"lng":48.74973},"geometry":{"type":"MultiPolygon","coordinates":[[[[48.89625,38.89073],[48.8318,38.87116],[48.8685,38.6025],[48.69814,38.58168],[48.73044,38.62979],[48.56559,38.82497],[48.82496,38.89799],[48.89625,38.89073]]],[[[49.21863,39.17058],[49.19386,39.01634],[49.07928,38.96332],[49.05584,39.00751],[49.14772,39.08344],[49.04119,39.18439],[48.96762,39.18382],[48.91822,38.92894],[48.84718,39.0664],[48.85441,39.13164],[49.0236,39.27006],[49.21863,39.17058]]]]}},{"type":"Feature","properties":{"id":"az-lan","lat":39.68268,"lng":46.30104},"geometry":{"type":"Polygon","coordinates":[[[46.20646,39.58792],[45.88319,39.79615],[46.01619,39.91198],[46.1013,39.87744],[46.45099,39.95813],[46.55068,39.72652],[46.53058,39.61562],[46.71646,39.63885],[46.73563,39.5888],[46.56231,39.43865],[46.47895,39.46183],[46.52727,39.53816],[46.49544,39.57593],[46.3095,39.62053],[46.20646,39.58792]]]}},{"type":"Feature","properties":{"id":"az-ler","lat":38.66565,"lng":48.48386},"geometry":{"type":"Polygon","coordinates":[[[48.34106,38.59958],[48.22563,38.71319],[48.54761,38.93987],[48.57738,38.78128],[48.66528,38.73552],[48.7183,38.60558],[48.58704,38.55238],[48.53564,38.46915],[48.41527,38.61811],[48.34106,38.59958]]]}},{"type":"Feature","properties":{"id":"az-mas","lat":39.05869,"lng":48.73019},"geometry":{"type":"Polygon","coordinates":[[[48.91822,38.92894],[48.66104,38.82835],[48.4778,38.98573],[48.72047,39.15402],[48.85441,39.13164],[48.91822,38.92894]]]}},{"type":"Feature","properties":{"id":"az-mi","lat":40.7626,"lng":46.99786},"geometry":{"type":"Polygon","coordinates":[[[46.95189,40.78053],[47.02858,40.77495],[47.04868,40.75025],[46.96786,40.72532],[46.95189,40.78053]]]}},{"type":"Feature","properties":{"id":"az-na","lat":40.501,"lng":46.82386},"geometry":{"type":"Polygon","coordinates":[[[46.81161,40.50663],[46.84089,40.50638],[46.82137,40.49562],[46.81161,40.50663]]]}},{"type":"Feature","properties":{"id":"az-nef","lat":39.34378,"lng":49.04794},"geometry":{"type":"Polygon","coordinates":[[[49.28538,39.50834],[49.40895,39.38642],[49.40707,39.32368],[49.36687,39.35098],[49.40707,39.2895],[49.27312,39.33658],[49.2343,39.15635],[49.0236,39.27006],[48.85441,39.13164],[48.74052,39.14722],[48.70796,39.31688],[48.76377,39.40884],[48.85426,39.35463],[48.94598,39.37367],[49.05275,39.54818],[49.14308,39.48002],[49.28538,39.50834]]]}},{"type":"Feature","properties":{"id":"az-nx","lat":39.20376,"lng":45.43742},"geometry":{"type":"Polygon","coordinates":[[[45.5309,39.24502],[45.46764,39.18784],[45.31153,39.21967],[45.35013,39.24298],[45.5309,39.24502]]]}},{"type":"Feature","properties":{"id":"az-ogu","lat":41.11376,"lng":47.48714},"geometry":{"type":"Polygon","coordinates":[[[47.36729,41.26179],[47.69489,41.20713],[47.56984,40.7956],[47.38453,40.88614],[47.27022,41.02039],[47.36729,41.26179]]]}},{"type":"Feature","properties":{"id":"az-ord","lat":39.07986,"lng":45.88443},"geometry":{"type":"Polygon","coordinates":[[[45.90179,39.29412],[45.9858,39.24944],[45.9581,39.15151],[46.13587,38.8637],[45.76807,38.93913],[45.72127,39.00821],[45.90179,39.29412]]]}},{"type":"Feature","properties":{"id":"az-qab","lat":40.93748,"lng":47.7798},"geometry":{"type":"Polygon","coordinates":[[[47.69489,41.20713],[47.92646,41.15769],[48.0311,41.06313],[47.95416,40.99122],[47.9801,40.88373],[47.91876,40.81412],[47.73247,40.67496],[47.5886,40.63946],[47.52561,40.76147],[47.69489,41.20713]]]}},{"type":"Feature","properties":{"id":"az-qax","lat":41.24203,"lng":46.75844},"geometry":{"type":"Polygon","coordinates":[[[47.10749,41.56992],[47.17922,41.49168],[47.14274,41.4151],[46.89154,41.31058],[46.81314,41.21428],[46.81252,41.12749],[46.92704,41.02468],[46.92998,40.91094],[46.75971,40.96598],[46.73025,41.07243],[46.61554,41.10867],[46.6948,41.26978],[46.6375,41.37422],[46.74689,41.5108],[47.10749,41.56992]]]}},{"type":"Feature","properties":{"id":"az-qaz","lat":41.17018,"lng":45.2531},"geometry":{"type":"MultiPolygon","coordinates":[[[[45.18678,40.97083],[45.22047,40.97905],[45.20993,40.96799],[45.18678,40.97083]]],[[[45.01888,41.07491],[44.97946,41.03264],[44.96395,41.07377],[45.01888,41.07491]]],[[[45.19975,41.14266],[45.03485,41.19769],[45.0024,41.29045],[45.09783,41.34992],[45.3922,41.24562],[45.38195,41.01145],[45.05718,41.07879],[45.19975,41.14266]]]]}},{"type":"Feature","properties":{"id":"az-qba","lat":41.19875,"lng":48.35784},"geometry":{"type":"Polygon","coordinates":[[[48.68006,40.89507],[48.0311,41.06313],[47.92646,41.15769],[48.57546,41.48349],[48.67546,41.35055],[48.74414,41.34851],[48.74724,41.23981],[48.6428,41.13206],[48.72129,41.0639],[48.66337,41.0015],[48.68006,40.89507]]]}},{"type":"Feature","properties":{"id":"az-qbi","lat":39.29781,"lng":46.61855},"geometry":{"type":"Polygon","coordinates":[[[46.68121,39.12859],[46.37462,39.37884],[46.374,39.43599],[46.74891,39.47532],[46.70349,39.36762],[46.82291,39.22799],[46.68121,39.12859]]]}},{"type":"Feature","properties":{"id":"az-qob","lat":40.55144,"lng":48.94335},"geometry":{"type":"Polygon","coordinates":[[[48.93627,40.29152],[48.66156,40.35542],[48.74279,40.45135],[48.68771,40.59726],[48.72946,40.72108],[48.80806,40.7617],[49.26312,40.50562],[48.93627,40.29152]]]}},{"type":"Feature","properties":{"id":"az-qus","lat":41.32301,"lng":48.09653},"geometry":{"type":"Polygon","coordinates":[[[47.82104,41.18472],[48.05353,41.46129],[48.23135,41.50548],[48.39305,41.59888],[48.46221,41.72099],[48.51428,41.70092],[48.49164,41.6481],[48.5613,41.59268],[48.57546,41.48349],[47.92646,41.15769],[47.82104,41.18472]]]}},{"type":"Feature","properties":{"id":"az-sa","lat":41.07608,"lng":47.0812},"geometry":{"type":"Polygon","coordinates":[[[47.18707,41.48563],[47.25084,41.31603],[47.36729,41.26179],[47.27022,41.02039],[47.5608,40.76929],[47.26283,40.78885],[46.92998,40.91094],[46.92704,41.02468],[46.81252,41.12749],[46.87495,41.29521],[47.14274,41.4151],[47.18707,41.48563]]]}},{"type":"Feature","properties":{"id":"az-sab","lat":39.81076,"lng":48.81681},"geometry":{"type":"Polygon","coordinates":[[[48.45754,40.13778],[48.64094,40.11799],[48.66884,40.05223],[48.87338,39.98159],[48.99316,39.71809],[48.88495,39.59213],[48.55521,39.6613],[48.70362,39.73468],[48.66156,39.88684],[48.46539,39.92459],[48.40933,39.99988],[48.24964,39.97968],[48.45754,40.13778]]]}},{"type":"Feature","properties":{"id":"az-sad","lat":39.66667,"lng":44.83375},"geometry":{"type":"Polygon","coordinates":[[[44.77456,39.7028],[44.95322,39.73597],[44.82395,39.63054],[44.77456,39.7028]]]}},{"type":"Feature","properties":{"id":"az-sah","lat":39.37194,"lng":45.59163},"geometry":{"type":"Polygon","coordinates":[[[45.35706,39.43351],[45.73786,39.56978],[45.79708,39.53635],[45.80307,39.44819],[45.71254,39.31037],[45.5325,39.28597],[45.35706,39.43351]]]}},{"type":"Feature","properties":{"id":"az-sal","lat":39.63613,"lng":49.13369},"geometry":{"type":"Polygon","coordinates":[[[49.35874,39.66657],[49.28538,39.50834],[49.14308,39.48002],[49.05275,39.54818],[48.94598,39.37367],[48.85426,39.35463],[48.76377,39.40884],[48.76698,39.6057],[48.88495,39.59213],[48.99316,39.71809],[48.90955,39.90568],[49.26467,39.87664],[49.35681,39.81212],[49.35874,39.66657]]]}},{"type":"Feature","properties":{"id":"az-sar","lat":39.58575,"lng":45.02907},"geometry":{"type":"Polygon","coordinates":[[[45.03351,39.77039],[45.14126,39.6844],[45.16792,39.56555],[45.05124,39.38709],[44.95703,39.43449],[44.88644,39.60596],[44.82395,39.63054],[45.03351,39.77039]]]}},{"type":"Feature","properties":{"id":"az-sat","lat":39.78257,"lng":48.49064},"geometry":{"type":"Polygon","coordinates":[[[48.40933,39.99988],[48.46539,39.92459],[48.5349,39.94097],[48.6936,39.85488],[48.70362,39.73468],[48.54079,39.61477],[48.43423,39.66202],[48.3794,39.62167],[48.34866,39.73667],[48.21466,39.82847],[48.24964,39.97968],[48.40933,39.99988]]]}},{"type":"Feature","properties":{"id":"az-sbn","lat":41.09798,"lng":48.80657},"geometry":{"type":"Polygon","coordinates":[[[49.0787,41.35741],[49.17164,41.14037],[48.94511,41.1687],[48.92061,41.04514],[48.8232,40.98411],[48.84459,40.89249],[48.78186,40.85505],[48.68006,40.89507],[48.66337,41.0015],[48.72129,41.0639],[48.6428,41.13206],[48.74724,41.23981],[48.74414,41.34851],[49.0787,41.35741]]]}},{"type":"Feature","properties":{"id":"az-siy","lat":41.01463,"lng":49.0709},"geometry":{"type":"Polygon","coordinates":[[[49.17164,41.14037],[49.37142,40.88468],[49.19264,40.87254],[49.02825,40.97616],[48.84459,40.89249],[48.8232,40.98411],[48.92061,41.04514],[48.94511,41.1687],[49.17164,41.14037]]]}},{"type":"Feature","properties":{"id":"az-skr","lat":40.77153,"lng":46.01525},"geometry":{"type":"Polygon","coordinates":[[[46.31043,41.01734],[46.21576,40.68894],[46.03097,40.66672],[45.9117,40.55719],[45.91258,40.6261],[45.72184,40.85412],[45.89697,41.00574],[46.09422,41.01202],[46.20465,41.13666],[46.31043,41.01734]]]}},{"type":"Feature","properties":{"id":"az-sm","lat":40.59423,"lng":49.60952},"geometry":{"type":"Polygon","coordinates":[[[49.4827,40.63685],[49.66847,40.61221],[49.70676,40.57626],[49.58905,40.54383],[49.4827,40.63685]]]}},{"type":"Feature","properties":{"id":"az-smi","lat":40.65442,"lng":48.59887},"geometry":{"type":"Polygon","coordinates":[[[48.74693,40.34472],[48.67184,40.26801],[48.47371,40.33131],[48.52151,40.42048],[48.6521,40.48688],[48.43547,40.56708],[48.52694,40.71157],[48.46116,40.79387],[48.48606,40.88164],[48.38922,40.94846],[48.78186,40.85505],[48.80806,40.7617],[48.72946,40.72108],[48.68771,40.59726],[48.74279,40.45135],[48.66156,40.35542],[48.74693,40.34472]]]}},{"type":"Feature","properties":{"id":"az-smx","lat":40.91691,"lng":46.49311},"geometry":{"type":"Polygon","coordinates":[[[46.58215,41.09165],[46.73025,41.07243],[46.75971,40.96598],[46.47068,40.68176],[46.41179,40.68544],[46.25979,40.86784],[46.31043,41.01734],[46.08761,41.18366],[46.22858,41.19542],[46.47492,41.04411],[46.58215,41.09165]]]}},{"type":"Feature","properties":{"id":"az-sr","lat":39.95753,"lng":48.92165},"geometry":{"type":"Polygon","coordinates":[[[48.90955,39.90568],[48.87338,39.98159],[48.95698,39.97661],[48.95992,39.93845],[48.90955,39.90568]]]}},{"type":"Feature","properties":{"id":"az-sus","lat":39.70613,"lng":46.65998},"geometry":{"type":"Polygon","coordinates":[[[46.54034,39.75768],[46.77693,39.75678],[46.78937,39.65549],[46.73563,39.5888],[46.71646,39.63885],[46.53058,39.61562],[46.54034,39.75768]]]}},{"type":"Feature","properties":{"id":"az-tar","lat":40.24389,"lng":46.79506},"geometry":{"type":"Polygon","coordinates":[[[47.08631,40.16685],[46.93215,40.22183],[46.81407,40.15073],[46.76157,40.03298],[46.63703,40.14794],[46.53228,40.13344],[46.50402,40.26594],[46.56892,40.34767],[46.92399,40.48001],[47.07773,40.30168],[47.08631,40.16685]]]}},{"type":"Feature","properties":{"id":"az-tov","lat":40.91333,"lng":45.63849},"geometry":{"type":"Polygon","coordinates":[[[45.47834,40.74818],[45.60097,40.84056],[45.44284,40.94838],[45.58061,41.05305],[45.59813,41.16348],[45.77034,41.2321],[46.20465,41.13666],[46.09422,41.01202],[45.89697,41.00574],[45.73941,40.87828],[45.67755,40.59494],[45.47834,40.74818]]]}},{"type":"Feature","properties":{"id":"az-uca","lat":40.37743,"lng":47.76175},"geometry":{"type":"Polygon","coordinates":[[[47.99261,40.44167],[47.93426,40.3132],[47.66978,40.29217],[47.46545,40.45097],[47.48044,40.51657],[47.54772,40.53484],[47.99261,40.44167]]]}},{"type":"Feature","properties":{"id":"az-x01~","lat":39.7626,"lng":46.76118},"geometry":{"type":"Polygon","coordinates":[[[46.74358,39.74513],[46.75841,39.76842],[46.77693,39.75678],[46.74358,39.74513]]]}},{"type":"Feature","properties":{"id":"az-xa","lat":39.8159,"lng":46.76304},"geometry":{"type":"Polygon","coordinates":[[[46.74109,39.83172],[46.80501,39.84528],[46.75981,39.80008],[46.74109,39.83172]]]}},{"type":"Feature","properties":{"id":"az-xac","lat":41.59613,"lng":48.68988},"geometry":{"type":"Polygon","coordinates":[[[48.46221,41.72099],[48.57895,41.84528],[48.62013,41.82441],[49.0787,41.35741],[48.67546,41.35055],[48.5613,41.59268],[48.50963,41.59958],[48.51428,41.70092],[48.46221,41.72099]]]}},{"type":"Feature","properties":{"id":"az-xci","lat":39.80177,"lng":46.68755},"geometry":{"type":"Polygon","coordinates":[[[46.74098,39.77182],[46.54034,39.75768],[46.45099,39.95813],[46.6979,40.01815],[46.8226,39.98836],[46.92363,39.90371],[46.83159,39.76817],[46.90606,39.66841],[46.8148,39.63789],[46.74098,39.77182]],[[46.74109,39.83172],[46.80114,39.83753],[46.79727,39.8569],[46.74109,39.83172]]]}},{"type":"Feature","properties":{"id":"az-xiz","lat":40.72547,"lng":49.21448},"geometry":{"type":"Polygon","coordinates":[[[49.37142,40.88468],[49.53883,40.78807],[49.53191,40.66287],[49.33666,40.5075],[49.19791,40.532],[48.76915,40.80459],[48.81168,40.87673],[49.02825,40.97616],[49.19264,40.87254],[49.37142,40.88468]]]}},{"type":"Feature","properties":{"id":"az-xvd","lat":39.62931,"lng":46.91981},"geometry":{"type":"Polygon","coordinates":[[[46.78937,39.65549],[46.90606,39.66841],[46.83159,39.76817],[46.96042,39.87511],[47.24898,39.857],[47.33936,39.75016],[47.04677,39.64202],[47.09896,39.6166],[47.01907,39.57262],[47.09741,39.58063],[47.09741,39.49681],[46.99179,39.38124],[46.82942,39.47744],[46.81004,39.40139],[46.73351,39.41628],[46.7316,39.48508],[46.6407,39.48346],[46.78937,39.65549]]]}},{"type":"Feature","properties":{"id":"az-yar","lat":38.85639,"lng":48.21544},"geometry":{"type":"Polygon","coordinates":[[[48.22563,38.71319],[48.01297,38.82156],[47.99074,38.89122],[48.41568,39.02997],[48.54761,38.93987],[48.22563,38.71319]]]}},{"type":"Feature","properties":{"id":"az-yev","lat":40.67974,"lng":47.02773},"geometry":{"type":"Polygon","coordinates":[[[46.95148,40.43084],[46.96213,40.52458],[46.89433,40.5374],[46.86461,40.6454],[46.79025,40.6291],[46.82803,40.71408],[46.73118,40.76532],[46.75971,40.96598],[47.26283,40.78885],[47.22371,40.57693],[47.13829,40.4859],[46.95148,40.43084]],[[46.95189,40.78053],[46.96786,40.72532],[47.04868,40.75025],[47.02858,40.77495],[46.95189,40.78053]]]}},{"type":"Feature","properties":{"id":"az-zan","lat":38.98204,"lng":46.57062},"geometry":{"type":"Polygon","coordinates":[[[46.39529,39.19518],[46.62959,39.22001],[46.68121,39.12859],[46.82291,39.22799],[46.86639,39.16544],[46.51404,38.88218],[46.49192,39.0819],[46.39529,39.19518]]]}},{"type":"Feature","properties":{"id":"az-zaq","lat":41.5883,"lng":46.68555},"geometry":{"type":"Polygon","coordinates":[[[46.73242,41.8514],[47.00393,41.60542],[46.98853,41.51514],[46.74689,41.5108],[46.60737,41.34502],[46.29674,41.51039],[46.27987,41.57117],[46.51802,41.61637],[46.73242,41.8514]]]}},{"type":"Feature","properties":{"id":"az-zar","lat":40.2286,"lng":47.72145},"geometry":{"type":"Polygon","coordinates":[[[47.93426,40.3132],[47.94434,40.16714],[47.80135,40.09673],[47.72415,40.20318],[47.54385,40.17274],[47.48411,40.25403],[47.524,40.28261],[47.44282,40.29842],[47.52302,40.39069],[47.66978,40.29217],[47.93426,40.3132]]]}}]}
