{"type":"FeatureCollection","features":[{"type":"Feature","properties":{"id":"ba-bih","lat":43.9179,"lng":17.52353},"geometry":{"type":"Polygon","coordinates":[[[17.81176,42.90986],[17.65333,42.89094],[17.55649,42.93476],[17.61793,42.92178],[17.58066,42.94208],[17.65931,42.9934],[17.28993,43.30343],[17.2705,43.46321],[17.03052,43.54848],[16.32689,44.08237],[16.21579,44.20815],[16.11646,44.52147],[16.00608,44.541],[16.0283,44.62472],[15.72848,44.7691],[15.79235,45.1898],[16.02045,45.21393],[16.21299,45.03146],[16.34602,45.02001],[16.26308,44.9544],[16.30168,44.89719],[16.78951,44.80562],[16.87823,44.66254],[16.8525,44.45939],[16.50343,44.48084],[17.1071,44.15326],[17.12861,44.08313],[17.24876,44.06743],[17.2731,44.14323],[17.1529,44.32493],[17.15145,44.458],[17.40756,44.44151],[17.50197,44.3657],[17.73084,44.37428],[17.91688,44.47014],[17.83534,44.63897],[17.92256,44.72692],[18.04989,44.6969],[18.13718,44.57959],[18.38465,44.58243],[18.35747,44.65395],[18.07852,44.76986],[18.2874,44.80133],[18.39752,44.91864],[18.74804,44.84495],[18.80525,44.72764],[18.72944,44.64468],[18.84819,44.54166],[19.0227,44.63323],[19.01986,44.47588],[18.75378,44.35785],[18.7652,44.15039],[18.50914,43.99229],[18.49767,43.84351],[18.37034,43.83209],[18.41613,43.73768],[18.61213,43.68187],[18.67363,43.67758],[18.73947,43.76628],[18.87822,43.76915],[19.02844,43.71763],[19.05133,43.65897],[18.76091,43.57598],[18.41328,43.69045],[18.39044,43.43811],[18.02271,43.42369],[18.05713,43.20768],[17.9885,43.1405],[18.05562,43.10894],[18.02432,42.92227],[18.37328,42.64328],[18.36978,42.57439],[17.85847,42.81697],[17.81176,42.90986]]]}},{"type":"Feature","properties":{"id":"ba-brc","lat":44.7939,"lng":18.82325},"geometry":{"type":"Polygon","coordinates":[[[18.78138,44.84154],[18.97541,44.84354],[18.77522,44.74626],[18.76913,44.89223],[18.78138,44.84154]]]}},{"type":"Feature","properties":{"id":"ba-srp","lat":45.07331,"lng":18.29844},"geometry":{"type":"MultiPolygon","coordinates":[[[[18.49079,45.06278],[18.68406,45.08479],[18.78896,45.00573],[18.83517,44.85999],[18.78138,44.84154],[18.69383,44.93678],[18.52795,44.98592],[18.49079,45.06278]]],[[[18.26197,45.15068],[18.41203,45.11244],[18.43731,45.04892],[18.25608,44.99055],[18.1437,45.0977],[18.26197,45.15068]]]]}},{"type":"Feature","properties":{"id":"ba-x01~","lat":44.86004,"lng":18.03445},"geometry":{"type":"Polygon","coordinates":[[[17.76574,45.11099],[17.84566,45.06526],[18.01909,45.14944],[18.27758,44.98747],[18.45183,45.08496],[18.52795,44.98592],[18.76913,44.89223],[18.74804,44.84495],[18.39752,44.91864],[18.2874,44.80133],[18.08565,44.78702],[18.09423,44.72837],[18.39039,44.60533],[18.13718,44.57959],[18.01558,44.71979],[17.81697,44.70591],[17.75605,44.75329],[17.72221,44.87513],[17.76574,45.11099]]]}},{"type":"Feature","properties":{"id":"ba-x02~","lat":44.67027,"lng":17.36359},"geometry":{"type":"Polygon","coordinates":[[[16.92437,45.28452],[17.18709,45.14856],[17.26895,45.18954],[17.48186,45.1144],[17.65156,45.16536],[17.74138,45.13327],[17.72326,44.81598],[17.77985,44.71945],[17.88825,44.71979],[17.83534,44.61608],[17.91543,44.54595],[17.91688,44.47014],[17.60067,44.36428],[17.50197,44.3657],[17.40756,44.44151],[17.15145,44.458],[17.1529,44.32493],[17.2731,44.14323],[17.24876,44.06743],[17.12861,44.08313],[17.1071,44.15326],[16.512,44.46369],[16.56637,44.50233],[16.8525,44.45939],[16.88253,44.62109],[16.82815,44.76698],[16.70372,44.8557],[16.33315,44.89001],[16.26308,44.9544],[16.34891,44.99161],[16.48192,45.19952],[16.81172,45.18122],[16.92437,45.28452]]]}},{"type":"Feature","properties":{"id":"ba-x03~","lat":44.76515,"lng":19.08509},"geometry":{"type":"Polygon","coordinates":[[[18.97492,44.86276],[19.18687,44.92754],[19.37663,44.863],[19.17964,44.53826],[19.09931,44.59418],[19.03108,44.56755],[18.98694,44.63897],[18.84819,44.54166],[18.73089,44.66754],[18.97492,44.86276]]]}},{"type":"Feature","properties":{"id":"ba-x04~","lat":44.23937,"lng":19.06308},"geometry":{"type":"Polygon","coordinates":[[[19.17964,44.53826],[19.12992,44.51832],[19.13891,44.30934],[19.32433,44.26397],[19.38117,44.1771],[19.61144,44.05452],[19.59336,44.00558],[19.36464,43.97329],[19.27276,44.01241],[19.22496,43.92151],[18.90838,44.09202],[18.73657,44.12034],[18.79238,44.21478],[18.75378,44.35785],[19.01986,44.47588],[19.07486,44.5878],[19.17964,44.53826]]]}},{"type":"Feature","properties":{"id":"ba-x05~","lat":43.88251,"lng":18.86366},"geometry":{"type":"MultiPolygon","coordinates":[[[[18.42942,43.58792],[18.41328,43.69045],[18.58298,43.63672],[18.42942,43.58792]]],[[[18.49912,43.97803],[18.73657,44.12034],[19.12738,43.99875],[19.22496,43.92151],[19.24094,43.77569],[18.73947,43.76628],[18.67363,43.67758],[18.41613,43.73768],[18.37034,43.83209],[18.49767,43.84351],[18.49912,43.97803]]]]}},{"type":"Feature","properties":{"id":"ba-x06~","lat":43.58125,"lng":18.82803},"geometry":{"type":"Polygon","coordinates":[[[19.05499,43.5067],[19.00021,43.54789],[18.90513,43.49905],[19.06967,43.30883],[18.99246,43.2671],[18.9503,43.33307],[18.8396,43.34782],[18.66432,43.23318],[18.34871,43.3458],[18.39039,43.59389],[18.9626,43.61748],[19.05707,43.67329],[18.94974,43.74197],[19.24094,43.77569],[19.24103,43.95236],[19.46168,43.76214],[19.49176,43.56861],[19.41073,43.54075],[19.34655,43.60884],[19.05499,43.5067]]]}},{"type":"Feature","properties":{"id":"ba-x07~","lat":42.98442,"lng":18.25259},"geometry":{"type":"Polygon","coordinates":[[[18.43736,42.55921],[18.03992,42.88507],[18.05562,43.10894],[17.9885,43.1405],[18.05713,43.20768],[18.02995,43.44509],[18.35608,43.43811],[18.3771,43.32147],[18.50688,43.32147],[18.6884,43.22447],[18.6206,43.12256],[18.639,43.02024],[18.48304,43.01464],[18.43353,42.9542],[18.45389,42.79315],[18.55001,42.66807],[18.43736,42.55921]]]}}]}
