{"type":"FeatureCollection","features":[{"type":"Feature","properties":{"id":"bb-01","lat":13.10796,"lng":-59.52442},"geometry":{"type":"Polygon","coordinates":[[[-59.47578,13.08649],[-59.53612,13.05117],[-59.60027,13.08412],[-59.51311,13.12943],[-59.47578,13.08649]]]}},{"type":"Feature","properties":{"id":"bb-02","lat":13.22682,"lng":-59.57534},"geometry":{"type":"Polygon","coordinates":[[[-59.60545,13.27583],[-59.54582,13.24381],[-59.58098,13.20984],[-59.60545,13.27583]]]}},{"type":"Feature","properties":{"id":"bb-03","lat":13.14537,"lng":-59.55168},"geometry":{"type":"Polygon","coordinates":[[[-59.54021,13.1825],[-59.51311,13.12943],[-59.57047,13.10819],[-59.58711,13.16132],[-59.54021,13.1825]]]}},{"type":"Feature","properties":{"id":"bb-04","lat":13.19455,"lng":-59.6198},"geometry":{"type":"Polygon","coordinates":[[[-59.61109,13.15026],[-59.65081,13.23884],[-59.60605,13.24209],[-59.61109,13.15026]]]}},{"type":"Feature","properties":{"id":"bb-05","lat":13.16413,"lng":-59.50734},"geometry":{"type":"Polygon","coordinates":[[[-59.54021,13.1825],[-59.46768,13.18654],[-59.50871,13.14576],[-59.54021,13.1825]]]}},{"type":"Feature","properties":{"id":"bb-06","lat":13.19496,"lng":-59.55376},"geometry":{"type":"Polygon","coordinates":[[[-59.58098,13.20984],[-59.51806,13.21752],[-59.55429,13.18007],[-59.58098,13.20984]]]}},{"type":"Feature","properties":{"id":"bb-07","lat":13.28913,"lng":-59.63248},"geometry":{"type":"Polygon","coordinates":[[[-59.65292,13.27386],[-59.64513,13.32372],[-59.59447,13.33478],[-59.57592,13.30439],[-59.65292,13.27386]]]}},{"type":"Feature","properties":{"id":"bb-08","lat":13.12093,"lng":-59.58988},"geometry":{"type":"Polygon","coordinates":[[[-59.56884,13.10023],[-59.64061,13.14162],[-59.58711,13.16132],[-59.56884,13.10023]]]}},{"type":"Feature","properties":{"id":"bb-09","lat":13.25797,"lng":-59.62516},"geometry":{"type":"Polygon","coordinates":[[[-59.57592,13.30439],[-59.60605,13.24209],[-59.65081,13.23884],[-59.65292,13.27386],[-59.57592,13.30439]]]}},{"type":"Feature","properties":{"id":"bb-10","lat":13.14491,"lng":-59.46897},"geometry":{"type":"Polygon","coordinates":[[[-59.46768,13.18654],[-59.42691,13.16039],[-59.47578,13.08649],[-59.51311,13.12943],[-59.46768,13.18654]]]}},{"type":"Feature","properties":{"id":"bb-11","lat":13.20023,"lng":-59.59025},"geometry":{"type":"Polygon","coordinates":[[[-59.58912,13.21702],[-59.55429,13.18007],[-59.61109,13.15026],[-59.6253,13.18343],[-59.58912,13.21702]]]}}]}
