{"type":"FeatureCollection","features":[{"type":"Feature","properties":{"id":"bd-a","lat":22.40255,"lng":90.27515},"geometry":{"type":"MultiPolygon","coordinates":[[[[90.3943,22.00023],[90.34156,21.8603],[90.32293,21.8439],[90.33221,21.93879],[90.3943,22.00023]]],[[[90.59352,21.98656],[90.54078,21.87592],[90.50359,21.86245],[90.52638,21.94359],[90.59352,21.98656]]],[[[90.48618,21.97679],[90.39454,21.92145],[90.42848,22.04804],[90.48618,21.97679]]],[[[90.33961,21.97232],[90.35865,22.02269],[90.38746,22.04804],[90.38111,22.0231],[90.33961,21.97232]]],[[[90.48365,22.03498],[90.5031,22.09634],[90.61346,22.16405],[90.53834,22.00023],[90.53834,22.06851],[90.48365,22.03498]]],[[[90.46827,22.99608],[90.53492,22.88715],[90.47633,22.8841],[90.37257,22.76142],[90.48992,22.7202],[90.51271,22.61148],[90.45924,22.57929],[90.44207,22.49364],[90.4725,22.57559],[90.55974,22.56232],[90.61346,22.31489],[90.43865,22.07599],[90.38746,22.10261],[90.42164,22.19888],[90.3943,22.28824],[90.41285,22.17805],[90.28289,21.8708],[90.20379,21.80459],[90.10906,21.82209],[90.12623,21.93195],[90.05787,21.84935],[90.03395,21.94355],[90.21616,22.12324],[90.2361,22.19888],[90.05242,21.989],[89.99635,22.00023],[90.07838,22.16405],[89.98276,21.98656],[89.93442,21.99771],[89.8768,22.27473],[90.0101,22.49022],[89.9472,22.51183],[89.92984,22.68562],[89.88467,22.70071],[89.96209,22.82744],[89.92875,22.87023],[90.19236,23.07162],[90.27447,22.97358],[90.31256,23.0658],[90.45012,23.04934],[90.46827,22.99608]]],[[[90.62805,22.81208],[90.52099,22.71176],[90.45574,22.7674],[90.48683,22.87043],[90.60662,22.87727],[90.67823,22.80834],[90.62805,22.81208]]],[[[90.47779,23.0124],[90.45574,23.06281],[90.51043,23.06904],[90.51564,23.05195],[90.47779,23.0124]]],[[[90.93556,22.21247],[90.94898,22.12165],[90.92937,22.11689],[90.93556,22.21247]]],[[[90.98292,22.25918],[90.9878,22.19538],[90.97641,22.18578],[90.98292,22.25918]]],[[[90.95289,22.22675],[90.96022,22.32298],[90.97641,22.36335],[90.95289,22.22675]]],[[[90.59913,22.44213],[90.63315,22.43163],[90.6587,22.37954],[90.64015,22.30874],[90.59913,22.44213]]],[[[90.83619,22.17817],[90.69166,22.00702],[90.63941,22.0161],[90.68181,22.10261],[90.61004,22.02411],[90.688,22.37763],[90.64747,22.54828],[90.55877,22.60293],[90.5962,22.77538],[90.65056,22.78742],[90.85502,22.43466],[90.83619,22.17817]]],[[[90.65349,22.48347],[90.66733,22.43903],[90.64747,22.42475],[90.65349,22.48347]]],[[[90.58619,23.0349],[90.66733,22.9182],[90.50807,22.97577],[90.58619,23.0349]]]]}},{"type":"Feature","properties":{"id":"bd-b","lat":22.47968,"lng":92.11231},"geometry":{"type":"MultiPolygon","coordinates":[[[[91.93873,21.71483],[91.96111,21.50617],[91.87713,21.48102],[91.86297,21.74559],[91.88771,21.68496],[91.93556,21.78115],[91.93873,21.71483]]],[[[91.88771,21.86616],[91.83253,21.72582],[91.8672,21.93195],[91.88771,21.86616]]],[[[91.18141,22.2836],[91.14147,22.1462],[91.01126,22.10209],[91.0748,22.38859],[91.18141,22.2836]]],[[[91.21083,22.49552],[91.15953,22.45067],[91.11371,22.46141],[91.15862,22.50342],[91.21083,22.49552]]],[[[91.55518,22.40203],[91.44652,22.45324],[91.44676,22.5763],[91.55636,22.47821],[91.55518,22.40203]]],[[[92.61433,21.26315],[92.55872,21.25984],[92.52451,21.36113],[92.38964,21.37653],[92.3547,21.45182],[92.2251,21.39746],[92.17497,21.17561],[92.26515,21.0611],[92.31935,20.74201],[92.0525,21.15477],[92.04526,21.29955],[91.95297,21.44184],[92.01791,21.49311],[92.02931,21.7049],[91.9839,21.65013],[91.94972,21.71597],[91.99,21.79483],[91.89926,21.7895],[91.94972,21.88418],[91.9157,21.86245],[91.8672,22.1374],[91.813,22.18032],[91.83985,22.24665],[91.80885,22.30634],[91.87403,22.33601],[91.90805,22.42475],[91.79135,22.30191],[91.82594,22.24848],[91.78712,22.23794],[91.67604,22.53461],[91.46241,22.76191],[91.49049,22.90453],[91.41472,22.75373],[91.29078,22.73843],[91.31739,22.69721],[91.18189,22.72647],[91.16896,22.68488],[91.2645,22.64081],[91.20274,22.54322],[91.0892,22.54443],[91.01832,22.68309],[91.03793,22.58861],[90.95493,22.57583],[90.79493,22.74136],[90.64015,23.03803],[90.66733,23.26765],[90.60873,23.47272],[90.71502,23.49836],[90.76994,23.6229],[90.72152,23.72194],[90.75997,23.85356],[90.91417,23.87469],[91.03716,24.0931],[91.00409,24.16589],[91.09478,24.23645],[91.33213,24.24118],[91.27332,24.15437],[91.30843,23.9925],[91.21627,23.90839],[91.13628,23.62952],[91.28727,23.35555],[91.31353,23.10105],[91.37089,23.06278],[91.39435,23.26266],[91.58607,22.94447],[91.79556,23.0895],[91.74368,23.27233],[91.94078,23.49518],[91.92269,23.72297],[92.01901,23.64006],[92.15079,23.73165],[92.1943,23.64814],[92.25931,23.70649],[92.35687,23.28912],[92.35222,22.96033],[92.49154,22.71107],[92.57702,22.16867],[92.53733,22.12862],[92.61433,21.26315]]]]}},{"type":"Feature","properties":{"id":"bd-c","lat":24.1295,"lng":90.42176},"geometry":{"type":"MultiPolygon","coordinates":[[[[90.58619,23.30174],[90.46876,23.33161],[90.4297,23.38516],[90.5394,23.35],[90.58619,23.30174]]],[[[89.79502,25.37416],[89.81904,25.28497],[90.36464,25.14999],[90.93482,25.15636],[90.91236,24.97894],[90.97768,24.8806],[91.12527,24.88006],[91.14827,24.6996],[91.22289,24.67415],[91.18764,24.4836],[91.24878,24.37916],[91.00409,24.16589],[91.03716,24.0931],[90.91417,23.87469],[90.75997,23.85356],[90.72152,23.72194],[90.76994,23.6229],[90.67547,23.55093],[90.69532,23.50788],[90.60336,23.4947],[90.62713,23.60346],[90.47633,23.58295],[90.57683,23.5395],[90.55193,23.38496],[90.25034,23.46695],[90.42848,23.32612],[90.57732,23.2884],[90.61451,23.19546],[90.57195,23.08173],[90.42221,23.02498],[90.32739,23.07156],[90.27447,22.97358],[90.21179,23.06629],[90.14347,23.06283],[89.92875,22.87023],[89.6852,23.11009],[89.75626,23.1706],[89.62784,23.24044],[89.66774,23.28886],[89.59782,23.3531],[89.59885,23.47319],[89.5032,23.48686],[89.52599,23.53748],[89.42134,23.67452],[89.30848,23.7293],[89.34491,23.92071],[89.53017,23.81958],[89.69807,23.85415],[89.70215,23.98004],[89.81703,24.08349],[89.8301,24.18607],[89.74928,24.36087],[89.79605,24.7195],[89.70112,24.80823],[89.65332,24.96886],[89.73678,25.32778],[89.79502,25.37416]]]]}},{"type":"Feature","properties":{"id":"bd-d","lat":22.91191,"lng":89.3855},"geometry":{"type":"MultiPolygon","coordinates":[[[[89.09278,21.7934],[89.1325,21.72162],[89.05152,21.7932],[89.04566,21.91706],[89.09278,21.7934]]],[[[89.10467,21.81586],[88.99837,22.45124],[88.92799,22.54813],[88.94452,22.84801],[88.83879,22.97581],[88.8513,23.07513],[88.95998,23.20269],[88.69658,23.25235],[88.77017,23.48883],[88.71942,23.4681],[88.54155,23.63876],[88.57762,23.85516],[88.71415,23.92516],[88.67808,24.15429],[88.73146,24.18977],[88.82479,24.11917],[88.95998,24.16713],[89.1164,23.95585],[89.34491,23.92071],[89.31148,23.72023],[89.42134,23.67452],[89.52599,23.53748],[89.5032,23.48686],[89.59885,23.47319],[89.59782,23.3531],[89.66774,23.28886],[89.62784,23.24044],[89.75626,23.1706],[89.6852,23.11009],[89.96209,22.82744],[89.88436,22.7059],[89.9795,22.47008],[89.92042,22.39183],[89.87289,22.41861],[89.87135,22.09186],[89.79721,22.07599],[89.88038,21.88418],[89.70916,21.83006],[89.64698,21.92512],[89.61899,21.86986],[89.70069,21.78486],[89.56568,21.71336],[89.52735,21.81281],[89.62647,22.33601],[89.54916,22.20527],[89.57936,22.11323],[89.53289,21.98469],[89.53712,22.08902],[89.47576,22.29507],[89.52182,21.96231],[89.46583,21.78132],[89.40642,21.71735],[89.36964,21.74331],[89.38697,21.90119],[89.35222,21.97232],[89.35597,21.89252],[89.28395,21.82209],[89.29754,21.67813],[89.22926,21.64395],[89.18767,21.81151],[89.10467,21.81586]]]]}},{"type":"Feature","properties":{"id":"bd-e","lat":24.57329,"lng":88.92433},"geometry":{"type":"Polygon","coordinates":[[[88.73146,24.18977],[88.73751,24.2871],[88.6818,24.33389],[88.63452,24.29413],[88.4754,24.31547],[88.10995,24.50099],[88.02179,24.6456],[88.14096,24.84458],[88.11491,24.91641],[88.20245,24.9453],[88.31361,24.8683],[88.41412,25.02152],[88.4413,25.18973],[88.92416,25.16787],[88.97532,25.30264],[89.22348,25.29031],[89.28388,25.17268],[89.35064,25.20765],[89.68153,25.15952],[89.67905,24.85249],[89.79605,24.7195],[89.75569,24.27451],[89.83253,24.1662],[89.80008,24.0559],[89.70215,23.98004],[89.69807,23.85415],[89.55586,23.81488],[89.32171,23.92994],[89.15955,23.93363],[88.96928,24.16209],[88.82479,24.11917],[88.73146,24.18977]]]}},{"type":"Feature","properties":{"id":"bd-f","lat":25.86129,"lng":88.9446},"geometry":{"type":"Polygon","coordinates":[[[89.80857,25.43951],[89.68153,25.15952],[89.35064,25.20765],[89.28388,25.17268],[89.22348,25.29031],[88.84903,25.32719],[88.77234,25.50196],[88.66635,25.46289],[88.53029,25.5002],[88.25992,25.78902],[88.12773,25.77491],[88.0744,25.90814],[88.15563,26.12848],[88.32627,26.21592],[88.43169,26.36222],[88.49763,26.35271],[88.46114,26.45389],[88.31511,26.46505],[88.37252,26.61161],[88.65627,26.41513],[88.71224,26.32826],[88.6634,26.26444],[88.74795,26.2925],[88.82484,26.22657],[88.87579,26.27736],[89.01945,26.23447],[88.89125,26.38578],[88.94101,26.43942],[89.04374,26.38108],[89.10291,26.32734],[89.06943,26.28739],[89.11919,26.14662],[89.3353,25.99857],[89.5417,25.95971],[89.61136,26.07221],[89.56278,26.14259],[89.65301,26.22269],[89.82866,25.9794],[89.78313,25.81445],[89.83439,25.63477],[89.80857,25.43951]]]}},{"type":"Feature","properties":{"id":"bd-g","lat":24.57887,"lng":91.67284},"geometry":{"type":"Polygon","coordinates":[[[92.22303,24.89138],[92.08826,24.38164],[91.94997,24.37539],[91.97219,24.31606],[91.89985,24.33805],[91.87711,24.15804],[91.73293,24.23428],[91.68415,24.14548],[91.62906,24.21532],[91.59651,24.10499],[91.36303,24.09985],[91.30843,23.9925],[91.27332,24.15437],[91.33213,24.24118],[91.15343,24.25643],[91.24878,24.37916],[91.18764,24.4836],[91.22289,24.67415],[91.14827,24.6996],[91.12527,24.88006],[90.97768,24.8806],[90.91236,24.97894],[90.93482,25.15636],[91.2357,25.20192],[91.63868,25.12405],[92.034,25.18167],[92.30354,25.07428],[92.49154,24.88373],[92.38075,24.8367],[92.22303,24.89138]]]}}]}
