{"type":"FeatureCollection","features":[{"type":"Feature","properties":{"id":"be-bru","lat":50.86822,"lng":4.37877},"geometry":{"type":"Polygon","coordinates":[[[4.47975,50.79542],[4.37724,50.76464],[4.24557,50.82164],[4.40329,50.91481],[4.47975,50.79542]]]}},{"type":"Feature","properties":{"id":"be-van","lat":51.2025,"lng":4.77932},"geometry":{"type":"Polygon","coordinates":[[[4.76418,51.49624],[4.82609,51.46055],[4.82268,51.41369],[4.76212,51.41338],[4.91033,51.3919],[5.06029,51.46198],[5.06815,51.37454],[5.23946,51.25693],[5.26043,51.14807],[4.81855,51.01107],[4.47614,50.99239],[4.18913,51.04386],[4.18536,51.10427],[4.32855,51.14778],[4.28861,51.25785],[4.33082,51.29609],[4.26107,51.36938],[4.39222,51.35041],[4.37713,51.44288],[4.51262,51.47738],[4.52151,51.42865],[4.63014,51.41821],[4.76418,51.49624]]]}},{"type":"Feature","properties":{"id":"be-vbr","lat":50.86397,"lng":4.80187},"geometry":{"type":"Polygon","coordinates":[[[4.63521,50.74407],[3.88797,50.71756],[4.06035,50.79264],[4.09126,50.93183],[4.16019,50.92992],[4.1465,50.97058],[4.24034,51.03807],[4.47614,50.99239],[4.78868,51.04009],[4.81855,51.01107],[5.10892,51.05187],[5.15827,51.0235],[5.04148,50.94309],[5.18623,50.9063],[5.1011,50.70976],[4.74962,50.80867],[4.64048,50.79957],[4.63521,50.74407]],[[4.47975,50.79542],[4.40329,50.91481],[4.24557,50.82164],[4.37724,50.76464],[4.47975,50.79542]]]}},{"type":"Feature","properties":{"id":"be-vli","lat":50.99146,"lng":5.42759},"geometry":{"type":"MultiPolygon","coordinates":[[[[5.76247,50.77101],[5.79317,50.75215],[5.91016,50.73597],[5.81829,50.7156],[5.76247,50.77101]]],[[[5.56837,51.20765],[5.8405,51.13892],[5.72237,50.95942],[5.76402,50.95942],[5.62232,50.85266],[5.65743,50.80764],[5.49681,50.72885],[5.1011,50.70976],[5.18623,50.9063],[5.04148,50.94309],[5.15827,51.0235],[4.98092,51.03601],[5.0098,51.07513],[5.26043,51.14807],[5.23946,51.25693],[5.49324,51.28654],[5.56837,51.20765]]]]}},{"type":"Feature","properties":{"id":"be-vov","lat":51.04369,"lng":3.83891},"geometry":{"type":"Polygon","coordinates":[[[3.35983,51.19284],[3.60953,51.29044],[3.92703,51.20625],[4.16856,51.29687],[4.22149,51.368],[4.30665,51.28974],[4.33305,51.16969],[4.182,51.09988],[4.24034,51.03807],[4.1465,50.97058],[4.16019,50.92992],[4.09126,50.93183],[4.06035,50.79264],[3.91829,50.72884],[3.704,50.78211],[3.63465,50.72185],[3.45761,50.76852],[3.5225,50.80517],[3.41915,50.91219],[3.4438,51.04931],[3.33068,51.10014],[3.41031,51.16112],[3.35983,51.19284]]]}},{"type":"Feature","properties":{"id":"be-vwv","lat":51.00522,"lng":3.00705},"geometry":{"type":"Polygon","coordinates":[[[2.86673,50.70009],[2.58675,50.84542],[2.60845,50.96113],[2.5218,51.08754],[3.34942,51.37522],[3.40003,51.24266],[3.35983,51.19284],[3.41031,51.16112],[3.33068,51.10014],[3.4438,51.04931],[3.41915,50.91219],[3.52002,50.79791],[3.36345,50.70965],[3.3033,50.75642],[3.02382,50.76826],[2.99882,50.81161],[2.84219,50.75084],[2.86673,50.70009]]]}},{"type":"Feature","properties":{"id":"be-wbr","lat":50.6855,"lng":4.54845},"geometry":{"type":"Polygon","coordinates":[[[4.09974,50.70712],[4.63521,50.74407],[4.64048,50.79957],[4.74962,50.80867],[5.0191,50.75193],[4.98257,50.64337],[4.6661,50.60849],[4.66662,50.56544],[4.51655,50.52717],[4.33083,50.54456],[4.18432,50.66389],[4.10112,50.63603],[4.09974,50.70712]]]}},{"type":"Feature","properties":{"id":"be-wht","lat":50.38576,"lng":4.12928},"geometry":{"type":"MultiPolygon","coordinates":[[[[3.47713,50.51986],[3.27104,50.52694],[3.23239,50.69593],[3.16281,50.74994],[3.36345,50.70965],[3.53398,50.76642],[3.63465,50.72185],[3.7578,50.78032],[3.92822,50.68981],[4.11244,50.70688],[4.10112,50.63603],[4.18432,50.66389],[4.33083,50.54456],[4.57676,50.54343],[4.57267,50.44178],[4.61598,50.42519],[4.58786,50.32248],[4.28597,50.25797],[4.40054,50.23373],[4.36008,50.16934],[4.42765,49.93357],[4.13166,49.97499],[4.21001,50.06015],[4.12577,50.12816],[4.1852,50.26546],[4.0033,50.34406],[3.75505,50.34633],[3.69686,50.29822],[3.60829,50.47651],[3.47713,50.51986]]],[[[2.87128,50.69877],[2.84219,50.75084],[3.01442,50.80513],[3.02382,50.76826],[2.87128,50.69877]]]]}},{"type":"Feature","properties":{"id":"be-wlg","lat":50.45348,"lng":5.77382},"geometry":{"type":"Polygon","coordinates":[[[6.03863,50.14841],[5.97931,50.33088],[5.85807,50.34788],[5.88029,50.28132],[5.80391,50.25611],[5.72072,50.26308],[5.72077,50.35755],[5.50864,50.42597],[5.29511,50.36618],[5.14282,50.51289],[5.03456,50.53289],[4.97911,50.61929],[4.99198,50.72533],[5.45325,50.72226],[5.65743,50.80764],[5.81829,50.7156],[5.89129,50.75125],[6.081,50.7135],[6.15945,50.62239],[6.24906,50.61443],[6.17082,50.51795],[6.3369,50.481],[6.37453,50.31548],[6.15717,50.22272],[6.11749,50.12046],[6.03863,50.14841]]]}},{"type":"Feature","properties":{"id":"be-wlx","lat":49.97797,"lng":5.41543},"geometry":{"type":"Polygon","coordinates":[[[5.40208,49.60245],[4.96837,49.79698],[5.11889,49.9253],[4.97218,50.03064],[5.06623,50.12477],[5.26219,50.1096],[5.27955,50.15947],[5.20586,50.21991],[5.39267,50.28807],[5.34007,50.31184],[5.41179,50.43031],[5.72077,50.35755],[5.72072,50.26308],[5.87378,50.2715],[5.85807,50.34788],[6.013,50.31176],[6.02297,50.15082],[5.87244,50.09689],[5.71493,49.88187],[5.75813,49.8582],[5.72774,49.80022],[5.88546,49.64353],[5.8374,49.56111],[5.45613,49.49894],[5.40208,49.60245]]]}},{"type":"Feature","properties":{"id":"be-wna","lat":50.22682,"lng":4.8105},"geometry":{"type":"Polygon","coordinates":[[[4.83136,50.1434],[4.68192,50.08392],[4.6567,49.98909],[4.42765,49.93357],[4.36008,50.16934],[4.40054,50.23373],[4.28597,50.25797],[4.58786,50.32248],[4.57319,50.56043],[4.95084,50.64797],[5.03456,50.53289],[5.14282,50.51289],[5.29511,50.36618],[5.4012,50.36757],[5.34007,50.31184],[5.39267,50.28807],[5.20586,50.21991],[5.27955,50.15947],[5.26219,50.1096],[5.06623,50.12477],[4.97218,50.03064],[5.11889,49.9253],[4.96837,49.79698],[4.84904,49.79417],[4.8602,49.91334],[4.78392,49.95829],[4.86289,50.08408],[4.83136,50.1434]]]}}]}
