{"type":"FeatureCollection","features":[{"type":"Feature","properties":{"id":"bf-bal","lat":11.63934,"lng":-3.06488},"geometry":{"type":"Polygon","coordinates":[[[-2.91943,12.05301],[-2.83096,11.88147],[-2.91478,11.78],[-2.77308,11.75262],[-2.66588,11.5163],[-2.52529,11.41093],[-2.62394,11.32331],[-2.74314,11.32458],[-2.80419,11.23345],[-2.8784,11.25055],[-2.84879,11.5333],[-3.05002,11.57392],[-3.27711,11.45935],[-3.30977,11.54617],[-3.41994,11.6003],[-3.39617,11.67838],[-3.61269,11.80776],[-3.49009,11.97679],[-3.40669,11.99059],[-3.29941,11.95868],[-3.27204,11.88749],[-3.09384,11.88982],[-3.22871,12.02934],[-3.20913,12.09435],[-2.91943,12.05301]]]}},{"type":"Feature","properties":{"id":"bf-bam","lat":13.49362,"lng":-1.60431},"geometry":{"type":"Polygon","coordinates":[[[-1.64393,13.02936],[-1.74201,13.1224],[-1.74642,13.25927],[-1.84009,13.34061],[-1.87869,13.56393],[-1.73079,13.68175],[-1.69687,13.82564],[-1.53484,13.90267],[-1.47314,13.7919],[-1.29842,13.68379],[-1.35823,13.42332],[-1.27687,13.28676],[-1.29935,13.1354],[-1.48802,13.11003],[-1.50246,12.99404],[-1.64393,13.02936]]]}},{"type":"Feature","properties":{"id":"bf-ban","lat":12.20424,"lng":-4.19131},"geometry":{"type":"Polygon","coordinates":[[[-4.48525,12.71468],[-4.15553,12.67905],[-4.17736,12.54621],[-4.08825,12.38312],[-4.00869,12.40165],[-3.91146,12.54135],[-3.65732,12.52394],[-3.56371,12.48177],[-3.57466,12.41082],[-3.696,12.40123],[-3.81343,12.26042],[-3.8216,12.14807],[-3.9473,11.94005],[-4.21129,11.92485],[-4.30844,11.7421],[-4.46848,11.71856],[-4.46551,12.06376],[-4.65274,12.07163],[-4.48817,12.3207],[-4.40613,12.30747],[-4.45164,12.43531],[-4.38725,12.53397],[-4.48525,12.71468]]]}},{"type":"Feature","properties":{"id":"bf-baz","lat":11.89542,"lng":-1.44646},"geometry":{"type":"Polygon","coordinates":[[[-1.06233,12.18367],[-0.88795,11.88594],[-1.1246,11.91036],[-1.22578,11.83222],[-1.34772,11.5841],[-1.7889,11.9264],[-1.969,11.90491],[-2.04181,11.98175],[-1.8943,12.14308],[-1.71459,12.05725],[-1.51561,12.19197],[-1.44231,12.18125],[-1.41166,12.10931],[-1.06233,12.18367]]]}},{"type":"Feature","properties":{"id":"bf-bgr","lat":10.97215,"lng":-3.38815},"geometry":{"type":"Polygon","coordinates":[[[-3.44645,11.16229],[-3.11937,11.17867],[-3.19967,10.84435],[-3.19107,10.78358],[-3.08823,10.78792],[-3.05722,10.73498],[-3.31791,10.59258],[-3.39635,10.64726],[-3.69447,10.64408],[-3.78971,10.69467],[-3.6891,10.74653],[-3.72181,10.84833],[-3.65969,10.86843],[-3.55495,11.07586],[-3.44645,11.16229]]]}},{"type":"Feature","properties":{"id":"bf-blg","lat":11.50728,"lng":-0.41412},"geometry":{"type":"Polygon","coordinates":[[[-0.11506,11.12466],[-0.30168,11.16294],[-0.31881,11.10136],[-0.36894,11.06522],[-0.42522,11.10147],[-0.63476,10.90797],[-0.68277,10.9536],[-0.7769,11.19647],[-0.73538,11.27321],[-0.54738,11.36701],[-0.53275,11.44824],[-0.86785,11.58562],[-0.92392,11.66947],[-0.79855,11.83765],[-0.51239,11.98976],[-0.46449,11.98746],[-0.46022,11.89628],[-0.38124,11.82109],[-0.25287,11.79336],[-0.11554,11.92421],[0.01478,11.8445],[0.04812,11.72476],[-0.03829,11.71572],[-0.14608,11.56632],[-0.16595,11.34877],[0.00551,11.32277],[-0.11506,11.12466]]]}},{"type":"Feature","properties":{"id":"bf-blk","lat":12.32006,"lng":-2.23716},"geometry":{"type":"Polygon","coordinates":[[[-2.2813,12.59127],[-2.31029,12.64807],[-2.27218,12.67158],[-2.00907,12.70762],[-1.82931,12.58714],[-1.78991,12.47314],[-1.98561,12.46136],[-2.0777,12.29752],[-2.02641,12.26798],[-1.82066,12.34261],[-1.79771,12.22266],[-2.04416,11.97658],[-2.25329,11.90188],[-2.24032,11.96495],[-2.34608,11.93873],[-2.48121,12.03859],[-2.43168,12.1082],[-2.47568,12.15551],[-2.39613,12.22509],[-2.42406,12.42648],[-2.22221,12.61241],[-2.2813,12.59127]]]}},{"type":"Feature","properties":{"id":"bf-com","lat":10.22206,"lng":-4.43077},"geometry":{"type":"Polygon","coordinates":[[[-5.1049,10.20695],[-5.08289,10.42962],[-5.14604,10.5359],[-4.97359,10.60302],[-4.94861,10.7826],[-5.06186,10.83216],[-4.96478,10.88848],[-4.80146,10.8781],[-4.68185,10.77616],[-4.48463,10.86792],[-4.4019,10.75443],[-4.27767,10.69986],[-4.09037,10.77772],[-3.91195,10.68852],[-3.7854,10.82001],[-3.70137,10.78833],[-3.6891,10.74653],[-3.79421,10.70746],[-3.69336,10.63682],[-3.69799,10.46753],[-3.77741,10.35061],[-3.74907,10.23718],[-3.81723,10.12362],[-3.96771,10.09951],[-3.9904,10.03794],[-3.89162,9.8939],[-4.27033,9.74393],[-4.37118,9.58296],[-4.40911,9.64773],[-4.50171,9.65502],[-4.50995,9.74507],[-4.68108,9.68207],[-4.79645,9.7545],[-4.79846,9.84253],[-4.96608,9.90103],[-4.96334,10.04032],[-5.0701,10.11016],[-5.03946,10.13434],[-5.1049,10.20695]]]}},{"type":"Feature","properties":{"id":"bf-gan","lat":12.31448,"lng":-0.79277},"geometry":{"type":"Polygon","coordinates":[[[-0.61365,12.50577],[-0.51319,12.38725],[-0.42105,12.04536],[-0.45547,11.98811],[-0.5967,11.97335],[-0.69466,11.85739],[-0.80917,11.84031],[-0.88795,11.88594],[-1.09709,12.24171],[-1.07998,12.48425],[-0.97924,12.52435],[-0.84935,12.48342],[-0.69677,12.67938],[-0.63499,12.64481],[-0.61365,12.50577]]]}},{"type":"Feature","properties":{"id":"bf-gna","lat":12.89622,"lng":-0.0218},"geometry":{"type":"Polygon","coordinates":[[[-0.08461,12.23067],[-0.18352,12.2729],[-0.14515,12.38798],[-0.23458,12.47717],[-0.19887,12.7879],[-0.3223,12.88061],[-0.36041,13.07822],[-0.30189,13.19103],[-0.2945,13.41577],[-0.17192,13.57137],[0.0615,13.57824],[0.2572,13.24694],[0.43251,13.16757],[0.59648,12.97218],[0.47359,12.86325],[0.28792,12.91182],[0.2473,12.80981],[0.34903,12.44389],[0.25301,12.37302],[0.00941,12.3278],[-0.08461,12.23067]]]}},{"type":"Feature","properties":{"id":"bf-gou","lat":12.16926,"lng":0.61706},"geometry":{"type":"Polygon","coordinates":[[[-0.11035,11.92292],[-0.08252,12.04862],[0.0306,12.09792],[-0.08461,12.23067],[0.00941,12.3278],[0.25301,12.37302],[0.47918,12.51298],[0.6772,12.3163],[0.8808,12.59065],[1.01196,12.66992],[1.10374,12.65571],[1.15645,12.74997],[1.26879,12.77372],[1.20068,12.23016],[1.33018,12.10836],[1.22993,11.71649],[1.10322,11.83354],[0.86375,11.91808],[0.69653,11.73745],[0.4476,11.66118],[0.17317,11.77654],[0.04969,11.75001],[0.01478,11.8445],[-0.11035,11.92292]]]}},{"type":"Feature","properties":{"id":"bf-hou","lat":11.38971,"lng":-4.29479},"geometry":{"type":"Polygon","coordinates":[[[-4.73228,12.03726],[-4.46551,12.06376],[-4.46848,11.71856],[-4.30844,11.7421],[-4.21129,11.92485],[-3.95996,11.91888],[-3.99068,11.63774],[-3.84906,11.35941],[-3.87562,11.16449],[-3.58613,10.97209],[-3.86407,10.70762],[-3.93025,10.68689],[-4.09037,10.77772],[-4.27767,10.69986],[-4.4019,10.75443],[-4.48463,10.86792],[-4.68185,10.77616],[-4.7881,10.85686],[-4.75813,10.99326],[-4.64589,11.07289],[-4.78846,11.23141],[-4.75585,11.36259],[-4.65984,11.44723],[-4.6033,11.41682],[-4.54664,11.52028],[-4.59098,11.68489],[-4.67113,11.705],[-4.62106,11.89392],[-4.63762,11.98294],[-4.73228,12.03726]]]}},{"type":"Feature","properties":{"id":"bf-iob","lat":11.05417,"lng":-2.9081},"geometry":{"type":"Polygon","coordinates":[[[-2.7288,10.98606],[-2.83734,10.99801],[-2.8214,10.90626],[-2.93426,10.70175],[-3.08823,10.78792],[-3.1791,10.77743],[-3.11937,11.17867],[-3.30269,11.17121],[-3.28336,11.24611],[-3.15711,11.34995],[-2.85863,11.28773],[-2.7891,11.13875],[-2.71448,11.18438],[-2.63666,11.11033],[-2.7288,10.98606]]]}},{"type":"Feature","properties":{"id":"bf-kad","lat":12.37027,"lng":-1.51041},"geometry":{"type":"Polygon","coordinates":[[[-1.09776,12.25982],[-1.07618,12.17014],[-1.41166,12.10931],[-1.44231,12.18125],[-1.51561,12.19197],[-1.71459,12.05725],[-1.87032,12.14494],[-1.79343,12.23889],[-1.82066,12.34261],[-1.68087,12.39793],[-1.72079,12.56321],[-1.62088,12.59308],[-1.59571,12.6731],[-1.56489,12.53955],[-1.45383,12.53218],[-1.47215,12.45968],[-1.27043,12.48647],[-1.26994,12.33455],[-1.09776,12.25982]]]}},{"type":"Feature","properties":{"id":"bf-ken","lat":11.43472,"lng":-4.94828},"geometry":{"type":"Polygon","coordinates":[[[-5.08932,11.97927],[-4.73228,12.03726],[-4.63762,11.98294],[-4.62602,11.75985],[-4.67113,11.705],[-4.59098,11.68489],[-4.54964,11.54059],[-4.6033,11.41682],[-4.65984,11.44723],[-4.74361,11.38605],[-4.79384,11.24774],[-4.65031,11.04491],[-4.75813,10.99326],[-4.79376,10.87091],[-4.96478,10.88848],[-5.18666,10.81006],[-5.37887,11.02511],[-5.5056,11.04799],[-5.33251,11.12157],[-5.21831,11.4222],[-5.23391,11.57599],[-5.3076,11.61764],[-5.28714,11.75892],[-5.41235,11.82853],[-5.27515,11.83742],[-5.08932,11.97927]]]}},{"type":"Feature","properties":{"id":"bf-kmd","lat":12.70995,"lng":0.70457},"geometry":{"type":"Polygon","coordinates":[[[0.97166,13.08578],[0.98354,13.03236],[1.11397,12.99624],[1.30481,12.83851],[1.26879,12.77372],[1.15645,12.74997],[1.10374,12.65571],[1.01196,12.66992],[0.8808,12.59065],[0.6772,12.3163],[0.47918,12.51298],[0.34903,12.44389],[0.2473,12.80981],[0.28792,12.91182],[0.47359,12.86325],[0.55958,12.94893],[0.75358,12.96288],[0.97166,13.08578]]]}},{"type":"Feature","properties":{"id":"bf-kmp","lat":11.38599,"lng":0.96485},"geometry":{"type":"Polygon","coordinates":[[[1.42321,11.45375],[1.33039,11.28885],[1.27334,11.31822],[1.26838,11.24789],[1.13557,11.26012],[1.15841,11.16593],[1.06229,11.14206],[1.11417,11.02767],[0.98137,11.08013],[0.96328,10.97414],[0.67534,10.98853],[0.48765,10.93324],[0.48879,11.00178],[0.37478,11.02581],[0.42975,11.12671],[0.48817,11.08072],[0.55452,11.20795],[0.52941,11.6597],[0.69653,11.73745],[0.86375,11.91808],[1.10322,11.83354],[1.22993,11.71649],[1.26218,11.57273],[1.42321,11.45375]]]}},{"type":"Feature","properties":{"id":"bf-kop","lat":11.45754,"lng":0.19231},"geometry":{"type":"Polygon","coordinates":[[[0.37478,11.02581],[-0.11506,11.12466],[0.00551,11.32277],[-0.16595,11.34877],[-0.14608,11.56632],[-0.07131,11.68774],[0.08633,11.78052],[0.52941,11.6597],[0.55452,11.20795],[0.48817,11.08072],[0.42975,11.12671],[0.37478,11.02581]]]}},{"type":"Feature","properties":{"id":"bf-kos","lat":12.8677,"lng":-3.83585},"geometry":{"type":"Polygon","coordinates":[[[-3.97774,13.49993],[-3.91797,13.45107],[-3.97161,13.38676],[-3.47392,13.1676],[-3.42625,12.78646],[-3.54104,12.70357],[-3.56371,12.48177],[-3.91146,12.54135],[-4.06458,12.37627],[-4.14959,12.44214],[-4.15553,12.67905],[-4.24547,12.72894],[-4.22932,12.94895],[-4.35107,13.11832],[-4.2348,13.1756],[-4.25351,13.22909],[-3.97774,13.49993]]]}},{"type":"Feature","properties":{"id":"bf-kot","lat":12.21321,"lng":-0.28284},"geometry":{"type":"Polygon","coordinates":[[[-0.46449,11.98746],[-0.42286,12.15352],[-0.61365,12.50577],[-0.38909,12.46885],[-0.20742,12.56047],[-0.22391,12.43666],[-0.14515,12.38798],[-0.18352,12.2729],[0.0306,12.09792],[-0.08252,12.04862],[-0.11035,11.92292],[-0.25287,11.79336],[-0.42943,11.85597],[-0.46449,11.98746]]]}},{"type":"Feature","properties":{"id":"bf-kow","lat":12.57815,"lng":-1.76877},"geometry":{"type":"Polygon","coordinates":[[[-1.98561,12.46136],[-1.80205,12.45743],[-1.79655,12.52438],[-1.92259,12.62099],[-1.96104,12.76088],[-1.86094,12.86991],[-1.73152,12.90071],[-1.59628,12.70393],[-1.62088,12.59308],[-1.72079,12.56321],[-1.68087,12.39793],[-2.02641,12.26798],[-2.0777,12.29752],[-1.98561,12.46136]]]}},{"type":"Feature","properties":{"id":"bf-ler","lat":10.6841,"lng":-5.21658},"geometry":{"type":"Polygon","coordinates":[[[-5.36553,10.2957],[-5.52258,10.42549],[-5.43142,10.84469],[-5.5056,11.04799],[-5.37887,11.02511],[-5.18666,10.81006],[-5.06186,10.83216],[-4.94861,10.7826],[-4.98504,10.58561],[-5.14604,10.5359],[-5.08289,10.42962],[-5.09366,10.31374],[-5.36553,10.2957]]]}},{"type":"Feature","properties":{"id":"bf-lor","lat":13.93401,"lng":-2.06319},"geometry":{"type":"Polygon","coordinates":[[[-2.46168,14.28091],[-1.86378,13.99408],[-1.8706,13.89817],[-1.73105,13.70875],[-1.87802,13.54176],[-2.11563,13.52801],[-2.27092,13.96984],[-2.38641,14.04281],[-2.56847,13.99103],[-2.67626,14.14173],[-2.46168,14.28091]]]}},{"type":"Feature","properties":{"id":"bf-mou","lat":12.20424,"lng":-3.33876},"geometry":{"type":"Polygon","coordinates":[[[-2.84065,12.36687],[-2.88729,12.27752],[-2.80791,12.0643],[-2.89638,12.10384],[-2.98599,12.02914],[-3.05958,12.08779],[-3.22646,12.08117],[-3.18122,11.96914],[-3.1042,11.93798],[-3.11125,11.87845],[-3.27204,11.88749],[-3.35713,11.98813],[-3.49009,11.97679],[-3.5951,11.85953],[-3.58706,11.75696],[-3.73235,11.71856],[-3.9543,11.85023],[-3.97867,11.94578],[-3.8216,12.14807],[-3.81343,12.26042],[-3.696,12.40123],[-3.57784,12.40154],[-3.51872,12.72894],[-3.40687,12.744],[-3.34976,12.63197],[-3.25822,12.68623],[-3.2484,12.5297],[-2.96237,12.34958],[-2.84065,12.36687]]]}},{"type":"Feature","properties":{"id":"bf-nam","lat":13.12277,"lng":-0.50023},"geometry":{"type":"Polygon","coordinates":[[[-0.61365,12.50577],[-0.81144,12.98182],[-0.68132,12.98551],[-0.64998,13.25469],[-0.75026,13.6416],[-0.60833,13.92264],[-0.46645,13.81766],[-0.36829,13.65139],[-0.21965,13.61653],[-0.36597,12.99084],[-0.30476,12.85472],[-0.19887,12.7879],[-0.1966,12.60419],[-0.38909,12.46885],[-0.61365,12.50577]]]}},{"type":"Feature","properties":{"id":"bf-nao","lat":11.25943,"lng":-1.26728},"geometry":{"type":"Polygon","coordinates":[[[-0.70302,10.99416],[-1.38035,11.00127],[-1.63863,11.14113],[-1.58809,11.32238],[-1.31376,11.5348],[-0.98433,11.33096],[-0.87893,11.19492],[-0.7769,11.19647],[-0.69062,11.05953],[-0.70302,10.99416]]]}},{"type":"Feature","properties":{"id":"bf-nay","lat":12.66046,"lng":-2.98348},"geometry":{"type":"Polygon","coordinates":[[[-2.63707,12.73617],[-2.74771,12.62187],[-2.72037,12.51161],[-2.76432,12.43477],[-2.95669,12.34785],[-3.2484,12.5297],[-3.25822,12.68623],[-3.36478,12.63468],[-3.42929,12.74971],[-3.38749,12.87867],[-3.1915,12.99944],[-3.14688,12.9467],[-2.97043,12.95365],[-2.85835,12.8974],[-2.69017,12.92696],[-2.71079,12.80837],[-2.63707,12.73617]]]}},{"type":"Feature","properties":{"id":"bf-nou","lat":9.77139,"lng":-2.92558},"geometry":{"type":"Polygon","coordinates":[[[-2.98999,9.70843],[-3.20001,9.84537],[-3.18405,10.05421],[-3.05138,10.07484],[-2.93934,10.00408],[-2.89217,10.10138],[-2.78848,10.09236],[-2.73391,9.82279],[-2.7953,9.72],[-2.68921,9.48872],[-2.74492,9.40811],[-2.81042,9.41111],[-2.98999,9.70843]]]}},{"type":"Feature","properties":{"id":"bf-oub","lat":12.59878,"lng":-1.26166},"geometry":{"type":"Polygon","coordinates":[[[-0.91033,12.46616],[-0.97924,12.52435],[-1.07998,12.48425],[-1.09776,12.25982],[-1.20439,12.28886],[-1.26994,12.33455],[-1.27043,12.48647],[-1.47215,12.45968],[-1.4837,12.56544],[-1.56489,12.53955],[-1.66444,12.8648],[-1.73152,12.90071],[-1.62698,12.92521],[-1.21752,12.77744],[-1.14427,12.63212],[-1.03032,12.66574],[-0.84002,12.5242],[-0.91033,12.46616]]]}},{"type":"Feature","properties":{"id":"bf-oud","lat":14.68239,"lng":-0.37674},"geometry":{"type":"Polygon","coordinates":[[[-0.4679,15.07991],[-0.42573,15.0026],[-0.2367,15.06562],[0.21847,14.91098],[0.15294,14.54671],[0.20238,14.43554],[-0.00103,14.18518],[-0.58513,14.1489],[-0.63528,14.32533],[-1.04314,14.81806],[-0.75289,15.06973],[-0.4679,15.07991]]]}},{"type":"Feature","properties":{"id":"bf-pas","lat":12.88492,"lng":-2.25448},"geometry":{"type":"Polygon","coordinates":[[[-2.47661,12.70062],[-2.51041,12.81317],[-2.63707,12.73617],[-2.71079,12.80837],[-2.6859,12.97048],[-2.44607,12.97016],[-2.23647,13.09129],[-2.01819,13.02936],[-1.87032,13.14147],[-1.50246,12.99404],[-1.55889,12.89994],[-1.66467,12.92766],[-1.86094,12.86991],[-1.96104,12.76088],[-1.95321,12.66894],[-2.17751,12.69765],[-2.43721,12.61566],[-2.41117,12.69669],[-2.47661,12.70062]]]}},{"type":"Feature","properties":{"id":"bf-pon","lat":10.30203,"lng":-3.2838},"geometry":{"type":"Polygon","coordinates":[[[-3.31718,9.90133],[-3.66166,9.94893],[-3.89162,9.8939],[-3.9904,10.03794],[-3.96771,10.09951],[-3.81723,10.12362],[-3.75602,10.21964],[-3.77741,10.35061],[-3.69799,10.46753],[-3.69447,10.64408],[-3.39635,10.64726],[-3.31791,10.59258],[-3.05278,10.74058],[-2.90803,10.70364],[-2.89152,10.52166],[-2.76755,10.4212],[-2.8413,10.34327],[-2.75494,10.2608],[-2.78848,10.09236],[-2.89217,10.10138],[-2.93934,10.00408],[-3.15457,10.07779],[-3.20256,9.90823],[-3.27786,9.84346],[-3.31718,9.90133]]]}},{"type":"Feature","properties":{"id":"bf-sen","lat":13.98539,"lng":-0.09168},"geometry":{"type":"Polygon","coordinates":[[[0.20238,14.43554],[0.38879,14.25161],[0.33916,14.12578],[0.49993,13.85102],[0.0615,13.57824],[-0.17192,13.57137],[-0.22629,13.49657],[-0.21965,13.61653],[-0.36829,13.65139],[-0.63835,13.96217],[-0.57097,14.0086],[-0.56686,14.14263],[-0.00103,14.18518],[0.20238,14.43554]]]}},{"type":"Feature","properties":{"id":"bf-sis","lat":11.4466,"lng":-2.3644},"geometry":{"type":"Polygon","coordinates":[[[-1.41355,11.01405],[-2.7288,10.98606],[-2.63666,11.11033],[-2.71448,11.18438],[-2.7891,11.13875],[-2.80419,11.23345],[-2.74314,11.32458],[-2.52488,11.38899],[-2.66588,11.5163],[-2.68014,11.60994],[-2.59348,11.61182],[-2.53638,11.79062],[-2.23963,11.90953],[-2.22317,11.72626],[-2.34006,11.72042],[-2.33556,11.54529],[-2.19061,11.50421],[-2.00119,11.2881],[-1.9183,11.35869],[-1.80544,11.28799],[-1.63617,11.36298],[-1.58809,11.32238],[-1.63863,11.14113],[-1.41355,11.01405]]]}},{"type":"Feature","properties":{"id":"bf-smt","lat":13.19505,"lng":-0.97371},"geometry":{"type":"Polygon","coordinates":[[[-0.67264,12.67633],[-0.73532,12.67468],[-0.74424,12.59251],[-0.86974,12.53089],[-1.03032,12.66574],[-1.14427,12.63212],[-1.21752,12.77744],[-1.55256,12.9041],[-1.48802,13.11003],[-1.29935,13.1354],[-1.27687,13.28676],[-1.35823,13.42332],[-1.28904,13.65007],[-1.33309,13.73896],[-0.85188,13.85127],[-0.64202,13.97093],[-0.60833,13.92264],[-0.75026,13.6416],[-0.64998,13.25469],[-0.68132,12.98551],[-0.81144,12.98182],[-0.67264,12.67633]]]}},{"type":"Feature","properties":{"id":"bf-sng","lat":12.1903,"lng":-2.63219},"geometry":{"type":"Polygon","coordinates":[[[-2.83194,11.86747],[-2.89638,12.10384],[-2.80791,12.0643],[-2.79251,12.1151],[-2.8815,12.30114],[-2.72037,12.51161],[-2.74771,12.62187],[-2.63707,12.73617],[-2.51041,12.81317],[-2.50661,12.70455],[-2.41117,12.69669],[-2.45067,12.61825],[-2.31567,12.64897],[-2.2813,12.59127],[-2.23386,12.63117],[-2.25939,12.53314],[-2.42406,12.42648],[-2.39613,12.22509],[-2.47568,12.15551],[-2.43168,12.1082],[-2.48152,12.06006],[-2.34608,11.93873],[-2.24032,11.96495],[-2.25329,11.90188],[-2.51168,11.80941],[-2.59348,11.61182],[-2.68014,11.60994],[-2.77308,11.75262],[-2.92374,11.7976],[-2.83194,11.86747]]]}},{"type":"Feature","properties":{"id":"bf-som","lat":14.26198,"lng":-1.31479},"geometry":{"type":"Polygon","coordinates":[[[-1.99706,14.47069],[-1.69692,14.49612],[-1.35027,14.71497],[-1.04314,14.81806],[-0.63528,14.32533],[-0.55079,14.09237],[-0.57097,14.0086],[-0.85188,13.85127],[-1.29154,13.74221],[-1.47314,13.7919],[-1.53484,13.90267],[-1.69687,13.82564],[-1.74704,13.72927],[-1.8706,13.89817],[-1.86378,13.99408],[-2.08501,14.15967],[-2.02341,14.19864],[-1.99706,14.47069]]]}},{"type":"Feature","properties":{"id":"bf-sor","lat":13.24523,"lng":-2.97395},"geometry":{"type":"Polygon","coordinates":[[[-2.97232,13.62447],[-2.64038,13.45794],[-2.59064,13.29314],[-2.45261,13.22467],[-2.54899,13.09057],[-2.68293,13.08577],[-2.69017,12.92696],[-2.85835,12.8974],[-2.97043,12.95365],[-3.14688,12.9467],[-3.1915,12.99944],[-3.29791,12.96303],[-3.42625,12.78646],[-3.47392,13.1676],[-3.44854,13.26578],[-3.24863,13.29278],[-3.28695,13.69777],[-3.1251,13.67728],[-3.06751,13.60677],[-2.97232,13.62447]]]}},{"type":"Feature","properties":{"id":"bf-tap","lat":12.01792,"lng":1.80001},"geometry":{"type":"Polygon","coordinates":[[[2.39017,11.89654],[2.28744,11.66528],[1.98337,11.41401],[1.84064,11.44548],[1.60159,11.38869],[1.56934,11.45331],[1.42321,11.45375],[1.26218,11.57273],[1.22993,11.71649],[1.33111,12.13931],[1.20068,12.23016],[1.19975,12.47149],[1.30481,12.83851],[1.59704,12.62368],[1.84374,12.6061],[1.97169,12.72424],[2.10905,12.70563],[2.24496,12.42415],[2.05179,12.34193],[2.39017,11.89654]]]}},{"type":"Feature","properties":{"id":"bf-tui","lat":11.40938,"lng":-3.36023},"geometry":{"type":"Polygon","coordinates":[[[-3.58706,11.75696],[-3.39617,11.67838],[-3.41994,11.6003],[-3.30977,11.54617],[-3.27711,11.45935],[-3.05002,11.57392],[-2.84879,11.5333],[-2.84372,11.31006],[-3.19817,11.33843],[-3.30269,11.17121],[-3.44645,11.16229],[-3.62489,10.96879],[-3.87562,11.16449],[-3.84906,11.35941],[-3.99068,11.63774],[-3.94903,11.85109],[-3.77307,11.7237],[-3.58706,11.75696]]]}},{"type":"Feature","properties":{"id":"bf-yag","lat":13.41704,"lng":0.62462},"geometry":{"type":"Polygon","coordinates":[[[0.49993,13.85102],[0.60051,13.76872],[0.59431,13.68888],[0.89693,13.61493],[1.01527,13.46566],[1.26869,13.34606],[1.18766,13.36412],[1.16068,13.31131],[0.98354,13.36841],[0.97166,13.08578],[0.75358,12.96288],[0.57436,12.95399],[0.5107,13.08589],[0.2572,13.24694],[0.06956,13.49975],[0.0615,13.57824],[0.49993,13.85102]]]}},{"type":"Feature","properties":{"id":"bf-yat","lat":13.59014,"lng":-2.49511},"geometry":{"type":"Polygon","coordinates":[[[-2.86729,14.00054],[-2.67626,14.14173],[-2.56847,13.99103],[-2.38641,14.04281],[-2.27092,13.96984],[-2.11563,13.52801],[-1.87802,13.54176],[-1.84009,13.34061],[-1.72051,13.20229],[-1.74201,13.1224],[-1.8295,13.09793],[-1.87032,13.14147],[-1.92184,13.06618],[-2.0902,13.02936],[-2.14932,13.08088],[-2.06641,13.26294],[-2.08974,13.33614],[-2.40068,13.38836],[-2.59064,13.29314],[-2.64038,13.45794],[-2.93047,13.63852],[-2.86729,14.00054]]]}},{"type":"Feature","properties":{"id":"bf-zir","lat":11.66196,"lng":-1.90654},"geometry":{"type":"Polygon","coordinates":[[[-1.7889,11.9264],[-1.31376,11.5348],[-1.58809,11.32238],[-1.69622,11.3669],[-1.83112,11.29078],[-1.9183,11.35869],[-1.98491,11.28665],[-2.34998,11.6035],[-2.34006,11.72042],[-2.22317,11.72626],[-2.23963,11.90953],[-2.04181,11.98175],[-1.969,11.90491],[-1.7889,11.9264]]]}},{"type":"Feature","properties":{"id":"bf-zon","lat":13.15798,"lng":-2.30802},"geometry":{"type":"Polygon","coordinates":[[[-2.12904,13.06434],[-2.23647,13.09129],[-2.52793,12.95823],[-2.6859,12.97048],[-2.69613,13.01965],[-2.68293,13.08577],[-2.54899,13.09057],[-2.45261,13.22467],[-2.59064,13.29314],[-2.40068,13.38836],[-2.08974,13.33614],[-2.12904,13.06434]]]}},{"type":"Feature","properties":{"id":"bf-zou","lat":11.53003,"lng":-1.02145},"geometry":{"type":"Polygon","coordinates":[[[-1.1246,11.91036],[-0.79855,11.83765],[-0.92392,11.66947],[-0.86785,11.58562],[-0.53275,11.44824],[-0.54738,11.36701],[-0.73538,11.27321],[-0.81863,11.16686],[-0.98433,11.33096],[-1.27359,11.47597],[-1.34772,11.5841],[-1.22578,11.83222],[-1.1246,11.91036]]]}}]}
