{"type":"FeatureCollection","features":[{"type":"Feature","properties":{"id":"bg-01","lat":41.80042,"lng":23.4211},"geometry":{"type":"Polygon","coordinates":[[[22.91698,41.33577],[22.9361,41.62617],[23.00886,41.73993],[22.8808,41.87269],[22.84562,42.00741],[22.93362,42.08601],[23.38723,42.06234],[23.76313,42.17761],[23.81604,42.11231],[23.76251,41.93987],[23.79568,41.86091],[24.12311,41.65461],[24.07794,41.62402],[24.1977,41.54771],[24.04735,41.52573],[24.03474,41.45132],[23.8948,41.46434],[23.61244,41.37102],[23.2877,41.3982],[23.15717,41.31634],[22.91698,41.33577]]]}},{"type":"Feature","properties":{"id":"bg-02","lat":42.43997,"lng":27.25388},"geometry":{"type":"Polygon","coordinates":[[[27.54641,41.90116],[27.27335,42.09175],[27.0479,42.08292],[27.01988,42.18445],[27.08954,42.33731],[26.87002,42.47147],[26.71943,42.68918],[26.51283,42.70419],[26.57825,42.77059],[26.57236,42.92376],[26.68967,42.88891],[26.80098,42.94691],[27.0237,42.9288],[27.23651,42.98841],[27.4458,42.88374],[27.62057,42.9094],[27.80185,42.82206],[27.88396,42.84837],[27.89226,42.71052],[27.73268,42.7145],[27.73951,42.66108],[27.62843,42.62897],[27.65016,42.55805],[27.51149,42.55305],[27.45338,42.46524],[27.719,42.4147],[27.71437,42.34919],[27.78785,42.31098],[27.75587,42.25849],[27.98658,42.07209],[28.01677,41.97256],[27.81192,41.9947],[27.81534,41.9468],[27.68707,41.9686],[27.54641,41.90116]]]}},{"type":"Feature","properties":{"id":"bg-03","lat":43.19039,"lng":27.55934},"geometry":{"type":"Polygon","coordinates":[[[28.087,43.35524],[28.01759,43.23273],[27.90398,43.20234],[27.94557,43.16885],[27.88356,43.03099],[27.90398,42.85969],[27.83151,42.82659],[27.62057,42.9094],[27.4458,42.88374],[27.23651,42.98841],[27.1191,42.95366],[27.07848,43.00094],[27.20912,43.0474],[27.15796,43.08329],[27.21232,43.17845],[27.15682,43.23168],[27.30255,43.31904],[27.27072,43.3788],[27.33397,43.50809],[27.28508,43.52003],[27.33852,43.5544],[27.45851,43.56272],[27.5199,43.49915],[27.60382,43.54194],[27.80867,43.38769],[28.087,43.35524]]]}},{"type":"Feature","properties":{"id":"bg-04","lat":43.22891,"lng":25.59744},"geometry":{"type":"Polygon","coordinates":[[[25.28541,43.69039],[25.48245,43.66971],[25.47011,43.54587],[25.56684,43.50835],[25.5501,43.45327],[25.6057,43.41257],[25.9354,43.37521],[26.08629,43.28542],[26.10769,43.17793],[26.05725,43.09846],[26.09456,42.97748],[26.17197,42.94906],[26.05684,42.81723],[25.62007,42.76695],[25.5594,43.03321],[25.33285,43.05122],[25.0786,43.16186],[25.11157,43.27989],[25.22567,43.33653],[25.13596,43.46169],[25.28541,43.69039]]]}},{"type":"Feature","properties":{"id":"bg-05","lat":43.78684,"lng":22.67825},"geometry":{"type":"Polygon","coordinates":[[[22.57519,44.06139],[22.6062,44.17457],[22.69164,44.22843],[23.04007,44.06233],[22.88587,43.99453],[22.85052,43.89699],[22.88876,43.83952],[23.05255,43.84282],[22.97517,43.76575],[23.04689,43.70167],[22.95264,43.63475],[22.97692,43.5436],[22.7975,43.49089],[22.72434,43.38606],[22.51886,43.47425],[22.34947,43.80792],[22.39959,43.99334],[22.57519,44.06139]]]}},{"type":"Feature","properties":{"id":"bg-06","lat":43.4138,"lng":23.81399},"geometry":{"type":"Polygon","coordinates":[[[23.62085,43.83401],[24.3367,43.75925],[24.28754,43.66524],[24.12021,43.58899],[24.22491,43.48453],[24.22811,43.34307],[23.97862,43.29459],[23.95071,43.24516],[24.03495,43.17331],[23.93563,43.02776],[23.76602,43.06786],[23.5526,43.00916],[23.43519,43.10825],[23.46206,43.15031],[23.39891,43.16295],[23.46351,43.23147],[23.32719,43.27565],[23.44139,43.48802],[23.62278,43.5283],[23.55105,43.58383],[23.62085,43.83401]]]}},{"type":"Feature","properties":{"id":"bg-07","lat":42.96296,"lng":25.21836},"geometry":{"type":"Polygon","coordinates":[[[25.01153,42.74827],[24.86745,42.98683],[24.98538,43.19586],[25.33285,43.05122],[25.5594,43.03321],[25.5533,42.93908],[25.62761,42.88852],[25.61273,42.73793],[25.01153,42.74827]]]}},{"type":"Feature","properties":{"id":"bg-08","lat":43.70509,"lng":27.90023},"geometry":{"type":"Polygon","coordinates":[[[27.68251,43.98726],[27.7217,43.94874],[27.91207,43.99334],[27.98101,43.84934],[28.22125,43.76198],[28.57838,43.74128],[28.57846,43.48078],[28.47315,43.36685],[28.32163,43.42829],[28.087,43.35524],[27.86768,43.36541],[27.60382,43.54194],[27.5199,43.49915],[27.4088,43.59863],[27.30586,43.59486],[27.20013,43.66891],[27.2764,43.79469],[27.38606,43.77604],[27.37376,43.82508],[27.48125,43.83087],[27.68251,43.98726]]]}},{"type":"Feature","properties":{"id":"bg-09","lat":41.57011,"lng":25.45371},"geometry":{"type":"Polygon","coordinates":[[[26.05949,41.64378],[26.16314,41.52915],[26.17564,41.43189],[26.12086,41.35779],[25.88202,41.30404],[25.55149,41.31567],[25.28572,41.2394],[25.15385,41.30754],[25.14206,41.52349],[25.07075,41.4916],[24.99365,41.57751],[25.09018,41.62172],[25.0383,41.76081],[25.19591,41.90858],[25.24717,41.81703],[25.38928,41.84665],[25.47083,41.76998],[25.58576,41.76138],[25.63909,41.62035],[25.78223,41.66464],[25.9169,41.56271],[26.05949,41.64378]]]}},{"type":"Feature","properties":{"id":"bg-10","lat":42.31967,"lng":22.86469},"geometry":{"type":"Polygon","coordinates":[[[22.34502,42.31344],[22.42398,42.32589],[22.53312,42.45759],[22.42533,42.57285],[22.44132,42.63289],[22.56847,42.63238],[22.82644,42.37083],[23.29391,42.37359],[23.39933,42.26207],[23.33897,42.17316],[23.52976,42.13523],[23.38723,42.06234],[22.93362,42.08601],[22.84562,42.00741],[22.53106,42.12911],[22.34502,42.31344]]]}},{"type":"Feature","properties":{"id":"bg-11","lat":43.04879,"lng":24.46121},"geometry":{"type":"Polygon","coordinates":[[[24.75201,42.70943],[24.5853,42.78855],[24.15856,42.78085],[24.15142,42.90872],[23.95836,43.1145],[24.01634,43.11075],[24.02678,43.21173],[24.13282,43.25235],[24.23524,43.22628],[24.39255,43.27798],[24.57445,43.20114],[24.75284,43.30873],[24.92223,43.29547],[25.02982,43.36381],[25.11653,43.21524],[24.98538,43.19586],[24.86745,42.98683],[25.01122,42.75853],[24.75201,42.70943]]]}},{"type":"Feature","properties":{"id":"bg-12","lat":43.50884,"lng":23.20912},"geometry":{"type":"Polygon","coordinates":[[[22.9829,43.18732],[22.72434,43.38606],[22.7975,43.49089],[22.96865,43.5268],[22.95264,43.63475],[23.04689,43.70167],[22.97517,43.76575],[23.05255,43.84282],[23.23448,43.8773],[23.62085,43.83401],[23.55105,43.58383],[23.62278,43.5283],[23.44139,43.48802],[23.32719,43.27565],[23.45069,43.2086],[23.22032,43.11119],[22.9829,43.18732]]]}},{"type":"Feature","properties":{"id":"bg-13","lat":42.15185,"lng":24.13352},"geometry":{"type":"Polygon","coordinates":[[[24.40815,42.56208],[24.39441,42.4641],[24.51574,42.1688],[24.45032,42.1349],[24.42397,41.88951],[24.27132,41.74195],[24.17716,41.72812],[24.14956,41.79115],[24.06306,41.792],[24.07257,41.68635],[23.82173,41.82383],[23.76251,41.93987],[23.81604,42.11231],[23.76313,42.17761],[23.8885,42.2907],[23.95805,42.26804],[23.9594,42.3923],[24.05469,42.44503],[23.92136,42.50751],[23.904,42.56952],[24.03474,42.55337],[24.22894,42.62967],[24.40815,42.56208]]]}},{"type":"Feature","properties":{"id":"bg-14","lat":42.62667,"lng":22.85137},"geometry":{"type":"Polygon","coordinates":[[[22.4368,42.82429],[22.73958,42.89886],[22.86003,42.84901],[23.14756,42.66114],[23.27851,42.53229],[23.21567,42.37318],[22.85011,42.36018],[22.59896,42.62045],[22.44132,42.63289],[22.4829,42.73378],[22.4368,42.82429]]]}},{"type":"Feature","properties":{"id":"bg-15","lat":43.53676,"lng":24.67879},"geometry":{"type":"Polygon","coordinates":[[[24.46634,43.80242],[25.28541,43.69039],[25.13596,43.46169],[25.22567,43.33653],[25.11157,43.27989],[25.02982,43.36381],[24.92223,43.29547],[24.75284,43.30873],[24.57445,43.20114],[24.39255,43.27798],[23.9594,43.23163],[23.97862,43.29459],[24.22811,43.34307],[24.22491,43.48453],[24.12021,43.58899],[24.46634,43.80242]]]}},{"type":"Feature","properties":{"id":"bg-16","lat":42.34363,"lng":24.78632},"geometry":{"type":"Polygon","coordinates":[[[25.01153,42.74827],[25.026,42.54133],[25.15953,42.5097],[25.19736,42.41687],[25.10837,42.40111],[25.14909,42.28615],[25.08584,42.26321],[25.08801,42.18805],[25.30453,42.15159],[25.30753,41.97201],[25.09111,41.79334],[24.80875,41.93098],[24.56256,41.88525],[24.45115,41.94943],[24.45032,42.1349],[24.51574,42.1688],[24.39441,42.4641],[24.40815,42.56208],[24.47296,42.59929],[24.3602,42.70742],[24.50004,42.79201],[24.75201,42.70943],[25.01153,42.74827]]]}},{"type":"Feature","properties":{"id":"bg-17","lat":43.61187,"lng":26.53659},"geometry":{"type":"Polygon","coordinates":[[[27.00076,43.69958],[26.59841,43.34216],[26.4872,43.34971],[26.48534,43.41766],[26.16236,43.56212],[26.17993,43.66163],[26.34251,43.70439],[26.3578,43.76294],[26.25393,43.8321],[26.39625,43.94957],[26.56833,43.93696],[26.76739,43.80725],[26.83715,43.84368],[27.00076,43.69958]]]}},{"type":"Feature","properties":{"id":"bg-18","lat":43.68705,"lng":25.92109},"geometry":{"type":"Polygon","coordinates":[[[25.48245,43.66971],[25.78114,43.73201],[26.11621,43.99887],[26.33234,44.05493],[26.3762,44.01948],[26.39625,43.94957],[26.25393,43.8321],[26.3578,43.76294],[26.34251,43.70439],[26.17993,43.66163],[26.18417,43.53595],[26.03917,43.50727],[25.94615,43.41658],[26.02046,43.31885],[25.9354,43.37521],[25.6057,43.41257],[25.5501,43.45327],[25.56684,43.50835],[25.47011,43.54587],[25.48245,43.66971]]]}},{"type":"Feature","properties":{"id":"bg-19","lat":43.89427,"lng":27.09502},"geometry":{"type":"Polygon","coordinates":[[[27.02748,44.17705],[27.25113,44.12237],[27.38384,44.01509],[27.63343,44.02977],[27.68251,43.98726],[27.48125,43.83087],[27.37376,43.82508],[27.38606,43.77604],[27.2764,43.79469],[27.21956,43.66563],[27.00076,43.69958],[26.83715,43.84368],[26.76739,43.80725],[26.5457,43.94486],[26.39625,43.94957],[26.33234,44.05493],[27.02748,44.17705]]]}},{"type":"Feature","properties":{"id":"bg-20","lat":42.60075,"lng":26.20978},"geometry":{"type":"Polygon","coordinates":[[[26.02459,42.15272],[25.83101,42.53864],[25.883,42.56828],[25.81086,42.78281],[26.05684,42.81723],[26.27471,43.03466],[26.57433,42.98658],[26.57825,42.77059],[26.49898,42.73011],[26.66083,42.69584],[26.6536,42.63321],[26.37816,42.54895],[26.3424,42.46077],[26.22406,42.45343],[26.16856,42.40537],[26.22499,42.3576],[26.16639,42.18035],[26.02459,42.15272]]]}},{"type":"Feature","properties":{"id":"bg-21","lat":41.62663,"lng":24.58532},"geometry":{"type":"Polygon","coordinates":[[[24.29612,41.51525],[24.07794,41.62402],[24.12311,41.65461],[24.06306,41.792],[24.14956,41.79115],[24.19504,41.72712],[24.31462,41.77104],[24.45115,41.94943],[24.56256,41.88525],[24.80875,41.93098],[25.06713,41.79497],[25.0939,41.62924],[24.99365,41.57751],[25.07075,41.4916],[25.14206,41.52349],[25.15385,41.30754],[24.88637,41.40063],[24.77444,41.34807],[24.58044,41.44052],[24.51016,41.56165],[24.29612,41.51525]]]}},{"type":"Feature","properties":{"id":"bg-22","lat":42.68389,"lng":23.30392},"geometry":{"type":"Polygon","coordinates":[[[23.27365,42.898],[23.40057,42.84777],[23.60851,42.86105],[23.50278,42.65791],[23.6544,42.43586],[23.53203,42.43426],[23.51632,42.52428],[23.43209,42.47265],[23.27851,42.53229],[23.0595,42.70987],[23.195,42.73589],[23.27365,42.898]]]}},{"type":"Feature","properties":{"id":"bg-23","lat":42.64379,"lng":23.95709},"geometry":{"type":"Polygon","coordinates":[[[22.73958,42.89886],[22.9829,43.18732],[23.22032,43.11119],[23.43137,43.16197],[23.5526,43.00916],[24.00622,43.06021],[24.15142,42.90872],[24.15856,42.78085],[24.39668,42.75491],[24.37312,42.66169],[24.47296,42.59929],[24.35038,42.56515],[24.22894,42.62967],[24.03474,42.55337],[23.904,42.56952],[23.92136,42.50751],[24.05469,42.44503],[23.9594,42.3923],[23.97407,42.28326],[23.8885,42.2907],[23.79568,42.18869],[23.60025,42.15092],[23.54753,42.08412],[23.42806,42.18686],[23.33897,42.17316],[23.39933,42.26207],[23.29391,42.37359],[23.21567,42.37318],[23.27851,42.53229],[23.43209,42.47265],[23.51632,42.52428],[23.53203,42.43426],[23.6544,42.43586],[23.50278,42.65791],[23.60851,42.86105],[23.40057,42.84777],[23.27365,42.898],[23.195,42.73589],[23.0595,42.70987],[22.73958,42.89886]]]}},{"type":"Feature","properties":{"id":"bg-24","lat":42.40899,"lng":25.51918},"geometry":{"type":"Polygon","coordinates":[[[25.19736,42.41687],[25.026,42.54133],[25.01153,42.74827],[25.61273,42.73793],[25.81086,42.78281],[25.883,42.56828],[25.83101,42.53864],[25.97436,42.19755],[26.13012,42.15704],[26.14283,42.0457],[26.05705,42.01961],[25.86998,42.1273],[25.7566,42.06152],[25.60756,42.12999],[25.58886,42.19275],[25.47393,42.16652],[25.44985,42.09867],[25.2356,42.17683],[25.1494,42.14647],[25.07313,42.22897],[25.14909,42.28615],[25.10837,42.40111],[25.19736,42.41687]]]}},{"type":"Feature","properties":{"id":"bg-25","lat":43.24739,"lng":26.42662},"geometry":{"type":"Polygon","coordinates":[[[26.62983,43.00647],[26.27471,43.03466],[26.19874,42.95224],[26.09456,42.97748],[26.08629,43.28542],[25.94615,43.41658],[26.03917,43.50727],[26.2715,43.53771],[26.36049,43.44148],[26.48534,43.41766],[26.4872,43.34971],[26.77266,43.40348],[26.76429,43.20935],[26.65691,43.12124],[26.62983,43.00647]]]}},{"type":"Feature","properties":{"id":"bg-26","lat":41.86256,"lng":25.8821},"geometry":{"type":"Polygon","coordinates":[[[26.55289,41.88164],[26.52611,41.82424],[26.33419,41.78954],[26.33336,41.71304],[26.21182,41.75048],[26.06051,41.7073],[26.05949,41.64378],[25.9169,41.56271],[25.78223,41.66464],[25.6056,41.63366],[25.63402,41.70092],[25.58576,41.76138],[25.47083,41.76998],[25.38928,41.84665],[25.24717,41.81703],[25.21079,41.87848],[25.30753,41.97201],[25.28397,42.13324],[25.44985,42.09867],[25.47393,42.16652],[25.58886,42.19275],[25.60756,42.12999],[25.7566,42.06152],[25.86998,42.1273],[26.05705,42.01961],[26.32008,42.00459],[26.36679,41.94075],[26.43728,41.97418],[26.48028,41.89385],[26.55289,41.88164]]]}},{"type":"Feature","properties":{"id":"bg-27","lat":43.30827,"lng":27.01269},"geometry":{"type":"Polygon","coordinates":[[[26.68967,42.88891],[26.55252,42.95769],[26.68626,43.09892],[26.65691,43.12124],[26.76429,43.20935],[26.73349,43.29751],[26.78134,43.36815],[26.71809,43.45993],[26.79261,43.54954],[26.92232,43.58762],[27.05409,43.72162],[27.30586,43.59486],[27.4088,43.59863],[27.28508,43.52003],[27.33397,43.50809],[27.27072,43.3788],[27.30255,43.31904],[27.15682,43.23168],[27.21232,43.17845],[27.15796,43.08329],[27.20912,43.0474],[27.07848,43.00094],[27.1191,42.95366],[26.80098,42.94691],[26.68967,42.88891]]]}},{"type":"Feature","properties":{"id":"bg-28","lat":42.26088,"lng":26.61698},"geometry":{"type":"Polygon","coordinates":[[[27.0479,42.08292],[26.9389,41.99622],[26.60569,41.96741],[26.53071,41.87228],[26.43728,41.97418],[26.36679,41.94075],[26.32008,42.00459],[26.14283,42.0457],[26.13012,42.15704],[26.22499,42.3576],[26.16856,42.40537],[26.71943,42.68918],[26.87002,42.47147],[27.08954,42.33731],[27.01988,42.18445],[27.0479,42.08292]]]}}]}
