{"type":"FeatureCollection","features":[{"type":"Feature","properties":{"id":"bh-13","lat":26.22515,"lng":50.55941},"geometry":{"type":"Polygon","coordinates":[[[50.50392,26.24201],[50.58668,26.2425],[50.60914,26.20828],[50.55161,26.19424],[50.50392,26.24201]]]}},{"type":"Feature","properties":{"id":"bh-14","lat":26.00691,"lng":50.55244},"geometry":{"type":"MultiPolygon","coordinates":[[[[50.78697,25.65267],[50.81165,25.63178],[50.79076,25.63052],[50.78697,25.65267]]],[[[50.79076,25.72608],[50.76229,25.66786],[50.75659,25.57989],[50.7414,25.67419],[50.79076,25.72608]]],[[[50.81988,25.67861],[50.80848,25.66406],[50.80469,25.67925],[50.81988,25.67861]]],[[[50.79013,25.75519],[50.78064,25.74506],[50.77558,25.75266],[50.79013,25.75519]]],[[[50.61629,26.09593],[50.56528,25.78954],[50.46778,25.95759],[50.53902,26.05623],[50.52449,26.1289],[50.61629,26.09593]]]]}},{"type":"Feature","properties":{"id":"bh-15","lat":26.25899,"lng":50.63437},"geometry":{"type":"Polygon","coordinates":[[[50.60165,26.27885],[50.65532,26.2767],[50.67894,26.20801],[50.61238,26.24128],[50.60165,26.27885]]]}},{"type":"Feature","properties":{"id":"bh-16","lat":26.15718,"lng":50.57749},"geometry":{"type":"Polygon","coordinates":[[[50.55161,26.19424],[50.6199,26.18547],[50.61629,26.09593],[50.52449,26.1289],[50.55161,26.19424]]]}},{"type":"Feature","properties":{"id":"bh-17","lat":26.11701,"lng":50.50942},"geometry":{"type":"MultiPolygon","coordinates":[[[[50.53902,26.05623],[50.44955,26.17797],[50.50392,26.24201],[50.55161,26.19424],[50.50995,26.17779],[50.53902,26.05623]]],[[[50.38053,26.13931],[50.41917,26.16614],[50.42347,26.11999],[50.38053,26.13931]]]]}}]}
