{"type":"FeatureCollection","features":[{"type":"Feature","properties":{"id":"bi-bb","lat":-3.10932,"lng":29.40911},"geometry":{"type":"Polygon","coordinates":[[[29.23612,-3.2707],[29.21752,-3.14622],[29.31669,-3.07242],[29.29426,-3.01263],[29.49487,-2.91104],[29.55637,-3.05676],[29.53518,-3.26879],[29.37881,-3.25877],[29.29385,-3.31106],[29.23612,-3.2707]]]}},{"type":"Feature","properties":{"id":"bi-bl","lat":-3.4945,"lng":29.48621},"geometry":{"type":"Polygon","coordinates":[[[29.21194,-3.40683],[29.23612,-3.2707],[29.29385,-3.31106],[29.37881,-3.25877],[29.52309,-3.28001],[29.60422,-3.46372],[29.48826,-3.71698],[29.21712,-3.70927],[29.2239,-3.57109],[29.3777,-3.52528],[29.40761,-3.3249],[29.21194,-3.40683]]]}},{"type":"Feature","properties":{"id":"bi-bm","lat":-3.46605,"lng":29.29876},"geometry":{"type":"Polygon","coordinates":[[[29.2239,-3.57109],[29.21194,-3.40683],[29.39067,-3.31038],[29.3777,-3.52528],[29.2239,-3.57109]]]}},{"type":"Feature","properties":{"id":"bi-br","lat":-3.86015,"lng":29.56802},"geometry":{"type":"Polygon","coordinates":[[[29.36722,-4.18905],[29.21504,-3.89986],[29.21712,-3.70927],[29.48826,-3.71698],[29.58396,-3.54635],[29.67502,-3.7159],[29.72607,-3.64035],[29.78188,-3.65032],[29.75563,-3.80147],[29.84152,-3.72747],[29.92833,-3.82044],[29.88162,-4.05949],[29.83645,-4.07019],[29.81733,-3.94271],[29.64008,-4.12414],[29.36722,-4.18905]]]}},{"type":"Feature","properties":{"id":"bi-ca","lat":-3.09754,"lng":30.58554},"geometry":{"type":"Polygon","coordinates":[[[30.28893,-3.18518],[30.53889,-2.899],[30.63759,-2.97444],[30.82549,-2.97858],[30.77826,-3.04741],[30.83293,-3.14766],[30.79975,-3.27458],[30.59238,-3.3831],[30.44003,-3.23117],[30.28893,-3.18518]]]}},{"type":"Feature","properties":{"id":"bi-ci","lat":-2.86874,"lng":29.26595},"geometry":{"type":"Polygon","coordinates":[[[29.11345,-2.59462],[29.30661,-2.66015],[29.33969,-2.82644],[29.44468,-2.80699],[29.49487,-2.91104],[29.29426,-3.01263],[29.28693,-3.10281],[28.98689,-2.79678],[29.03257,-2.62067],[29.11345,-2.59462]]]}},{"type":"Feature","properties":{"id":"bi-gi","lat":-3.45056,"lng":29.98073},"geometry":{"type":"Polygon","coordinates":[[[29.878,-3.05847],[29.89826,-3.16999],[29.96068,-3.16043],[30.01525,-3.23184],[29.98022,-3.33447],[30.08233,-3.42475],[30.10393,-3.57942],[30.09938,-3.66339],[29.95159,-3.83196],[29.85361,-3.78861],[29.84152,-3.72747],[29.77268,-3.81946],[29.78188,-3.65032],[29.72607,-3.64035],[29.80896,-3.61998],[29.76989,-3.54444],[29.86911,-3.47638],[29.8872,-3.40346],[29.79708,-3.28977],[29.86581,-3.23314],[29.81475,-3.17934],[29.878,-3.05847]]]}},{"type":"Feature","properties":{"id":"bi-ki","lat":-2.50403,"lng":30.15812},"geometry":{"type":"Polygon","coordinates":[[[30.20749,-2.33924],[30.37058,-2.33924],[30.41564,-2.57653],[30.07809,-2.78097],[29.90373,-2.63795],[29.9288,-2.32249],[30.1168,-2.43153],[30.20749,-2.33924]]]}},{"type":"Feature","properties":{"id":"bi-kr","lat":-3.12723,"lng":30.097},"geometry":{"type":"Polygon","coordinates":[[[29.90756,-3.08694],[30.18682,-2.89796],[30.28811,-2.96044],[30.24377,-3.10937],[30.33813,-3.14508],[30.02052,-3.3753],[29.98022,-3.33447],[30.01525,-3.23184],[29.96068,-3.16043],[29.89826,-3.16999],[29.90756,-3.08694]]]}},{"type":"Feature","properties":{"id":"bi-ky","lat":-2.99739,"lng":29.68059},"geometry":{"type":"Polygon","coordinates":[[[29.61926,-2.78768],[29.60505,-2.86923],[29.78168,-2.9052],[29.80204,-2.98478],[29.8779,-3.01],[29.83015,-3.17443],[29.73992,-3.20032],[29.55874,-3.09077],[29.44468,-2.80699],[29.61926,-2.78768]]]}},{"type":"Feature","properties":{"id":"bi-ma","lat":-4.23049,"lng":29.70349},"geometry":{"type":"Polygon","coordinates":[[[30.17585,-4.03999],[30.00301,-4.27194],[29.7841,-4.37384],[29.73284,-4.46334],[29.40418,-4.4498],[29.36722,-4.18905],[29.64008,-4.12414],[29.81733,-3.94271],[29.83645,-4.07019],[29.95314,-4.13551],[30.17585,-4.03999]]]}},{"type":"Feature","properties":{"id":"bi-mu","lat":-3.25657,"lng":29.68243},"geometry":{"type":"Polygon","coordinates":[[[29.55874,-3.09077],[29.73992,-3.20032],[29.81475,-3.17934],[29.86581,-3.23314],[29.79708,-3.28977],[29.84338,-3.35613],[29.56536,-3.40207],[29.52309,-3.28001],[29.55874,-3.09077]]]}},{"type":"Feature","properties":{"id":"bi-mw","lat":-3.47395,"lng":29.70836},"geometry":{"type":"Polygon","coordinates":[[[29.84338,-3.35613],[29.8872,-3.40346],[29.76989,-3.54444],[29.80896,-3.61998],[29.67502,-3.7159],[29.58396,-3.54635],[29.59254,-3.39912],[29.84338,-3.35613]]]}},{"type":"Feature","properties":{"id":"bi-my","lat":-2.72557,"lng":30.32364},"geometry":{"type":"Polygon","coordinates":[[[30.37859,-2.30306],[30.5546,-2.40063],[30.41213,-2.67017],[30.52256,-2.6494],[30.41363,-2.8344],[30.48832,-2.94316],[30.33813,-3.14508],[30.24377,-3.10937],[30.27136,-2.92489],[30.15974,-2.86215],[30.08243,-2.88308],[30.11912,-2.82034],[30.07809,-2.78097],[30.41564,-2.57653],[30.37859,-2.30306]]]}},{"type":"Feature","properties":{"id":"bi-ng","lat":-2.84479,"lng":29.85998},"geometry":{"type":"Polygon","coordinates":[[[29.80338,-2.76732],[29.90373,-2.63795],[29.97846,-2.65462],[30.11912,-2.82034],[30.08243,-2.88308],[30.18682,-2.89796],[29.90756,-3.08694],[29.78168,-2.9052],[29.60505,-2.86923],[29.63709,-2.79163],[29.80338,-2.76732]]]}},{"type":"Feature","properties":{"id":"bi-rt","lat":-3.93872,"lng":30.06588},"geometry":{"type":"Polygon","coordinates":[[[30.37307,-3.70434],[30.38159,-3.78835],[30.31172,-3.7899],[30.17585,-4.03999],[29.95314,-4.13551],[29.89164,-4.07934],[29.90756,-3.83744],[30.10352,-3.63585],[30.37307,-3.70434]]]}},{"type":"Feature","properties":{"id":"bi-ry","lat":-3.46625,"lng":30.3096},"geometry":{"type":"Polygon","coordinates":[[[30.44003,-3.23117],[30.63914,-3.41948],[30.46892,-3.51301],[30.3618,-3.70396],[30.10352,-3.63585],[30.03809,-3.34657],[30.15643,-3.31742],[30.28893,-3.18518],[30.44003,-3.23117]]]}}]}
