{"type":"FeatureCollection","features":[{"type":"Feature","properties":{"id":"bj-ak","lat":10.74457,"lng":1.5443},"geometry":{"type":"Polygon","coordinates":[[[1.84064,11.44548],[2.02006,11.42628],[2.26398,11.01215],[2.35617,10.96008],[2.26666,10.87117],[2.2662,10.52403],[2.18176,10.41626],[2.25731,10.12316],[2.11086,10.08546],[2.09189,10.03153],[1.80793,10.04045],[1.60965,9.94689],[1.34394,9.95476],[0.76877,10.36709],[0.78128,10.69304],[0.86292,10.79609],[0.90147,10.99274],[0.96328,10.97414],[0.98137,11.08013],[1.11417,11.02767],[1.06229,11.14206],[1.15841,11.16593],[1.15634,11.28554],[1.26838,11.24789],[1.27334,11.31822],[1.33039,11.28885],[1.43963,11.47377],[1.56934,11.45331],[1.60159,11.38869],[1.84064,11.44548]]]}},{"type":"Feature","properties":{"id":"bj-al","lat":11.54844,"lng":2.8398},"geometry":{"type":"Polygon","coordinates":[[[3.5964,11.69577],[3.46845,11.41948],[3.72208,11.11235],[3.73003,10.80771],[3.83725,10.63061],[2.97577,10.52086],[2.25498,10.51783],[2.26305,10.8589],[2.35617,10.96008],[2.26398,11.01215],[2.01543,11.43159],[2.28744,11.66528],[2.38087,11.9479],[2.45673,11.97906],[2.37001,12.23626],[2.66385,12.29155],[2.8443,12.39924],[3.25203,12.02412],[3.30701,11.90237],[3.49542,11.83752],[3.5964,11.69577]]]}},{"type":"Feature","properties":{"id":"bj-aq","lat":6.662,"lng":2.23784},"geometry":{"type":"Polygon","coordinates":[[[2.35985,6.3364],[1.98771,6.28652],[1.95785,6.39235],[2.08399,6.91932],[2.3849,6.92056],[2.41916,6.86501],[2.48742,6.45899],[2.35985,6.3364]]]}},{"type":"Feature","properties":{"id":"bj-bo","lat":9.7362,"lng":2.72519},"geometry":{"type":"Polygon","coordinates":[[[3.83725,10.63061],[3.78771,10.42637],[3.65211,10.4358],[3.57242,10.2857],[3.66751,10.14657],[3.58948,9.94882],[3.5131,9.84661],[3.32593,9.80173],[3.33161,9.65202],[3.24572,9.6337],[3.13255,9.45728],[3.15136,9.28863],[3.07602,9.09516],[2.76916,9.05705],[2.72295,8.77122],[2.19463,8.77667],[2.19721,8.81802],[2.05097,8.87191],[2.04942,9.09841],[1.97955,9.15877],[1.97071,9.27406],[1.99014,9.35095],[2.12187,9.39974],[2.16114,9.67068],[2.08058,9.80545],[2.08724,10.05417],[2.26759,10.13494],[2.18222,10.40099],[2.22754,10.5007],[2.775,10.5522],[2.97577,10.52086],[3.83725,10.63061]]]}},{"type":"Feature","properties":{"id":"bj-co","lat":8.0417,"lng":2.15687},"geometry":{"type":"Polygon","coordinates":[[[2.6717,7.89343],[2.72441,7.80769],[2.71764,7.65855],[2.49817,7.65907],[2.42753,7.42603],[1.88942,7.6231],[1.62285,7.62246],[1.60107,8.37163],[1.64417,8.49349],[1.6072,8.58862],[1.82969,8.61487],[2.1599,8.47646],[2.21948,8.51511],[2.19463,8.77667],[2.72295,8.77122],[2.73444,8.18997],[2.6717,7.89343]]]}},{"type":"Feature","properties":{"id":"bj-do","lat":9.26915,"lng":1.71033},"geometry":{"type":"Polygon","coordinates":[[[1.35127,9.48255],[1.34394,9.95476],[1.60965,9.94689],[1.80793,10.04045],[2.09189,10.03153],[2.08058,9.80545],[2.16129,9.65647],[2.11815,9.38656],[1.99014,9.35095],[1.97025,9.21703],[2.04942,9.09841],[2.03805,8.88729],[2.2031,8.81194],[2.21173,8.50313],[2.05484,8.49044],[1.82969,8.61487],[1.6072,8.58862],[1.5958,9.07681],[1.40118,9.32127],[1.35127,9.48255]]]}},{"type":"Feature","properties":{"id":"bj-ko","lat":7.30411,"lng":1.69117},"geometry":{"type":"Polygon","coordinates":[[[1.53193,6.99193],[1.62567,6.99678],[1.62325,7.53639],[1.89284,7.07184],[2.08399,6.91932],[2.02363,6.70649],[1.89842,6.747],[1.68675,6.68998],[1.58918,6.72046],[1.53193,6.99193]]]}},{"type":"Feature","properties":{"id":"bj-li","lat":6.37188,"lng":2.44997},"geometry":{"type":"Polygon","coordinates":[[[2.48395,6.34793],[2.35985,6.3364],[2.46758,6.39584],[2.48395,6.34793]]]}},{"type":"Feature","properties":{"id":"bj-mo","lat":6.54116,"lng":1.82817},"geometry":{"type":"Polygon","coordinates":[[[1.78235,6.27727],[1.58918,6.72046],[1.68675,6.68998],[1.89842,6.747],[2.02363,6.70649],[1.95785,6.39235],[1.98771,6.28652],[1.61964,6.21389],[1.78235,6.27727]]]}},{"type":"Feature","properties":{"id":"bj-ou","lat":6.82059,"lng":2.49338},"geometry":{"type":"Polygon","coordinates":[[[2.71192,6.47405],[2.70384,6.36835],[2.46433,6.37516],[2.41389,6.98231],[2.52003,6.99317],[2.59636,6.65887],[2.71192,6.47405]]]}},{"type":"Feature","properties":{"id":"bj-pl","lat":7.06867,"lng":2.65374},"geometry":{"type":"Polygon","coordinates":[[[2.71764,7.65855],[2.79231,7.47763],[2.74116,7.40818],[2.73526,7.096],[2.77971,7.04133],[2.71511,6.97983],[2.72358,6.79971],[2.77857,6.69876],[2.7188,6.5043],[2.59636,6.65887],[2.51833,6.94229],[2.56008,7.00009],[2.53383,7.17845],[2.46557,7.25015],[2.41777,7.47487],[2.49817,7.65907],[2.71764,7.65855]]]}},{"type":"Feature","properties":{"id":"bj-zo","lat":7.21205,"lng":2.16583},"geometry":{"type":"Polygon","coordinates":[[[1.62325,7.53639],[1.62285,7.62246],[1.84472,7.6324],[2.42753,7.42603],[2.559,6.99807],[2.43001,6.99076],[2.3849,6.92056],[2.03464,6.91622],[1.62325,7.53639]]]}}]}
