{"type":"FeatureCollection","features":[{"type":"Feature","properties":{"id":"bn-be","lat":4.37774,"lng":114.4943},"geometry":{"type":"Polygon","coordinates":[[[114.41992,4.26013],[114.27802,4.27405],[114.24556,4.48143],[113.99879,4.60114],[114.25172,4.59268],[114.49444,4.68125],[114.81721,4.25966],[114.76687,4.13182],[114.62776,4.01668],[114.41992,4.26013]]]}},{"type":"Feature","properties":{"id":"bn-bm","lat":4.85884,"lng":114.86551},"geometry":{"type":"Polygon","coordinates":[[[115.10174,5.04987],[114.94836,4.81893],[114.74319,4.73058],[114.76018,4.89875],[115.10174,5.04987]]]}},{"type":"Feature","properties":{"id":"bn-te","lat":4.55572,"lng":115.17097},"geometry":{"type":"Polygon","coordinates":[[[115.14617,4.90852],[115.27268,4.63677],[115.27248,4.47466],[115.34627,4.31377],[115.09182,4.40542],[115.02978,4.82064],[115.13022,4.85204],[115.14617,4.90852]]]}},{"type":"Feature","properties":{"id":"bn-tu","lat":4.57123,"lng":114.68106},"geometry":{"type":"Polygon","coordinates":[[[114.76018,4.89875],[114.78817,4.4612],[114.8479,4.42374],[114.79416,4.30024],[114.49444,4.68125],[114.76018,4.89875]]]}}]}
