{"type":"FeatureCollection","features":[{"type":"Feature","properties":{"id":"bo-b","lat":-13.45464,"lng":-64.65137},"geometry":{"type":"Polygon","coordinates":[[[-65.39465,-10.39207],[-65.44998,-10.46809],[-65.43569,-10.62581],[-65.29911,-10.98207],[-65.39474,-11.15343],[-65.38727,-11.27755],[-65.32645,-11.32778],[-65.31955,-11.4764],[-65.22266,-11.51744],[-65.16744,-11.61552],[-65.1962,-11.74181],[-65.1515,-11.77313],[-65.11341,-11.69055],[-65.06556,-11.75308],[-64.99745,-11.99627],[-64.7925,-12.03255],[-64.73953,-12.14458],[-64.68992,-12.10438],[-64.66486,-12.18096],[-64.48939,-12.23946],[-64.48978,-12.37361],[-64.28754,-12.49712],[-63.92124,-12.54435],[-63.8014,-12.45495],[-63.48576,-12.55748],[-63.31791,-12.70196],[-63.07503,-12.65266],[-62.98801,-12.84387],[-62.78983,-13.00065],[-62.68663,-12.965],[-62.38185,-13.13987],[-62.16238,-13.12075],[-62.09923,-13.2626],[-61.83635,-13.54062],[-61.59306,-13.50679],[-63.5704,-14.61854],[-63.96301,-14.73739],[-63.94979,-15.08564],[-63.86318,-15.29808],[-63.67016,-15.58019],[-63.49868,-15.69206],[-63.4207,-15.85655],[-63.3206,-15.9166],[-64.68411,-15.84291],[-65.1639,-15.90714],[-65.35957,-16.32417],[-65.88615,-16.46633],[-66.23923,-16.31694],[-66.50353,-15.97194],[-67.1075,-15.40015],[-67.11551,-15.28982],[-67.27051,-15.0364],[-67.41756,-14.96849],[-67.42751,-14.75414],[-67.53598,-14.59859],[-67.48794,-14.51162],[-67.56817,-14.33029],[-67.5036,-14.25866],[-67.53598,-13.99837],[-67.49264,-13.77135],[-67.36108,-13.5739],[-67.3956,-13.40249],[-67.11993,-13.03724],[-67.05226,-13.0159],[-66.94857,-12.6708],[-66.87744,-12.065],[-66.97061,-11.84899],[-66.88837,-11.81814],[-66.90529,-11.73541],[-66.72902,-11.67474],[-66.679,-11.44938],[-66.49702,-11.4423],[-66.25463,-11.33166],[-66.21784,-11.09772],[-66.14722,-11.08061],[-66.04534,-10.86755],[-66.10792,-10.84068],[-66.01168,-10.78942],[-65.89504,-10.81174],[-65.92178,-10.6824],[-65.78575,-10.70126],[-65.76143,-10.56411],[-65.67392,-10.57155],[-65.39465,-10.39207]]]}},{"type":"Feature","properties":{"id":"bo-c","lat":-17.27685,"lng":-65.58589},"geometry":{"type":"Polygon","coordinates":[[[-66.98994,-17.55128],[-66.84194,-17.46808],[-66.89723,-17.17497],[-67.01231,-17.02625],[-66.93229,-16.83515],[-66.75845,-16.74115],[-66.79961,-16.28329],[-66.94994,-16.05783],[-66.93446,-15.84472],[-66.78442,-15.6993],[-66.23923,-16.31694],[-65.88615,-16.46633],[-65.35957,-16.32417],[-65.1639,-15.90714],[-64.65752,-15.85045],[-64.7039,-15.87474],[-64.67597,-15.92249],[-64.73059,-15.92249],[-64.66168,-16.11803],[-64.68424,-16.38835],[-64.80774,-16.72962],[-64.74165,-16.8984],[-64.37568,-17.17461],[-64.21215,-17.37873],[-64.39637,-17.4563],[-64.71064,-17.91074],[-64.42004,-18.42094],[-64.30212,-18.49959],[-64.29325,-18.59101],[-64.3402,-18.65695],[-64.39141,-18.60181],[-64.57458,-18.66672],[-64.81604,-18.48466],[-65.00194,-18.55592],[-65.0668,-18.65478],[-65.23139,-18.61628],[-65.30596,-18.45184],[-65.64237,-18.12907],[-65.84331,-17.96831],[-65.94026,-17.98133],[-66.01852,-17.86217],[-66.17515,-17.86682],[-66.34644,-17.98862],[-66.62492,-17.99125],[-66.80835,-17.68791],[-66.98994,-17.55128]]]}},{"type":"Feature","properties":{"id":"bo-h","lat":-19.91568,"lng":-64.35771},"geometry":{"type":"Polygon","coordinates":[[[-62.21057,-20.47131],[-62.2773,-20.57978],[-62.27189,-21.00042],[-63.98304,-20.9967],[-64.0004,-20.94425],[-64.17517,-20.89144],[-64.23235,-21.14202],[-64.53099,-21.08998],[-64.697,-20.92999],[-64.82958,-21.09752],[-65.15661,-20.94575],[-65.23493,-21.53538],[-65.47688,-21.29209],[-65.42272,-20.83682],[-65.29596,-20.53379],[-65.36885,-20.20311],[-65.31324,-20.04234],[-64.86774,-19.8684],[-64.74692,-19.73244],[-64.91998,-19.3706],[-65.13054,-19.37923],[-65.29281,-19.31029],[-65.50618,-19.09361],[-65.54077,-19.01295],[-65.46998,-18.905],[-65.50636,-18.81291],[-65.42381,-18.70248],[-65.65219,-18.74867],[-65.60777,-18.67411],[-65.62428,-18.47639],[-65.69245,-18.3549],[-65.34394,-18.42265],[-65.23139,-18.61628],[-65.08018,-18.65586],[-64.96458,-18.53132],[-64.81604,-18.48466],[-64.57458,-18.66672],[-64.36999,-18.60894],[-64.28178,-18.82624],[-64.06466,-18.99982],[-64.00694,-19.16865],[-63.91759,-19.15382],[-63.87263,-19.02628],[-63.75052,-19.0283],[-63.7253,-19.96297],[-63.6519,-20.45012],[-63.50242,-20.46035],[-63.36848,-20.35741],[-63.28587,-20.47513],[-62.21057,-20.47131]]]}},{"type":"Feature","properties":{"id":"bo-l","lat":-14.97513,"lng":-68.39247},"geometry":{"type":"Polygon","coordinates":[[[-69.29003,-17.97663],[-69.3594,-17.75938],[-69.49712,-17.6214],[-69.5226,-17.36912],[-69.66649,-17.2883],[-69.6228,-17.18557],[-69.40602,-17.06299],[-69.18236,-16.72874],[-69.03707,-16.67025],[-69.02787,-16.45414],[-68.83349,-16.32898],[-68.98204,-16.21002],[-69.18487,-16.19503],[-69.43002,-15.62628],[-69.29117,-15.35084],[-69.1481,-15.23333],[-69.38431,-14.98177],[-69.37054,-14.80152],[-69.26763,-14.75067],[-69.23466,-14.57425],[-69.1704,-14.57756],[-69.16428,-14.50304],[-68.99025,-14.37902],[-69.01015,-14.2459],[-68.86445,-14.19123],[-68.90576,-14.0393],[-68.98297,-13.97222],[-69.01596,-13.75311],[-69.10159,-13.66661],[-69.02384,-13.63498],[-68.97075,-13.50145],[-68.98659,-12.89048],[-68.87657,-12.75498],[-68.76613,-12.71054],[-68.74296,-12.66579],[-68.79342,-12.62021],[-68.68946,-12.49342],[-68.62968,-12.49081],[-68.58196,-12.40694],[-68.47687,-12.41671],[-68.39016,-12.24246],[-68.24617,-12.15368],[-68.21513,-12.01994],[-68.01282,-11.97002],[-67.97352,-11.90485],[-66.92782,-12.38224],[-66.94857,-12.6708],[-67.05226,-13.0159],[-67.11993,-13.03724],[-67.3956,-13.40249],[-67.36108,-13.5739],[-67.49264,-13.77135],[-67.53598,-13.99837],[-67.5036,-14.25866],[-67.56817,-14.33029],[-67.48794,-14.51162],[-67.53598,-14.59859],[-67.42751,-14.75414],[-67.41756,-14.96849],[-67.28129,-15.02358],[-67.11551,-15.28982],[-67.1075,-15.40015],[-66.78442,-15.6993],[-66.93446,-15.84472],[-66.94994,-16.05783],[-66.79961,-16.28329],[-66.75845,-16.74115],[-66.93229,-16.83515],[-67.01521,-17.04687],[-66.90327,-17.15952],[-66.84194,-17.46808],[-66.98994,-17.55128],[-67.12008,-17.40338],[-67.30245,-17.44514],[-67.751,-17.72672],[-67.77216,-17.86263],[-68.14049,-17.65902],[-68.44662,-17.65236],[-68.8677,-17.96676],[-69.08228,-18.03908],[-69.29003,-17.97663]]]}},{"type":"Feature","properties":{"id":"bo-n","lat":-11.08917,"lng":-67.37096},"geometry":{"type":"Polygon","coordinates":[[[-65.44249,-9.67982],[-65.29911,-9.84126],[-65.33683,-9.96725],[-65.28482,-10.20682],[-65.32782,-10.31441],[-65.65229,-10.56039],[-65.76143,-10.56411],[-65.78575,-10.70126],[-65.92178,-10.6824],[-65.89504,-10.81174],[-66.01168,-10.78942],[-66.10792,-10.84068],[-66.04534,-10.86755],[-66.14722,-11.08061],[-66.21784,-11.09772],[-66.25463,-11.33166],[-66.49702,-11.4423],[-66.679,-11.44938],[-66.72902,-11.67474],[-66.90529,-11.73541],[-66.88837,-11.81814],[-66.97456,-11.8692],[-66.87744,-12.065],[-66.92782,-12.38224],[-67.97352,-11.90485],[-68.01282,-11.97002],[-68.21513,-12.01994],[-68.24617,-12.15368],[-68.39016,-12.24246],[-68.47687,-12.41671],[-68.58196,-12.40694],[-68.62968,-12.49081],[-68.68946,-12.49342],[-69.57764,-10.9523],[-68.80466,-10.99468],[-68.75763,-11.01194],[-68.77593,-11.14061],[-68.61573,-11.1125],[-68.29332,-10.97897],[-68.04377,-10.66695],[-67.72173,-10.7055],[-67.58463,-10.50179],[-67.32351,-10.31885],[-67.18471,-10.32671],[-67.0643,-10.25694],[-66.64262,-9.90792],[-66.087,-9.78452],[-65.80642,-9.78441],[-65.78856,-9.73305],[-65.58398,-9.83723],[-65.44249,-9.67982]]]}},{"type":"Feature","properties":{"id":"bo-o","lat":-18.6447,"lng":-67.79302},"geometry":{"type":"Polygon","coordinates":[[[-68.98961,-18.94649],[-68.95145,-18.86732],[-69.15544,-18.14024],[-69.08228,-18.03908],[-68.8168,-17.94035],[-68.44662,-17.65236],[-68.14049,-17.65902],[-67.77216,-17.86263],[-67.73204,-17.71287],[-67.30245,-17.44514],[-67.13262,-17.40106],[-66.80835,-17.68791],[-66.62492,-17.99125],[-66.73476,-18.05394],[-66.74835,-18.16266],[-66.68458,-18.23739],[-66.52162,-18.25263],[-66.67983,-18.358],[-66.64125,-18.59101],[-66.50304,-18.69839],[-66.2846,-18.76573],[-66.04059,-19.17289],[-66.45392,-19.24151],[-66.72812,-19.4415],[-67.73961,-19.82494],[-68.57674,-19.56461],[-68.45502,-19.4154],[-68.9085,-19.06793],[-68.98961,-18.94649]]]}},{"type":"Feature","properties":{"id":"bo-p","lat":-20.37493,"lng":-67.02647},"geometry":{"type":"Polygon","coordinates":[[[-68.59718,-20.05671],[-68.55351,-19.85786],[-68.70544,-19.73383],[-68.57674,-19.56461],[-67.68747,-19.82603],[-66.72812,-19.4415],[-66.45392,-19.24151],[-66.04617,-19.19154],[-66.27285,-18.77736],[-66.63332,-18.6029],[-66.69057,-18.49427],[-66.67983,-18.358],[-66.52162,-18.25263],[-66.68458,-18.23739],[-66.74835,-18.16266],[-66.73476,-18.05394],[-66.62492,-17.99125],[-66.34644,-17.98862],[-66.17515,-17.86682],[-66.01852,-17.86217],[-65.94026,-17.98133],[-65.84331,-17.96831],[-65.34719,-18.41386],[-65.69245,-18.3549],[-65.62428,-18.47639],[-65.60777,-18.67411],[-65.65219,-18.74867],[-65.42381,-18.70248],[-65.50636,-18.81291],[-65.46998,-18.905],[-65.54077,-19.01295],[-65.50618,-19.09361],[-65.29281,-19.31029],[-65.13054,-19.37923],[-64.91998,-19.3706],[-64.74692,-19.73244],[-64.86774,-19.8684],[-65.31324,-20.04234],[-65.36885,-20.20311],[-65.29596,-20.53379],[-65.42272,-20.83682],[-65.47688,-21.29209],[-65.23493,-21.53538],[-65.32854,-21.80291],[-65.21149,-21.94646],[-65.17302,-22.09808],[-65.77531,-22.10506],[-65.93269,-21.94455],[-66.22246,-21.78694],[-66.3076,-22.07705],[-66.7359,-22.22505],[-66.78509,-22.42762],[-67.03272,-22.52457],[-67.02663,-22.63939],[-67.1939,-22.82222],[-67.54711,-22.8925],[-67.80358,-22.87865],[-67.88709,-22.81871],[-67.85919,-22.54731],[-67.95189,-22.33409],[-67.96063,-22.10289],[-68.09623,-21.95396],[-68.19844,-21.57186],[-68.20754,-21.28433],[-68.41631,-20.9598],[-68.55511,-20.91392],[-68.57279,-20.74287],[-68.48096,-20.62474],[-68.76541,-20.42123],[-68.67852,-20.32863],[-68.72626,-20.15096],[-68.79259,-20.10663],[-68.59718,-20.05671]]]}},{"type":"Feature","properties":{"id":"bo-s","lat":-17.06792,"lng":-61.48627},"geometry":{"type":"Polygon","coordinates":[[[-57.85974,-19.98012],[-58.1588,-20.16512],[-58.17528,-19.82137],[-59.06965,-19.29148],[-60.00638,-19.2981],[-61.7532,-19.64588],[-61.94425,-20.10415],[-62.21057,-20.47131],[-63.28587,-20.47513],[-63.36848,-20.35741],[-63.50242,-20.46035],[-63.6519,-20.45012],[-63.7253,-19.96297],[-63.74135,-19.04437],[-63.87263,-19.02628],[-63.92713,-19.16276],[-64.01629,-19.16059],[-64.06466,-18.99982],[-64.28904,-18.8142],[-64.3402,-18.65695],[-64.30212,-18.49959],[-64.42004,-18.42094],[-64.71064,-17.91074],[-64.39637,-17.4563],[-64.2246,-17.41599],[-64.21623,-17.35972],[-64.74165,-16.8984],[-64.80774,-16.72962],[-64.68217,-16.37435],[-64.7039,-15.87474],[-63.3174,-15.91407],[-63.4207,-15.85655],[-63.49868,-15.69206],[-63.67016,-15.58019],[-63.86318,-15.29808],[-63.94979,-15.08564],[-63.96301,-14.73739],[-63.5704,-14.61854],[-61.59306,-13.50679],[-61.50343,-13.54816],[-61.34772,-13.4937],[-61.1491,-13.51985],[-61.04722,-13.46455],[-61.02201,-13.53524],[-60.89674,-13.55292],[-60.47263,-13.79786],[-60.38719,-13.98328],[-60.47351,-14.11722],[-60.46434,-14.27835],[-60.29172,-14.63006],[-60.2698,-15.08337],[-60.58224,-15.09887],[-60.24639,-15.47828],[-60.16069,-16.26479],[-58.46472,-16.33125],[-58.34974,-16.2804],[-58.34266,-16.47315],[-58.48028,-16.68368],[-58.39914,-17.23745],[-58.01017,-17.49676],[-57.80073,-17.53345],[-57.69681,-17.82511],[-57.73009,-17.84609],[-57.55108,-18.18364],[-57.46566,-18.21775],[-57.56674,-18.25609],[-57.78233,-18.91042],[-57.73179,-18.922],[-57.71583,-19.04457],[-57.789,-19.05925],[-58.12464,-19.72991],[-57.85974,-19.98012]]]}},{"type":"Feature","properties":{"id":"bo-t","lat":-21.87469,"lng":-63.90502},"geometry":{"type":"Polygon","coordinates":[[[-62.65036,-22.23446],[-62.78348,-22.1309],[-62.81856,-22.00088],[-63.63939,-21.99747],[-63.74042,-22.05059],[-63.93317,-22.00181],[-64.25083,-22.54069],[-64.3439,-22.86367],[-64.58688,-22.21275],[-65.19048,-22.09847],[-65.21149,-21.94646],[-65.32854,-21.80291],[-65.23552,-21.57693],[-65.17191,-20.96203],[-65.07848,-20.95516],[-64.82958,-21.09752],[-64.70266,-20.92885],[-64.53099,-21.08998],[-64.23235,-21.14202],[-64.17517,-20.89144],[-64.0004,-20.94425],[-63.98304,-20.9967],[-62.27189,-21.00042],[-62.65036,-22.23446]]]}}]}
