{"type":"FeatureCollection","features":[{"type":"Feature","properties":{"id":"br-ac","lat":-9.06818,"lng":-70.70717},"geometry":{"type":"Polygon","coordinates":[[[-68.80466,-10.99468],[-69.95611,-10.91933],[-70.2894,-11.06475],[-70.43727,-11.03674],[-70.53411,-10.93814],[-70.64134,-11.0108],[-70.63845,-9.8518],[-70.54187,-9.70824],[-70.62442,-9.56582],[-70.56453,-9.56541],[-70.52499,-9.43095],[-71.2997,-9.99339],[-72.19567,-10.00559],[-72.1629,-9.87722],[-72.26522,-9.76219],[-72.31266,-9.53254],[-72.8133,-9.4109],[-73.21498,-9.40904],[-72.972,-9.13443],[-72.97004,-9.00193],[-73.17457,-8.72071],[-73.35058,-8.59834],[-73.35642,-8.47979],[-73.54083,-8.35908],[-73.66803,-8.01377],[-73.78495,-7.94039],[-73.79464,-7.87414],[-73.71371,-7.86629],[-73.71216,-7.78815],[-74.01847,-7.54352],[-73.94432,-7.44874],[-73.98289,-7.35645],[-73.71309,-7.30467],[-73.80676,-7.11788],[-72.6637,-7.59158],[-70.37149,-8.15728],[-66.64893,-9.91588],[-67.0643,-10.25694],[-67.18471,-10.32671],[-67.32351,-10.31885],[-67.58463,-10.50179],[-67.72173,-10.7055],[-68.04377,-10.66695],[-68.29332,-10.97897],[-68.61573,-11.1125],[-68.77593,-11.14061],[-68.75763,-11.01194],[-68.80466,-10.99468]]]}},{"type":"Feature","properties":{"id":"br-al","lat":-9.65736,"lng":-36.83323},"geometry":{"type":"Polygon","coordinates":[[[-35.14834,-8.91357],[-35.30508,-9.19305],[-35.69616,-9.67295],[-35.77807,-9.70013],[-35.74625,-9.64178],[-35.79992,-9.58473],[-35.79491,-9.67913],[-35.85814,-9.73455],[-35.90543,-9.62477],[-35.96304,-9.61077],[-35.87365,-9.75547],[-35.81062,-9.74481],[-36.03628,-10.06414],[-36.28051,-10.27996],[-36.40807,-10.50213],[-36.45446,-10.41063],[-36.56624,-10.41053],[-36.6204,-10.25364],[-36.72504,-10.25844],[-36.9312,-10.11871],[-36.98298,-9.96668],[-37.21511,-9.8966],[-37.35836,-9.77279],[-37.79268,-9.63869],[-38.18991,-9.41958],[-38.2352,-9.33037],[-38.10178,-9.19267],[-37.96817,-9.14249],[-37.75787,-8.8592],[-37.67136,-8.98457],[-37.5191,-8.94374],[-37.18158,-9.24176],[-36.93854,-9.35581],[-36.87792,-9.27101],[-36.59022,-9.297],[-36.34576,-9.20104],[-36.00583,-8.89232],[-35.80114,-8.87021],[-35.72159,-8.92028],[-35.4876,-8.83259],[-35.14834,-8.91357]]]}},{"type":"Feature","properties":{"id":"br-am","lat":-3.25311,"lng":-63.28523},"geometry":{"type":"Polygon","coordinates":[[[-67.43973,2.13956],[-67.34061,2.09011],[-67.11716,1.70979],[-67.08611,1.176],[-66.87506,1.22251],[-66.28507,0.74585],[-66.13438,0.73112],[-65.74544,0.97415],[-65.59604,0.98361],[-65.5185,0.88651],[-65.58734,0.73913],[-65.54266,0.64931],[-65.45122,0.69014],[-65.3272,0.91028],[-65.20304,0.92382],[-65.13677,1.12691],[-65.02249,1.13998],[-64.83929,1.27083],[-64.73088,1.24757],[-64.40901,1.50751],[-64.36459,1.49709],[-64.39477,1.39219],[-64.35294,1.36583],[-64.09296,1.62261],[-64.05361,1.89371],[-63.99503,1.95802],[-63.78321,1.975],[-63.61753,2.10116],[-63.41176,2.14938],[-63.38655,2.23589],[-63.28887,2.15925],[-63.14805,2.17754],[-63.03064,2.03166],[-62.84843,2.0191],[-62.69867,1.93637],[-62.71436,1.72692],[-62.78681,1.60331],[-62.61535,1.40017],[-62.44822,0.82486],[-62.54468,0.71189],[-62.48117,0.51981],[-62.56798,0.24691],[-62.52605,0.09539],[-62.58555,-0.01111],[-62.38244,-0.3099],[-62.30397,-0.60952],[-62.38701,-0.72001],[-62.49569,-0.69494],[-62.50259,-0.78383],[-62.0276,-1.14427],[-61.87071,-1.37945],[-61.76082,-1.35904],[-61.60158,-1.41831],[-61.53223,-0.72853],[-61.21662,-0.49485],[-60.93124,-0.5549],[-60.73673,-0.84951],[-60.52413,-0.83359],[-60.47692,-0.74626],[-60.32135,-0.69474],[-60.38587,-0.46374],[-60.22332,-0.05385],[-60.04834,0.21198],[-58.87051,0.22536],[-58.85374,-0.35202],[-58.73011,-0.44674],[-58.73837,-0.65247],[-58.44834,-0.84765],[-58.3895,-1.04898],[-57.66707,-1.58373],[-57.40551,-1.70884],[-57.25467,-1.71623],[-57.24231,-1.76578],[-57.08785,-1.81183],[-56.99199,-1.94541],[-56.75346,-2.03605],[-56.73948,-2.18106],[-56.63525,-2.2224],[-56.49859,-2.16173],[-56.47743,-2.2564],[-56.31193,-2.23583],[-56.39901,-2.30389],[-56.38965,-2.39055],[-58.29442,-6.49686],[-58.4664,-6.70161],[-58.42098,-6.91327],[-58.21696,-7.11001],[-58.13549,-7.33914],[-58.21641,-7.432],[-58.22375,-7.62176],[-58.3786,-7.81808],[-58.30548,-8.10483],[-58.43707,-8.41261],[-58.41992,-8.55116],[-58.48136,-8.70458],[-58.54523,-8.74825],[-61.6113,-8.76856],[-61.61869,-8.71146],[-61.71705,-8.68758],[-61.8378,-8.74458],[-61.91937,-8.87279],[-62.12372,-8.78045],[-62.1755,-8.60108],[-62.29963,-8.58118],[-62.3813,-8.37422],[-62.54018,-8.36275],[-62.74438,-8.04938],[-63.53826,-8.00049],[-63.58402,-8.15852],[-63.73551,-8.19816],[-63.74078,-8.27779],[-63.9,-8.31804],[-63.98883,-8.42884],[-63.92178,-8.54459],[-64.00508,-8.685],[-64.13435,-8.69409],[-64.11967,-8.95656],[-64.37307,-8.93578],[-64.59747,-9.02586],[-64.77852,-8.98669],[-64.92048,-9.10895],[-64.90738,-9.2244],[-65.06693,-9.42588],[-65.15369,-9.40625],[-65.21126,-9.25318],[-65.45096,-9.45462],[-65.56261,-9.414],[-65.75306,-9.57011],[-65.95271,-9.40361],[-66.38822,-9.40077],[-66.39395,-9.51032],[-66.49214,-9.62473],[-66.83052,-9.83795],[-70.37149,-8.15728],[-72.6637,-7.59158],[-73.80676,-7.11788],[-73.75942,-6.88743],[-73.68508,-6.81188],[-73.1478,-6.47619],[-73.12698,-6.39134],[-73.23478,-6.07756],[-72.97691,-5.65175],[-72.9735,-5.46612],[-72.89666,-5.27161],[-72.91795,-5.13209],[-72.64479,-5.06057],[-72.41467,-4.87634],[-72.38609,-4.79397],[-72.25106,-4.75883],[-71.90721,-4.51843],[-71.36326,-4.45921],[-71.26482,-4.37549],[-71.1285,-4.40185],[-71.00545,-4.34759],[-70.96869,-4.38531],[-70.83223,-4.17943],[-70.69405,-4.1723],[-70.64677,-4.11566],[-70.58527,-4.19452],[-70.54969,-4.14068],[-70.51597,-4.18233],[-70.33061,-4.14316],[-70.31671,-4.24703],[-70.20563,-4.34294],[-70.13889,-4.26046],[-70.03704,-4.34087],[-69.97182,-4.29095],[-69.39945,-1.18272],[-69.44286,-1.00836],[-69.62838,-0.73344],[-69.58422,-0.64456],[-69.61975,-0.52457],[-70.06804,-0.16014],[-70.05425,0.58813],[-69.61916,0.65066],[-69.47808,0.73282],[-69.29706,0.6181],[-69.13746,0.65014],[-69.19226,0.72895],[-69.15239,0.8678],[-69.28881,1.03844],[-69.85219,1.05942],[-69.85617,1.70768],[-69.54195,1.77271],[-69.3524,1.72021],[-68.1633,1.72129],[-68.28025,1.8294],[-68.19219,2.01489],[-68.03179,1.77751],[-67.92885,1.74129],[-67.82084,1.784],[-67.59295,2.05481],[-67.43973,2.13956]]]}},{"type":"Feature","properties":{"id":"br-ap","lat":1.56652,"lng":-52.00919},"geometry":{"type":"MultiPolygon","coordinates":[[[[-50.27527,0.74562],[-50.27495,0.80911],[-50.13212,0.91421],[-50.01572,0.89249],[-50.10338,0.75568],[-50.27527,0.74562]]],[[[-50.09935,0.93864],[-50.01667,1.02521],[-49.91621,1.05656],[-50.00829,0.94098],[-50.09935,0.93864]]],[[[-54.70766,2.45034],[-54.70412,2.32482],[-54.58816,2.32436],[-54.47664,2.21413],[-54.13491,2.11067],[-53.7648,2.36869],[-53.74217,2.30854],[-53.53179,2.24705],[-53.3441,2.34963],[-53.23419,2.25097],[-53.2685,2.19573],[-52.91715,2.19573],[-52.5904,2.50471],[-52.57578,2.63374],[-52.40928,2.89734],[-52.35533,3.15159],[-52.22792,3.26011],[-51.78319,3.98095],[-51.63174,4.06782],[-51.58535,4.23382],[-51.43684,3.92951],[-51.5467,4.25503],[-51.5165,4.44112],[-51.38923,4.3589],[-51.18693,4.07885],[-51.17614,3.64834],[-51.13638,3.86774],[-51.0799,3.88227],[-51.09274,3.37633],[-51.01678,3.03557],[-50.67927,2.1717],[-50.79255,2.16181],[-50.77969,2.07095],[-50.75158,2.04511],[-50.70206,2.13032],[-50.61955,2.10524],[-50.46654,1.81542],[-50.1646,1.81563],[-49.9506,1.72133],[-49.88303,1.30771],[-50.14974,1.22121],[-50.12024,1.18521],[-49.92152,1.21848],[-49.89005,1.16523],[-49.97883,1.07221],[-50.03157,1.10594],[-50.0609,1.01887],[-50.45336,0.66405],[-50.79064,0.1695],[-50.97985,0.12043],[-51.08141,-0.03252],[-51.32697,-0.07952],[-51.25121,-0.12737],[-51.37072,-0.34295],[-51.48624,-0.51719],[-51.58019,-0.52516],[-51.53238,-0.55185],[-51.6975,-0.74717],[-51.71911,-1.03338],[-51.8341,-1.1347],[-51.98016,-1.14024],[-52.06883,-1.2192],[-52.363,-1.06671],[-52.38132,-0.88677],[-52.51743,-0.87576],[-52.52658,-0.6475],[-52.63187,-0.55687],[-52.63115,-0.3898],[-52.8137,-0.18019],[-52.91537,-0.19203],[-53.12843,0.38695],[-53.11582,0.7368],[-53.28209,0.79049],[-53.41624,0.9418],[-53.46647,1.12965],[-53.40689,1.1882],[-53.43392,1.25646],[-53.54306,1.24385],[-53.55182,1.36255],[-53.65589,1.36519],[-53.66646,1.42756],[-53.85588,1.38514],[-53.99554,1.52177],[-54.07703,1.50477],[-54.1047,1.61127],[-54.36159,1.76206],[-54.73546,1.77204],[-54.79792,2.02003],[-54.71606,2.26596],[-54.77549,2.45734],[-54.70766,2.45034]]],[[[-50.40964,2.11294],[-50.3125,1.94707],[-50.41912,1.86298],[-50.52381,2.00148],[-50.50423,2.09569],[-50.40964,2.11294]]],[[[-50.54171,2.16795],[-50.46335,2.18694],[-50.41516,2.12693],[-50.50965,2.10971],[-50.54171,2.16795]]]]}},{"type":"Feature","properties":{"id":"br-ba","lat":-13.41881,"lng":-42.62009},"geometry":{"type":"MultiPolygon","coordinates":[[[[-38.91564,-13.38348],[-38.9344,-13.55625],[-38.90201,-13.67181],[-38.97906,-13.5997],[-38.96784,-13.49831],[-39.04589,-13.45819],[-39.03258,-13.39251],[-38.91564,-13.38348]]],[[[-37.45385,-11.51767],[-37.36083,-11.45485],[-37.78671,-12.26463],[-38.32042,-12.93524],[-38.5327,-13.01653],[-38.47741,-12.93524],[-38.5089,-12.72291],[-38.62621,-12.70241],[-38.69099,-12.57147],[-38.80663,-12.83514],[-38.864,-12.7951],[-38.86168,-12.65407],[-38.9237,-12.73659],[-38.85399,-12.85125],[-38.72448,-12.87322],[-38.78686,-13.00807],[-38.89501,-13.08099],[-38.807,-13.14381],[-38.94762,-13.24676],[-38.95458,-13.37249],[-39.03978,-13.33245],[-39.11555,-13.59938],[-39.05968,-13.49481],[-39.01183,-13.497],[-38.97997,-13.83587],[-39.09162,-13.71266],[-39.14875,-13.73691],[-38.99446,-13.86346],[-39.07453,-13.89422],[-38.97956,-14.06113],[-39.07103,-14.07635],[-39.07453,-14.14056],[-39.03978,-14.17539],[-39.06338,-14.10996],[-38.95726,-14.0661],[-38.98998,-13.93084],[-38.92992,-13.89764],[-38.9237,-14.00408],[-39.06713,-14.67498],[-38.9239,-15.71559],[-38.86168,-15.85426],[-39.05407,-16.43646],[-39.20861,-17.16221],[-39.18838,-17.57838],[-39.13712,-17.67962],[-39.27505,-17.86688],[-39.49909,-18.00563],[-39.67261,-18.32322],[-40.18449,-18.00934],[-40.22935,-17.91736],[-40.20705,-17.76584],[-40.40667,-17.56249],[-40.48786,-17.55407],[-40.517,-17.36426],[-40.60956,-17.39165],[-40.52075,-16.92093],[-40.47564,-16.86879],[-40.24687,-16.83969],[-40.26573,-16.5809],[-40.13744,-16.54426],[-39.86128,-16.1356],[-39.93505,-16.00109],[-40.17015,-15.89665],[-40.22472,-15.82007],[-40.54481,-15.79857],[-40.65095,-15.71873],[-40.75006,-15.7425],[-40.94491,-15.67351],[-41.14002,-15.77857],[-41.32246,-15.74204],[-41.3606,-15.49523],[-41.80142,-15.10962],[-42.0873,-15.18176],[-42.16559,-15.10838],[-42.64863,-14.93232],[-42.95301,-14.67947],[-43.15961,-14.63492],[-43.49243,-14.78855],[-43.83502,-14.69063],[-43.88277,-14.5617],[-43.79412,-14.34104],[-44.21797,-14.23892],[-44.65401,-14.39793],[-44.88173,-14.59833],[-45.21853,-14.73683],[-45.44285,-14.93242],[-45.55827,-14.93878],[-45.74707,-15.14424],[-45.9259,-15.12698],[-46.08261,-15.2384],[-45.97478,-14.99821],[-46.023,-14.86881],[-45.91502,-14.70902],[-45.966,-14.51369],[-45.92047,-14.35075],[-46.12563,-14.1889],[-46.25965,-13.86856],[-46.27244,-13.65689],[-46.2141,-13.46512],[-46.07367,-13.2949],[-46.17927,-13.21092],[-46.16159,-13.04716],[-46.06165,-12.95254],[-46.24262,-12.77901],[-46.16023,-12.50001],[-46.31032,-12.43082],[-46.34523,-12.34204],[-46.33099,-12.09926],[-46.06995,-11.91493],[-46.15707,-11.83566],[-46.26074,-11.84124],[-46.27213,-11.75396],[-46.08393,-11.60952],[-46.45023,-11.48958],[-46.56219,-11.2899],[-46.37029,-10.96977],[-46.23188,-10.89846],[-46.30244,-10.75826],[-45.84311,-10.45786],[-45.75769,-10.33079],[-45.58086,-10.34815],[-45.32764,-10.77371],[-45.0583,-10.89566],[-44.80307,-10.8721],[-44.74277,-10.77185],[-44.4193,-10.59031],[-44.13531,-10.60096],[-43.91879,-10.43605],[-43.70699,-10.05029],[-43.68278,-9.80209],[-43.83551,-9.47999],[-43.81298,-9.42909],[-43.69154,-9.44335],[-43.62604,-9.34103],[-43.51744,-9.35984],[-43.45003,-9.30398],[-43.35048,-9.43116],[-43.11346,-9.37431],[-42.85048,-9.54887],[-42.62241,-9.56577],[-42.58427,-9.48867],[-42.48624,-9.49896],[-42.31888,-9.31194],[-42.14959,-9.29509],[-42.04265,-9.20781],[-41.85005,-9.25261],[-41.73367,-9.13867],[-41.73486,-8.98162],[-41.49997,-8.93548],[-41.3708,-8.71187],[-41.14203,-8.70939],[-41.08979,-8.78494],[-40.99703,-8.77487],[-40.88913,-8.85693],[-40.85313,-9.15179],[-40.70356,-9.22192],[-40.69017,-9.34434],[-40.75826,-9.45307],[-40.63325,-9.4879],[-40.33474,-9.36072],[-40.24984,-9.07092],[-40.11393,-9.10337],[-39.96851,-9.04286],[-39.88924,-8.95919],[-39.88296,-8.81786],[-39.68997,-8.78241],[-39.69075,-8.65864],[-39.40325,-8.53405],[-39.28798,-8.56056],[-39.22122,-8.67735],[-38.96767,-8.78939],[-38.79737,-8.78566],[-38.70611,-8.84122],[-38.64461,-8.97692],[-38.52785,-8.81915],[-38.46537,-8.86411],[-38.51206,-8.94664],[-38.48121,-9.00033],[-38.2874,-9.01346],[-38.31406,-9.13159],[-38.1979,-9.41276],[-38.0124,-9.47797],[-38.02509,-9.74757],[-37.7728,-10.11282],[-37.83616,-10.42293],[-37.79192,-10.65346],[-37.99625,-10.75991],[-38.19115,-10.71593],[-38.24004,-10.8845],[-37.98664,-11.21931],[-37.98933,-11.38473],[-37.68048,-11.56891],[-37.63408,-11.52162],[-37.45385,-11.51767]]],[[[-38.58747,-12.98691],[-38.64245,-13.01377],[-38.78653,-13.13388],[-38.79125,-13.05836],[-38.66926,-12.96185],[-38.69713,-12.88055],[-38.58747,-12.98691]]]]}},{"type":"Feature","properties":{"id":"br-ce","lat":-5.3689,"lng":-39.43773},"geometry":{"type":"Polygon","coordinates":[[[-41.24812,-3.01206],[-41.31526,-2.90301],[-41.25691,-2.87518],[-41.08251,-2.91668],[-41.10302,-2.87518],[-40.8286,-2.8825],[-40.49962,-2.78631],[-39.98571,-2.8484],[-39.73184,-3.03216],[-39.61889,-3.03965],[-38.98518,-3.39593],[-38.91633,-3.50506],[-38.65966,-3.67645],[-38.47741,-3.69744],[-38.37804,-3.86972],[-38.02961,-4.2374],[-37.76863,-4.39642],[-37.6494,-4.57879],[-37.2744,-4.74236],[-37.23639,-4.82989],[-37.5831,-4.94972],[-37.72126,-5.0629],[-37.91522,-5.46349],[-38.04754,-5.61402],[-38.13901,-5.89473],[-38.2997,-6.07415],[-38.45674,-6.08268],[-38.58017,-6.26168],[-38.60671,-6.39672],[-38.53067,-6.40901],[-38.64562,-6.67541],[-38.61849,-6.76816],[-38.74404,-6.96867],[-38.68159,-7.03895],[-38.67652,-7.1575],[-38.54937,-7.23573],[-38.53346,-7.32214],[-38.69714,-7.62021],[-38.86853,-7.70687],[-38.96803,-7.84794],[-39.07348,-7.85399],[-39.11513,-7.74506],[-39.26313,-7.67018],[-39.34532,-7.55112],[-39.65424,-7.37335],[-39.92947,-7.35614],[-40.15088,-7.41794],[-40.5377,-7.3902],[-40.58111,-7.19527],[-40.41388,-6.81793],[-40.46804,-6.73979],[-40.71004,-6.66125],[-40.78211,-6.46751],[-40.89106,-6.01116],[-40.94179,-5.43073],[-41.0703,-5.30707],[-41.05984,-5.16883],[-41.18133,-4.93846],[-41.24414,-4.61594],[-41.07356,-4.3263],[-41.08702,-4.25778],[-41.22947,-4.04415],[-41.44938,-3.43679],[-41.24812,-3.01206]]]}},{"type":"Feature","properties":{"id":"br-df","lat":-15.78222,"lng":-47.78598},"geometry":{"type":"Polygon","coordinates":[[[-48.17935,-15.48986],[-47.42296,-15.49833],[-47.30589,-15.59471],[-47.35909,-15.9753],[-47.30248,-16.04005],[-48.25201,-16.03148],[-48.27715,-15.82947],[-48.20256,-15.73496],[-48.23982,-15.69269],[-48.17935,-15.48986]]]}},{"type":"Feature","properties":{"id":"br-es","lat":-19.59945,"lng":-40.43639},"geometry":{"type":"MultiPolygon","coordinates":[[[[-29.33825,-20.58416],[-29.33202,-20.55332],[-29.31688,-20.56878],[-29.33825,-20.58416]]],[[[-28.88191,-20.5154],[-28.87707,-20.51165],[-28.88329,-20.51873],[-28.88191,-20.5154]]],[[[-39.74486,-18.68174],[-39.70979,-19.41611],[-39.807,-19.63616],[-40.00943,-19.747],[-40.15705,-19.95892],[-40.23278,-20.26678],[-40.36929,-20.23268],[-40.36597,-20.32323],[-40.25951,-20.32147],[-40.41832,-20.61533],[-40.61957,-20.8339],[-40.75846,-20.86419],[-40.96512,-21.27403],[-41.06793,-21.2141],[-41.25487,-21.2339],[-41.7114,-21.11122],[-41.74171,-20.82183],[-41.88124,-20.76457],[-41.79597,-20.53079],[-41.85269,-20.34651],[-41.72858,-20.20926],[-41.37026,-20.19122],[-41.30499,-19.95361],[-41.18528,-19.86509],[-41.15684,-19.66045],[-41.03697,-19.56273],[-41.04547,-19.49121],[-40.95796,-19.46599],[-40.9453,-19.14085],[-41.05152,-19.04649],[-41.05328,-18.93037],[-41.23983,-18.84314],[-40.91985,-18.78743],[-40.93401,-18.67938],[-41.02759,-18.65028],[-41.01126,-18.42027],[-41.0894,-18.35583],[-41.14854,-18.38895],[-41.05891,-18.17884],[-40.91907,-18.10287],[-40.76926,-18.14556],[-40.91478,-17.95208],[-40.46626,-17.93002],[-40.44107,-17.87426],[-40.21689,-17.97193],[-39.67261,-18.32322],[-39.74486,-18.68174]]]]}},{"type":"Feature","properties":{"id":"br-go","lat":-15.9483,"lng":-50.26389},"geometry":{"type":"Polygon","coordinates":[[[-46.22025,-12.81632],[-46.06315,-12.94743],[-46.15674,-13.03605],[-46.17958,-13.15894],[-46.07367,-13.2949],[-46.2141,-13.46512],[-46.27244,-13.65689],[-46.25965,-13.86856],[-46.12563,-14.1889],[-45.92047,-14.35075],[-45.966,-14.51369],[-45.91502,-14.70902],[-46.07736,-14.9225],[-46.18237,-14.93573],[-46.2965,-14.90937],[-46.37052,-14.78463],[-46.51682,-14.71331],[-46.58198,-14.80127],[-46.56682,-15.05655],[-46.87892,-15.03376],[-46.92992,-15.22863],[-46.85481,-15.32377],[-46.93659,-15.43177],[-46.83582,-15.86435],[-47.12929,-15.9213],[-47.21931,-16.02946],[-47.30248,-16.04005],[-47.32654,-16.24764],[-47.4534,-16.49941],[-47.26651,-16.66183],[-47.15122,-16.97752],[-47.4379,-17.33977],[-47.50009,-17.3298],[-47.5305,-17.4549],[-47.4734,-17.52751],[-47.39868,-17.49991],[-47.27137,-17.58104],[-47.35586,-17.8308],[-47.2777,-18.05993],[-47.91518,-18.45283],[-48.2595,-18.34906],[-48.95233,-18.32632],[-49.15593,-18.42151],[-49.37688,-18.63142],[-49.51354,-18.49603],[-49.79781,-18.62279],[-50.01707,-18.6169],[-50.29772,-18.70015],[-50.50205,-18.93058],[-50.54536,-19.10917],[-50.6738,-19.12152],[-50.844,-19.29479],[-50.87089,-19.48594],[-50.96117,-19.47354],[-51.11305,-19.29298],[-51.84208,-19.04814],[-52.48268,-18.70744],[-52.89628,-18.66475],[-52.76897,-18.41185],[-52.90328,-18.34622],[-53.00009,-18.3857],[-53.05097,-18.32658],[-53.05384,-18.01663],[-53.24132,-17.62177],[-53.19817,-17.26572],[-53.03766,-17.03762],[-53.01942,-16.86786],[-52.80925,-16.74539],[-52.63242,-16.52891],[-52.66952,-16.29131],[-52.54692,-16.24113],[-52.5325,-16.15209],[-52.33419,-16.0461],[-52.23055,-15.89872],[-51.88274,-15.80477],[-51.77391,-15.61057],[-51.79293,-15.539],[-51.71154,-15.47425],[-51.64894,-15.19013],[-51.41202,-14.99541],[-51.31996,-14.95614],[-51.25524,-15.01536],[-51.10026,-14.88788],[-50.96991,-14.51854],[-50.99771,-14.39948],[-50.92487,-14.12162],[-50.84575,-14.0841],[-50.86637,-13.71611],[-50.79583,-13.67591],[-50.59954,-13.30301],[-50.5867,-13.07352],[-50.31951,-12.51236],[-50.12967,-12.41867],[-50.27251,-12.77312],[-50.25825,-12.9205],[-49.39755,-13.2502],[-49.13782,-12.73493],[-49.00421,-12.65447],[-49.00806,-12.74005],[-48.79753,-12.92908],[-48.74932,-13.38487],[-48.68459,-13.33753],[-48.64444,-13.16276],[-48.38523,-13.19186],[-48.1655,-13.06473],[-48.16858,-13.17997],[-47.66688,-13.35562],[-47.72501,-13.16762],[-47.66225,-13.10401],[-47.5333,-13.29836],[-47.09224,-13.09548],[-46.77825,-13.05481],[-46.59103,-12.89389],[-46.22025,-12.81632]],[[-47.30868,-16.02729],[-47.35909,-15.9753],[-47.30589,-15.59471],[-47.42296,-15.49833],[-48.19116,-15.50298],[-48.23982,-15.69269],[-48.20256,-15.73496],[-48.27715,-15.82947],[-48.25201,-16.03148],[-47.30868,-16.02729]]]}},{"type":"Feature","properties":{"id":"br-ma","lat":-5.83907,"lng":-45.268},"geometry":{"type":"MultiPolygon","coordinates":[[[[-46.05045,-1.16269],[-46.05045,-1.21038],[-45.96415,-1.06386],[-45.94807,-1.14153],[-46.00268,-1.1928],[-45.94807,-1.2514],[-45.85384,-1.06786],[-45.89965,-1.25758],[-45.86486,-1.23089],[-45.86254,-1.27313],[-45.83821,-1.2029],[-45.84057,-1.27955],[-45.8109,-1.32643],[-45.70104,-1.1347],[-45.73453,-1.2514],[-45.67965,-1.20995],[-45.67554,-1.36632],[-45.54385,-1.27028],[-45.52969,-1.41579],[-45.41568,-1.28769],[-45.48131,-1.46364],[-45.50422,-1.45867],[-45.5183,-1.46453],[-45.54271,-1.49098],[-45.50178,-1.46999],[-45.46081,-1.54616],[-45.45104,-1.45371],[-45.32616,-1.31292],[-45.2963,-1.41579],[-45.39196,-1.48415],[-45.35094,-1.47674],[-45.40095,-1.56015],[-45.3402,-1.58319],[-45.36461,-1.70387],[-45.32364,-1.74481],[-45.22126,-1.67278],[-45.24747,-1.57928],[-45.1632,-1.48284],[-45.07893,-1.48358],[-45.06298,-1.42889],[-44.96736,-1.54616],[-45.02038,-1.57871],[-45.02196,-1.60084],[-44.96736,-1.59401],[-44.86803,-1.42132],[-44.93383,-1.65545],[-44.88537,-1.60084],[-44.8474,-1.64129],[-44.83019,-1.63494],[-44.83703,-1.5661],[-44.77318,-1.7243],[-44.82193,-1.75921],[-44.774,-1.74066],[-44.76781,-1.72698],[-44.77554,-1.70387],[-44.70788,-1.71746],[-44.81037,-1.81316],[-44.67935,-1.81113],[-44.6527,-1.71746],[-44.59801,-1.74481],[-44.65953,-1.83978],[-44.52571,-1.83978],[-44.59065,-1.90179],[-44.52172,-1.89512],[-44.49022,-1.99537],[-44.6173,-2.03899],[-44.49437,-2.04583],[-44.64525,-2.15569],[-44.58861,-2.16546],[-44.69359,-2.26556],[-44.75137,-2.25205],[-44.82404,-2.27923],[-44.66564,-2.27093],[-44.72094,-2.40211],[-44.66397,-2.3567],[-44.66348,-2.42059],[-44.6527,-2.42946],[-44.63158,-2.27174],[-44.46166,-2.14463],[-44.3636,-2.33392],[-44.39538,-2.40211],[-44.51065,-2.36712],[-44.55142,-2.39105],[-44.50744,-2.38983],[-44.5216,-2.50009],[-44.65599,-2.59319],[-44.54039,-2.53826],[-44.68615,-2.91668],[-44.69359,-2.99489],[-44.62222,-3.05104],[-44.78157,-3.19695],[-44.79601,-3.30023],[-44.43297,-2.95029],[-44.35265,-2.52907],[-44.28893,-2.58026],[-44.29263,-2.48105],[-44.07299,-2.39951],[-44.02892,-2.44305],[-44.09716,-2.45672],[-44.05622,-2.50514],[-44.0419,-2.47039],[-44.04939,-2.55291],[-44.12442,-2.5945],[-44.1372,-2.67018],[-44.21386,-2.66904],[-44.33849,-2.78493],[-44.32995,-2.82733],[-44.31249,-2.77874],[-44.29638,-2.83416],[-44.18651,-2.75905],[-44.20018,-2.86891],[-44.09813,-2.74871],[-44.08288,-2.80682],[-43.92325,-2.54681],[-43.87804,-2.63494],[-43.87947,-2.57122],[-43.72411,-2.47723],[-43.72106,-2.56032],[-43.65832,-2.54616],[-43.68244,-2.50465],[-43.64464,-2.47723],[-43.66576,-2.51198],[-43.55818,-2.53086],[-43.53734,-2.43597],[-43.45287,-2.55291],[-43.4654,-2.48602],[-43.41877,-2.48463],[-43.45979,-2.44305],[-43.41194,-2.45672],[-43.48705,-2.39528],[-43.40756,-2.33713],[-42.70002,-2.56357],[-42.58088,-2.67205],[-42.48713,-2.66904],[-42.50764,-2.72186],[-42.45299,-2.75221],[-42.26427,-2.75905],[-42.23941,-2.83416],[-42.08239,-2.79998],[-41.94392,-2.83766],[-41.94042,-2.7737],[-42.0104,-2.72719],[-41.82126,-2.73357],[-41.86997,-2.83409],[-41.81253,-2.95512],[-41.94973,-3.17639],[-42.11701,-3.26921],[-42.21657,-3.43385],[-42.5006,-3.45106],[-42.66318,-3.67171],[-42.72516,-3.91123],[-42.99063,-4.2401],[-42.96572,-4.37255],[-42.86296,-4.49869],[-42.95246,-4.77656],[-42.85689,-4.92394],[-42.80165,-5.18092],[-42.84919,-5.34019],[-43.10186,-5.62333],[-43.07597,-6.05482],[-42.85004,-6.25409],[-42.82958,-6.35248],[-42.92632,-6.68631],[-42.99701,-6.76098],[-43.19844,-6.75457],[-43.42158,-6.84408],[-43.6748,-6.70104],[-43.97351,-6.7401],[-44.10826,-6.81948],[-44.29721,-7.10329],[-44.4996,-7.17879],[-44.69657,-7.39097],[-44.81641,-7.36389],[-45.0095,-7.48761],[-45.27829,-7.54962],[-45.49562,-7.7141],[-45.57737,-8.15154],[-45.73501,-8.43271],[-45.76632,-8.60588],[-45.97758,-8.90504],[-45.90722,-9.29478],[-45.79645,-9.46118],[-45.94605,-10.31772],[-46.08734,-10.20837],[-46.34755,-10.16956],[-46.46703,-10.01345],[-46.49511,-9.86896],[-46.66942,-9.74648],[-46.54098,-9.51053],[-46.80719,-9.36227],[-46.89028,-9.10389],[-47.08381,-9.02668],[-46.9023,-8.8269],[-46.92189,-8.73683],[-46.82716,-8.46739],[-46.71846,-8.40662],[-46.49015,-8.39081],[-46.54307,-8.312],[-46.46788,-8.08085],[-46.48705,-7.9714],[-46.60573,-7.89905],[-47.02162,-8.0391],[-47.40832,-7.53349],[-47.46666,-7.52977],[-47.50459,-7.44673],[-47.59148,-7.4458],[-47.48901,-7.38141],[-47.48586,-7.30229],[-47.58838,-7.26829],[-47.64468,-7.30849],[-47.74111,-7.19336],[-47.6399,-7.15843],[-47.50273,-6.9834],[-47.48764,-6.69835],[-47.37697,-6.27657],[-47.49715,-5.52659],[-47.72305,-5.39151],[-47.83852,-5.38324],[-47.89978,-5.25306],[-48.11248,-5.26624],[-48.33785,-5.16377],[-48.49809,-5.18651],[-48.60891,-5.32867],[-48.7432,-5.35254],[-47.80067,-4.59584],[-47.66094,-4.60804],[-47.58135,-4.54706],[-47.36506,-4.25385],[-47.31093,-4.06678],[-47.07857,-3.87661],[-47.02973,-3.56877],[-46.96832,-3.52552],[-46.94462,-3.39824],[-46.82432,-3.32755],[-46.70081,-3.14942],[-46.64598,-2.89228],[-46.57108,-2.85145],[-46.65937,-2.71585],[-46.43065,-2.52708],[-46.42708,-2.24503],[-46.36719,-2.24834],[-46.2803,-2.1407],[-46.20906,-1.82237],[-46.30365,-1.80252],[-46.31722,-1.74139],[-46.20115,-1.67928],[-46.20115,-1.48409],[-46.12542,-1.34627],[-46.16317,-1.29108],[-46.05045,-1.16269]]],[[[-44.51594,-2.82334],[-44.48078,-2.79314],[-44.4973,-2.94931],[-44.59801,-3.06015],[-44.57632,-2.79998],[-44.48078,-2.70436],[-44.51594,-2.82334]]],[[[-42.23927,-2.68086],[-42.10578,-2.77275],[-42.25844,-2.69621],[-42.23927,-2.68086]]],[[[-42.03478,-2.72584],[-42.08519,-2.75872],[-42.18603,-2.67645],[-42.09138,-2.6784],[-42.03478,-2.72584]]],[[[-43.84871,-2.42398],[-43.76424,-2.42893],[-43.77066,-2.496],[-43.83833,-2.50736],[-43.84871,-2.42398]]],[[[-43.54598,-2.36029],[-43.57366,-2.42347],[-43.61169,-2.385],[-43.54598,-2.36029]]],[[[-43.59999,-2.28372],[-43.63925,-2.40433],[-43.74252,-2.41174],[-43.70157,-2.27467],[-43.59999,-2.28372]]],[[[-44.88537,-1.32643],[-44.91954,-1.30592],[-44.98034,-1.39609],[-45.02697,-1.36053],[-44.97436,-1.26035],[-44.89224,-1.27191],[-44.88537,-1.32643]]]]}},{"type":"Feature","properties":{"id":"br-mg","lat":-18.55646,"lng":-45.15891},"geometry":{"type":"Polygon","coordinates":[[[-46.51098,-14.71161],[-46.37052,-14.78463],[-46.2882,-14.91247],[-46.09532,-14.93247],[-46.023,-14.86881],[-45.97478,-14.99821],[-46.06605,-15.2463],[-45.9259,-15.12698],[-45.74707,-15.14424],[-45.55827,-14.93878],[-45.40614,-14.91144],[-45.22434,-14.74044],[-44.88173,-14.59833],[-44.56278,-14.34548],[-44.3208,-14.24569],[-44.00214,-14.27344],[-43.79164,-14.3444],[-43.88277,-14.5617],[-43.83502,-14.69063],[-43.49243,-14.78855],[-43.22258,-14.63595],[-42.95301,-14.67947],[-42.64863,-14.93232],[-42.16559,-15.10838],[-42.0873,-15.18176],[-41.80142,-15.10962],[-41.3606,-15.49523],[-41.32246,-15.74204],[-41.14002,-15.77857],[-40.94491,-15.67351],[-40.75006,-15.7425],[-40.65095,-15.71873],[-40.54481,-15.79857],[-40.22472,-15.82007],[-40.17015,-15.89665],[-39.93505,-16.00109],[-39.86074,-16.12801],[-39.94058,-16.31322],[-40.05719,-16.39497],[-40.13744,-16.54426],[-40.26573,-16.5809],[-40.24687,-16.83969],[-40.47972,-16.87081],[-40.57382,-17.12159],[-40.60733,-17.39847],[-40.517,-17.36426],[-40.48786,-17.55407],[-40.40667,-17.56249],[-40.20705,-17.76584],[-40.20684,-17.97854],[-40.44107,-17.87426],[-40.46626,-17.93002],[-40.91075,-17.94867],[-40.76926,-18.14556],[-40.9322,-18.10598],[-41.1388,-18.28359],[-41.14854,-18.38895],[-41.0894,-18.35583],[-41.00894,-18.42482],[-41.02759,-18.65028],[-40.93401,-18.67938],[-40.91791,-18.77989],[-41.23983,-18.84314],[-41.05328,-18.93037],[-41.05152,-19.04649],[-40.9431,-19.1457],[-40.95967,-19.47127],[-41.04547,-19.49121],[-41.03697,-19.56273],[-41.15684,-19.66045],[-41.18528,-19.86509],[-41.30499,-19.95361],[-41.37026,-20.19122],[-41.72858,-20.20926],[-41.85021,-20.34186],[-41.79597,-20.53079],[-41.85315,-20.63228],[-41.80889,-20.63921],[-41.96612,-20.91474],[-42.13766,-20.95634],[-42.09709,-21.01091],[-42.36658,-21.59372],[-42.36924,-21.63377],[-42.27013,-21.65635],[-42.28026,-21.71361],[-43.13806,-22.09653],[-43.13405,-22.0245],[-43.32771,-22.00181],[-43.46985,-22.05793],[-43.78474,-22.05591],[-44.24032,-22.25818],[-44.43095,-22.25172],[-44.652,-22.36453],[-45.05748,-22.46586],[-45.39906,-22.65097],[-45.4474,-22.59573],[-45.66318,-22.65123],[-45.6485,-22.58792],[-45.72609,-22.5887],[-45.71162,-22.64487],[-45.80852,-22.70823],[-45.72609,-22.74471],[-45.7804,-22.84605],[-45.91479,-22.81825],[-46.12237,-22.89292],[-46.14955,-22.84868],[-46.34879,-22.86294],[-46.35662,-22.75706],[-46.47597,-22.67061],[-46.39551,-22.62668],[-46.38572,-22.5316],[-46.65273,-22.40416],[-46.7027,-22.31533],[-46.60069,-22.13255],[-46.69805,-22.07266],[-46.61733,-21.99003],[-46.66854,-21.81252],[-46.51876,-21.60266],[-46.50762,-21.45895],[-46.64712,-21.36991],[-47.00056,-21.40061],[-47.1451,-20.98042],[-47.22396,-20.90761],[-47.1089,-20.64075],[-47.14536,-20.53151],[-47.2921,-20.43751],[-47.23463,-20.20595],[-47.4686,-19.95888],[-47.63582,-20.03852],[-47.7152,-19.97511],[-47.85276,-19.98255],[-47.8817,-20.09981],[-47.92679,-20.11402],[-47.98936,-20.02782],[-48.07156,-20.15091],[-48.22274,-20.01351],[-48.2426,-20.13769],[-48.81859,-20.15133],[-48.88851,-20.26078],[-48.90114,-20.4387],[-48.96943,-20.40051],[-49.00295,-20.15133],[-49.14927,-20.29525],[-49.21645,-20.29406],[-49.29838,-20.14389],[-49.27298,-19.96839],[-50.33842,-19.86928],[-50.4896,-19.78231],[-50.99396,-20.10167],[-51.0276,-19.75409],[-50.93709,-19.54935],[-50.95298,-19.45922],[-50.83932,-19.46305],[-50.88115,-19.41086],[-50.844,-19.29479],[-50.6738,-19.12152],[-50.54536,-19.10917],[-50.50205,-18.93058],[-50.29772,-18.70015],[-50.01707,-18.6169],[-49.79781,-18.62279],[-49.51354,-18.49603],[-49.37688,-18.63142],[-49.15593,-18.42151],[-48.95233,-18.32632],[-48.2595,-18.34906],[-47.91518,-18.45283],[-47.2777,-18.05993],[-47.35586,-17.8308],[-47.27137,-17.58104],[-47.39868,-17.49991],[-47.4779,-17.52487],[-47.53017,-17.42819],[-47.50009,-17.3298],[-47.4379,-17.33977],[-47.15084,-16.96687],[-47.26651,-16.66183],[-47.44214,-16.52333],[-47.43648,-16.41709],[-47.32654,-16.24764],[-47.30248,-16.04005],[-47.21931,-16.02946],[-47.12929,-15.9213],[-46.83582,-15.86435],[-46.86786,-15.59073],[-46.93046,-15.54572],[-46.93571,-15.42454],[-46.85388,-15.31684],[-46.9286,-15.24103],[-46.89432,-15.05872],[-46.79298,-15.0089],[-46.56682,-15.05655],[-46.58198,-14.80127],[-46.51098,-14.71161]]]}},{"type":"Feature","properties":{"id":"br-ms","lat":-20.63308,"lng":-54.78474},"geometry":{"type":"Polygon","coordinates":[[[-58.1588,-20.16512],[-57.85974,-19.98012],[-58.12464,-19.72991],[-57.789,-19.05925],[-57.71583,-19.04457],[-57.73179,-18.922],[-57.78233,-18.91042],[-57.56674,-18.25609],[-57.4668,-18.23956],[-57.55108,-18.18364],[-57.73009,-17.84609],[-57.72446,-17.73664],[-57.63402,-17.74119],[-57.47072,-17.94748],[-57.41817,-17.86408],[-57.08307,-17.7632],[-56.75635,-17.31817],[-56.41676,-17.31584],[-56.11908,-17.18727],[-55.63182,-17.38054],[-55.53601,-17.50146],[-55.1805,-17.68579],[-54.9147,-17.65489],[-54.60651,-17.50503],[-54.42052,-17.58094],[-54.38365,-17.67587],[-54.1284,-17.62389],[-53.82154,-17.30607],[-53.68922,-17.25021],[-53.75366,-17.65132],[-53.87508,-17.70528],[-53.9768,-17.93327],[-53.72816,-18.008],[-53.05384,-18.01663],[-53.03348,-18.35743],[-52.89439,-18.34766],[-52.76897,-18.41185],[-52.89628,-18.66475],[-52.48268,-18.70744],[-51.84208,-19.04814],[-51.11305,-19.29298],[-50.93709,-19.54935],[-51.02631,-19.72469],[-51.0291,-20.18926],[-51.13721,-20.29726],[-51.32642,-20.36243],[-51.58005,-20.59636],[-51.63199,-20.87697],[-51.87114,-21.14398],[-51.86742,-21.34304],[-51.98093,-21.47921],[-52.10387,-21.52344],[-52.04361,-21.66612],[-52.3038,-21.92491],[-52.36491,-22.09173],[-52.46224,-22.18314],[-52.96702,-22.45889],[-53.16796,-22.70172],[-53.58486,-22.90253],[-53.72514,-23.29635],[-53.96815,-23.44379],[-54.07719,-23.94924],[-54.24575,-24.05039],[-54.63922,-23.80444],[-54.94364,-23.96918],[-55.16544,-24.01683],[-55.42067,-23.95451],[-55.44532,-23.73545],[-55.53053,-23.60347],[-55.53524,-23.22912],[-55.63781,-23.00071],[-55.62368,-22.63867],[-55.72393,-22.56963],[-55.76024,-22.39196],[-55.86103,-22.28954],[-56.21426,-22.27538],[-56.40764,-22.07581],[-56.5113,-22.09142],[-56.64881,-22.2635],[-56.71537,-22.21544],[-56.85606,-22.29316],[-56.90368,-22.23694],[-57.38499,-22.21327],[-57.61407,-22.17699],[-57.66369,-22.10061],[-57.84388,-22.14371],[-57.98625,-22.07447],[-57.89561,-21.68844],[-57.94915,-21.5083],[-57.85556,-21.33074],[-57.90429,-21.27493],[-57.83396,-21.17385],[-57.81758,-20.9536],[-57.91483,-20.90565],[-57.85964,-20.83165],[-57.94041,-20.79361],[-57.85768,-20.73987],[-57.91809,-20.6698],[-57.98062,-20.69274],[-57.9894,-20.43312],[-58.16267,-20.24316],[-58.11854,-20.21442],[-58.1588,-20.16512]]]}},{"type":"Feature","properties":{"id":"br-mt","lat":-12.70984,"lng":-55.30071},"geometry":{"type":"Polygon","coordinates":[[[-58.46472,-16.33125],[-60.12984,-16.27306],[-60.17981,-16.22201],[-60.24639,-15.47828],[-60.58224,-15.09887],[-60.2698,-15.08337],[-60.29172,-14.63006],[-60.3692,-14.54283],[-60.34381,-14.49095],[-60.47894,-14.1627],[-60.38719,-13.98328],[-60.47263,-13.79786],[-60.72557,-13.66285],[-60.38375,-13.42027],[-60.26575,-13.05615],[-60.04201,-12.87529],[-59.82337,-12.40829],[-59.89595,-12.10174],[-59.98339,-11.91669],[-60.06948,-11.89354],[-60.10131,-11.74455],[-60.10142,-11.59976],[-59.91119,-11.38406],[-60.00163,-11.14433],[-60.28913,-11.07715],[-60.36998,-11.10935],[-60.44124,-11.00346],[-61.51006,-10.98915],[-61.47105,-10.43476],[-61.57941,-10.13091],[-61.51944,-9.87397],[-61.56401,-9.72685],[-61.48162,-9.62809],[-61.6113,-9.32005],[-61.59293,-9.24202],[-61.53084,-9.22455],[-61.55789,-9.09676],[-61.48438,-8.9039],[-61.6113,-8.76856],[-58.54523,-8.74825],[-58.41992,-8.55116],[-58.43955,-8.42207],[-58.30548,-8.10483],[-58.3786,-7.81808],[-58.22375,-7.62176],[-58.21641,-7.432],[-58.13549,-7.33914],[-57.97979,-7.53024],[-57.78825,-8.03594],[-57.64356,-8.21552],[-57.68038,-8.44584],[-57.59113,-8.74489],[-57.09297,-9.05759],[-57.05979,-9.21897],[-56.83709,-9.27313],[-56.77009,-9.39788],[-56.67819,-9.37731],[-56.46748,-9.47539],[-50.23572,-9.84398],[-50.59882,-10.65656],[-50.61176,-11.06119],[-50.74111,-11.47129],[-50.6499,-11.60823],[-50.71251,-11.73866],[-50.64435,-11.88982],[-50.68318,-12.04185],[-50.61223,-12.43113],[-50.67507,-12.61515],[-50.59866,-12.80454],[-50.47831,-12.87911],[-50.5867,-13.07352],[-50.59954,-13.30301],[-50.79583,-13.67591],[-50.86637,-13.71611],[-50.84575,-14.0841],[-50.92265,-14.11754],[-50.95965,-14.23582],[-50.98419,-14.56635],[-51.15971,-14.9626],[-51.27498,-15.0182],[-51.31996,-14.95614],[-51.41202,-14.99541],[-51.64894,-15.19013],[-51.71154,-15.47425],[-51.79293,-15.539],[-51.77391,-15.61057],[-51.87163,-15.79252],[-52.23055,-15.89872],[-52.33419,-16.0461],[-52.5325,-16.15209],[-52.53935,-16.23338],[-52.67487,-16.30071],[-52.67634,-16.38282],[-52.61554,-16.42608],[-52.71215,-16.65061],[-53.01942,-16.86786],[-53.03766,-17.03762],[-53.20326,-17.28205],[-53.24478,-17.59236],[-53.05384,-18.01663],[-53.72816,-18.008],[-53.9768,-17.93327],[-53.87508,-17.70528],[-53.75366,-17.65132],[-53.68922,-17.25021],[-53.82154,-17.30607],[-54.1284,-17.62389],[-54.38365,-17.67587],[-54.42052,-17.58094],[-54.60651,-17.50503],[-54.9147,-17.65489],[-55.1805,-17.68579],[-55.53601,-17.50146],[-55.63182,-17.38054],[-56.10264,-17.18737],[-56.41676,-17.31584],[-56.75635,-17.31817],[-57.08307,-17.7632],[-57.41817,-17.86408],[-57.47225,-17.94728],[-57.63402,-17.74119],[-57.76755,-17.70874],[-57.81442,-17.5197],[-58.01017,-17.49676],[-58.38116,-17.26721],[-58.48028,-16.68368],[-58.34266,-16.47315],[-58.33956,-16.28929],[-58.46472,-16.33125]]]}},{"type":"Feature","properties":{"id":"br-pa","lat":-3.72269,"lng":-52.03087},"geometry":{"type":"MultiPolygon","coordinates":[[[[-57.03747,1.93239],[-56.79273,1.87353],[-56.48182,1.94161],[-55.95381,1.85327],[-55.91826,2.05039],[-56.07293,2.24152],[-56.14677,2.25619],[-56.01335,2.39882],[-55.98301,2.52646],[-55.72429,2.39691],[-55.39959,2.43019],[-55.32052,2.5183],[-55.25192,2.49789],[-55.13779,2.56217],[-55.12089,2.52481],[-54.95909,2.60899],[-54.97858,2.54305],[-54.88029,2.44734],[-54.73469,2.41474],[-54.71606,2.26596],[-54.79792,2.02003],[-54.73546,1.77204],[-54.36159,1.76206],[-54.1047,1.61127],[-54.07703,1.50477],[-53.99554,1.52177],[-53.85588,1.38514],[-53.66646,1.42756],[-53.65589,1.36519],[-53.55182,1.36255],[-53.54306,1.24385],[-53.43392,1.25646],[-53.40689,1.1882],[-53.46647,1.12965],[-53.41624,0.9418],[-53.28209,0.79049],[-53.11582,0.7368],[-53.13045,0.39853],[-53.04154,0.24722],[-53.01193,0.04077],[-52.91537,-0.19203],[-52.8137,-0.18019],[-52.62694,-0.39719],[-52.63187,-0.55687],[-52.524,-0.65867],[-52.51743,-0.87576],[-52.38132,-0.88677],[-52.36669,-1.06138],[-52.26603,-1.1359],[-52.12376,-1.15388],[-52.06883,-1.2192],[-51.98016,-1.14024],[-51.90884,-1.15554],[-51.92146,-1.32578],[-51.99535,-1.39642],[-52.23811,-1.34637],[-52.69742,-1.55242],[-52.70812,-1.60003],[-52.27912,-1.51824],[-52.23107,-1.60272],[-52.26024,-1.69524],[-52.20397,-1.6902],[-51.28344,-1.23138],[-51.00341,-1.01377],[-50.9973,-0.92246],[-50.9359,-0.95664],[-50.94274,-0.90879],[-50.83959,-0.91277],[-50.82665,-1.04534],[-50.95641,-1.12851],[-50.81994,-1.2317],[-50.8192,-1.43629],[-50.65469,-1.73797],[-50.73729,-1.73797],[-50.71728,-1.82247],[-50.78757,-1.89737],[-50.8798,-1.85195],[-50.84421,-1.9553],[-50.70214,-1.90947],[-50.66004,-1.803],[-50.61058,-1.8142],[-50.46666,-1.92783],[-50.48404,-1.97763],[-50.44302,-1.93597],[-50.41576,-2.07317],[-50.31254,-1.90877],[-50.16194,-1.91562],[-50.11042,-1.84922],[-49.97692,-1.8261],[-49.86929,-1.88877],[-49.88756,-2.0875],[-49.85342,-2.04583],[-49.81249,-2.108],[-49.84659,-1.90179],[-49.83235,-1.94964],[-49.81045,-1.90057],[-49.6761,-1.90862],[-49.59276,-2.01165],[-49.65478,-1.89512],[-49.53746,-1.86094],[-49.48522,-1.76393],[-49.463,-1.80576],[-49.42203,-1.77899],[-49.45116,-1.82464],[-49.45421,-1.85613],[-49.4348,-1.87998],[-49.37043,-1.90504],[-49.38109,-1.99131],[-49.54894,-2.40309],[-49.54577,-2.51653],[-49.66369,-2.67767],[-49.52741,-2.62835],[-49.232,-1.94817],[-48.96559,-1.59972],[-48.85637,-1.55903],[-49.03327,-1.84657],[-48.92947,-1.78783],[-48.65695,-1.38338],[-48.42833,-1.66229],[-48.4829,-1.51141],[-48.32531,-1.47047],[-48.49657,-1.46136],[-48.48275,-1.2813],[-48.4359,-1.21869],[-48.42539,-1.29731],[-48.33458,-1.31365],[-48.30504,-1.18825],[-48.25015,-1.18939],[-48.27815,-1.12851],[-48.22289,-1.11354],[-48.2744,-1.11354],[-48.29174,-1.04363],[-48.18749,-1.01865],[-48.14029,-0.9013],[-48.15404,-0.78183],[-48.03791,-0.66172],[-47.96215,-0.78183],[-47.86624,-0.67351],[-47.80244,-0.69033],[-47.80907,-0.56517],[-47.77025,-0.63714],[-47.72517,-0.64414],[-47.72867,-0.75652],[-47.61059,-0.69394],[-47.58451,-0.57825],[-47.49669,-0.76474],[-47.39306,-0.81259],[-47.39306,-0.74717],[-47.44831,-0.6959],[-47.46874,-0.73064],[-47.4619,-0.59287],[-47.39981,-0.59287],[-47.41413,-0.61395],[-47.4147,-0.66131],[-47.40734,-0.68157],[-47.29402,-0.59287],[-47.25585,-0.67604],[-47.24279,-0.62021],[-47.19811,-0.65154],[-47.23595,-0.7164],[-47.16088,-0.68157],[-47.19441,-0.761],[-47.13976,-0.79892],[-47.07755,-0.6657],[-47.0572,-0.86712],[-46.96911,-0.6959],[-46.92223,-0.83457],[-46.963,-0.865],[-46.94738,-0.9013],[-46.8192,-0.71168],[-46.78287,-0.9013],[-46.75552,-0.81943],[-46.71459,-0.8777],[-46.74938,-0.94297],[-46.69787,-0.88079],[-46.68871,-0.82578],[-46.63268,-0.86321],[-46.65591,-0.80182],[-46.59854,-0.86712],[-46.61901,-0.93548],[-46.66739,-0.92246],[-46.73746,-0.98431],[-46.74938,-1.01865],[-46.42763,-0.86855],[-46.48033,-0.91949],[-46.47501,-1.04534],[-46.3649,-1.0084],[-46.35652,-1.07529],[-46.32266,-1.02028],[-46.32482,-1.10735],[-46.29686,-1.03167],[-46.24844,-1.09368],[-46.25031,-0.93095],[-46.17178,-0.92099],[-46.26212,-1.1832],[-46.13923,-1.11354],[-46.14607,-1.17637],[-46.10167,-1.07334],[-46.06469,-1.14764],[-46.1664,-1.30225],[-46.12542,-1.34627],[-46.20115,-1.48409],[-46.20115,-1.67928],[-46.31722,-1.74139],[-46.30365,-1.80252],[-46.21534,-1.80661],[-46.22407,-1.97326],[-46.29996,-2.17718],[-46.42708,-2.24503],[-46.43065,-2.52708],[-46.65937,-2.71585],[-46.57108,-2.85145],[-46.64598,-2.89228],[-46.70081,-3.14942],[-46.82432,-3.32755],[-46.94462,-3.39824],[-46.96832,-3.52552],[-47.02973,-3.56877],[-47.07857,-3.87661],[-47.31093,-4.06678],[-47.36506,-4.25385],[-47.58135,-4.54706],[-47.66094,-4.60804],[-47.80067,-4.59584],[-48.7432,-5.35254],[-48.55561,-5.4129],[-48.37686,-5.39352],[-48.29723,-5.51708],[-48.20922,-5.53852],[-48.1424,-5.64611],[-48.29723,-5.74947],[-48.22783,-5.93488],[-48.3334,-5.97617],[-48.28415,-6.09761],[-48.42489,-6.15663],[-48.37976,-6.35961],[-48.50075,-6.35114],[-48.60633,-6.43501],[-48.66824,-6.64931],[-49.01054,-6.78072],[-49.21645,-6.92506],[-49.18916,-7.24721],[-49.39018,-7.54714],[-49.34835,-7.67932],[-49.16338,-7.80355],[-49.30461,-8.36786],[-49.56547,-8.81119],[-49.75512,-8.92297],[-50.05366,-9.31912],[-50.23572,-9.84398],[-56.46748,-9.47539],[-56.67819,-9.37731],[-56.78296,-9.39322],[-56.83709,-9.27313],[-57.04548,-9.23039],[-57.09297,-9.05759],[-57.59113,-8.74489],[-57.68038,-8.44584],[-57.64356,-8.21552],[-57.78825,-8.03594],[-57.97979,-7.53024],[-58.17048,-7.29966],[-58.19104,-7.15285],[-58.42098,-6.91327],[-58.47139,-6.72285],[-58.29442,-6.49686],[-56.38965,-2.39055],[-56.39901,-2.30389],[-56.31193,-2.23583],[-56.47743,-2.2564],[-56.49859,-2.16173],[-56.6947,-2.20426],[-56.7565,-2.16731],[-56.75346,-2.03605],[-56.99199,-1.94541],[-57.08785,-1.81183],[-57.66707,-1.58373],[-58.31739,-1.11755],[-58.40545,-1.02635],[-58.44834,-0.84765],[-58.73837,-0.65247],[-58.73011,-0.44674],[-58.86095,-0.32179],[-58.97203,1.31231],[-58.834,1.18582],[-58.69773,1.28106],[-58.51893,1.26726],[-58.4811,1.33387],[-58.51366,1.43888],[-58.38638,1.49019],[-58.32049,1.60122],[-58.02723,1.51686],[-57.98501,1.6577],[-57.56116,1.70897],[-57.34148,1.96885],[-57.23844,1.94854],[-57.10449,2.02145],[-57.03747,1.93239]]],[[[-51.15563,-0.68157],[-51.27562,-1.02516],[-51.33145,-1.00994],[-51.4348,-1.1867],[-51.74083,-1.42002],[-51.93029,-1.4708],[-51.88427,-1.25628],[-51.68395,-1.09694],[-51.67577,-0.84678],[-51.53405,-0.6347],[-51.3474,-0.532],[-51.38158,-0.65488],[-51.35367,-0.58017],[-51.29963,-0.59287],[-51.30834,-0.51873],[-51.23754,-0.53826],[-51.15563,-0.68157]]],[[[-50.84313,-0.716],[-51.09415,-0.82627],[-51.10973,-0.80674],[-51.06627,-0.67604],[-50.84093,-0.55869],[-50.84313,-0.716]]],[[[-51.12474,-0.14674],[-51.16674,-0.3056],[-51.4051,-0.45965],[-51.23266,-0.17946],[-51.12474,-0.14674]]],[[[-51.03795,-0.23594],[-50.94727,-0.01197],[-50.81753,0.03474],[-50.73955,0.03453],[-50.62743,-0.08571],[-50.92341,-0.3305],[-51.03795,-0.23594]]],[[[-50.63427,0.10611],[-50.61059,0.18342],[-50.49022,0.15936],[-50.43773,-3e-05],[-50.57217,0.00165],[-50.63427,0.10611]]],[[[-50.21715,0.26309],[-50.13854,0.32656],[-50.09332,0.33901],[-50.10733,0.29293],[-50.21715,0.26309]]],[[[-50.41513,0.17658],[-50.49315,0.18549],[-50.51635,0.24335],[-50.36669,0.61994],[-50.31697,0.30875],[-50.41513,0.17658]]],[[[-50.25646,0.56973],[-50.12035,0.5716],[-50.13402,0.61249],[-50.06566,0.64728],[-50.02477,0.54116],[-50.28145,0.35655],[-50.31505,0.49726],[-50.25646,0.56973]]],[[[-49.27701,-1.76702],[-49.36742,-1.89512],[-49.45299,-1.85019],[-49.33812,-1.71266],[-49.27701,-1.76702]]],[[[-49.42173,-1.68438],[-49.49612,-1.74263],[-49.52277,-1.73521],[-49.51356,-1.66324],[-49.42173,-1.68438]]],[[[-48.31534,-1.15521],[-48.37987,-1.21722],[-48.46544,-1.15765],[-48.38345,-1.06536],[-48.32421,-1.07586],[-48.31534,-1.15521]]],[[[-48.36978,-0.36061],[-48.49657,-0.74375],[-48.57234,-0.68157],[-48.52766,-0.87265],[-48.66478,-1.00124],[-48.64281,-1.08359],[-48.81871,-1.2029],[-48.92113,-1.14153],[-48.84203,-1.21331],[-48.86718,-1.2514],[-48.79625,-1.26849],[-48.833,-1.41579],[-48.94221,-1.29583],[-48.99006,-1.29241],[-48.94603,-1.30902],[-48.99006,-1.37428],[-48.94506,-1.34637],[-48.83922,-1.44996],[-49.06578,-1.53191],[-49.19774,-1.38836],[-49.18187,-1.5661],[-49.2296,-1.5735],[-49.1682,-1.5866],[-49.29373,-1.61753],[-49.38732,-1.48415],[-49.37244,-1.64664],[-49.46823,-1.62328],[-49.49657,-1.49774],[-49.53132,-1.49774],[-49.50398,-1.5866],[-49.55175,-1.72088],[-49.68834,-1.7693],[-49.74421,-1.58034],[-49.72964,-1.75262],[-49.80028,-1.81732],[-50.00231,-1.74554],[-50.02819,-1.65545],[-50.15502,-1.77899],[-50.22452,-1.73903],[-50.23766,-1.62127],[-50.27855,-1.59743],[-50.24962,-1.56308],[-50.25817,-1.48415],[-50.29223,-1.59743],[-50.24258,-1.64153],[-50.26496,-1.74481],[-50.30651,-1.65545],[-50.28478,-1.75506],[-50.36669,-1.77215],[-50.29699,-1.80348],[-50.55972,-1.79949],[-50.60668,-1.76483],[-50.58788,-1.6845],[-50.80321,-1.43499],[-50.79255,-1.0862],[-50.55972,-1.1832],[-50.61669,-1.11989],[-50.47663,-1.03916],[-50.66381,-1.0949],[-50.75577,-1.08221],[-50.79255,-1.01865],[-50.73729,-0.55185],[-50.68407,-0.63982],[-50.54845,-0.67783],[-50.68269,-0.62379],[-50.69636,-0.36004],[-50.58336,-0.19215],[-50.41149,-0.16448],[-50.34996,-0.09938],[-49.65347,-0.24114],[-49.38732,-0.25758],[-49.38683,-0.18475],[-49.20604,-0.14031],[-48.9796,-0.18619],[-48.89361,-0.15289],[-48.89196,-0.21592],[-48.42724,-0.25994],[-48.36978,-0.36061]]],[[[-48.19494,-0.81943],[-48.20189,-1.01149],[-48.30712,-1.02069],[-48.24356,-0.84173],[-48.19494,-0.81943]]],[[[-47.88707,-0.66912],[-47.91637,-0.70859],[-47.96215,-0.73064],[-47.96907,-0.63388],[-47.88707,-0.66912]]],[[[-47.66051,-0.5792],[-47.64688,-0.70273],[-47.70153,-0.70957],[-47.74336,-0.54729],[-47.66051,-0.5792]]],[[[-49.62808,0.0576],[-49.44205,0.07567],[-49.34899,-0.03086],[-49.49201,-0.13258],[-49.83235,-0.10312],[-49.62808,0.0576]]],[[[-50.03689,0.29974],[-49.56016,0.38576],[-49.52895,0.30081],[-49.69237,0.20502],[-49.8297,0.0113],[-50.00451,-0.05279],[-50.09728,0.03091],[-50.2976,0.01203],[-50.35155,0.0589],[-50.34008,0.13337],[-50.37999,0.11074],[-50.36681,0.2145],[-50.10729,0.22215],[-50.03689,0.29974]]]]}},{"type":"Feature","properties":{"id":"br-pb","lat":-7.14402,"lng":-36.74047},"geometry":{"type":"Polygon","coordinates":[[[-34.96328,-6.50333],[-34.94274,-6.76621],[-34.8601,-6.91465],[-34.91466,-7.13055],[-34.83959,-6.97291],[-34.79361,-7.1762],[-34.81916,-7.54827],[-34.9784,-7.51091],[-35.10679,-7.39583],[-35.26996,-7.38105],[-35.38476,-7.46414],[-35.49225,-7.45371],[-35.55602,-7.6539],[-35.89189,-7.72945],[-35.86086,-7.79549],[-35.92914,-7.84025],[-36.06769,-7.83043],[-36.10637,-7.77477],[-36.16768,-7.82278],[-36.21659,-7.78159],[-36.41576,-7.82102],[-36.44746,-7.90934],[-36.65324,-7.99899],[-36.65174,-8.11532],[-36.94973,-8.28228],[-37.12354,-8.17351],[-37.15018,-7.97796],[-37.34717,-7.99171],[-37.16827,-7.77493],[-37.19698,-7.57308],[-36.99306,-7.48311],[-37.02277,-7.39443],[-37.25439,-7.26984],[-37.47675,-7.36374],[-37.54788,-7.47515],[-37.96132,-7.76841],[-38.06395,-7.75896],[-38.08075,-7.82133],[-38.14573,-7.76841],[-38.29536,-7.83606],[-38.35396,-7.69968],[-38.52563,-7.76769],[-38.70673,-7.60594],[-38.53074,-7.30653],[-38.54937,-7.23573],[-38.67652,-7.1575],[-38.74024,-6.91405],[-38.6227,-6.77902],[-38.64562,-6.67541],[-38.50537,-6.34974],[-38.28776,-6.50384],[-38.13025,-6.51976],[-37.84412,-6.34101],[-37.7496,-6.16903],[-37.21723,-6.02604],[-37.17543,-6.11684],[-37.382,-6.36411],[-37.43024,-6.51795],[-37.50701,-6.55371],[-37.52143,-6.67086],[-37.29601,-6.71489],[-37.23103,-6.82263],[-36.99688,-6.70915],[-36.80501,-6.76083],[-36.74263,-6.82449],[-36.77137,-6.93089],[-36.72176,-6.97782],[-36.53691,-6.87875],[-36.53497,-6.6383],[-36.44276,-6.6228],[-36.50784,-6.40591],[-36.38348,-6.30282],[-36.29171,-6.30546],[-36.25202,-6.41366],[-35.96258,-6.46193],[-35.65715,-6.42555],[-35.30603,-6.52844],[-34.96328,-6.50333]]]}},{"type":"Feature","properties":{"id":"br-pe","lat":-8.39323,"lng":-37.92938},"geometry":{"type":"MultiPolygon","coordinates":[[[[-35.10679,-7.39583],[-34.8053,-7.62272],[-34.8303,-7.68089],[-34.87377,-7.61777],[-34.90722,-7.73382],[-34.86588,-7.71754],[-34.8921,-7.76262],[-34.89352,-7.80493],[-34.81164,-7.93255],[-34.85119,-8.06862],[-34.92894,-8.03493],[-34.88061,-8.08953],[-34.93859,-8.3471],[-35.14834,-8.91357],[-35.4876,-8.83259],[-35.72159,-8.92028],[-35.80114,-8.87021],[-36.01418,-8.8945],[-36.34576,-9.20104],[-36.59022,-9.297],[-36.85431,-9.26569],[-36.95451,-9.35064],[-37.18158,-9.24176],[-37.5191,-8.94374],[-37.67136,-8.98457],[-37.75787,-8.8592],[-37.96817,-9.14249],[-38.10178,-9.19267],[-38.2352,-9.33037],[-38.31406,-9.13159],[-38.2874,-9.01346],[-38.48121,-9.00033],[-38.48475,-8.83677],[-38.56392,-8.82923],[-38.64461,-8.97692],[-38.70611,-8.84122],[-38.79737,-8.78566],[-38.96767,-8.78939],[-39.22122,-8.67735],[-39.28798,-8.56056],[-39.38222,-8.52863],[-39.68018,-8.6497],[-39.68997,-8.78241],[-39.88296,-8.81786],[-39.88924,-8.95919],[-39.96851,-9.04286],[-40.11393,-9.10337],[-40.24984,-9.07092],[-40.33474,-9.36072],[-40.63325,-9.4879],[-40.75826,-9.45307],[-40.69017,-9.34434],[-40.70356,-9.22192],[-40.85313,-9.15179],[-40.89861,-8.84447],[-40.99703,-8.77487],[-41.08979,-8.78494],[-41.12183,-8.71285],[-41.3708,-8.71187],[-41.21092,-8.63503],[-41.02444,-8.4245],[-40.91768,-8.43178],[-40.886,-8.34812],[-40.82905,-8.36197],[-40.57674,-8.10281],[-40.53132,-7.90541],[-40.55178,-7.82484],[-40.66046,-7.76025],[-40.62093,-7.63798],[-40.695,-7.47985],[-40.64757,-7.39919],[-39.65424,-7.37335],[-39.34532,-7.55112],[-39.26313,-7.67018],[-39.11513,-7.74506],[-39.07348,-7.85399],[-38.96803,-7.84794],[-38.86853,-7.70687],[-38.69714,-7.62021],[-38.52563,-7.76769],[-38.34176,-7.7031],[-38.25531,-7.84965],[-38.14573,-7.76841],[-38.08075,-7.82133],[-38.05829,-7.75575],[-37.96132,-7.76841],[-37.54788,-7.47515],[-37.47675,-7.36374],[-37.25439,-7.26984],[-37.02277,-7.39443],[-36.99306,-7.48311],[-37.19698,-7.57308],[-37.16827,-7.77493],[-37.34717,-7.99171],[-37.15018,-7.97796],[-37.12354,-8.17351],[-36.9627,-8.28352],[-36.76744,-8.21423],[-36.63163,-8.09093],[-36.62554,-7.96566],[-36.44746,-7.90934],[-36.41576,-7.82102],[-36.21659,-7.78159],[-36.16768,-7.82278],[-36.10637,-7.77477],[-36.06769,-7.83043],[-35.92914,-7.84025],[-35.86086,-7.79549],[-35.89189,-7.72945],[-35.55602,-7.6539],[-35.49225,-7.45371],[-35.38476,-7.46414],[-35.26996,-7.38105],[-35.10679,-7.39583]]],[[[-34.84615,-7.69581],[-34.8223,-7.74918],[-34.85818,-7.81316],[-34.88277,-7.76554],[-34.84615,-7.69581]]]]}},{"type":"Feature","properties":{"id":"br-pi","lat":-6.8187,"lng":-41.88628},"geometry":{"type":"Polygon","coordinates":[[[-41.86785,-2.85362],[-41.80871,-2.74481],[-41.67504,-2.87957],[-41.46544,-2.88877],[-41.45177,-2.94346],[-41.33568,-2.92295],[-41.24812,-3.01206],[-41.44938,-3.43679],[-41.07356,-4.3263],[-41.23575,-4.53843],[-41.18133,-4.93846],[-41.05984,-5.16883],[-41.0703,-5.30707],[-40.94179,-5.43073],[-40.89106,-6.01116],[-40.71859,-6.65024],[-40.46804,-6.73979],[-40.41388,-6.81793],[-40.58111,-7.19527],[-40.5377,-7.3902],[-40.68989,-7.42957],[-40.62002,-7.64537],[-40.66046,-7.76025],[-40.54535,-7.83234],[-40.54411,-8.02943],[-40.82905,-8.36197],[-40.886,-8.34812],[-40.92321,-8.43416],[-41.02444,-8.4245],[-41.21092,-8.63503],[-41.3708,-8.71187],[-41.49997,-8.93548],[-41.74251,-8.9886],[-41.73367,-9.13867],[-41.85005,-9.25261],[-42.04265,-9.20781],[-42.14959,-9.29509],[-42.31888,-9.31194],[-42.48624,-9.49896],[-42.58427,-9.48867],[-42.62241,-9.56577],[-42.85048,-9.54887],[-43.11346,-9.37431],[-43.36239,-9.42785],[-43.45659,-9.30305],[-43.51744,-9.35984],[-43.62604,-9.34103],[-43.69575,-9.44604],[-43.82112,-9.4325],[-43.67932,-9.85123],[-43.70699,-10.05029],[-43.91879,-10.43605],[-44.21735,-10.62958],[-44.40651,-10.58943],[-44.54299,-10.63149],[-44.80307,-10.8721],[-45.06667,-10.8936],[-45.32764,-10.77371],[-45.60339,-10.33156],[-45.94605,-10.31772],[-45.79645,-9.46118],[-45.90722,-9.29478],[-45.96781,-8.87744],[-45.76632,-8.60588],[-45.43575,-7.64646],[-44.90811,-7.4444],[-44.81641,-7.36389],[-44.69657,-7.39097],[-44.4996,-7.17879],[-44.29721,-7.10329],[-44.10826,-6.81948],[-43.97351,-6.7401],[-43.6748,-6.70104],[-43.42158,-6.84408],[-43.19844,-6.75457],[-42.99701,-6.76098],[-42.92632,-6.68631],[-42.82958,-6.35248],[-42.85004,-6.25409],[-43.07597,-6.05482],[-43.10186,-5.62333],[-42.84919,-5.34019],[-42.80165,-5.18092],[-42.85689,-4.92394],[-42.95246,-4.77656],[-42.86296,-4.49869],[-42.96572,-4.37255],[-42.99063,-4.2401],[-42.72516,-3.91123],[-42.66318,-3.67171],[-42.5006,-3.45106],[-42.21657,-3.43385],[-42.11701,-3.26921],[-41.94973,-3.17639],[-41.81253,-2.95512],[-41.86785,-2.85362]]]}},{"type":"Feature","properties":{"id":"br-pr","lat":-24.58542,"lng":-51.81803},"geometry":{"type":"MultiPolygon","coordinates":[[[[-48.33953,-25.42553],[-48.25092,-25.36459],[-48.29111,-25.48912],[-48.33953,-25.42553]]],[[[-54.32131,-24.62837],[-54.33453,-24.49669],[-54.26105,-24.32947],[-54.32477,-24.11822],[-54.07719,-23.94924],[-53.96815,-23.44379],[-53.72514,-23.29635],[-53.55272,-22.87235],[-52.94723,-22.57077],[-52.27585,-22.59743],[-52.21714,-22.64384],[-52.06666,-22.52173],[-51.69529,-22.66265],[-51.34686,-22.6519],[-50.88014,-22.82207],[-50.76488,-22.9539],[-49.97808,-22.90377],[-49.89424,-23.04929],[-49.73373,-23.09895],[-49.63813,-23.25925],[-49.65368,-23.51221],[-49.55263,-23.71168],[-49.5957,-23.88206],[-49.35313,-24.11346],[-49.33603,-24.22488],[-49.22234,-24.34999],[-49.3184,-24.54248],[-49.29551,-24.66604],[-49.05274,-24.68475],[-49.02801,-24.63446],[-48.58165,-24.6818],[-48.4876,-24.74567],[-48.54641,-24.81838],[-48.57023,-25.05382],[-48.50006,-25.0826],[-48.42053,-24.95967],[-48.23023,-25.01356],[-48.17897,-25.20409],[-48.03249,-25.22942],[-48.20905,-25.45762],[-48.25015,-25.42783],[-48.22216,-25.33912],[-48.12731,-25.27996],[-48.28433,-25.28997],[-48.33275,-25.35833],[-48.32531,-25.22861],[-48.36742,-25.30478],[-48.45568,-25.24847],[-48.42833,-25.32415],[-48.49657,-25.33847],[-48.41405,-25.41009],[-48.47273,-25.47568],[-48.63537,-25.44459],[-48.74303,-25.35215],[-48.71085,-25.49635],[-48.3612,-25.57098],[-48.541,-25.84547],[-48.57852,-25.79713],[-48.62011,-25.81756],[-48.58324,-25.85467],[-48.76944,-25.86736],[-48.56347,-25.86582],[-48.58275,-25.9809],[-49.11529,-25.99237],[-49.55162,-26.23003],[-49.94475,-26.01459],[-50.29375,-26.04001],[-50.3371,-26.1121],[-50.58838,-26.00704],[-50.55768,-26.04342],[-50.64652,-26.07019],[-50.73754,-26.23623],[-50.9066,-26.28057],[-51.07225,-26.23514],[-51.21307,-26.31266],[-51.29141,-26.43503],[-51.2386,-26.60732],[-51.41559,-26.70478],[-51.49938,-26.59905],[-52.00651,-26.58158],[-52.19968,-26.45162],[-52.81584,-26.33658],[-53.11182,-26.36945],[-53.35521,-26.2416],[-53.47761,-26.29209],[-53.66155,-26.25979],[-53.83343,-25.96224],[-53.90996,-25.62924],[-53.96773,-25.65321],[-53.99745,-25.57497],[-54.08272,-25.55007],[-54.09889,-25.5972],[-54.11641,-25.49457],[-54.2148,-25.53146],[-54.19025,-25.58076],[-54.39541,-25.58107],[-54.44734,-25.68918],[-54.47303,-25.62582],[-54.6002,-25.57494],[-54.60981,-25.43276],[-54.42662,-25.14947],[-54.46228,-25.03723],[-54.32131,-24.62837]]]]}},{"type":"Feature","properties":{"id":"br-rj","lat":-22.07723,"lng":-42.11066},"geometry":{"type":"MultiPolygon","coordinates":[[[[-44.08544,-23.1618],[-44.29263,-23.17278],[-44.32771,-23.22129],[-44.3671,-23.16522],[-44.2351,-23.06878],[-44.08544,-23.1618]]],[[[-40.9652,-21.27483],[-40.9635,-21.3645],[-41.07187,-21.52334],[-40.97265,-21.98675],[-41.2437,-22.14521],[-41.66649,-22.28183],[-41.9663,-22.53541],[-41.99303,-22.69988],[-41.93456,-22.76873],[-41.86978,-22.75213],[-41.98961,-22.82635],[-42.01354,-22.9817],[-42.53173,-22.93418],[-43.0314,-22.9743],[-43.13077,-22.91961],[-43.02514,-22.73553],[-43.07555,-22.6657],[-43.27017,-22.747],[-43.15123,-22.93328],[-43.22012,-22.99529],[-43.98876,-23.09743],[-43.98713,-23.04168],[-43.60375,-23.00774],[-43.85017,-22.89227],[-44.03075,-22.97137],[-44.05622,-22.93955],[-44.1151,-23.02239],[-44.22008,-23.04941],[-44.25048,-22.99619],[-44.35265,-22.99928],[-44.31164,-22.96111],[-44.35782,-22.91961],[-44.70051,-23.10768],[-44.708,-23.21461],[-44.62678,-23.19524],[-44.67321,-23.22959],[-44.68,-23.24863],[-44.62474,-23.23496],[-44.65136,-23.28476],[-44.58336,-23.22918],[-44.51057,-23.27337],[-44.58381,-23.3532],[-44.72757,-23.35206],[-44.86465,-23.2284],[-44.79222,-22.98351],[-44.58564,-22.87721],[-44.2736,-22.82026],[-44.162,-22.68647],[-44.21983,-22.58891],[-44.62794,-22.60493],[-44.83134,-22.40607],[-44.43095,-22.25172],[-44.24032,-22.25818],[-43.78474,-22.05591],[-43.46985,-22.05793],[-43.32771,-22.00181],[-43.13405,-22.0245],[-43.13806,-22.09653],[-42.31183,-21.73542],[-42.26483,-21.6671],[-42.36658,-21.59372],[-42.09709,-21.01091],[-42.13766,-20.95634],[-41.97531,-20.92301],[-41.9203,-20.80452],[-41.74171,-20.82183],[-41.7114,-21.11122],[-41.25487,-21.2339],[-41.06793,-21.2141],[-40.9652,-21.27483]]]]}},{"type":"Feature","properties":{"id":"br-rn","lat":-5.93728,"lng":-36.65107},"geometry":{"type":"MultiPolygon","coordinates":[[[[-37.23111,-4.84206],[-37.13492,-4.93141],[-36.89875,-4.93825],[-36.79088,-5.0512],[-36.54442,-5.12762],[-36.57999,-5.08099],[-36.28136,-5.10459],[-35.99718,-5.04754],[-35.51057,-5.14373],[-35.39005,-5.24456],[-35.26228,-5.48333],[-35.10505,-5.99554],[-35.09284,-6.18581],[-35.15087,-6.216],[-35.04125,-6.23024],[-34.96328,-6.50333],[-35.30603,-6.52844],[-35.65715,-6.42555],[-35.96258,-6.46193],[-36.25202,-6.41366],[-36.29171,-6.30546],[-36.38348,-6.30282],[-36.50784,-6.40591],[-36.44276,-6.6228],[-36.53497,-6.6383],[-36.53691,-6.87875],[-36.72176,-6.97782],[-36.77137,-6.93089],[-36.74263,-6.82449],[-36.80501,-6.76083],[-36.99688,-6.70915],[-37.23103,-6.82263],[-37.29601,-6.71489],[-37.52143,-6.67086],[-37.50701,-6.55371],[-37.43024,-6.51795],[-37.382,-6.36411],[-37.17543,-6.11684],[-37.21723,-6.02604],[-37.7496,-6.16903],[-37.84412,-6.34101],[-38.13025,-6.51976],[-38.28776,-6.50384],[-38.49692,-6.34736],[-38.60671,-6.39672],[-38.45674,-6.08268],[-38.2997,-6.07415],[-38.12793,-5.87902],[-38.04754,-5.61402],[-37.91522,-5.46349],[-37.72126,-5.0629],[-37.54093,-4.93014],[-37.23111,-4.84206]]],[[[-32.43692,-3.84987],[-32.39973,-3.86199],[-32.4628,-3.87835],[-32.43692,-3.84987]]],[[[-29.35619,0.88276],[-29.36937,0.83356],[-29.42121,0.84471],[-29.40803,0.88483],[-29.35619,0.88276]]]]}},{"type":"Feature","properties":{"id":"br-ro","lat":-10.79676,"lng":-63.43758},"geometry":{"type":"Polygon","coordinates":[[[-65.44998,-10.46809],[-65.28482,-10.20682],[-65.33683,-9.96725],[-65.29911,-9.84126],[-65.39799,-9.68675],[-65.45184,-9.68137],[-65.58398,-9.83723],[-65.78856,-9.73305],[-65.80642,-9.78441],[-66.087,-9.78452],[-66.64893,-9.91588],[-66.83052,-9.83795],[-66.49214,-9.62473],[-66.39395,-9.51032],[-66.38822,-9.40077],[-65.95271,-9.40361],[-65.75306,-9.57011],[-65.56261,-9.414],[-65.45096,-9.45462],[-65.21126,-9.25318],[-65.1623,-9.39555],[-65.07793,-9.43172],[-64.90738,-9.2244],[-64.92048,-9.10895],[-64.77852,-8.98669],[-64.59747,-9.02586],[-64.37307,-8.93578],[-64.11967,-8.95656],[-64.13435,-8.69409],[-64.00508,-8.685],[-63.92178,-8.54459],[-63.98883,-8.42884],[-63.9,-8.31804],[-63.74078,-8.27779],[-63.73551,-8.19816],[-63.58402,-8.15852],[-63.53826,-8.00049],[-62.82944,-8.01584],[-62.67578,-8.11413],[-62.54018,-8.36275],[-62.3813,-8.37422],[-62.29963,-8.58118],[-62.1755,-8.60108],[-62.12372,-8.78045],[-61.90505,-8.87315],[-61.8378,-8.74458],[-61.71705,-8.68758],[-61.61869,-8.71146],[-61.50939,-8.8468],[-61.53084,-9.22455],[-61.59293,-9.24202],[-61.6113,-9.32005],[-61.48162,-9.62809],[-61.56401,-9.72685],[-61.51944,-9.87397],[-61.57941,-10.13091],[-61.47105,-10.43476],[-61.52105,-10.9677],[-60.44124,-11.00346],[-60.36998,-11.10935],[-60.28913,-11.07715],[-60.00163,-11.14433],[-59.91119,-11.38406],[-60.10142,-11.59976],[-60.10131,-11.74455],[-60.06948,-11.89354],[-59.98339,-11.91669],[-59.89595,-12.10174],[-59.82337,-12.40829],[-60.04201,-12.87529],[-60.26575,-13.05615],[-60.38375,-13.42027],[-60.72557,-13.66285],[-61.02201,-13.53524],[-61.04722,-13.46455],[-61.1491,-13.51985],[-61.83635,-13.54062],[-62.10941,-13.24896],[-62.11468,-13.1502],[-62.42412,-13.12654],[-62.68663,-12.965],[-62.78983,-13.00065],[-62.98801,-12.84387],[-63.07503,-12.65266],[-63.31791,-12.70196],[-63.48576,-12.55748],[-63.8014,-12.45495],[-63.92124,-12.54435],[-64.28754,-12.49712],[-64.48978,-12.37361],[-64.48939,-12.23946],[-64.66486,-12.18096],[-64.68992,-12.10438],[-64.73953,-12.14458],[-64.7925,-12.03255],[-64.99745,-11.99627],[-65.06556,-11.75308],[-65.11341,-11.69055],[-65.1515,-11.77313],[-65.1962,-11.74181],[-65.16744,-11.61552],[-65.22266,-11.51744],[-65.31955,-11.4764],[-65.32645,-11.32778],[-65.38727,-11.27755],[-65.39474,-11.15343],[-65.29911,-10.98207],[-65.43569,-10.62581],[-65.44998,-10.46809]]]}},{"type":"Feature","properties":{"id":"br-rr","lat":1.90947,"lng":-61.23135},"geometry":{"type":"Polygon","coordinates":[[[-60.21343,5.26722],[-59.9831,5.08594],[-60.03245,4.72542],[-60.15999,4.52779],[-59.80963,4.46575],[-59.68674,4.38118],[-59.73847,4.20277],[-59.52765,3.93953],[-59.68622,3.69021],[-59.86288,3.58172],[-59.82177,3.35659],[-59.96923,3.04271],[-59.99646,2.67477],[-59.90313,2.3596],[-59.7417,2.26379],[-59.76356,1.88257],[-59.64646,1.83997],[-59.68085,1.75739],[-59.53073,1.70307],[-59.25992,1.38744],[-58.97203,1.31231],[-58.87051,0.22536],[-60.04834,0.21198],[-60.22332,-0.05385],[-60.38587,-0.46374],[-60.31396,-0.68828],[-60.47692,-0.74626],[-60.52413,-0.83359],[-60.73673,-0.84951],[-60.93124,-0.5549],[-61.21662,-0.49485],[-61.53223,-0.72853],[-61.60158,-1.41831],[-61.76082,-1.35904],[-61.85335,-1.38725],[-62.0276,-1.14427],[-62.50571,-0.77292],[-62.49569,-0.69494],[-62.38701,-0.72001],[-62.30397,-0.60952],[-62.38244,-0.3099],[-62.58555,-0.01111],[-62.52605,0.09539],[-62.56798,0.24691],[-62.48117,0.51981],[-62.54468,0.71189],[-62.44634,0.8046],[-62.61535,1.40017],[-62.78681,1.60331],[-62.71436,1.72692],[-62.69867,1.93637],[-62.84843,2.0191],[-63.03064,2.03166],[-63.14805,2.17754],[-63.33352,2.18162],[-63.38655,2.23589],[-63.36489,2.41308],[-64.04797,2.47132],[-63.99756,2.71493],[-64.22292,3.124],[-64.24561,3.41894],[-64.20298,3.59472],[-64.6429,3.97296],[-64.81291,4.25279],[-64.69987,4.26416],[-64.58967,4.11887],[-64.17269,4.12339],[-64.03766,3.8825],[-63.87514,3.94981],[-63.67159,3.94625],[-63.51067,3.85455],[-63.4254,3.96836],[-63.35171,3.95873],[-62.99705,3.59913],[-62.88941,3.56082],[-62.74958,3.66037],[-62.76622,4.02071],[-62.56096,4.03779],[-62.53698,4.12541],[-62.4281,4.18318],[-62.15359,4.09029],[-62.03505,4.15988],[-61.88813,4.15016],[-61.75635,4.24636],[-61.55216,4.25496],[-61.50187,4.40185],[-61.29305,4.44805],[-61.31558,4.52079],[-61.16859,4.49024],[-60.97728,4.53497],[-60.89581,4.70852],[-60.71815,4.78428],[-60.59193,4.94972],[-60.6643,5.17025],[-60.73985,5.20214],[-60.44897,5.17423],[-60.21343,5.26722]]]}},{"type":"Feature","properties":{"id":"br-rs","lat":-30.41188,"lng":-53.82188},"geometry":{"type":"Polygon","coordinates":[[[-57.51098,-30.2767],[-57.6117,-30.18296],[-57.32515,-29.98101],[-57.29151,-29.81513],[-57.02093,-29.68335],[-56.68865,-29.32958],[-56.61729,-29.16091],[-56.42797,-29.06985],[-56.28615,-28.78015],[-56.04081,-28.609],[-56.01159,-28.49655],[-55.90203,-28.46514],[-55.9056,-28.37801],[-55.84235,-28.34638],[-55.69424,-28.40013],[-55.6636,-28.32654],[-55.77253,-28.23197],[-55.44075,-28.0789],[-55.31411,-27.91499],[-55.02963,-27.8507],[-55.08116,-27.77825],[-54.91321,-27.73691],[-54.89827,-27.62364],[-54.80505,-27.52638],[-54.69033,-27.55129],[-54.58945,-27.45259],[-54.44838,-27.45889],[-54.44455,-27.40897],[-54.37159,-27.45445],[-54.34771,-27.3943],[-54.28689,-27.4284],[-54.17702,-27.2434],[-54.09176,-27.28515],[-53.88221,-27.11989],[-53.84084,-27.16815],[-53.67736,-27.15395],[-53.65344,-27.21601],[-53.502,-27.19178],[-53.48557,-27.11359],[-53.4458,-27.13824],[-53.36886,-27.07199],[-53.28323,-27.10615],[-53.28961,-27.19762],[-53.14915,-27.13343],[-53.0883,-27.16139],[-53.01751,-27.08315],[-52.9942,-27.22206],[-52.86858,-27.16139],[-52.69918,-27.27389],[-52.45708,-27.21601],[-52.38258,-27.288],[-52.25112,-27.24857],[-52.23177,-27.31906],[-52.17906,-27.26815],[-51.96491,-27.36836],[-52.01204,-27.39414],[-51.87724,-27.52044],[-51.86122,-27.47605],[-51.77929,-27.52385],[-51.67563,-27.47605],[-51.55127,-27.57129],[-51.46618,-27.56162],[-51.38825,-27.65485],[-51.34686,-27.6272],[-51.22687,-27.76781],[-51.08049,-27.82109],[-50.62107,-28.37419],[-50.16177,-28.48405],[-50.13383,-28.4425],[-49.87315,-28.44994],[-49.70719,-28.53133],[-49.70427,-28.60869],[-49.92018,-28.71747],[-50.00255,-29.09848],[-50.06968,-29.09264],[-50.16215,-29.19026],[-50.16786,-29.28374],[-50.04585,-29.35433],[-50.09404,-29.25248],[-49.95454,-29.19383],[-49.71353,-29.32448],[-50.04532,-29.81455],[-50.31566,-30.46152],[-50.59952,-30.88144],[-51.15185,-31.48154],[-51.86351,-31.93174],[-52.07738,-32.16725],[-52.0122,-31.95062],[-52.08727,-31.82781],[-51.83633,-31.85491],[-51.8341,-31.80047],[-51.66617,-31.76971],[-51.49869,-31.57488],[-51.44762,-31.61273],[-51.42251,-31.48512],[-51.3778,-31.52695],[-51.24498,-31.46404],[-51.15856,-31.28639],[-51.16186,-31.07773],[-51.01399,-31.06276],[-50.97594,-31.13096],[-50.9359,-31.08782],[-50.98766,-31.04559],[-50.97842,-30.89332],[-50.76012,-30.81512],[-50.69262,-30.72649],[-50.72566,-30.36305],[-50.64513,-30.39219],[-50.60753,-30.48512],[-50.56501,-30.45013],[-50.53987,-30.26751],[-50.61482,-30.18621],[-50.67585,-30.21771],[-50.67199,-30.28899],[-50.91299,-30.31666],[-50.93639,-30.43157],[-51.03409,-30.37567],[-51.0231,-30.26377],[-51.23302,-30.18987],[-51.23754,-30.03965],[-51.28352,-30.00742],[-51.32697,-30.22454],[-51.23754,-30.31325],[-51.20409,-30.28533],[-51.18773,-30.36012],[-51.09065,-30.35198],[-51.25048,-30.46233],[-51.26968,-30.78183],[-51.31395,-30.77321],[-51.3225,-30.64219],[-51.37711,-30.64227],[-51.36189,-30.87916],[-51.45543,-30.88942],[-51.48571,-30.96705],[-51.44302,-31.08099],[-51.62361,-31.13535],[-51.63752,-31.25652],[-51.96353,-31.33229],[-52.00792,-31.64617],[-52.08332,-31.55869],[-52.06334,-31.66546],[-52.21862,-31.74066],[-52.24844,-31.86199],[-52.13386,-31.93084],[-52.23766,-31.9664],[-52.25862,-32.05364],[-52.21398,-32.08611],[-52.08141,-32.032],[-52.16893,-32.10068],[-52.08727,-32.06732],[-52.09118,-32.16611],[-52.25341,-32.28249],[-52.64489,-33.13698],[-53.37909,-33.74068],[-53.53965,-33.64926],[-53.53686,-33.17084],[-53.11084,-32.72239],[-53.5613,-32.44954],[-53.75731,-32.05504],[-54.27423,-31.82338],[-54.46372,-31.67186],[-54.60454,-31.45978],[-54.8499,-31.42506],[-55.02938,-31.26879],[-55.08725,-31.32677],[-55.24435,-31.2446],[-55.36858,-31.03738],[-55.59187,-30.84835],[-55.8546,-31.07459],[-56.01136,-31.08213],[-56.01136,-30.79822],[-56.83128,-30.10204],[-57.07711,-30.10607],[-57.2126,-30.28735],[-57.51098,-30.2767]]]}},{"type":"Feature","properties":{"id":"br-sc","lat":-27.71133,"lng":-49.94896},"geometry":{"type":"MultiPolygon","coordinates":[[[[-53.77431,-26.71434],[-53.66155,-26.25979],[-53.47761,-26.29209],[-53.35521,-26.2416],[-53.11182,-26.36945],[-52.81584,-26.33658],[-52.18965,-26.45435],[-52.00651,-26.58158],[-51.49938,-26.59905],[-51.41559,-26.70478],[-51.2386,-26.60732],[-51.29141,-26.43503],[-51.21307,-26.31266],[-51.07225,-26.23514],[-50.9066,-26.28057],[-50.73754,-26.23623],[-50.64652,-26.07019],[-50.55768,-26.04342],[-50.58838,-26.00704],[-50.3371,-26.1121],[-50.29375,-26.04001],[-49.94475,-26.01459],[-49.55162,-26.23003],[-49.11529,-25.99237],[-48.58275,-25.9809],[-48.58292,-26.17262],[-48.66788,-26.23602],[-48.7338,-26.22471],[-48.78865,-26.06341],[-48.798,-26.08807],[-48.75609,-26.20355],[-48.79825,-26.30486],[-48.6079,-26.4367],[-48.68334,-26.66237],[-48.67894,-26.73105],[-48.57795,-26.77654],[-48.62877,-26.86484],[-48.57518,-27.01621],[-48.60717,-27.10442],[-48.5795,-27.15846],[-48.47615,-27.15398],[-48.49291,-27.216],[-48.54186,-27.18239],[-48.61998,-27.24668],[-48.55187,-27.3873],[-48.64745,-27.47959],[-48.57909,-27.57635],[-48.64745,-27.64739],[-48.56554,-27.86028],[-48.63589,-28.23016],[-48.77062,-28.49196],[-48.79483,-28.37054],[-48.86461,-28.3209],[-48.85489,-28.47527],[-48.74987,-28.51141],[-48.81534,-28.61045],[-49.34276,-28.92352],[-49.71353,-29.32448],[-49.95454,-29.19383],[-50.09404,-29.25248],[-50.05229,-29.35536],[-50.16269,-29.29625],[-50.1651,-29.19615],[-50.06968,-29.09264],[-50.00255,-29.09848],[-49.92018,-28.71747],[-49.70427,-28.60869],[-49.75709,-28.47041],[-50.13383,-28.4425],[-50.16177,-28.48405],[-50.53916,-28.41578],[-50.79237,-28.13399],[-50.86748,-28.12717],[-50.88616,-28.02521],[-51.08049,-27.82109],[-51.22687,-27.76781],[-51.34686,-27.6272],[-51.38825,-27.65485],[-51.46618,-27.56162],[-51.55127,-27.57129],[-51.67563,-27.47605],[-51.77929,-27.52385],[-51.86122,-27.47605],[-51.87724,-27.52044],[-52.01204,-27.39414],[-51.96491,-27.36836],[-52.17906,-27.26815],[-52.23177,-27.31906],[-52.25112,-27.24857],[-52.38258,-27.288],[-52.45708,-27.21601],[-52.69918,-27.27389],[-52.86858,-27.16139],[-52.9942,-27.22206],[-53.01751,-27.08315],[-53.0883,-27.16139],[-53.14915,-27.13343],[-53.28961,-27.19762],[-53.28323,-27.10615],[-53.36886,-27.07199],[-53.4458,-27.13824],[-53.48557,-27.11359],[-53.51799,-27.19529],[-53.84084,-27.16815],[-53.71251,-26.90451],[-53.77431,-26.71434]]],[[[-48.40876,-27.39959],[-48.40722,-27.5792],[-48.49657,-27.70273],[-48.48607,-27.77435],[-48.56379,-27.81732],[-48.54711,-27.57724],[-48.50426,-27.55641],[-48.53751,-27.47617],[-48.40876,-27.39959]]],[[[-48.48913,-26.23602],[-48.61132,-26.41277],[-48.70328,-26.31194],[-48.5476,-26.16725],[-48.48913,-26.23602]]]]}},{"type":"Feature","properties":{"id":"br-se","lat":-10.58902,"lng":-37.21283},"geometry":{"type":"Polygon","coordinates":[[[-36.40807,-10.50213],[-36.57657,-10.55047],[-36.90307,-10.77288],[-37.13829,-11.12591],[-37.27514,-11.02272],[-37.14916,-11.18743],[-37.26464,-11.27744],[-37.33007,-11.42067],[-37.40246,-11.39967],[-37.27208,-11.24944],[-37.34411,-11.18426],[-37.3192,-11.26995],[-37.41539,-11.40643],[-37.47008,-11.35866],[-37.39558,-11.43743],[-37.43139,-11.49285],[-37.67144,-11.5686],[-37.7959,-11.52374],[-37.84918,-11.44085],[-37.99827,-11.37662],[-37.98664,-11.21931],[-38.2436,-10.87215],[-38.19115,-10.71593],[-37.99625,-10.75991],[-37.78236,-10.62757],[-37.83616,-10.42293],[-37.77526,-10.09943],[-38.02509,-9.74757],[-38.01561,-9.54143],[-37.35836,-9.77279],[-37.21511,-9.8966],[-36.98298,-9.96668],[-36.9312,-10.11871],[-36.72504,-10.25844],[-36.6204,-10.25364],[-36.56624,-10.41053],[-36.45446,-10.41063],[-36.40807,-10.50213]]]}},{"type":"Feature","properties":{"id":"br-sp","lat":-22.55118,"lng":-49.18838},"geometry":{"type":"MultiPolygon","coordinates":[[[[-47.83186,-24.91326],[-47.44831,-24.6867],[-47.90014,-25.0368],[-47.83186,-24.91326]]],[[[-46.39367,-23.92018],[-46.29186,-23.9909],[-46.4204,-23.94744],[-46.39367,-23.92018]]],[[[-45.27111,-23.86891],[-45.24169,-23.96795],[-45.29044,-23.91188],[-45.42186,-23.93523],[-45.45295,-23.89137],[-45.30846,-23.72137],[-45.2281,-23.77239],[-45.27111,-23.86891]]],[[[-44.74779,-23.37086],[-44.9193,-23.34881],[-45.04308,-23.40553],[-45.00837,-23.46087],[-45.07042,-23.5154],[-45.14778,-23.4874],[-45.20067,-23.57203],[-45.41299,-23.61785],[-45.42667,-23.83074],[-45.86437,-23.75644],[-46.14607,-23.84442],[-46.23542,-23.91269],[-46.11193,-23.86492],[-46.16649,-23.98162],[-46.28767,-24.02117],[-46.29947,-23.92506],[-46.38541,-23.87347],[-46.45393,-23.92645],[-46.37605,-24.02451],[-46.93664,-24.27337],[-47.01537,-24.42295],[-47.63386,-24.75563],[-47.82555,-24.89414],[-47.96056,-25.0499],[-48.01,-25.0442],[-47.97273,-25.00937],[-48.05158,-25.0368],[-47.9497,-25.08001],[-47.88707,-25.05731],[-47.95177,-25.20135],[-48.0821,-25.30732],[-48.03249,-25.22942],[-48.17897,-25.20409],[-48.23023,-25.01356],[-48.42053,-24.95967],[-48.50006,-25.0826],[-48.57494,-25.0485],[-48.54641,-24.81838],[-48.4876,-24.74567],[-48.58165,-24.6818],[-49.02801,-24.63446],[-49.05274,-24.68475],[-49.29551,-24.66604],[-49.3184,-24.54248],[-49.22234,-24.34999],[-49.33603,-24.22488],[-49.35313,-24.11346],[-49.5957,-23.88206],[-49.55263,-23.71168],[-49.65368,-23.51221],[-49.63813,-23.25925],[-49.73373,-23.09895],[-49.89424,-23.04929],[-49.97808,-22.90377],[-50.76488,-22.9539],[-50.88014,-22.82207],[-51.34686,-22.6519],[-51.69529,-22.66265],[-52.06666,-22.52173],[-52.21714,-22.64384],[-52.27585,-22.59743],[-52.94723,-22.57077],[-53.16796,-22.70172],[-52.96702,-22.45889],[-52.36933,-22.09891],[-52.3038,-21.92491],[-52.04361,-21.66612],[-52.10387,-21.52344],[-51.98093,-21.47921],[-51.86742,-21.34304],[-51.87114,-21.14398],[-51.63199,-20.87697],[-51.58005,-20.59636],[-51.32642,-20.36243],[-51.08703,-20.26336],[-50.89402,-20.00777],[-50.65564,-19.91537],[-50.5575,-19.80794],[-50.45661,-19.78076],[-50.33842,-19.86928],[-49.27298,-19.96839],[-49.29838,-20.14389],[-49.21645,-20.29406],[-49.14927,-20.29525],[-49.00295,-20.15133],[-48.96943,-20.40051],[-48.90114,-20.4387],[-48.88851,-20.26078],[-48.81859,-20.15133],[-48.2426,-20.13769],[-48.22274,-20.01351],[-48.07156,-20.15091],[-47.98936,-20.02782],[-47.92679,-20.11402],[-47.8817,-20.09981],[-47.85276,-19.98255],[-47.7152,-19.97511],[-47.63582,-20.03852],[-47.4686,-19.95888],[-47.23463,-20.20595],[-47.2921,-20.43751],[-47.14536,-20.53151],[-47.1089,-20.64075],[-47.22396,-20.90761],[-47.1451,-20.98042],[-47.00056,-21.40061],[-46.64712,-21.36991],[-46.50951,-21.45394],[-46.51876,-21.60266],[-46.66854,-21.81252],[-46.61733,-21.99003],[-46.69805,-22.07266],[-46.60069,-22.13255],[-46.70518,-22.3066],[-46.65273,-22.40416],[-46.38572,-22.5316],[-46.39551,-22.62668],[-46.47597,-22.67061],[-46.35662,-22.75706],[-46.35321,-22.85752],[-46.14955,-22.84868],[-46.12237,-22.89292],[-45.91479,-22.81825],[-45.78658,-22.8493],[-45.72609,-22.74471],[-45.80852,-22.70823],[-45.71162,-22.64487],[-45.72609,-22.5887],[-45.6485,-22.58792],[-45.66318,-22.65123],[-45.4474,-22.59573],[-45.39906,-22.65097],[-44.83134,-22.40607],[-44.60544,-22.61288],[-44.21546,-22.59056],[-44.1628,-22.69221],[-44.2736,-22.82026],[-44.58564,-22.87721],[-44.79222,-22.98351],[-44.86555,-23.22287],[-44.74779,-23.37086]]]]}},{"type":"Feature","properties":{"id":"br-to","lat":-9.2115,"lng":-48.41412},"geometry":{"type":"Polygon","coordinates":[[[-45.75769,-10.33079],[-45.84311,-10.45786],[-46.30244,-10.75826],[-46.23188,-10.89846],[-46.37029,-10.96977],[-46.57069,-11.31611],[-46.44173,-11.49511],[-46.08517,-11.601],[-46.1048,-11.66606],[-46.27533,-11.76466],[-46.26074,-11.84124],[-46.15707,-11.83566],[-46.06995,-11.91493],[-46.33546,-12.10965],[-46.31706,-12.42358],[-46.15955,-12.50301],[-46.23353,-12.79664],[-46.30058,-12.83301],[-46.59103,-12.89389],[-46.77825,-13.05481],[-47.09224,-13.09548],[-47.5333,-13.29836],[-47.66225,-13.10401],[-47.72501,-13.16762],[-47.66688,-13.35562],[-48.16858,-13.17997],[-48.1655,-13.06473],[-48.38523,-13.19186],[-48.64444,-13.16276],[-48.74412,-13.38518],[-48.79753,-12.92908],[-49.00806,-12.74005],[-49.00421,-12.65447],[-49.13782,-12.73493],[-49.39755,-13.2502],[-50.25825,-12.9205],[-50.27251,-12.77312],[-50.12639,-12.4565],[-50.15032,-12.39986],[-50.35116,-12.54239],[-50.48402,-12.8448],[-50.59866,-12.80454],[-50.67548,-12.60745],[-50.61223,-12.43113],[-50.68318,-12.04185],[-50.64435,-11.88982],[-50.7124,-11.74548],[-50.65052,-11.59991],[-50.74266,-11.50162],[-50.61176,-11.06119],[-50.59882,-10.65656],[-50.15024,-9.70039],[-50.05366,-9.31912],[-49.75512,-8.92297],[-49.56547,-8.81119],[-49.30461,-8.36786],[-49.16338,-7.80355],[-49.34835,-7.67932],[-49.39018,-7.54714],[-49.18916,-7.24721],[-49.21645,-6.92506],[-49.01054,-6.78072],[-48.68341,-6.66275],[-48.60633,-6.43501],[-48.50075,-6.35114],[-48.37976,-6.35961],[-48.42489,-6.15663],[-48.28415,-6.09761],[-48.3334,-5.97617],[-48.22274,-5.91426],[-48.29723,-5.74947],[-48.14106,-5.62705],[-48.37686,-5.39352],[-48.55561,-5.4129],[-48.72301,-5.35533],[-48.59953,-5.32195],[-48.49809,-5.18651],[-48.33785,-5.16377],[-48.11248,-5.26624],[-47.89978,-5.25306],[-47.83852,-5.38324],[-47.72305,-5.39151],[-47.49715,-5.52659],[-47.37697,-6.27657],[-47.48764,-6.69835],[-47.50273,-6.9834],[-47.6399,-7.15843],[-47.74111,-7.19336],[-47.64468,-7.30849],[-47.58838,-7.26829],[-47.48586,-7.30229],[-47.48901,-7.38141],[-47.59148,-7.4458],[-47.50459,-7.44673],[-47.46666,-7.52977],[-47.40832,-7.53349],[-47.02162,-8.0391],[-46.59997,-7.89859],[-46.49145,-7.96406],[-46.46625,-8.06881],[-46.54307,-8.312],[-46.49015,-8.39081],[-46.71846,-8.40662],[-46.82716,-8.46739],[-46.92189,-8.73683],[-46.9023,-8.8269],[-47.08089,-9.0348],[-46.89028,-9.10389],[-46.80719,-9.36227],[-46.54098,-9.51053],[-46.66942,-9.74648],[-46.49511,-9.86896],[-46.46703,-10.01345],[-46.34755,-10.16956],[-46.08734,-10.20837],[-45.94605,-10.31772],[-45.75769,-10.33079]]]}}]}
