{"type":"FeatureCollection","features":[{"type":"Feature","properties":{"id":"bs-ak","lat":22.43533,"lng":-73.9639},"geometry":{"type":"MultiPolygon","coordinates":[[[[-74.03124,22.62368],[-73.85171,22.7333],[-73.89953,22.69847],[-73.83121,22.54145],[-73.86539,22.48005],[-74.27697,22.17154],[-74.08385,22.39061],[-73.8802,22.50292],[-73.88589,22.57559],[-74.03124,22.62368]]],[[[-73.61818,22.60125],[-73.60762,22.57726],[-73.6255,22.57426],[-73.61818,22.60125]]],[[[-73.47523,22.58617],[-73.55885,22.61172],[-73.46874,22.58766],[-73.47523,22.58617]]]]}},{"type":"Feature","properties":{"id":"bs-bi","lat":25.72978,"lng":-79.27702},"geometry":{"type":"MultiPolygon","coordinates":[[[[-79.51757,23.49404],[-79.5384,23.51024],[-79.51403,23.49567],[-79.51757,23.49404]]],[[[-79.55455,23.53315],[-79.59435,23.57465],[-79.56334,23.5467],[-79.55455,23.53315]]],[[[-79.26651,25.53783],[-79.26431,25.52879],[-79.26871,25.53856],[-79.26651,25.53783]]],[[[-79.27941,25.55166],[-79.28893,25.55915],[-79.28844,25.56297],[-79.27941,25.55166]]],[[[-79.25007,25.77473],[-79.26553,25.76162],[-79.25805,25.69904],[-79.30427,25.70234],[-79.28034,25.75723],[-79.25007,25.77473]]]]}},{"type":"Feature","properties":{"id":"bs-bp","lat":24.24099,"lng":-76.49475},"geometry":{"type":"MultiPolygon","coordinates":[[[[-76.31896,23.98021],[-76.39761,24.09251],[-76.40148,24.11738],[-76.31896,23.98021]]],[[[-76.463,24.21361],[-76.53527,24.26838],[-76.54491,24.29556],[-76.463,24.21361]]],[[[-76.7775,24.54385],[-76.7893,24.5185],[-76.79239,24.54914],[-76.7775,24.54385]]]]}},{"type":"Feature","properties":{"id":"bs-by","lat":25.42363,"lng":-77.85559},"geometry":{"type":"MultiPolygon","coordinates":[[[[-77.85204,25.41275],[-77.90673,25.40908],[-77.83682,25.43452],[-77.85204,25.41275]]],[[[-77.82087,25.71662],[-77.88048,25.76899],[-77.88069,25.78954],[-77.82087,25.71662]]]]}},{"type":"Feature","properties":{"id":"bs-ce","lat":25.21677,"lng":-76.22871},"geometry":{"type":"Polygon","coordinates":[[[-76.314,25.2996],[-76.11828,25.13394],[-76.13976,24.98847],[-76.16495,25.12983],[-76.314,25.2996]]]}},{"type":"Feature","properties":{"id":"bs-ci","lat":24.35889,"lng":-75.47497},"geometry":{"type":"Polygon","coordinates":[[[-75.53222,24.44489],[-75.29044,24.14472],[-75.50992,24.14208],[-75.41006,24.27289],[-75.75658,24.66031],[-75.73217,24.69863],[-75.62633,24.64501],[-75.53222,24.44489]]]}},{"type":"Feature","properties":{"id":"bs-ck","lat":22.77304,"lng":-74.23054},"geometry":{"type":"MultiPolygon","coordinates":[[[[-74.28376,22.67182],[-74.31754,22.60248],[-74.38557,22.54145],[-74.28376,22.67182]]],[[[-74.34821,22.82587],[-74.29845,22.83999],[-74.01623,22.7202],[-74.09069,22.65754],[-74.27831,22.69318],[-74.34821,22.82587]]],[[[-73.75524,23.07298],[-73.81696,23.10383],[-73.66617,23.09699],[-73.75524,23.07298]]]]}},{"type":"Feature","properties":{"id":"bs-co","lat":26.52375,"lng":-77.13062},"geometry":{"type":"MultiPolygon","coordinates":[[[[-77.25377,26.48005],[-77.24665,26.43867],[-77.27823,26.46581],[-77.25377,26.48005]]],[[[-77.23339,26.298],[-77.23013,26.44746],[-77.15355,26.54947],[-77.32974,26.60456],[-77.37536,26.69953],[-77.2506,26.68769],[-77.30525,26.67402],[-77.26989,26.62507],[-77.04231,26.49803],[-77.03157,26.35529],[-77.23339,26.298]]]]}},{"type":"Feature","properties":{"id":"bs-cs","lat":24.43907,"lng":-77.95663},"geometry":{"type":"MultiPolygon","coordinates":[[[[-77.94457,24.15424],[-77.97338,24.19619],[-77.85001,24.25145],[-77.79869,24.25458],[-77.94457,24.15424]]],[[[-77.9322,24.2757],[-77.93586,24.22724],[-78.01692,24.24844],[-77.9322,24.2757]]],[[[-77.88362,24.34113],[-77.84862,24.32758],[-77.8837,24.32734],[-77.88362,24.34113]]],[[[-77.78686,24.3146],[-77.71923,24.37173],[-77.68244,24.35277],[-77.78686,24.3146]]],[[[-77.74181,24.63471],[-77.7279,24.47419],[-78.01781,24.27505],[-78.13415,24.40396],[-78.13443,24.50161],[-78.02986,24.61753],[-77.83405,24.64899],[-77.74181,24.63471]]]]}},{"type":"Feature","properties":{"id":"bs-eg","lat":26.68337,"lng":-78.18166},"geometry":{"type":"MultiPolygon","coordinates":[[[[-77.89314,26.60261],[-77.83463,26.61054],[-77.8684,26.56387],[-77.89314,26.60261]]],[[[-78.4744,26.71277],[-78.11895,26.70433],[-77.9154,26.77643],[-77.90217,26.66242],[-78.41118,26.59425],[-78.4744,26.71277]]]]}},{"type":"Feature","properties":{"id":"bs-ex","lat":23.52462,"lng":-75.8013},"geometry":{"type":"MultiPolygon","coordinates":[[[[-75.65355,23.45946],[-75.53978,23.42768],[-75.52383,23.40485],[-75.65355,23.45946]]],[[[-75.90807,23.64501],[-75.66104,23.45262],[-76.03718,23.59662],[-76.03148,23.66852],[-75.90807,23.64501]]]]}},{"type":"Feature","properties":{"id":"bs-fp","lat":26.52603,"lng":-78.63012},"geometry":{"type":"Polygon","coordinates":[[[-78.59813,26.5314],[-78.64644,26.50485],[-78.65669,26.52066],[-78.63593,26.54622],[-78.59813,26.5314]]]}},{"type":"Feature","properties":{"id":"bs-hi","lat":25.54699,"lng":-76.75932},"geometry":{"type":"Polygon","coordinates":[[[-76.78742,25.5419],[-76.75843,25.54895],[-76.7459,25.54504],[-76.78742,25.5419]]]}},{"type":"Feature","properties":{"id":"bs-in","lat":21.12514,"lng":-73.3615},"geometry":{"type":"MultiPolygon","coordinates":[[[[-73.70321,21.01977],[-73.66783,21.11522],[-73.38988,21.2333],[-73.25515,21.13506],[-73.16096,21.16986],[-73.05305,21.32929],[-73.00463,21.31444],[-73.12982,20.99366],[-73.22556,20.95246],[-73.65161,20.91378],[-73.70321,21.01977]]],[[[-73.03366,21.43589],[-73.07623,21.5068],[-72.99153,21.562],[-72.91044,21.50485],[-73.03366,21.43589]]]]}},{"type":"Feature","properties":{"id":"bs-li","lat":23.25578,"lng":-75.11031},"geometry":{"type":"Polygon","coordinates":[[[-74.90966,23.06733],[-74.83996,22.85993],[-74.97802,23.07294],[-75.10489,23.09955],[-75.22964,23.17145],[-75.20173,23.20624],[-75.06847,23.11664],[-75.13964,23.20283],[-75.13166,23.35578],[-75.31159,23.57681],[-75.31159,23.64501],[-75.35261,23.62397],[-75.33141,23.68598],[-75.1949,23.51411],[-75.09407,23.30532],[-75.05997,23.14167],[-74.90966,23.06733]]]}},{"type":"Feature","properties":{"id":"bs-mc","lat":24.13473,"lng":-77.81252},"geometry":{"type":"Polygon","coordinates":[[[-77.82258,23.98021],[-77.94205,24.09687],[-77.67516,24.30297],[-77.63121,24.24909],[-77.75772,24.17259],[-77.70482,24.09467],[-77.82258,23.98021]]]}},{"type":"Feature","properties":{"id":"bs-mg","lat":22.41144,"lng":-73.06128},"geometry":{"type":"Polygon","coordinates":[[[-73.13915,22.36335],[-73.1317,22.45954],[-72.74617,22.33129],[-72.77945,22.28824],[-72.89757,22.36225],[-73.13915,22.36335]]]}},{"type":"Feature","properties":{"id":"bs-mi","lat":26.30071,"lng":-77.57374},"geometry":{"type":"Polygon","coordinates":[[[-77.57038,26.33271],[-77.57274,26.2687],[-77.57958,26.33759],[-77.57038,26.33271]]]}},{"type":"Feature","properties":{"id":"bs-ne","lat":25.42449,"lng":-76.61677},"geometry":{"type":"Polygon","coordinates":[[[-76.33255,25.28528],[-76.59122,25.42255],[-76.7845,25.42642],[-76.73668,25.56362],[-76.6752,25.55679],[-76.68887,25.48786],[-76.35163,25.33861],[-76.33255,25.28528]]]}},{"type":"Feature","properties":{"id":"bs-no","lat":26.78984,"lng":-77.46563},"geometry":{"type":"Polygon","coordinates":[[[-77.32795,26.70913],[-77.42699,26.69514],[-77.55622,26.87055],[-77.96255,26.89305],[-77.60684,26.9204],[-77.32795,26.70913]]]}},{"type":"Feature","properties":{"id":"bs-ns","lat":24.82947,"lng":-78.03836},"geometry":{"type":"Polygon","coordinates":[[[-78.02986,24.61753],[-78.22643,24.46548],[-78.44298,24.6245],[-78.31143,24.71011],[-78.32632,24.58539],[-78.27164,24.63133],[-78.2377,24.55687],[-78.19652,24.60399],[-78.26403,24.73933],[-78.2648,24.67231],[-78.30407,24.72822],[-78.17394,24.91962],[-78.20275,25.20673],[-77.98766,25.15225],[-77.98058,25.0019],[-77.73721,24.70018],[-77.74181,24.63471],[-78.02986,24.61753]]]}},{"type":"Feature","properties":{"id":"bs-rc","lat":23.67916,"lng":-74.85285},"geometry":{"type":"MultiPolygon","coordinates":[[[[-74.84972,23.72012],[-74.77721,23.69965],[-74.81871,23.65107],[-74.94164,23.65868],[-74.84972,23.72012]]],[[[-75.12365,23.831],[-75.11071,23.81867],[-75.11742,23.81513],[-75.12365,23.831]]]]}},{"type":"Feature","properties":{"id":"bs-ri","lat":22.25397,"lng":-75.75039},"geometry":{"type":"MultiPolygon","coordinates":[[[[-75.73624,22.2248],[-75.74267,22.18325],[-75.73949,22.22285],[-75.73624,22.2248]]],[[[-75.75341,22.23737],[-75.75186,22.26325],[-75.74486,22.2447],[-75.75341,22.23737]]],[[[-75.81363,22.37787],[-75.81314,22.35627],[-75.81957,22.38841],[-75.81363,22.37787]]]]}},{"type":"Feature","properties":{"id":"bs-sa","lat":24.09431,"lng":-77.64194},"geometry":{"type":"Polygon","coordinates":[[[-77.82877,23.96918],[-77.60753,24.21825],[-77.52497,23.97036],[-77.6007,23.9051],[-77.51651,23.91885],[-77.56591,23.74067],[-77.77819,23.74681],[-77.67516,23.76113],[-77.57616,23.83584],[-77.7202,23.78482],[-77.76456,23.82319],[-77.6656,23.86347],[-77.66088,23.88467],[-77.80679,23.86469],[-77.82877,23.96918]]]}},{"type":"Feature","properties":{"id":"bs-se","lat":24.81383,"lng":-76.17884},"geometry":{"type":"Polygon","coordinates":[[[-76.15445,24.98139],[-76.13695,24.90217],[-76.16129,24.64501],[-76.33633,24.81493],[-76.21276,24.81273],[-76.15445,24.98139]]]}},{"type":"Feature","properties":{"id":"bs-so","lat":26.08778,"lng":-77.25387},"geometry":{"type":"Polygon","coordinates":[[[-77.03157,26.35529],[-77.02473,26.30345],[-77.16495,26.24543],[-77.22667,25.88508],[-77.40827,26.02973],[-77.2233,26.14582],[-77.23058,26.2851],[-77.03157,26.35529]]]}},{"type":"Feature","properties":{"id":"bs-ss","lat":24.05252,"lng":-74.49025},"geometry":{"type":"Polygon","coordinates":[[[-74.46866,24.0218],[-74.55809,23.95356],[-74.52969,24.10041],[-74.46483,24.14395],[-74.42711,24.08324],[-74.47549,23.98021],[-74.46866,24.0218]]]}},{"type":"Feature","properties":{"id":"bs-sw","lat":25.51526,"lng":-76.85644},"geometry":{"type":"Polygon","coordinates":[[[-76.85716,25.52388],[-76.80936,25.52936],[-76.87205,25.50664],[-76.85716,25.52388]]]}},{"type":"Feature","properties":{"id":"bs-wg","lat":26.6392,"lng":-78.53921},"geometry":{"type":"Polygon","coordinates":[[[-78.41118,26.59425],[-78.72697,26.49545],[-78.99787,26.70132],[-78.71429,26.57052],[-78.57363,26.68416],[-78.64159,26.71499],[-78.59382,26.81053],[-78.41118,26.59425]]]}},{"type":"Feature","properties":{"id":"bs-x01~","lat":25.03848,"lng":-77.42675},"geometry":{"type":"Polygon","coordinates":[[[-77.47997,24.99136],[-77.56188,25.01887],[-77.45604,25.07697],[-77.26382,25.05809],[-77.47997,24.99136]]]}}]}
