{"type":"FeatureCollection","features":[{"type":"Feature","properties":{"id":"bt-11","lat":27.43724,"lng":89.38016},"geometry":{"type":"Polygon","coordinates":[[[89.12466,27.61485],[89.20584,27.74743],[89.38532,27.7482],[89.37416,27.64669],[89.48211,27.56031],[89.50651,27.18888],[89.32993,27.21066],[89.31303,27.2697],[89.37091,27.31417],[89.12466,27.61485]]]}},{"type":"Feature","properties":{"id":"bt-12","lat":27.08483,"lng":89.49209},"geometry":{"type":"Polygon","coordinates":[[[89.75467,26.70099],[89.60981,26.71222],[89.58609,26.78405],[89.44289,26.79702],[89.27128,26.92164],[89.34047,26.99957],[89.32993,27.21066],[89.50651,27.18888],[89.53152,27.30699],[89.6128,27.24578],[89.5388,27.1701],[89.76318,26.99484],[89.75467,26.70099]]]}},{"type":"Feature","properties":{"id":"bt-13","lat":27.42426,"lng":89.14263},"geometry":{"type":"Polygon","coordinates":[[[88.87612,27.28049],[88.99702,27.33087],[88.97295,27.51766],[89.09153,27.62587],[89.21123,27.56307],[89.37091,27.31417],[89.31086,27.26108],[89.32931,27.11909],[89.23603,27.07377],[88.87612,27.28049]]]}},{"type":"Feature","properties":{"id":"bt-14","lat":27.03667,"lng":89.08715},"geometry":{"type":"Polygon","coordinates":[[[88.73308,27.14897],[88.77585,27.24087],[88.87612,27.28049],[89.14203,27.10023],[89.19056,27.12625],[89.23603,27.07377],[89.32931,27.11909],[89.34047,26.99957],[89.26724,26.93055],[89.36889,26.83736],[89.0965,26.82141],[88.90664,26.98109],[88.85171,26.94544],[88.82763,27.09788],[88.73308,27.14897]]]}},{"type":"Feature","properties":{"id":"bt-15","lat":27.56522,"lng":89.57647},"geometry":{"type":"Polygon","coordinates":[[[89.20584,27.74743],[89.41736,27.98865],[89.5557,27.90437],[89.48418,27.76696],[89.55136,27.77784],[89.60831,27.71529],[89.68903,27.53886],[89.75693,27.57013],[89.81656,27.51318],[89.69068,27.36053],[89.70965,27.26087],[89.6235,27.14111],[89.5388,27.1701],[89.6128,27.24578],[89.46227,27.42665],[89.48211,27.56031],[89.37416,27.64669],[89.38532,27.7482],[89.20584,27.74743]]]}},{"type":"Feature","properties":{"id":"bt-21","lat":27.00976,"lng":90.13044},"geometry":{"type":"Polygon","coordinates":[[[90.07769,27.17674],[90.33157,27.1486],[90.069,26.80909],[90.0026,26.87092],[90.07769,27.17674]]]}},{"type":"Feature","properties":{"id":"bt-22","lat":27.06697,"lng":89.8602},"geometry":{"type":"Polygon","coordinates":[[[89.76752,27.27182],[90.05831,27.10323],[90.0597,26.95836],[89.96612,26.81697],[89.9303,26.85216],[89.76194,26.8001],[89.76318,26.99484],[89.68045,27.0307],[89.6235,27.14111],[89.69833,27.26304],[89.76752,27.27182]]]}},{"type":"Feature","properties":{"id":"bt-23","lat":27.66929,"lng":89.8108},"geometry":{"type":"Polygon","coordinates":[[[90.00244,27.80122],[89.96022,27.69265],[90.0364,27.64594],[89.90793,27.53064],[89.68903,27.53886],[89.63048,27.61974],[89.61498,27.72673],[89.7683,27.75991],[89.83207,27.83923],[90.00244,27.80122]]]}},{"type":"Feature","properties":{"id":"bt-24","lat":27.57208,"lng":90.13836},"geometry":{"type":"Polygon","coordinates":[[[90.23597,27.13504],[90.05691,27.17211],[90.05831,27.10323],[89.93666,27.13956],[89.82695,27.26056],[89.70965,27.26087],[89.69068,27.36053],[89.8145,27.52225],[89.90793,27.53064],[90.03381,27.63976],[89.96224,27.72113],[90.15375,27.96992],[90.34134,27.90427],[90.34816,27.98467],[90.47523,28.07234],[90.42914,28.02521],[90.49234,27.88339],[90.45136,27.70472],[90.31648,27.67575],[90.28935,27.61351],[90.36278,27.51737],[90.23814,27.46827],[90.35545,27.23333],[90.23597,27.13504]]]}},{"type":"Feature","properties":{"id":"bt-31","lat":27.00667,"lng":90.44637},"geometry":{"type":"Polygon","coordinates":[[[90.12719,26.75139],[89.75467,26.70099],[89.73585,26.75578],[89.9303,26.85216],[90.069,26.80909],[90.13463,26.84043],[90.33669,27.20932],[90.65372,27.06044],[90.68039,26.9529],[90.81351,26.81968],[90.94807,26.82741],[90.95784,26.78764],[90.58778,26.78007],[90.34883,26.89665],[90.17742,26.83206],[90.12719,26.75139]]]}},{"type":"Feature","properties":{"id":"bt-32","lat":27.45907,"lng":90.40468},"geometry":{"type":"Polygon","coordinates":[[[90.3848,27.6725],[90.465,27.77624],[90.50567,27.76247],[90.56758,27.44987],[90.72416,27.349],[90.70643,27.25436],[90.60463,27.2057],[90.63956,27.15573],[90.46733,27.13263],[90.33669,27.20932],[90.36025,27.26296],[90.23814,27.46827],[90.36278,27.51737],[90.28966,27.62041],[90.31995,27.67803],[90.3848,27.6725]]]}},{"type":"Feature","properties":{"id":"bt-33","lat":27.70203,"lng":90.72611},"geometry":{"type":"Polygon","coordinates":[[[90.47523,28.07234],[90.75528,28.05517],[90.72881,27.9247],[90.95195,27.66831],[90.98094,27.47008],[90.92575,27.35647],[90.72416,27.349],[90.56758,27.44987],[90.52453,27.73575],[90.45756,27.816],[90.49125,27.893],[90.42914,28.02521],[90.47523,28.07234]]]}},{"type":"Feature","properties":{"id":"bt-34","lat":27.08514,"lng":90.80059},"geometry":{"type":"Polygon","coordinates":[[[91.01278,26.78435],[90.81351,26.81968],[90.68039,26.9529],[90.65372,27.06044],[90.52272,27.10984],[90.63956,27.15573],[90.60463,27.2057],[90.70643,27.25436],[90.74121,27.37709],[90.83325,27.32616],[90.93164,27.36908],[91.02331,27.049],[91.18423,26.94215],[91.0106,26.84146],[91.01278,26.78435]]]}},{"type":"Feature","properties":{"id":"bt-41","lat":27.24176,"lng":91.72404},"geometry":{"type":"Polygon","coordinates":[[[91.72709,27.45994],[91.97509,27.47243],[92.08185,27.27513],[92.00579,27.17611],[91.91153,27.24038],[91.89633,27.15372],[91.50514,27.00993],[91.37952,27.16289],[91.39208,27.24314],[91.47114,27.29523],[91.39264,27.40184],[91.52421,27.36926],[91.72709,27.45994]]]}},{"type":"Feature","properties":{"id":"bt-42","lat":27.26919,"lng":91.19313},"geometry":{"type":"Polygon","coordinates":[[[91.3096,27.58131],[91.47114,27.29523],[91.39208,27.24314],[91.34526,27.08783],[91.15013,26.9375],[90.99055,27.11338],[90.93164,27.36908],[91.2449,27.42869],[91.3096,27.58131]]]}},{"type":"Feature","properties":{"id":"bt-43","lat":27.00069,"lng":91.34717},"geometry":{"type":"Polygon","coordinates":[[[91.37952,27.16289],[91.49677,27.05923],[91.35259,26.83978],[91.32593,26.91632],[91.18423,26.94215],[91.37952,27.16289]]]}},{"type":"Feature","properties":{"id":"bt-44","lat":27.79527,"lng":91.08047},"geometry":{"type":"Polygon","coordinates":[[[90.75528,28.05517],[91.05194,27.96279],[91.29017,28.09141],[91.43648,27.98937],[91.32014,27.91212],[91.3096,27.58131],[91.2449,27.42869],[90.96978,27.38998],[90.949,27.67841],[90.72881,27.9247],[90.75528,28.05517]]]}},{"type":"Feature","properties":{"id":"bt-45","lat":27.04586,"lng":91.81352},"geometry":{"type":"Polygon","coordinates":[[[92.08037,26.92157],[92.03586,26.85485],[91.89313,26.88136],[91.87866,26.80302],[91.82512,26.85846],[91.52065,26.79759],[91.42019,26.87154],[91.29658,26.77459],[91.00052,26.81356],[91.18423,26.94215],[91.32593,26.91632],[91.36536,26.84401],[91.45285,27.00693],[91.76673,27.08478],[91.89866,27.1555],[91.91649,27.24121],[92.00579,27.17611],[91.9877,27.10403],[92.08037,26.92157]]]}},{"type":"Feature","properties":{"id":"bt-ga","lat":28.02274,"lng":89.92305},"geometry":{"type":"Polygon","coordinates":[[[89.41736,27.98865],[89.57942,28.14464],[90.07086,28.34523],[90.22559,28.3584],[90.29147,28.26135],[90.3869,28.29914],[90.5976,28.20038],[90.40828,28.05683],[90.34134,27.90427],[90.15825,27.973],[90.00244,27.80122],[89.88126,27.85199],[89.67006,27.7233],[89.48868,27.76143],[89.5557,27.90437],[89.41736,27.98865]]]}},{"type":"Feature","properties":{"id":"bt-ty","lat":27.70112,"lng":91.45464},"geometry":{"type":"Polygon","coordinates":[[[91.43648,27.98937],[91.65283,27.91675],[91.62834,27.85269],[91.56436,27.85137],[91.63577,27.78252],[91.57325,27.61971],[91.60447,27.53214],[91.72709,27.45994],[91.52421,27.36926],[91.39264,27.40184],[91.2972,27.59718],[91.32014,27.91212],[91.43648,27.98937]]]}}]}
