{"type":"FeatureCollection","features":[{"type":"Feature","properties":{"id":"bw-ce","lat":-21.55756,"lng":26.13616},"geometry":{"type":"Polygon","coordinates":[[[25.96745,-18.99993],[25.94858,-19.10328],[26.15549,-19.53715],[26.30349,-19.57725],[26.31217,-19.65136],[26.7139,-19.92741],[27.21491,-20.11045],[27.284,-20.35147],[27.2294,-20.94451],[27.49115,-21.46802],[28.4646,-21.66033],[28.6157,-21.6471],[28.98085,-21.77484],[29.05526,-21.80999],[29.04053,-22.02093],[29.23933,-22.0726],[29.35007,-22.18671],[29.03872,-22.22391],[28.91253,-22.45367],[28.62386,-22.56281],[28.33856,-22.58461],[28.19619,-22.67164],[28.03744,-22.91142],[27.9375,-22.96382],[27.93006,-23.05704],[27.7742,-23.12515],[27.75363,-23.22075],[27.60801,-23.21672],[27.54889,-23.36079],[27.34999,-23.39149],[27.20566,-23.52306],[27.12742,-23.52502],[27.07006,-23.65607],[27.00417,-23.64584],[26.96454,-23.74714],[26.71747,-23.94789],[26.02041,-23.56626],[25.84073,-23.34912],[25.73164,-23.31031],[23.88136,-20.99996],[23.88353,-20.29669],[23.99541,-20.3001],[24.15711,-20.19882],[24.40206,-20.40284],[25.15596,-20.3384],[25.16775,-20.07319],[24.9921,-19.99552],[24.9907,-18.99993],[25.96745,-18.99993]],[[27.80794,-21.96545],[27.88289,-21.96069],[27.86603,-21.92074],[27.80794,-21.96545]],[[26.2522,-20.59864],[26.12635,-20.54459],[26.12043,-20.56781],[26.2522,-20.59864]]]}},{"type":"Feature","properties":{"id":"bw-fr","lat":-21.18099,"lng":27.50157},"geometry":{"type":"Polygon","coordinates":[[[27.53764,-21.1069],[27.55574,-21.21172],[27.44659,-21.20611],[27.45883,-21.15586],[27.53764,-21.1069]]]}},{"type":"Feature","properties":{"id":"bw-ga","lat":-24.59081,"lng":25.94207},"geometry":{"type":"Polygon","coordinates":[[[25.83493,-24.6227],[25.95121,-24.50744],[26.03335,-24.55891],[25.95742,-24.70729],[25.85748,-24.70844],[25.83493,-24.6227]]]}},{"type":"Feature","properties":{"id":"bw-gh","lat":-22.47628,"lng":22.5193},"geometry":{"type":"Polygon","coordinates":[[[19.97986,-23.30855],[19.97835,-22.00067],[20.97198,-22.00067],[20.98149,-20.99996],[23.88136,-20.99996],[25.43931,-22.95188],[25.24175,-23.31853],[19.97986,-23.30855]]]}},{"type":"Feature","properties":{"id":"bw-jw","lat":-24.58195,"lng":24.72777},"geometry":{"type":"Polygon","coordinates":[[[24.63966,-24.46119],[24.81361,-24.51186],[24.82058,-24.65204],[24.63765,-24.66033],[24.63966,-24.46119]]]}},{"type":"Feature","properties":{"id":"bw-kg","lat":-25.15769,"lng":22.34231},"geometry":{"type":"Polygon","coordinates":[[[20.65655,-25.4678],[20.36489,-25.0332],[19.98145,-24.75249],[19.97986,-23.30855],[23.05754,-23.31134],[23.04297,-23.39738],[22.95543,-23.4627],[22.95904,-23.56611],[23.03227,-23.56962],[23.0501,-23.64269],[23.05645,-24.84582],[24.075,-24.85104],[24.22987,-25.00395],[24.25033,-25.50144],[24.4867,-25.67259],[24.50085,-25.75785],[24.33891,-25.75181],[24.18346,-25.62593],[23.92477,-25.62924],[23.45927,-25.28218],[23.03067,-25.29944],[22.84463,-25.48113],[22.71048,-25.99686],[22.54511,-26.20739],[22.45086,-26.21008],[22.24828,-26.34692],[22.0577,-26.6176],[21.78061,-26.67816],[21.76232,-26.80446],[21.66455,-26.86306],[21.42663,-26.82265],[21.12246,-26.86534],[20.9077,-26.80002],[20.69076,-26.89179],[20.61469,-26.7532],[20.60528,-26.49327],[20.84145,-26.13132],[20.79411,-25.89392],[20.63794,-25.62035],[20.65655,-25.4678]]]}},{"type":"Feature","properties":{"id":"bw-kl","lat":-24.10675,"lng":26.41168},"geometry":{"type":"Polygon","coordinates":[[[26.96454,-23.74714],[26.83917,-24.2656],[26.53118,-24.45866],[26.40436,-24.63281],[26.16591,-24.66085],[25.89442,-24.47866],[26.02041,-23.56626],[26.71747,-23.94789],[26.96454,-23.74714]]]}},{"type":"Feature","properties":{"id":"bw-kw","lat":-23.8209,"lng":24.5163},"geometry":{"type":"Polygon","coordinates":[[[25.24175,-23.31853],[25.43931,-22.95188],[26.02041,-23.56626],[25.8862,-24.43065],[25.95121,-24.50744],[25.68725,-24.76908],[23.05335,-23.9991],[23.0501,-23.64269],[23.03227,-23.56962],[22.95667,-23.55861],[22.95904,-23.42493],[23.04297,-23.39738],[23.05754,-23.31134],[25.24175,-23.31853]]]}},{"type":"Feature","properties":{"id":"bw-lo","lat":-25.19802,"lng":25.68382},"geometry":{"type":"Polygon","coordinates":[[[25.68093,-25.17181],[25.70525,-25.22423],[25.65934,-25.23862],[25.66791,-25.22526],[25.68093,-25.17181]]]}},{"type":"Feature","properties":{"id":"bw-ne","lat":-20.95834,"lng":27.46667},"geometry":{"type":"Polygon","coordinates":[[[27.26839,-20.49575],[27.69813,-20.50908],[27.66661,-21.07122],[27.88499,-21.31017],[27.99041,-21.55191],[27.56897,-21.5034],[27.44163,-21.41143],[27.21525,-20.84547],[27.26839,-20.49575]],[[27.44251,-21.19871],[27.55931,-21.2056],[27.53764,-21.1069],[27.44251,-21.19871]]]}},{"type":"Feature","properties":{"id":"bw-nw","lat":-19.49772,"lng":22.98465},"geometry":{"type":"Polygon","coordinates":[[[25.25978,-17.79411],[25.21937,-17.87979],[25.25503,-18.00112],[25.38753,-18.139],[25.5085,-18.39913],[25.76192,-18.63033],[25.81525,-18.81399],[25.96745,-18.99993],[24.9907,-18.99993],[24.9921,-19.99552],[25.16775,-20.07319],[25.15596,-20.3384],[24.40206,-20.40284],[24.15711,-20.19882],[23.99541,-20.3001],[23.88353,-20.29669],[23.88136,-20.99996],[20.98149,-20.99996],[20.97508,-18.31935],[21.47572,-18.2995],[23.29277,-17.99895],[23.39581,-18.19139],[23.50154,-18.23749],[23.60986,-18.47768],[23.91599,-18.20121],[24.35059,-17.95606],[24.56442,-18.0528],[24.73072,-17.89188],[24.95334,-17.78842],[25.057,-17.8277],[25.25978,-17.79411]]]}},{"type":"Feature","properties":{"id":"bw-se","lat":-25.01284,"lng":25.7284},"geometry":{"type":"Polygon","coordinates":[[[26.16591,-24.66085],[25.86837,-24.74815],[25.87675,-24.88603],[25.65284,-25.46332],[25.54824,-25.42398],[25.65965,-25.02467],[25.59883,-25.00101],[25.68725,-24.76908],[25.83493,-24.6227],[25.85748,-24.70844],[25.95742,-24.70729],[26.03335,-24.55891],[26.16591,-24.66085]],[[25.70525,-25.22423],[25.68093,-25.17181],[25.65934,-25.23862],[25.70525,-25.22423]]]}},{"type":"Feature","properties":{"id":"bw-so","lat":-24.9275,"lng":24.90171},"geometry":{"type":"Polygon","coordinates":[[[25.65284,-25.46332],[25.58725,-25.61952],[25.38649,-25.74354],[25.01328,-25.74303],[24.79862,-25.82922],[24.50085,-25.75785],[24.4867,-25.67259],[24.25033,-25.50144],[24.22987,-25.00395],[24.075,-24.85104],[23.05645,-24.84582],[23.05335,-23.9991],[24.63966,-24.46119],[24.63765,-24.66033],[24.82058,-24.65204],[24.81361,-24.51186],[25.68725,-24.76908],[25.54235,-25.40196],[25.65284,-25.46332]]]}},{"type":"Feature","properties":{"id":"bw-sp","lat":-21.9431,"lng":27.85291},"geometry":{"type":"Polygon","coordinates":[[[27.86603,-21.92074],[27.87391,-21.98359],[27.81051,-21.99697],[27.80794,-21.96545],[27.86603,-21.92074]]]}},{"type":"Feature","properties":{"id":"bw-st","lat":-20.56971,"lng":26.19785},"geometry":{"type":"Polygon","coordinates":[[[26.12635,-20.54459],[26.256,-20.55937],[26.2522,-20.59864],[26.14662,-20.58006],[26.12635,-20.54459]]]}}]}
