{"type":"FeatureCollection","features":[{"type":"Feature","properties":{"id":"by-br","lat":52.4423,"lng":25.2306},"geometry":{"type":"Polygon","coordinates":[[[26.05059,51.90482],[25.13803,51.94895],[24.39079,51.88001],[24.24413,51.71821],[23.98131,51.586],[23.61668,51.62478],[23.61544,51.51311],[23.53244,51.65897],[23.67641,51.99409],[23.63745,52.08447],[23.48769,52.18162],[23.18973,52.24053],[23.16565,52.28939],[23.3923,52.50964],[23.86896,52.67004],[23.92043,52.77262],[24.1537,52.79926],[24.54086,52.74316],[24.56861,52.86287],[24.65336,52.91134],[24.6068,52.93444],[24.68592,52.95976],[24.92895,52.96049],[24.96197,52.90023],[25.06424,52.91114],[25.06284,52.83512],[25.32324,52.84075],[25.29962,52.92561],[25.53439,53.03289],[25.60038,53.13118],[25.54312,53.17365],[25.601,53.21164],[25.5749,53.26068],[25.71288,53.39287],[26.37651,53.36455],[26.39656,53.25778],[26.26623,53.18507],[26.5151,53.0642],[26.37248,52.99144],[26.44219,52.88928],[26.41098,52.8546],[26.58647,52.88494],[27.1684,52.66611],[27.1853,52.61224],[27.05182,52.60436],[27.04081,52.53822],[27.14819,52.46837],[27.1282,52.41623],[27.53675,52.22699],[27.52776,52.06597],[27.5999,52.01445],[27.50295,51.84759],[27.55907,51.79084],[27.51243,51.6231],[27.38838,51.59073],[27.25403,51.59538],[27.27749,51.65114],[27.18902,51.66377],[27.15109,51.75676],[26.92082,51.74253],[26.05059,51.90482]]]}},{"type":"Feature","properties":{"id":"by-hm","lat":53.9368,"lng":27.60595},"geometry":{"type":"Polygon","coordinates":[[[27.80828,54.02184],[27.80328,53.80925],[27.55568,53.78424],[27.3706,53.86427],[27.44063,54.00933],[27.80828,54.02184]]]}},{"type":"Feature","properties":{"id":"by-ho","lat":52.28142,"lng":29.52903},"geometry":{"type":"Polygon","coordinates":[[[31.76662,52.13007],[31.38308,52.11749],[31.22898,52.03822],[30.91881,52.05918],[30.94124,51.9938],[30.74167,51.89792],[30.51512,51.60367],[30.64555,51.36746],[30.53961,51.23517],[30.35513,51.30527],[30.32019,51.40208],[30.14863,51.48443],[29.82865,51.42996],[29.63776,51.49089],[29.46629,51.38506],[29.31995,51.36557],[29.16042,51.60331],[29.08368,51.63122],[28.79988,51.53262],[28.72877,51.40126],[28.6373,51.44963],[28.60392,51.55355],[28.33386,51.52838],[28.2304,51.65114],[28.07082,51.55763],[27.83125,51.61292],[27.78733,51.51091],[27.70004,51.46753],[27.69265,51.58923],[27.51243,51.6231],[27.55907,51.79084],[27.50295,51.84759],[27.5999,52.01445],[27.52776,52.06597],[27.54062,52.22141],[27.27139,52.36073],[27.33831,52.47638],[27.52791,52.53933],[27.70588,52.43778],[27.94127,52.4444],[27.98768,52.51897],[28.1224,52.46755],[28.34073,52.48062],[28.4076,52.51752],[28.4062,52.63237],[28.46532,52.67901],[28.82297,52.71717],[28.79647,52.76293],[28.96033,52.79848],[28.97397,52.87269],[29.08942,52.8777],[29.18192,52.94948],[29.35348,52.91088],[29.71801,52.94767],[29.62877,53.09826],[29.75759,53.13154],[29.73987,53.2074],[29.79325,53.21324],[29.75372,53.31625],[29.80162,53.35339],[29.99593,53.34067],[30.19023,53.23474],[30.3789,53.26197],[30.41161,53.31091],[30.90677,53.30899],[30.99757,53.30101],[31.10604,53.19727],[31.09488,53.13203],[31.36157,53.12004],[31.24706,53.01439],[31.56952,52.7675],[31.48064,52.68252],[31.62864,52.54806],[31.55056,52.51189],[31.60807,52.37246],[31.56735,52.31138],[31.69944,52.25146],[31.68239,52.20193],[31.76662,52.13007]]]}},{"type":"Feature","properties":{"id":"by-hr","lat":53.86109,"lng":24.87977},"geometry":{"type":"Polygon","coordinates":[[[25.7827,54.86968],[26.17032,54.99326],[26.34814,54.94331],[26.34411,54.85515],[26.53914,54.74994],[26.59004,54.63886],[26.67696,54.63005],[26.64373,54.53352],[26.58492,54.54401],[26.60978,54.45805],[26.46886,54.27875],[26.10795,54.19871],[26.07596,54.14037],[26.17854,54.12941],[26.19543,54.03655],[26.33357,54.05722],[26.43284,53.99856],[26.21435,53.83534],[26.30995,53.79811],[26.2623,53.72509],[26.47444,53.62024],[26.56771,53.40475],[26.27305,53.35065],[25.70482,53.38945],[25.5749,53.26068],[25.601,53.21164],[25.54312,53.17365],[25.59087,53.11283],[25.40515,52.94201],[25.29962,52.92561],[25.31714,52.8392],[25.06284,52.83512],[25.06424,52.91114],[24.96197,52.90023],[24.92895,52.96049],[24.68592,52.95976],[24.6068,52.93444],[24.65336,52.91134],[24.56861,52.86287],[24.54086,52.74316],[24.1537,52.79926],[23.92043,52.77262],[23.91134,53.00506],[23.85935,53.06798],[23.89366,53.15195],[23.59094,53.61125],[23.48562,53.93929],[23.62712,53.89821],[24.16962,53.95893],[24.37787,53.88684],[24.66684,53.99386],[24.80637,53.97531],[24.82156,54.13453],[25.07199,54.1322],[25.20624,54.25679],[25.36975,54.2479],[25.45935,54.29891],[25.55398,54.23127],[25.50168,54.22176],[25.51604,54.14476],[25.74001,54.14626],[25.78662,54.24232],[25.69598,54.32097],[25.564,54.30315],[25.53,54.34614],[25.63087,54.50835],[25.74042,54.56851],[25.7212,54.76674],[25.7827,54.86968]]]}},{"type":"Feature","properties":{"id":"by-ma","lat":53.55429,"lng":30.71337},"geometry":{"type":"Polygon","coordinates":[[[31.17902,54.45335],[31.32468,54.22925],[31.82264,54.05345],[31.83793,53.96213],[31.74466,53.79486],[32.10603,53.80695],[32.46156,53.7068],[32.48781,53.66965],[32.39909,53.63538],[32.41149,53.58236],[32.70124,53.46211],[32.71746,53.33494],[32.45484,53.30044],[32.42363,53.2044],[32.11729,53.0811],[31.79628,53.11239],[31.75628,53.18657],[31.59361,53.21068],[31.41636,53.19998],[31.36157,53.12004],[31.2097,53.10557],[31.09126,53.13443],[31.10604,53.19727],[30.99075,53.30352],[30.66767,53.2761],[30.48101,53.31737],[30.19023,53.23474],[29.99593,53.34067],[29.80162,53.35339],[29.75372,53.31625],[29.79325,53.21324],[29.73987,53.2074],[29.75759,53.13154],[29.62877,53.09826],[29.71801,52.94767],[29.35348,52.91088],[29.18192,52.94948],[29.08942,52.8777],[28.97397,52.87269],[28.96033,52.79848],[28.79647,52.76293],[28.82297,52.71717],[28.66996,52.68784],[28.4692,52.68012],[28.292,52.76567],[28.48858,52.9269],[28.45349,52.96276],[28.53824,53.01568],[28.52335,53.14885],[28.22901,53.19283],[28.08917,53.28621],[28.44946,53.29468],[28.36181,53.35571],[28.40233,53.46811],[28.57534,53.5319],[28.61735,53.61383],[28.86814,53.58996],[28.94912,53.51927],[28.94664,53.57668],[29.05898,53.58872],[29.10353,53.66592],[29.43048,53.72974],[29.39974,53.75129],[29.48185,53.7962],[29.3602,53.82199],[29.4016,53.84462],[29.35741,53.84855],[29.33845,53.99683],[29.42134,54.05949],[29.46273,54.18605],[29.41452,54.23126],[29.48402,54.27834],[29.83423,54.34307],[30.02476,54.27193],[30.09215,54.37441],[30.16475,54.33611],[30.30661,54.37849],[30.25803,54.31444],[30.41068,54.34547],[30.51776,54.28863],[30.68782,54.41916],[31.04785,54.40311],[31.17902,54.45335]]]}},{"type":"Feature","properties":{"id":"by-mi","lat":53.69551,"lng":27.78862},"geometry":{"type":"Polygon","coordinates":[[[26.98355,54.94833],[27.25868,54.99406],[27.31935,54.87396],[27.6755,54.74656],[27.70697,54.6709],[27.81311,54.62886],[28.22725,54.64961],[28.41179,54.54941],[28.48129,54.64483],[28.56552,54.6609],[28.65027,54.65333],[28.66469,54.58246],[28.84111,54.55507],[28.87899,54.62323],[29.13598,54.6502],[29.23246,54.5823],[29.48526,54.60597],[29.35534,54.24426],[29.46273,54.18605],[29.33798,53.98994],[29.35741,53.84855],[29.40113,53.84834],[29.3602,53.82199],[29.48185,53.7962],[29.39974,53.75129],[29.43048,53.72974],[29.10353,53.66592],[29.05898,53.58872],[28.94664,53.57668],[28.94912,53.51927],[28.86814,53.58996],[28.61735,53.61383],[28.57534,53.5319],[28.40233,53.46811],[28.36181,53.35571],[28.44946,53.29468],[28.08917,53.28621],[28.22901,53.19283],[28.52335,53.14885],[28.53824,53.01568],[28.45349,52.96276],[28.48858,52.9269],[28.292,52.76567],[28.4692,52.68012],[28.4062,52.63237],[28.4076,52.51752],[28.34073,52.48062],[28.1224,52.46755],[27.98768,52.51897],[27.94127,52.4444],[27.70588,52.43778],[27.52791,52.53933],[27.33831,52.47638],[27.27139,52.36073],[27.1282,52.41623],[27.14819,52.46837],[27.04081,52.53822],[27.05182,52.60436],[27.1853,52.61224],[27.1684,52.66611],[26.58647,52.88494],[26.44839,52.82564],[26.40741,52.86008],[26.44219,52.88928],[26.37248,52.99144],[26.5151,53.0642],[26.26665,53.18921],[26.39656,53.25778],[26.37651,53.36455],[26.56771,53.40475],[26.47444,53.62024],[26.2623,53.72509],[26.30995,53.79811],[26.21435,53.83534],[26.43284,53.99856],[26.33357,54.05722],[26.19543,54.03655],[26.17854,54.12941],[26.07596,54.14037],[26.10795,54.19871],[26.46886,54.27875],[26.60978,54.45805],[26.58492,54.54401],[26.68254,54.58364],[26.31615,54.92755],[26.38323,54.98254],[26.98355,54.94833]],[[27.55568,53.78424],[27.83079,53.83426],[27.77577,53.90679],[27.83579,54.01684],[27.50315,54.01684],[27.38561,53.96431],[27.38311,53.83676],[27.55568,53.78424]]]}},{"type":"Feature","properties":{"id":"by-vi","lat":55.18896,"lng":28.7828},"geometry":{"type":"Polygon","coordinates":[[[26.80072,55.27332],[26.4455,55.3375],[26.61561,55.68797],[26.82284,55.70611],[26.98107,55.82688],[27.59271,55.79424],[27.64501,55.92284],[27.92706,56.10937],[28.11098,56.15681],[28.31091,56.04268],[28.61146,56.08846],[28.73192,55.94679],[29.03076,56.02418],[29.3956,55.94772],[29.44443,55.90693],[29.34361,55.78698],[29.48087,55.6811],[29.90782,55.84321],[30.21777,55.85515],[30.46882,55.79352],[30.74218,55.59439],[30.91282,55.5716],[30.8813,55.45145],[30.9183,55.38778],[30.79427,55.28551],[30.95979,55.16258],[31.00563,55.023],[30.91323,55.0246],[30.93607,54.97324],[30.81484,54.92802],[30.76265,54.80198],[31.16795,54.62158],[31.06465,54.49228],[31.17902,54.45335],[31.04785,54.40311],[30.68782,54.41916],[30.52489,54.28945],[30.41068,54.34547],[30.25803,54.31444],[30.30661,54.37849],[30.16475,54.33611],[30.09866,54.37616],[30.02476,54.27193],[29.82772,54.34291],[29.56934,54.3173],[29.3771,54.22542],[29.40971,54.31072],[29.36671,54.34697],[29.47301,54.61568],[29.2984,54.57414],[29.13598,54.6502],[28.87899,54.62323],[28.84111,54.55507],[28.66469,54.58246],[28.65027,54.65333],[28.56552,54.6609],[28.3936,54.55],[28.22725,54.64961],[27.75632,54.63873],[27.6755,54.74656],[27.31935,54.87396],[27.24969,54.9968],[26.73003,54.94388],[26.38323,54.98254],[26.2777,54.929],[26.17032,54.99326],[26.26442,55.1401],[26.60094,55.12082],[26.65696,55.21534],[26.80072,55.27332]]]}}]}
