{"type":"FeatureCollection","features":[{"type":"Feature","properties":{"id":"bz-bz","lat":17.54615,"lng":-88.42543},"geometry":{"type":"MultiPolygon","coordinates":[[[[-87.8142,17.38129],[-87.82461,17.2923],[-87.82579,17.39916],[-87.8142,17.38129]]],[[[-87.82775,17.54556],[-87.78718,17.49689],[-87.83129,17.42373],[-87.90005,17.39179],[-87.9265,17.27863],[-87.90954,17.42626],[-87.81163,17.47232],[-87.82775,17.54556]]],[[[-88.07702,17.50373],[-88.08397,17.46182],[-88.11718,17.51879],[-88.07702,17.50373]]],[[[-88.16686,17.95995],[-88.28332,17.58027],[-88.16731,17.51203],[-88.24234,17.48749],[-88.28938,17.13577],[-88.60244,17.10449],[-88.54829,17.18322],[-88.6406,17.61683],[-88.56392,17.69298],[-88.55914,17.88868],[-88.16686,17.95995]]],[[[-88.05061,17.55297],[-88.06444,17.58637],[-88.07726,17.64179],[-88.05362,17.60627],[-88.05061,17.55297]]],[[[-88.07112,17.73428],[-88.10367,17.68183],[-88.16731,17.66909],[-88.16047,17.68277],[-88.07112,17.73428]]],[[[-87.85729,18.16966],[-87.96581,17.91376],[-88.00902,17.90249],[-87.85729,18.16966]]],[[[-87.96329,18.09321],[-87.98144,18.07127],[-87.98436,18.07758],[-87.96329,18.09321]]],[[[-87.93639,18.10391],[-87.9569,18.09736],[-87.93952,18.11864],[-87.93639,18.10391]]],[[[-87.87475,18.20649],[-87.89354,18.18036],[-87.88443,18.20917],[-87.87475,18.20649]]]]}},{"type":"Feature","properties":{"id":"bz-cy","lat":16.9937,"lng":-88.8883},"geometry":{"type":"Polygon","coordinates":[[[-89.19314,16.39263],[-89.15073,17.32103],[-88.58498,17.48994],[-88.54847,17.17402],[-88.67337,16.81339],[-88.83951,16.59366],[-89.19314,16.39263]]]}},{"type":"Feature","properties":{"id":"bz-czl","lat":18.18271,"lng":-88.31423},"geometry":{"type":"Polygon","coordinates":[[[-88.52782,18.45415],[-88.28661,18.46279],[-88.39098,18.37059],[-88.31749,18.37482],[-88.35798,18.3037],[-88.09154,18.37173],[-88.14647,18.30927],[-88.09166,18.32835],[-88.09154,18.11839],[-88.16686,17.95995],[-88.28435,17.97229],[-88.61406,18.24703],[-88.52782,18.45415]]]}},{"type":"Feature","properties":{"id":"bz-ow","lat":17.79083,"lng":-88.84956},"geometry":{"type":"Polygon","coordinates":[[[-89.15073,17.32103],[-89.13256,17.97027],[-89.04944,17.99921],[-88.87137,17.89095],[-88.61406,18.24703],[-88.49444,18.18605],[-88.28435,17.97229],[-88.55914,17.88868],[-88.56392,17.69298],[-88.6406,17.61683],[-88.6289,17.45397],[-89.15073,17.32103]]]}},{"type":"Feature","properties":{"id":"bz-sc","lat":16.85224,"lng":-88.47577},"geometry":{"type":"Polygon","coordinates":[[[-88.28938,17.13577],[-88.21508,16.96711],[-88.28332,16.89134],[-88.24861,16.81314],[-88.30163,16.77172],[-88.30622,16.6529],[-88.34484,16.52456],[-88.31127,16.6623],[-88.39006,16.49766],[-88.5588,16.51904],[-88.59306,16.66296],[-88.77419,16.68102],[-88.77186,16.71766],[-88.56738,17.03658],[-88.60244,17.10449],[-88.28938,17.13577]]]}},{"type":"Feature","properties":{"id":"bz-tol","lat":16.27896,"lng":-88.91705},"geometry":{"type":"Polygon","coordinates":[[[-89.22824,15.88084],[-89.15132,16.45391],[-88.9565,16.51328],[-88.74525,16.69007],[-88.59306,16.66296],[-88.5588,16.51904],[-88.39006,16.49766],[-88.53661,16.27131],[-88.64664,16.28661],[-88.74006,16.23017],[-88.7552,16.13972],[-88.92764,15.98387],[-88.91397,15.89395],[-89.22824,15.88084]]]}}]}
