{"type":"FeatureCollection","features":[{"type":"Feature","properties":{"id":"cd-bc","lat":-5.43153,"lng":14.38215},"geometry":{"type":"MultiPolygon","coordinates":[[[[12.82816,-5.87179],[12.99459,-5.86824],[12.74513,-5.9402],[12.82816,-5.87179]]],[[[14.83117,-4.81505],[15.15068,-4.42515],[15.35853,-4.66003],[15.44477,-4.53404],[15.68285,-4.56179],[15.66812,-4.6223],[15.7522,-4.71242],[15.71773,-4.85391],[15.62342,-4.91613],[15.73313,-5.0122],[15.85865,-5.02393],[15.89529,-4.9166],[16.0343,-4.98729],[16.27868,-4.99995],[16.22235,-5.70038],[16.10086,-5.85811],[14.57661,-5.90465],[13.94357,-5.84161],[13.34252,-5.8906],[12.89617,-5.81455],[12.76648,-5.86531],[12.72261,-5.97926],[12.4495,-6.05193],[12.45719,-5.98177],[12.39656,-6.00596],[12.21054,-5.76344],[12.50898,-5.72626],[12.53069,-5.16268],[12.44439,-5.05509],[12.6789,-4.9243],[12.80292,-4.73981],[13.06533,-4.66395],[13.08797,-4.57951],[13.35875,-4.7948],[13.39265,-4.88533],[13.48226,-4.77485],[13.5914,-4.7794],[13.71247,-4.68566],[13.71496,-4.45301],[13.81045,-4.42665],[13.9445,-4.49807],[14.02109,-4.41539],[14.38706,-4.2771],[14.46974,-4.42934],[14.35078,-4.55905],[14.41093,-4.70106],[14.4007,-4.88626],[14.51987,-4.84131],[14.63449,-4.90363],[14.83117,-4.81505]]]]}},{"type":"Feature","properties":{"id":"cd-bn","lat":-4.44438,"lng":18.30512},"geometry":{"type":"Polygon","coordinates":[[[16.18398,-2.94045],[16.2256,-2.63524],[16.18736,-2.20457],[16.52497,-1.85854],[16.62739,-1.99559],[16.89936,-1.99605],[16.82055,-1.79343],[17.07677,-1.80759],[17.52103,-1.52626],[17.93082,-1.37387],[18.15024,-1.13352],[18.34961,-1.15631],[18.52185,-1.26566],[18.80891,-1.22845],[18.87614,-1.13089],[18.79713,-0.92987],[18.9905,-0.74311],[19.0859,-0.99813],[19.47352,-1.59515],[19.51806,-1.78315],[19.60452,-1.79488],[19.72834,-1.66693],[19.81629,-1.72387],[19.91995,-1.93389],[20.18609,-1.94846],[20.4255,-2.0837],[20.6735,-2.01559],[20.98692,-2.37138],[20.95219,-2.68686],[20.84139,-2.82753],[20.65515,-3.32688],[20.67086,-4.13075],[20.39393,-4.27824],[20.34236,-4.38934],[20.26619,-4.39064],[20.13379,-4.28026],[20.03648,-4.28945],[20.1186,-4.49812],[20.05545,-4.76576],[20.19105,-5.15462],[20.14836,-5.36303],[20.17787,-5.68053],[20.00021,-5.96186],[19.84146,-6.03209],[19.68984,-6.19001],[19.72942,-6.54947],[19.93318,-6.8462],[19.96308,-7.00195],[19.52184,-7.00195],[19.47636,-7.31593],[19.51316,-7.47944],[19.44391,-7.57525],[19.35564,-7.57411],[19.35554,-8.00199],[18.77377,-8.00199],[18.73852,-7.93233],[18.51652,-7.93223],[18.50764,-7.99755],[18.12037,-8.02246],[18.09815,-8.10927],[17.86798,-8.04447],[17.54428,-8.08478],[17.14854,-7.47262],[17.17655,-7.42818],[16.9961,-7.29795],[16.92696,-6.88857],[16.76035,-6.69199],[16.69297,-6.39837],[16.72676,-6.18918],[16.61111,-6.08976],[16.59736,-5.9247],[16.10086,-5.85811],[16.22674,-5.67826],[16.26054,-4.79449],[16.4306,-4.52102],[16.49003,-4.50577],[16.54807,-4.34929],[16.38962,-4.0997],[16.20033,-3.99355],[15.88802,-3.94052],[16.22075,-3.33173],[16.18398,-2.94045]]]}},{"type":"Feature","properties":{"id":"cd-eq","lat":1.18193,"lng":20.32318},"geometry":{"type":"Polygon","coordinates":[[[17.30802,-1.01498],[17.74954,-0.52343],[17.71636,-0.1958],[17.9455,0.37729],[17.86664,1.01663],[18.07138,1.55146],[18.07242,2.16002],[18.39322,2.71369],[18.52841,3.06478],[18.63114,3.17898],[18.593,3.70978],[18.64654,4.04598],[18.54195,4.32785],[18.7533,4.40061],[19.11618,4.94045],[19.40898,5.13039],[19.72875,5.13385],[20.33894,4.77191],[20.45646,4.6215],[20.45232,4.52892],[20.58027,4.415],[20.87152,4.45337],[21.07606,4.39547],[21.21093,4.29157],[21.28834,4.33338],[21.53815,4.24465],[21.65111,4.29566],[22.00148,4.24465],[22.20725,4.15032],[22.54672,4.10916],[22.75497,3.98268],[22.83967,3.86591],[23.14911,3.90229],[23.35085,3.81354],[23.51002,3.82145],[23.36961,3.61725],[23.17128,3.67497],[23.03785,3.5496],[22.67865,3.45284],[22.62759,3.36502],[22.78644,3.26766],[22.81161,2.9992],[22.99734,3.15864],[23.07139,3.1549],[22.96431,2.66953],[23.03893,2.55811],[23.1271,2.50357],[23.36,2.52204],[23.62531,2.32963],[23.64691,2.19493],[23.34321,2.24917],[23.09139,2.09594],[22.97749,2.18392],[22.75885,2.01107],[22.58491,2.11636],[22.4721,1.69442],[22.28994,1.5059],[22.48806,1.46446],[22.62992,1.34723],[22.81177,0.99978],[22.85321,0.69691],[22.97315,0.41372],[23.40667,-0.21482],[23.29308,-0.31373],[23.12999,-0.28215],[22.97935,-0.40349],[23.19272,-0.42256],[23.26657,-0.49046],[23.47994,-0.46354],[23.62112,-0.64673],[23.3724,-0.78662],[23.38264,-0.83695],[23.98425,-1.32545],[24.29302,-1.38953],[24.42154,-1.78676],[23.82767,-1.76935],[23.68882,-2.01517],[23.2242,-2.07827],[23.09712,-1.94035],[22.93822,-1.95926],[22.82029,-1.85865],[22.62428,-1.80868],[22.50946,-1.95606],[22.16932,-1.92148],[22.29164,-2.40311],[22.25407,-2.46719],[22.19201,-2.44032],[22.13832,-2.28239],[21.83028,-2.5229],[21.47991,-2.33898],[21.41676,-2.47995],[21.00712,-2.48879],[20.98692,-2.37138],[20.69117,-2.02303],[20.4255,-2.0837],[20.18609,-1.94846],[19.91995,-1.93389],[19.81629,-1.72387],[19.72834,-1.66693],[19.60452,-1.79488],[19.51806,-1.78315],[19.47352,-1.59515],[19.0859,-0.99813],[18.9905,-0.74311],[18.79713,-0.92987],[18.87614,-1.13089],[18.80891,-1.22845],[18.52185,-1.26566],[18.34961,-1.15631],[18.15024,-1.13352],[17.93082,-1.37387],[17.52103,-1.52626],[17.07677,-1.80759],[16.82055,-1.79343],[16.89936,-1.99605],[16.62739,-1.99559],[16.52497,-1.85854],[16.83321,-1.26902],[17.02256,-1.09704],[17.30802,-1.01498]]]}},{"type":"Feature","properties":{"id":"cd-ka","lat":-9.18419,"lng":25.15161},"geometry":{"type":"Polygon","coordinates":[[[29.34279,-4.99995],[29.61244,-5.70435],[29.47611,-6.00211],[29.53771,-6.31238],[29.707,-6.61934],[30.09086,-6.89002],[30.29446,-7.14943],[30.44164,-7.59633],[30.65496,-7.92737],[30.75211,-8.19412],[28.88917,-8.4831],[28.93547,-8.59079],[28.8931,-8.76577],[28.59906,-9.09639],[28.35246,-9.27199],[28.51596,-9.37834],[28.69849,-9.79196],[28.56992,-10.21963],[28.69962,-10.64317],[28.55441,-10.835],[28.35566,-11.51816],[28.50785,-11.87276],[28.75109,-11.99224],[29.03511,-12.37888],[29.25499,-12.36617],[29.49968,-12.45309],[29.52345,-12.39252],[29.44655,-12.33506],[29.47425,-12.24266],[29.7993,-12.15409],[29.78224,-13.45566],[29.6174,-13.42125],[29.66918,-13.2812],[29.5744,-13.22539],[29.18414,-13.43685],[29.12213,-13.38435],[28.99397,-13.39593],[28.90343,-13.1623],[28.70799,-12.88975],[28.62118,-12.83942],[28.54284,-12.88562],[28.474,-12.73648],[28.5123,-12.66837],[28.42274,-12.5213],[28.32249,-12.4411],[27.95869,-12.36782],[27.85668,-12.2624],[27.63819,-12.29362],[27.52047,-12.17962],[27.42073,-11.92196],[27.23418,-11.8091],[27.18013,-11.56963],[27.02376,-11.59557],[26.94769,-11.90914],[26.71742,-12.01301],[26.41459,-11.91183],[25.98113,-11.90305],[25.8507,-11.7938],[25.72564,-11.80052],[25.62146,-11.72889],[25.49558,-11.77654],[25.48116,-11.71525],[25.34494,-11.64218],[25.279,-11.39631],[25.31032,-11.19477],[24.71253,-11.32603],[24.49094,-11.46152],[24.29395,-11.3992],[24.39224,-11.2791],[24.37053,-11.1002],[24.12424,-11.04325],[24.11422,-10.91923],[24.00146,-10.87344],[23.83372,-11.02847],[23.45596,-10.96098],[23.01434,-11.10247],[22.50098,-11.04243],[22.44031,-11.14691],[22.23764,-11.24954],[22.24384,-11.07829],[22.1655,-10.85236],[22.31949,-10.76131],[22.27185,-10.48174],[22.3134,-10.36857],[22.15992,-9.93149],[21.8789,-9.65708],[21.79198,-9.40614],[21.94391,-8.45592],[21.75395,-7.99734],[21.82656,-7.6456],[22.17945,-7.79927],[22.48589,-7.78666],[22.61793,-7.72253],[22.69601,-7.86805],[22.87646,-7.90143],[23.1581,-7.79741],[23.22512,-7.93812],[23.29515,-7.89786],[23.77321,-7.90344],[23.9518,-7.83043],[23.92932,-7.53112],[24.00099,-7.36234],[23.96808,-7.20617],[24.13634,-7.04272],[24.13541,-6.88041],[24.21328,-6.89147],[24.2446,-6.99229],[24.45378,-7.07027],[24.8996,-6.79039],[24.96057,-6.66538],[25.14372,-6.67019],[25.30226,-6.76124],[25.43326,-6.71143],[25.51811,-6.55242],[25.40282,-6.54761],[25.28738,-6.44519],[25.25709,-6.39951],[25.31936,-6.33326],[25.52137,-6.35212],[25.78781,-6.19203],[25.92403,-6.22691],[25.96718,-6.30525],[26.15916,-6.24861],[26.16846,-5.79505],[26.06774,-5.64152],[26.1419,-5.50457],[26.08635,-5.37946],[26.26944,-4.99995],[29.34279,-4.99995]]]}},{"type":"Feature","properties":{"id":"cd-ke","lat":-4.91133,"lng":23.99847},"geometry":{"type":"Polygon","coordinates":[[[23.81264,-1.77545],[24.42154,-1.78676],[24.49368,-2.10824],[24.72472,-2.46419],[25.09979,-2.44781],[25.11116,-2.77321],[25.03354,-3.06679],[24.96089,-3.25551],[24.90048,-3.27148],[24.90657,-3.35168],[24.78028,-3.45829],[24.79619,-3.68587],[24.73185,-3.76571],[24.9598,-4.03298],[25.0107,-4.17551],[24.97484,-4.39012],[25.01241,-4.44474],[24.87557,-4.59321],[24.86156,-4.68369],[25.07819,-4.99411],[26.26944,-4.99995],[26.08635,-5.37946],[26.1419,-5.50457],[26.06774,-5.64152],[26.16288,-5.76383],[26.13771,-6.09978],[26.17714,-6.21244],[25.97834,-6.30607],[25.92403,-6.22691],[25.78781,-6.19203],[25.52137,-6.35212],[25.31936,-6.33326],[25.25709,-6.39951],[25.28738,-6.44519],[25.40282,-6.54761],[25.51811,-6.55242],[25.43326,-6.71143],[25.30226,-6.76124],[25.14372,-6.67019],[24.96057,-6.66538],[24.8996,-6.79039],[24.45378,-7.07027],[24.2446,-6.99229],[24.21328,-6.89147],[24.13541,-6.88041],[24.13634,-7.04272],[23.96808,-7.20617],[24.00099,-7.36234],[23.92932,-7.53112],[23.95428,-7.82764],[23.77321,-7.90344],[23.29515,-7.89786],[23.22512,-7.93812],[23.1581,-7.79741],[23.24409,-6.96092],[22.93295,-6.65158],[23.08922,-6.19967],[22.97811,-6.0632],[22.95605,-5.84724],[23.01578,-5.76564],[23.38015,-5.70053],[23.4247,-5.76146],[23.72696,-5.61899],[23.73781,-5.42566],[23.41896,-5.21725],[23.23789,-5.24573],[22.97346,-4.99654],[22.97951,-4.82854],[23.17686,-4.73682],[23.11898,-4.53388],[22.85027,-4.48536],[22.29366,-3.9887],[22.14974,-4.02978],[22.01915,-3.96679],[22.19744,-3.89248],[22.13289,-3.70277],[22.00706,-3.65213],[21.97585,-3.5804],[22.19465,-3.00163],[21.89906,-2.49039],[22.13832,-2.28239],[22.19899,-2.45122],[22.28849,-2.43561],[22.17615,-1.91394],[22.49706,-1.95885],[22.62428,-1.80868],[22.68268,-1.80826],[22.93822,-1.95926],[23.09712,-1.94035],[23.2242,-2.07827],[23.68882,-2.01517],[23.81264,-1.77545]]]}},{"type":"Feature","properties":{"id":"cd-kn","lat":-4.46546,"lng":15.84483},"geometry":{"type":"Polygon","coordinates":[[[15.15068,-4.42515],[15.20396,-4.33901],[15.45893,-4.21385],[15.54906,-4.04621],[15.88802,-3.94052],[16.20033,-3.99355],[16.38962,-4.0997],[16.54807,-4.34929],[16.49003,-4.50577],[16.4306,-4.52102],[16.26519,-4.7827],[16.27868,-4.99995],[16.0343,-4.98729],[15.89529,-4.9166],[15.83317,-5.03199],[15.62342,-4.91613],[15.71773,-4.85391],[15.7522,-4.71242],[15.66812,-4.6223],[15.68285,-4.56179],[15.44477,-4.53404],[15.3469,-4.6578],[15.15068,-4.42515]]]}},{"type":"Feature","properties":{"id":"cd-kw","lat":-5.07098,"lng":21.60832},"geometry":{"type":"Polygon","coordinates":[[[20.52053,-7.28638],[20.61149,-6.91596],[20.31951,-6.91854],[20.2943,-7.00195],[19.96308,-7.00195],[19.93318,-6.8462],[19.72942,-6.54947],[19.69945,-6.15125],[20.00021,-5.96186],[20.17973,-5.66999],[20.14836,-5.36303],[20.19105,-5.15462],[20.05545,-4.76576],[20.1186,-4.49812],[20.03648,-4.28945],[20.13379,-4.28026],[20.26619,-4.39064],[20.34236,-4.38934],[20.39393,-4.27824],[20.6612,-4.14693],[20.65515,-3.32688],[20.84139,-2.82753],[20.95219,-2.68686],[21.00712,-2.48879],[21.41676,-2.47995],[21.47991,-2.33898],[21.8157,-2.52021],[21.89906,-2.49039],[21.95166,-2.5355],[22.18426,-2.95165],[21.97585,-3.5804],[22.00706,-3.65213],[22.13289,-3.70277],[22.19744,-3.89248],[22.01915,-3.96679],[22.14974,-4.02978],[22.29366,-3.9887],[22.85027,-4.48536],[23.11898,-4.53388],[23.17686,-4.73682],[22.97951,-4.82854],[22.96711,-4.98734],[23.23789,-5.24573],[23.41896,-5.21725],[23.70432,-5.37817],[23.73905,-5.60043],[23.4247,-5.76146],[23.38015,-5.70053],[23.01578,-5.76564],[22.95605,-5.84724],[22.97811,-6.0632],[23.08922,-6.19967],[22.93295,-6.65158],[23.24409,-6.96092],[23.1581,-7.79741],[23.0886,-7.83952],[22.89801,-7.9005],[22.72082,-7.87905],[22.60382,-7.72082],[22.48589,-7.78666],[22.07672,-7.77518],[21.82656,-7.6456],[21.86092,-7.46983],[21.78495,-7.28338],[20.52053,-7.28638]]]}},{"type":"Feature","properties":{"id":"cd-ma","lat":-2.64519,"lng":25.98984},"geometry":{"type":"Polygon","coordinates":[[[24.74131,-2.4675],[24.49368,-2.10824],[24.45068,-1.93869],[25.00435,-1.93626],[25.07137,-1.9913],[25.06346,-2.08333],[25.23276,-2.10917],[25.32107,-2.08401],[25.5408,-1.86237],[25.71257,-1.8742],[25.83453,-1.81865],[25.85964,-1.3917],[25.93571,-1.48265],[26.01684,-1.47536],[26.13802,-1.21791],[26.15668,-0.96609],[26.28778,-0.87741],[26.26758,-0.6102],[26.40261,-0.46163],[26.11647,-0.18965],[26.15699,-0.09043],[26.46668,-0.37052],[26.8293,-0.25647],[26.84687,-0.20133],[26.99952,-0.26298],[27.16561,-0.42638],[27.73028,-0.56705],[27.82149,-0.68228],[27.76299,-0.87431],[27.27806,-0.98304],[27.25852,-1.06738],[27.33221,-1.18737],[27.20592,-1.21202],[27.70976,-1.80702],[27.76004,-2.00091],[27.43433,-2.01833],[27.34699,-2.15677],[27.176,-2.24312],[26.88687,-2.12855],[26.8509,-2.17377],[26.83354,-2.51716],[26.92629,-2.81807],[27.04546,-2.93915],[27.11967,-3.16596],[27.09357,-3.74995],[27.20235,-3.87966],[27.73524,-3.99092],[28.09584,-4.20078],[28.17733,-4.13546],[28.29479,-4.20651],[28.49106,-4.38226],[28.82453,-4.99995],[25.05876,-4.98812],[24.85412,-4.64954],[25.01241,-4.44474],[24.99618,-4.10461],[24.73185,-3.76571],[24.79619,-3.68587],[24.78028,-3.45829],[24.90657,-3.35168],[24.90048,-3.27148],[24.96089,-3.25551],[25.03354,-3.06679],[25.11116,-2.77321],[25.09979,-2.44781],[24.74131,-2.4675]]]}},{"type":"Feature","properties":{"id":"cd-nk","lat":-0.38667,"lng":28.78993},"geometry":{"type":"Polygon","coordinates":[[[29.57792,-1.38839],[29.43741,-1.50621],[29.34279,-1.51655],[29.18664,-1.73962],[28.94214,-1.73416],[28.87837,-1.66667],[28.76928,-1.77793],[28.65198,-1.79276],[28.55917,-1.92644],[28.45054,-1.90712],[28.38429,-1.811],[28.30316,-1.9945],[28.06354,-2.06189],[27.85719,-1.96334],[27.76004,-2.00091],[27.70976,-1.80702],[27.20592,-1.21202],[27.33221,-1.18737],[27.25852,-1.06738],[27.27806,-0.98304],[27.76299,-0.87431],[27.82149,-0.68228],[27.73028,-0.56705],[28.11382,-0.20629],[28.08979,0.01938],[28.14069,0.1617],[28.04431,0.42566],[27.74407,0.5719],[28.06261,0.70047],[28.33525,0.73964],[28.55793,0.58679],[29.01366,0.61386],[29.16869,0.68652],[29.40129,0.61821],[29.47813,0.66735],[29.36191,0.75634],[29.41544,0.85757],[29.55244,0.81871],[29.59807,0.8801],[29.71863,0.88062],[29.84927,0.96061],[29.98219,0.84902],[29.92683,0.77489],[29.94048,0.49832],[29.8396,0.35848],[29.79713,0.1648],[29.70307,0.0725],[29.61078,-0.86398],[29.55466,-0.92857],[29.57792,-1.38839]]]}},{"type":"Feature","properties":{"id":"cd-or","lat":1.60016,"lng":26.59317},"geometry":{"type":"Polygon","coordinates":[[[27.4413,5.07073],[27.51458,4.92244],[27.64098,4.89094],[27.7526,4.77767],[27.77244,4.59582],[28.01403,4.55003],[28.04974,4.41914],[28.10173,4.44213],[28.17759,4.34723],[28.30316,4.35224],[28.3815,4.2753],[28.75543,4.55399],[28.81527,4.47828],[28.98622,4.49593],[29.19613,4.33707],[29.39023,4.49376],[29.45761,4.66953],[29.79671,4.55603],[29.78783,4.3688],[29.93035,4.30865],[29.92415,4.24558],[30.12269,4.10246],[30.18935,3.95609],[30.52525,3.86754],[30.54302,3.61291],[30.74694,3.67487],[30.83954,3.4902],[30.89639,3.51997],[30.91003,3.39341],[30.74384,3.05547],[30.85339,2.85337],[30.71056,2.44512],[30.80492,2.43437],[30.87179,2.33205],[30.96801,2.40544],[31.05524,2.29025],[31.17756,2.30291],[31.27145,2.103],[31.02584,1.77824],[30.68172,1.50035],[30.47827,1.23863],[30.23886,1.136],[30.14512,0.90315],[29.98219,0.84902],[29.84927,0.96061],[29.71863,0.88062],[29.59807,0.8801],[29.55244,0.81871],[29.41544,0.85757],[29.36191,0.75634],[29.47813,0.66735],[29.40129,0.61821],[29.16869,0.68652],[29.01366,0.61386],[28.55793,0.58679],[28.33525,0.73964],[28.06261,0.70047],[27.74873,0.57573],[27.84169,0.49201],[28.01873,0.46157],[28.14085,0.15327],[28.08979,0.01938],[28.1056,-0.22872],[27.73028,-0.56705],[27.16561,-0.42638],[26.99952,-0.26298],[26.84687,-0.20133],[26.8293,-0.25647],[26.46668,-0.37052],[26.15699,-0.09043],[26.11647,-0.18965],[26.40261,-0.46163],[26.26758,-0.6102],[26.28778,-0.87741],[26.15668,-0.96609],[26.13802,-1.21791],[26.01684,-1.47536],[25.93571,-1.48265],[25.85964,-1.3917],[25.8092,-1.8556],[25.5408,-1.86237],[25.32107,-2.08401],[25.23276,-2.10917],[25.06346,-2.08333],[25.07137,-1.9913],[25.00435,-1.93626],[24.45068,-1.93869],[24.30511,-1.40157],[23.98425,-1.32545],[23.36729,-0.81395],[23.62112,-0.64673],[23.47994,-0.46354],[23.26657,-0.49046],[23.19272,-0.42256],[22.97935,-0.40349],[23.12999,-0.28215],[23.29308,-0.31373],[23.40667,-0.21482],[22.97315,0.41372],[22.85321,0.69691],[22.81177,0.99978],[22.62992,1.34723],[22.48806,1.46446],[22.28994,1.5059],[22.4721,1.69442],[22.58491,2.11636],[22.75885,2.01107],[22.97749,2.18392],[23.09139,2.09594],[23.34321,2.24917],[23.64691,2.19493],[23.62531,2.32963],[23.36,2.52204],[23.1271,2.50357],[23.03893,2.55811],[22.96431,2.66953],[23.07139,3.1549],[22.99734,3.15864],[22.81161,2.9992],[22.78644,3.26766],[22.62759,3.36502],[22.67865,3.45284],[23.03785,3.5496],[23.17128,3.67497],[23.36961,3.61725],[23.51002,3.82145],[23.35085,3.81354],[23.14911,3.90229],[22.83967,3.86591],[22.75497,3.98268],[22.45153,4.14667],[22.6093,4.36335],[22.59245,4.47371],[22.6895,4.49167],[22.7236,4.62884],[22.78603,4.72465],[22.85383,4.71126],[22.89837,4.82358],[22.97744,4.83431],[23.01733,4.75051],[23.16875,4.73811],[23.26486,4.63507],[23.41452,4.59083],[23.58805,4.73395],[23.94834,4.81769],[23.95082,4.86779],[24.20961,4.95618],[24.25922,4.92988],[24.29663,5.00326],[24.39864,5.03602],[24.36123,5.06295],[24.39637,5.1223],[24.73061,4.91751],[25.30763,5.03228],[25.36365,5.31056],[25.54374,5.37528],[25.91085,5.1701],[25.97193,5.22767],[26.02692,5.18997],[26.12996,5.25888],[26.19828,5.23839],[26.50255,5.04747],[26.73943,5.09439],[26.86707,5.03755],[27.07368,5.20333],[27.4413,5.07073]]]}},{"type":"Feature","properties":{"id":"cd-sk","lat":-3.4178,"lng":28.16284},"geometry":{"type":"Polygon","coordinates":[[[29.40418,-4.4498],[29.32103,-4.83634],[29.34279,-4.99995],[28.82453,-4.99995],[28.49106,-4.38226],[28.29479,-4.20651],[28.17733,-4.13546],[28.09584,-4.20078],[27.73524,-3.99092],[27.49158,-3.97449],[27.1592,-3.85057],[27.08923,-3.72783],[27.1099,-3.10777],[27.04546,-2.93915],[26.92629,-2.81807],[26.82279,-2.46486],[26.86361,-2.13274],[27.176,-2.24312],[27.34699,-2.15677],[27.43433,-2.01833],[27.85719,-1.96334],[28.06354,-2.06189],[28.3199,-1.98112],[28.37158,-1.81379],[28.45649,-1.91048],[28.5786,-1.91931],[28.65198,-1.79276],[28.76928,-1.77793],[28.86582,-1.66899],[28.94214,-1.73416],[29.18664,-1.73962],[29.12554,-1.87911],[29.13484,-2.19775],[28.86633,-2.39195],[28.85724,-2.51835],[28.89134,-2.65271],[29.02859,-2.7449],[28.9949,-2.81363],[29.23463,-3.04658],[29.21504,-3.89986],[29.33948,-4.09324],[29.40418,-4.4498]]]}}]}
