{"type":"FeatureCollection","features":[{"type":"Feature","properties":{"id":"cf-ac","lat":7.09666,"lng":17.74228},"geometry":{"type":"Polygon","coordinates":[[[17.85879,7.96044],[18.58928,8.04788],[18.63858,8.17764],[18.81304,8.27642],[19.07226,8.63187],[19.01856,8.26779],[19.05551,8.06723],[18.97965,7.85588],[19.01406,7.76317],[18.74468,7.60403],[18.84105,7.24349],[18.71212,7.11719],[18.74375,7.07946],[18.65517,6.95301],[18.75217,6.75044],[18.86772,6.67704],[18.74297,6.49247],[18.86012,6.35677],[18.90746,6.19174],[18.62691,6.00103],[18.60799,5.66252],[18.42273,5.56514],[18.38935,5.74329],[18.02684,5.80109],[17.89558,5.8976],[17.58309,5.72087],[17.0209,5.7259],[16.90701,6.09927],[16.95274,6.13503],[16.95528,6.29672],[17.0147,6.30881],[17.09925,6.44986],[17.0409,6.48772],[16.90887,6.45576],[16.79342,6.55826],[16.67932,6.98598],[16.76702,7.11386],[16.81507,7.54954],[16.88065,7.63287],[17.10193,7.67772],[17.25086,7.82283],[17.62066,7.97874],[17.85879,7.96044]]]}},{"type":"Feature","properties":{"id":"cf-bb","lat":8.45768,"lng":20.56485},"geometry":{"type":"Polygon","coordinates":[[[20.80196,9.42555],[20.89664,9.38294],[21.49479,9.76465],[21.52337,9.60236],[21.70196,9.5004],[21.85172,9.18502],[22.0868,8.96863],[22.13692,8.75983],[22.37541,8.66673],[22.39122,8.5917],[21.9974,8.60017],[21.96035,8.21201],[21.86443,8.20495],[21.75984,8.33249],[21.59721,8.23924],[21.4903,8.24815],[21.38384,8.14591],[21.4194,8.0178],[21.13249,7.95822],[21.07523,7.50691],[20.87628,7.27111],[20.68668,7.24108],[20.63345,7.12455],[20.46276,7.02681],[20.24014,7.03371],[19.92088,7.24651],[19.72911,7.54755],[19.59191,7.56804],[19.59191,7.69901],[19.35699,7.75612],[19.32045,7.88208],[19.35916,8.13038],[19.06435,8.58286],[19.12413,8.67508],[18.86968,8.86411],[19.10057,9.01526],[19.70002,9.02059],[20.1096,9.15117],[20.37832,9.12007],[20.5072,9.21326],[20.54183,9.32163],[20.66792,9.30202],[20.65489,9.34297],[20.80196,9.42555]]]}},{"type":"Feature","properties":{"id":"cf-bgf","lat":4.37969,"lng":18.54425},"geometry":{"type":"Polygon","coordinates":[[[18.59579,4.37126],[18.53709,4.30607],[18.49258,4.38813],[18.56052,4.43822],[18.59579,4.37126]]]}},{"type":"Feature","properties":{"id":"cf-bk","lat":4.90909,"lng":21.35781},"geometry":{"type":"Polygon","coordinates":[[[20.60311,4.40973],[20.45671,4.52482],[20.71225,4.74785],[20.89509,4.81296],[20.93726,5.02251],[20.90268,5.12284],[20.98816,5.42021],[20.93973,5.52279],[21.02541,5.55336],[21.03704,5.71536],[21.23228,5.64978],[21.39521,5.72823],[21.56993,5.46615],[21.66284,5.54925],[21.90097,5.47452],[21.88102,5.17374],[21.79167,5.08775],[21.83317,5.00523],[21.73643,4.71441],[21.9158,4.64274],[21.94246,4.53288],[22.1471,4.51239],[22.03661,4.22944],[21.72294,4.29514],[21.53815,4.24465],[21.28834,4.33338],[21.21093,4.29157],[21.07606,4.39547],[20.87152,4.45337],[20.60311,4.40973]]]}},{"type":"Feature","properties":{"id":"cf-hk","lat":7.40227,"lng":22.98467},"geometry":{"type":"Polygon","coordinates":[[[23.46072,9.23644],[23.43829,8.99454],[23.56748,8.97483],[23.48232,8.78339],[23.50526,8.71074],[24.23576,8.682],[24.25054,8.57963],[24.12156,8.37231],[24.47306,8.07375],[24.49678,7.63406],[24.5944,7.48456],[24.51166,7.30782],[24.56008,7.20517],[24.54458,7.0119],[24.34578,6.9579],[24.30253,6.7776],[23.45214,6.30161],[23.39643,6.21525],[23.31856,6.20918],[23.2906,6.10423],[22.9052,6.18531],[22.82138,6.27019],[22.56005,6.24466],[22.45737,6.07963],[22.24787,6.06271],[22.10742,5.97961],[22.05171,5.70815],[22.08587,5.64265],[21.90097,5.47452],[21.66284,5.54925],[21.75147,5.66981],[21.85048,5.62048],[21.89813,5.67159],[21.93983,5.91065],[21.74387,6.21494],[21.80873,6.34031],[21.79462,6.54513],[21.70429,6.59262],[21.60977,6.77209],[21.65261,6.88123],[21.57706,7.28578],[21.42203,7.31999],[21.40048,7.52675],[21.13094,7.70343],[21.13249,7.95822],[21.4194,8.0178],[21.39258,8.16335],[21.74139,8.32939],[21.86443,8.20495],[21.98096,8.22108],[21.95833,8.52498],[22.00489,8.60498],[22.50729,8.58294],[22.64712,8.68521],[23.04963,8.75587],[23.11356,8.91664],[23.31406,9.02844],[23.37318,9.21349],[23.46072,9.23644]]]}},{"type":"Feature","properties":{"id":"cf-hm","lat":6.5737,"lng":25.38345},"geometry":{"type":"Polygon","coordinates":[[[24.26319,8.2685],[24.80017,8.18028],[25.0293,7.91885],[25.2297,7.85161],[25.27942,7.65948],[25.16521,7.5799],[25.19043,7.5012],[25.36003,7.33557],[26.02609,6.99668],[26.0912,6.83033],[26.37801,6.65329],[26.27021,6.46565],[26.28964,6.38721],[26.50896,6.20546],[26.42483,6.07245],[26.48105,6.10495],[26.54358,6.03085],[26.77633,5.98188],[26.81891,5.89463],[27.1238,5.76875],[27.26105,5.57759],[27.21806,5.42551],[27.26447,5.26014],[27.4413,5.07073],[27.07368,5.20333],[26.86707,5.03755],[26.73943,5.09439],[26.50255,5.04747],[26.12996,5.25888],[26.02692,5.18997],[25.97193,5.22767],[25.91085,5.1701],[25.8261,5.1947],[25.58126,5.37492],[25.37068,5.31683],[25.30774,5.18529],[25.34928,5.14168],[25.31683,5.04225],[25.12945,5.01863],[25.07612,4.95184],[24.95809,4.99135],[24.66437,4.9244],[24.48084,5.10234],[24.55683,5.1184],[24.53946,5.18203],[24.60525,5.27319],[24.78276,5.28702],[24.97236,5.44807],[25.04579,5.56374],[25.04439,5.76239],[25.11762,5.80636],[25.14403,5.77285],[25.18371,5.91042],[24.85009,6.21882],[24.99737,6.23967],[25.07152,6.30416],[25.04951,6.37537],[24.86735,6.4941],[24.6116,6.3909],[24.26093,6.75308],[24.34578,6.9579],[24.54458,7.0119],[24.56008,7.20517],[24.51166,7.30782],[24.5944,7.48456],[24.49678,7.63406],[24.47306,8.07375],[24.26319,8.2685]]]}},{"type":"Feature","properties":{"id":"cf-hs","lat":4.52263,"lng":15.89955},"geometry":{"type":"Polygon","coordinates":[[[15.10257,4.11241],[14.99395,4.4133],[14.71727,4.62202],[14.66013,5.01144],[14.9447,5.00647],[15.01855,4.94252],[15.49821,5.05269],[15.68564,5.0184],[15.66605,5.16139],[15.72104,5.23542],[15.76941,5.22919],[15.80635,5.08209],[15.92877,5.11382],[16.0267,5.07194],[16.73028,5.38368],[16.9315,5.36226],[17.11847,5.16519],[16.99496,5.08987],[17.02664,4.96921],[16.83048,4.86789],[16.84562,4.68044],[17.06731,4.34558],[16.85952,4.42324],[16.73772,4.2447],[16.65777,4.24207],[16.58532,3.99955],[16.44921,3.83157],[16.0852,3.99084],[15.88733,3.96922],[15.61892,3.83979],[15.56244,3.75259],[15.45862,3.78253],[15.26231,3.66259],[15.02599,4.02609],[15.19208,4.05223],[15.10257,4.11241]]]}},{"type":"Feature","properties":{"id":"cf-kb","lat":7.39703,"lng":19.30752},"geometry":{"type":"Polygon","coordinates":[[[19.01841,8.25988],[19.08987,8.56113],[19.15375,8.40473],[19.2493,8.30107],[19.23498,8.27818],[19.35916,8.13038],[19.32133,7.80451],[19.3728,7.74679],[19.59191,7.69901],[19.59191,7.56804],[19.72911,7.54755],[19.92088,7.24651],[20.1556,7.09724],[20.10196,6.87992],[19.87127,6.62613],[19.87437,6.44832],[19.53372,6.50216],[19.17622,6.43715],[19.01375,6.54343],[18.75196,6.51425],[18.87211,6.66215],[18.75217,6.75044],[18.65455,6.94128],[18.74375,7.07946],[18.71212,7.11719],[18.84105,7.24349],[18.73243,7.57052],[19.01406,7.76317],[18.97965,7.85588],[19.05551,8.06723],[19.01841,8.25988]]]}},{"type":"Feature","properties":{"id":"cf-kg","lat":5.82413,"lng":19.1267},"geometry":{"type":"Polygon","coordinates":[[[19.85816,5.0603],[19.71955,5.13597],[19.43151,5.13597],[19.10674,4.93152],[18.99066,5.18599],[18.9922,5.41207],[18.89753,5.49269],[18.86462,5.62653],[18.68695,5.66841],[18.6345,5.73063],[18.62691,6.00103],[18.91071,6.20035],[18.75196,6.51425],[19.01375,6.54343],[19.17622,6.43715],[19.4684,6.49813],[19.74306,6.47617],[19.85153,6.36111],[19.83898,6.12004],[19.59563,5.91762],[19.6624,5.6765],[19.47057,5.54134],[19.52179,5.48998],[20.01509,5.46546],[19.9336,5.13284],[19.85816,5.0603]]]}},{"type":"Feature","properties":{"id":"cf-lb","lat":4.27321,"lng":17.53647},"geometry":{"type":"Polygon","coordinates":[[[18.61202,3.86661],[18.62639,3.47687],[18.47208,3.63205],[18.24853,3.5749],[18.18156,3.47739],[18.08203,3.56345],[17.85641,3.5373],[17.79316,3.61751],[17.41449,3.68342],[17.32208,3.8124],[16.93414,3.97658],[16.73772,4.2447],[16.86867,4.42712],[17.06731,4.34558],[16.84562,4.68044],[16.83048,4.86789],[17.02664,4.96921],[17.03749,5.02422],[17.1441,5.02825],[17.4648,4.79402],[17.58573,4.53365],[18.14745,4.43627],[18.30496,4.30173],[18.41059,3.99443],[18.61202,3.86661]]]}},{"type":"Feature","properties":{"id":"cf-mb","lat":5.4106,"lng":23.41336},"geometry":{"type":"Polygon","coordinates":[[[24.43068,5.06742],[24.39637,5.1223],[24.36123,5.06295],[24.39864,5.03602],[24.29663,5.00326],[24.25922,4.92988],[24.20961,4.95618],[23.95082,4.86779],[23.94834,4.81769],[23.58805,4.73395],[23.41452,4.59083],[23.26486,4.63507],[23.16875,4.73811],[23.01733,4.75051],[22.97744,4.83431],[22.89837,4.82358],[22.85383,4.71126],[22.78603,4.72465],[22.7236,4.62884],[22.6895,4.49167],[22.59245,4.47371],[22.61374,4.37436],[22.54615,4.23718],[22.42264,4.13479],[22.20725,4.15032],[22.03661,4.22944],[22.1471,4.51239],[21.94246,4.53288],[21.9158,4.64274],[21.73643,4.71441],[21.83317,5.00523],[21.79167,5.08775],[21.88102,5.17374],[21.90154,5.48843],[22.08587,5.64265],[22.05171,5.70815],[22.11393,5.98506],[22.24787,6.06271],[22.40052,6.04713],[22.54098,6.23208],[22.68578,6.2691],[22.82138,6.27019],[22.9052,6.18531],[23.2906,6.10423],[23.31856,6.20918],[23.39643,6.21525],[23.45214,6.30161],[24.26093,6.75308],[24.6116,6.3909],[24.86735,6.4941],[25.04951,6.37537],[25.07152,6.30416],[24.99737,6.23967],[24.85009,6.21882],[25.18371,5.91042],[25.14403,5.77285],[25.11762,5.80636],[25.04439,5.76239],[25.04486,5.56088],[24.87092,5.33278],[24.60525,5.27319],[24.53946,5.18203],[24.55683,5.1184],[24.43068,5.06742]]]}},{"type":"Feature","properties":{"id":"cf-mp","lat":4.86277,"lng":18.21582},"geometry":{"type":"Polygon","coordinates":[[[19.10674,4.93152],[18.7533,4.40061],[18.63393,4.35596],[18.56052,4.43822],[18.49683,4.39918],[18.63269,4.13042],[18.61202,3.86661],[18.41059,3.99443],[18.30496,4.30173],[18.13174,4.44815],[17.58573,4.53365],[17.4648,4.79402],[17.1441,5.02825],[17.03749,5.02422],[16.9962,5.0922],[17.11847,5.16519],[16.9315,5.36226],[16.7079,5.37949],[16.52574,5.2749],[16.51504,5.56811],[16.74903,5.77936],[16.979,5.85882],[17.04385,5.71962],[17.58309,5.72087],[17.91284,5.89558],[18.02684,5.80109],[18.24393,5.80024],[18.27468,5.74887],[18.3971,5.73818],[18.41265,5.56266],[18.60148,5.65245],[18.62241,5.73515],[18.86462,5.62653],[18.89753,5.49269],[19.02197,5.35164],[18.99066,5.18599],[19.10674,4.93152]]]}},{"type":"Feature","properties":{"id":"cf-nm","lat":5.82877,"lng":15.30943},"geometry":{"type":"Polygon","coordinates":[[[14.38727,6.03904],[14.77225,6.31832],[14.92187,6.68641],[15.18257,6.75463],[15.424,6.30184],[15.77468,6.404],[15.70548,6.27825],[15.8664,5.88822],[16.08365,5.79257],[16.23635,5.90607],[16.43665,5.69138],[16.51504,5.56811],[16.52574,5.2749],[16.00076,5.06845],[15.92877,5.11382],[15.80635,5.08209],[15.76941,5.22919],[15.70967,5.23317],[15.66605,5.16139],[15.68564,5.0184],[15.49821,5.05269],[15.01855,4.94252],[14.9447,5.00647],[14.66013,5.01144],[14.65154,5.18751],[14.51987,5.29058],[14.61743,5.4953],[14.61743,5.86497],[14.58477,5.92341],[14.46571,5.92067],[14.38727,6.03904]]]}},{"type":"Feature","properties":{"id":"cf-op","lat":6.72052,"lng":15.97014},"geometry":{"type":"Polygon","coordinates":[[[16.54868,7.87001],[16.61421,7.67958],[16.82241,7.52349],[16.76702,7.11386],[16.67932,6.98598],[16.76361,6.61435],[16.89926,6.4601],[17.0409,6.48772],[17.10018,6.44304],[16.95528,6.29672],[16.95274,6.13503],[16.90794,6.10647],[16.979,5.85882],[16.74903,5.77936],[16.51504,5.56811],[16.23635,5.90607],[16.06365,5.79164],[15.82449,5.92452],[15.78884,6.15317],[15.70548,6.27825],[15.78372,6.36809],[15.75902,6.41674],[15.424,6.30184],[15.18257,6.75463],[14.92187,6.68641],[15.04221,6.79078],[15.22391,7.24752],[15.43278,7.38973],[15.48105,7.52326],[15.66853,7.51629],[15.75835,7.45557],[15.92526,7.48818],[16.04298,7.58393],[16.37081,7.6725],[16.39221,7.78361],[16.54868,7.87001]]]}},{"type":"Feature","properties":{"id":"cf-se","lat":3.32909,"lng":16.05449},"geometry":{"type":"Polygon","coordinates":[[[17.41449,3.68342],[17.00923,3.53813],[16.86784,3.56154],[16.5985,3.50167],[16.46549,3.1565],[16.47913,2.83631],[16.19666,2.23645],[16.09032,2.51049],[16.11047,2.70144],[16.05931,2.71183],[16.09517,2.83678],[16.05538,2.93977],[15.91399,3.09795],[15.78563,3.10798],[15.26231,3.66259],[15.45862,3.78253],[15.56244,3.75259],[15.61892,3.83979],[15.88733,3.96922],[16.0852,3.99084],[16.44921,3.83157],[16.58532,3.99955],[16.67839,4.25868],[16.76144,4.22811],[16.97,3.94849],[17.32208,3.8124],[17.41449,3.68342]]]}},{"type":"Feature","properties":{"id":"cf-uk","lat":6.07016,"lng":20.81684},"geometry":{"type":"Polygon","coordinates":[[[20.45671,4.52482],[20.45646,4.6215],[20.33894,4.77191],[19.85816,5.0603],[19.9336,5.13284],[20.01509,5.46546],[19.52179,5.48998],[19.47104,5.54878],[19.6624,5.6765],[19.59563,5.91762],[19.83898,6.12004],[19.86657,6.34023],[19.74306,6.47617],[19.87665,6.4508],[19.87127,6.62613],[20.10196,6.87992],[20.1556,7.09724],[20.34918,7.01996],[20.5719,7.07463],[20.68668,7.24108],[20.89369,7.28888],[21.07523,7.50691],[21.05647,7.5823],[21.13094,7.70343],[21.40048,7.52675],[21.42203,7.31999],[21.57706,7.28578],[21.65261,6.88123],[21.60977,6.77209],[21.70429,6.59262],[21.79462,6.54513],[21.80873,6.34031],[21.74387,6.21494],[21.89286,6.02028],[21.9375,5.81443],[21.85761,5.621],[21.75147,5.66981],[21.58822,5.4653],[21.39521,5.72823],[21.23228,5.64978],[21.03704,5.71536],[21.02541,5.55336],[20.93973,5.52279],[20.98816,5.42021],[20.90268,5.12284],[20.93726,5.02251],[20.89509,4.81296],[20.71225,4.74785],[20.45671,4.52482]]]}},{"type":"Feature","properties":{"id":"cf-vk","lat":9.8409,"lng":22.39834},"geometry":{"type":"Polygon","coordinates":[[[22.86106,10.91915],[23.00555,10.68682],[23.29122,10.43973],[23.62401,9.90777],[23.67404,9.69034],[23.60613,9.53717],[23.63218,9.27757],[23.46282,9.15372],[23.46072,9.23644],[23.37318,9.21349],[23.31406,9.02844],[23.11356,8.91664],[23.04963,8.75587],[22.64712,8.68521],[22.5,8.58232],[22.21216,8.70552],[22.12344,8.77846],[22.0868,8.96863],[21.85172,9.18502],[21.70196,9.5004],[21.52337,9.60236],[21.48626,9.76806],[20.89664,9.38294],[20.81388,9.41885],[20.98314,9.60368],[21.01994,9.74793],[21.1052,9.77403],[21.27129,9.98725],[21.37433,9.97311],[21.51324,10.20051],[21.71881,10.29663],[21.72263,10.63672],[22.00386,10.74327],[22.04861,10.83699],[22.17635,10.81621],[22.25304,10.9153],[22.44714,10.99827],[22.86106,10.91915]]]}}]}
