{"type":"FeatureCollection","features":[{"type":"Feature","properties":{"id":"cg-11","lat":-4.13267,"lng":13.51593},"geometry":{"type":"Polygon","coordinates":[[[13.87629,-4.49166],[13.81045,-4.42665],[13.71496,-4.45301],[13.71247,-4.68566],[13.57986,-4.78303],[13.3927,-4.62948],[13.25462,-4.41193],[12.99903,-4.33338],[12.85165,-4.07572],[12.60722,-3.81713],[12.6311,-3.54986],[12.70117,-3.51937],[12.79594,-3.56226],[12.89981,-3.83222],[13.02342,-3.92338],[13.34681,-3.92803],[13.37472,-4.03334],[13.44304,-4.05215],[13.50784,-4.0288],[13.59775,-3.83181],[13.56871,-3.76814],[13.71723,-3.73311],[13.86027,-3.53839],[14.03246,-3.57229],[14.14408,-3.45581],[14.24309,-3.50025],[14.30748,-3.63234],[14.21281,-3.69073],[14.37735,-3.95139],[14.32205,-4.00668],[14.23947,-3.9856],[14.14387,-4.09484],[14.15142,-4.17049],[13.969,-4.27447],[13.87629,-4.49166]]]}},{"type":"Feature","properties":{"id":"cg-12","lat":-3.77687,"lng":14.72244},"geometry":{"type":"Polygon","coordinates":[[[16.18398,-2.94045],[16.2256,-3.31323],[15.95785,-3.8151],[15.80335,-3.53395],[15.67595,-3.50609],[15.5804,-3.64543],[15.4345,-3.50769],[15.27492,-3.44801],[15.2152,-3.73864],[15.09399,-3.86218],[15.10195,-4.10503],[14.95605,-4.36405],[15.07611,-4.52008],[14.81546,-4.82797],[14.67273,-4.89991],[14.51987,-4.84131],[14.4007,-4.88626],[14.41093,-4.70106],[14.35078,-4.55905],[14.46974,-4.42934],[14.38706,-4.2771],[13.90544,-4.4901],[13.969,-4.27447],[14.15142,-4.17049],[14.14387,-4.09484],[14.23947,-3.9856],[14.32205,-4.00668],[14.37735,-3.95139],[14.21281,-3.69073],[14.30748,-3.63234],[14.24309,-3.50025],[14.14408,-3.45581],[14.03246,-3.57229],[13.86027,-3.53839],[14.18811,-3.02421],[14.26087,-2.98132],[14.52049,-3.08064],[14.88532,-2.71766],[14.93917,-2.89419],[15.11466,-2.8944],[15.24282,-3.01976],[15.47361,-3.00643],[15.82315,-2.82484],[16.00474,-2.94235],[16.18398,-2.94045]]]}},{"type":"Feature","properties":{"id":"cg-13","lat":1.3724,"lng":15.62009},"geometry":{"type":"Polygon","coordinates":[[[13.16445,1.53784],[13.16217,1.89983],[13.28113,2.04497],[13.29457,2.16106],[14.32029,2.17067],[14.43295,2.13212],[14.56214,2.20881],[14.76481,2.06546],[14.857,2.11594],[14.89245,2.00639],[14.98072,2.03311],[15.07487,1.97936],[15.21264,2.03962],[15.33739,1.92146],[15.48291,1.97585],[15.70677,1.93198],[15.88991,1.79328],[16.01383,1.77131],[16.06985,1.65455],[16.15904,1.7348],[16.06489,1.97895],[16.08577,2.14917],[16.20772,2.22307],[16.42749,2.72649],[16.5646,2.50011],[16.6724,2.48962],[16.74092,2.36234],[16.75797,1.80568],[16.69855,1.47443],[16.79849,1.18163],[16.77823,1.06645],[16.69607,0.99953],[16.69927,0.85886],[17.04953,0.39409],[16.34146,0.04206],[16.12969,0.12134],[16.0805,0.30184],[15.87534,0.44349],[15.66244,0.45522],[15.52715,0.35357],[15.2885,0.38561],[15.09575,0.5225],[15.07002,0.88847],[15.14939,0.94651],[15.13916,0.99989],[14.56503,1.22985],[14.49972,1.38979],[14.21994,1.35502],[13.79474,1.43444],[13.54344,1.28349],[13.37694,1.29444],[13.19545,1.22111],[13.15018,1.25662],[13.25126,1.33765],[13.16445,1.53784]]]}},{"type":"Feature","properties":{"id":"cg-14","lat":-2.00404,"lng":15.43037},"geometry":{"type":"Polygon","coordinates":[[[16.65597,-1.59029],[16.51396,-1.88738],[16.1946,-2.18204],[16.2256,-2.63524],[16.18398,-2.94045],[16.00474,-2.94235],[15.82315,-2.82484],[15.47361,-3.00643],[15.24282,-3.01976],[15.11466,-2.8944],[14.93917,-2.89419],[14.89328,-2.71746],[14.52049,-3.08064],[14.26087,-2.98132],[14.34272,-2.87621],[14.30138,-2.70185],[14.14108,-2.67529],[14.18924,-2.6108],[14.1264,-2.58454],[14.10055,-2.47806],[14.14418,-2.39019],[14.23441,-2.35495],[14.148,-2.22482],[14.23379,-2.13449],[14.24009,-1.98226],[14.36857,-1.92212],[14.43522,-2.02582],[14.56503,-1.95141],[14.76275,-1.66243],[15.02196,-1.53314],[15.16303,-1.2393],[15.44291,-0.97803],[15.70925,-0.95891],[15.7476,-1.05678],[16.26188,-1.30886],[16.36813,-1.49645],[16.65597,-1.59029]]]}},{"type":"Feature","properties":{"id":"cg-15","lat":0.13581,"lng":14.55515},"geometry":{"type":"Polygon","coordinates":[[[14.07597,0.53945],[14.32877,0.6212],[14.46809,0.91323],[14.28288,1.13011],[14.23596,1.36333],[14.49972,1.38979],[14.56503,1.22985],[15.13916,0.99989],[15.14939,0.94651],[15.07002,0.88847],[15.08955,0.5318],[15.2853,0.41145],[15.13399,0.30107],[15.22753,0.19658],[15.1928,0.07503],[14.88832,-0.00419],[14.95033,-0.22557],[15.08914,-0.26055],[15.15022,-0.47336],[15.00976,-0.68792],[15.18536,-0.85767],[14.9924,-1.09425],[14.43943,-1.18573],[14.39202,-1.00898],[14.49899,-0.63092],[14.46654,-0.55268],[14.3206,-0.44447],[14.15968,-0.45511],[14.0954,-0.27662],[13.88342,-0.26494],[13.83123,-0.20541],[13.93293,0.02207],[13.87577,0.2203],[14.05912,0.43527],[14.07597,0.53945]]]}},{"type":"Feature","properties":{"id":"cg-16","lat":-4.82002,"lng":11.8716},"geometry":{"type":"Polygon","coordinates":[[[11.88624,-4.85524],[11.82021,-4.7848],[11.84167,-4.74154],[11.89824,-4.74177],[11.88624,-4.85524]]]}},{"type":"Feature","properties":{"id":"cg-2","lat":-3.08958,"lng":13.6322},"geometry":{"type":"Polygon","coordinates":[[[13.74317,-2.09708],[13.90616,-2.3598],[13.8458,-2.46657],[14.10055,-2.47806],[14.1264,-2.58454],[14.18924,-2.6108],[14.13705,-2.66867],[14.29766,-2.69555],[14.34272,-2.87621],[14.16919,-3.0394],[14.08537,-3.25014],[13.71723,-3.73311],[13.56871,-3.76814],[13.60023,-3.82561],[13.50784,-4.0288],[13.39539,-4.0444],[13.34681,-3.92803],[13.03045,-3.92761],[12.89981,-3.83222],[12.79594,-3.56226],[12.66014,-3.53312],[12.60433,-3.41592],[12.71336,-3.3045],[12.91842,-3.29437],[13.10797,-3.13976],[13.12967,-2.98855],[12.99872,-2.86876],[13.07572,-2.81543],[13.05122,-2.37691],[12.99401,-2.36012],[13.4589,-2.44104],[13.74317,-2.09708]]]}},{"type":"Feature","properties":{"id":"cg-5","lat":-4.27045,"lng":12.01764},"geometry":{"type":"Polygon","coordinates":[[[12.78266,-4.40007],[12.62381,-4.55926],[12.38703,-4.60545],[12.32191,-4.77816],[12.2352,-4.80399],[12.19221,-4.76348],[12.13082,-4.91293],[12.00961,-5.01963],[11.89573,-4.88265],[11.89824,-4.74177],[11.78163,-4.68041],[11.80641,-4.57712],[11.4014,-4.22137],[11.35825,-4.11191],[11.11402,-3.93686],[11.21252,-3.69729],[11.53271,-3.51653],[11.66593,-3.6914],[11.84081,-3.70999],[12.21262,-3.94746],[12.38439,-3.99459],[12.55213,-4.17112],[12.59079,-4.31953],[12.78266,-4.40007]]]}},{"type":"Feature","properties":{"id":"cg-7","lat":1.51294,"lng":17.38105},"geometry":{"type":"Polygon","coordinates":[[[18.62639,3.47687],[18.61305,3.12818],[18.52841,3.06478],[18.39322,2.71369],[18.07242,2.16002],[18.07138,1.55146],[17.86664,1.01663],[17.9455,0.37729],[17.71636,-0.1958],[17.74954,-0.52343],[17.54586,-0.75649],[17.26244,-0.743],[17.20797,-0.68802],[17.21728,-0.47336],[17.13924,-0.4407],[17.1873,-0.17281],[17.14555,0.05757],[17.20301,0.21038],[16.69927,0.85886],[16.69607,0.99953],[16.77823,1.06645],[16.79849,1.18163],[16.69855,1.47443],[16.75797,1.80568],[16.74092,2.36234],[16.6724,2.48962],[16.5646,2.50011],[16.42749,2.72649],[16.48378,2.8604],[16.46549,3.1565],[16.5677,3.46439],[16.63943,3.5286],[17.00923,3.53813],[17.33437,3.61851],[17.45891,3.70828],[17.58676,3.63223],[17.79316,3.61751],[17.84215,3.54015],[18.08203,3.56345],[18.18156,3.47739],[18.24853,3.5749],[18.47208,3.63205],[18.62639,3.47687]]]}},{"type":"Feature","properties":{"id":"cg-8","lat":-0.80708,"lng":16.31617},"geometry":{"type":"Polygon","coordinates":[[[17.54586,-0.75649],[17.30802,-1.01498],[17.00592,-1.10675],[16.83321,-1.26902],[16.65597,-1.59029],[16.36813,-1.49645],[16.26188,-1.30886],[15.7476,-1.05678],[15.70925,-0.95891],[15.44291,-0.97803],[15.16303,-1.2393],[15.02196,-1.53314],[14.76275,-1.66243],[14.48793,-2.01393],[14.38086,-2.00184],[14.44876,-1.68625],[14.36484,-1.61204],[14.46313,-1.54869],[14.48772,-1.40937],[14.42633,-1.33103],[14.43943,-1.18573],[14.9924,-1.09425],[15.18536,-0.85767],[15.00976,-0.68792],[15.15022,-0.47336],[15.08914,-0.26055],[14.95033,-0.22557],[14.88832,-0.00419],[15.1928,0.07503],[15.22753,0.19658],[15.13399,0.30107],[15.2853,0.41145],[15.52715,0.35357],[15.66244,0.45522],[15.87534,0.44349],[16.0805,0.30184],[16.12969,0.12134],[16.34146,0.04206],[17.09139,0.3746],[17.20425,0.20655],[17.14555,0.05757],[17.1873,-0.17281],[17.1349,-0.3392],[17.17976,-0.3669],[17.15175,-0.46374],[17.22492,-0.49227],[17.20797,-0.68802],[17.26244,-0.743],[17.54586,-0.75649]]]}},{"type":"Feature","properties":{"id":"cg-9","lat":-3.35956,"lng":12.28923},"geometry":{"type":"Polygon","coordinates":[[[13.39265,-4.88533],[13.35875,-4.7948],[13.18212,-4.68607],[13.11236,-4.57693],[13.0737,-4.63532],[12.86989,-4.41198],[12.59079,-4.31953],[12.55213,-4.17112],[12.38439,-3.99459],[11.86091,-3.74117],[11.9055,-3.64355],[11.82778,-3.54805],[11.94437,-3.30321],[11.68753,-3.17102],[11.70645,-3.04989],[11.77838,-3.00565],[11.63679,-2.83326],[11.53075,-2.86675],[11.62439,-2.63276],[11.5662,-2.32973],[11.75606,-2.4151],[11.93837,-2.32911],[12.06229,-2.41499],[12.45927,-2.32993],[12.49978,-2.09553],[12.44005,-2.04582],[12.4231,-1.89761],[12.48655,-1.92489],[12.58319,-1.8265],[12.80457,-1.91911],[12.9071,-2.19537],[13.00818,-2.2765],[12.96611,-2.36642],[13.05122,-2.37691],[13.07572,-2.81543],[12.99872,-2.86876],[13.12967,-2.98855],[13.06115,-3.19939],[12.91842,-3.29437],[12.71894,-3.30181],[12.60433,-3.41592],[12.65693,-3.52816],[12.60464,-3.80928],[12.85165,-4.07572],[12.99903,-4.33338],[13.25462,-4.41193],[13.3927,-4.62948],[13.56871,-4.7348],[13.57986,-4.78303],[13.51471,-4.75594],[13.39265,-4.88533]]]}},{"type":"Feature","properties":{"id":"cg-bzv","lat":-4.00167,"lng":15.40347},"geometry":{"type":"Polygon","coordinates":[[[15.95785,-3.8151],[15.88299,-3.94534],[15.53376,-4.05799],[15.45893,-4.21385],[15.20396,-4.33901],[15.07611,-4.52008],[14.95605,-4.36405],[15.10195,-4.10503],[15.09399,-3.86218],[15.2152,-3.73864],[15.27492,-3.44801],[15.4345,-3.50769],[15.5804,-3.64543],[15.67595,-3.50609],[15.80335,-3.53395],[15.95785,-3.8151]]]}}]}
