{"type":"FeatureCollection","features":[{"type":"Feature","properties":{"id":"ch-ag","lat":47.38822,"lng":8.20203},"geometry":{"type":"Polygon","coordinates":[[[8.25105,47.622],[8.4211,47.58111],[8.35265,47.48764],[8.40355,47.41044],[8.37079,47.3783],[8.44561,47.33277],[8.38246,47.28611],[8.40556,47.14232],[8.26061,47.28228],[8.18351,47.22386],[7.9827,47.2774],[7.83935,47.23185],[7.85748,47.31065],[7.99686,47.33447],[8.02802,47.39814],[7.84942,47.54534],[7.78271,47.51284],[7.72732,47.55042],[8.25105,47.622]]]}},{"type":"Feature","properties":{"id":"ch-ai","lat":47.32847,"lng":9.38935},"geometry":{"type":"MultiPolygon","coordinates":[[[[9.48819,47.35339],[9.36918,47.23991],[9.30277,47.30355],[9.3498,47.38801],[9.48819,47.35339]]],[[[9.54048,47.39724],[9.48664,47.39362],[9.54281,47.423],[9.54048,47.39724]]],[[[9.60844,47.44977],[9.58146,47.42439],[9.54839,47.44124],[9.60844,47.44977]]]]}},{"type":"Feature","properties":{"id":"ch-ar","lat":47.31724,"lng":9.27144},"geometry":{"type":"Polygon","coordinates":[[[9.60844,47.44977],[9.48819,47.35339],[9.34344,47.38383],[9.3315,47.25311],[9.19663,47.28109],[9.22598,47.40031],[9.60844,47.44977]]]}},{"type":"Feature","properties":{"id":"ch-be","lat":46.81399,"lng":7.62746},"geometry":{"type":"MultiPolygon","coordinates":[[[[8.43771,46.75539],[8.4481,46.69477],[8.2664,46.5352],[8.00306,46.55744],[7.72313,46.42016],[7.62442,46.44337],[7.22781,46.33144],[7.24254,46.55607],[7.37803,46.6556],[7.30444,46.74818],[7.35565,46.89125],[7.20595,46.90615],[7.22517,47.00245],[7.0211,46.98966],[7.09035,47.09139],[6.87729,47.08974],[6.84979,47.16508],[7.15474,47.2475],[7.17489,47.29711],[7.55631,47.31817],[7.3462,47.2118],[7.39881,47.16025],[7.47591,47.19092],[7.37493,47.11557],[7.4463,47.07545],[7.55337,47.16498],[7.67532,47.17567],[7.58344,47.27755],[7.82291,47.26898],[7.87335,47.04814],[7.95247,47.00271],[7.87051,46.85032],[7.98332,46.77766],[8.43771,46.75539]],[[7.22595,46.93321],[7.23742,46.94122],[7.22254,46.93832],[7.22595,46.93321]]],[[[7.53818,47.3337],[7.56748,47.32112],[7.53663,47.32388],[7.53818,47.3337]]]]}},{"type":"Feature","properties":{"id":"ch-bl","lat":47.44157,"lng":7.81614},"geometry":{"type":"MultiPolygon","coordinates":[[[[7.37855,47.43065],[7.38423,47.4131],[7.33693,47.43185],[7.37855,47.43065]]],[[[7.52087,47.56342],[7.78271,47.51284],[7.84942,47.54534],[7.95371,47.42233],[7.78612,47.33851],[7.6452,47.3722],[7.71336,47.46734],[7.66432,47.49157],[7.51626,47.39034],[7.38423,47.4131],[7.45513,47.42145],[7.41431,47.49018],[7.53394,47.46082],[7.4756,47.51173],[7.52087,47.56342]]]]}},{"type":"Feature","properties":{"id":"ch-bs","lat":47.54654,"lng":7.60314},"geometry":{"type":"Polygon","coordinates":[[[7.65967,47.59658],[7.60975,47.56475],[7.64039,47.52966],[7.52087,47.56342],[7.65967,47.59658]]]}},{"type":"Feature","properties":{"id":"ch-fr","lat":46.70624,"lng":7.12002},"geometry":{"type":"MultiPolygon","coordinates":[[[[7.22796,47.00008],[7.20595,46.90615],[7.35565,46.89125],[7.30444,46.74818],[7.37803,46.6556],[7.00033,46.4445],[6.9192,46.51892],[6.83786,46.50636],[6.90473,46.56925],[6.80701,46.58067],[6.80918,46.65136],[6.87217,46.66431],[7.00141,46.84438],[6.90736,46.92546],[6.94586,46.94719],[7.04146,46.85239],[7.10694,46.90086],[7.06239,46.97822],[7.22796,47.00008]]],[[[6.78019,46.75193],[6.77274,46.71885],[6.75621,46.73539],[6.78019,46.75193]]],[[[6.85956,46.77342],[6.87031,46.7296],[6.79755,46.73043],[6.85956,46.77342]]],[[[6.924,46.87177],[6.9131,46.78293],[6.77099,46.81911],[6.87512,46.90716],[6.924,46.87177]]],[[[7.23742,46.94122],[7.22595,46.93321],[7.22254,46.93832],[7.23742,46.94122]]]]}},{"type":"Feature","properties":{"id":"ch-ge","lat":46.22602,"lng":6.13273},"geometry":{"type":"Polygon","coordinates":[[[6.06188,46.24116],[6.11861,46.33177],[6.2812,46.24007],[6.10787,46.13863],[5.95884,46.13047],[5.95853,46.21196],[6.06188,46.24116]]]}},{"type":"Feature","properties":{"id":"ch-gl","lat":46.99388,"lng":9.07489},"geometry":{"type":"Polygon","coordinates":[[[8.94822,46.88047],[8.95861,46.96127],[8.88988,47.02648],[8.98512,47.16893],[9.17988,47.12224],[9.13224,47.04168],[9.21869,47.02674],[9.24086,46.92034],[8.91577,46.8004],[8.87014,46.83952],[8.94822,46.88047]]]}},{"type":"Feature","properties":{"id":"ch-gr","lat":46.60987,"lng":9.58255},"geometry":{"type":"Polygon","coordinates":[[[9.27518,46.33138],[9.16379,46.17299],[9.07638,46.2348],[9.09777,46.41613],[9.02144,46.51422],[9.03524,46.59617],[8.94744,46.63209],[8.71123,46.57302],[8.66906,46.68635],[9.04904,46.87399],[9.24086,46.92034],[9.44571,46.88272],[9.53196,46.98333],[9.47702,47.0639],[9.85798,47.01548],[9.87514,46.92742],[10.1113,46.84712],[10.36792,46.99551],[10.45846,46.93662],[10.36917,46.6724],[10.45908,46.62356],[10.44399,46.53773],[10.29537,46.55109],[10.19212,46.62682],[10.03275,46.53298],[10.02634,46.44626],[10.14076,46.4029],[10.09177,46.32896],[10.14582,46.24333],[10.04267,46.22049],[9.91844,46.37115],[9.53645,46.29862],[9.44436,46.37528],[9.43465,46.49833],[9.33099,46.5015],[9.24582,46.46104],[9.27518,46.33138]]]}},{"type":"Feature","properties":{"id":"ch-ju","lat":47.33057,"lng":7.28579},"geometry":{"type":"Polygon","coordinates":[[[7.00978,47.49925],[7.18083,47.48826],[7.16833,47.44356],[7.33693,47.43185],[7.55895,47.32065],[7.17489,47.29711],[6.99351,47.18435],[6.83808,47.16813],[7.0443,47.3405],[6.86664,47.35417],[7.00978,47.49925]]]}},{"type":"Feature","properties":{"id":"ch-lu","lat":47.0267,"lng":8.18368},"geometry":{"type":"Polygon","coordinates":[[[8.26061,47.28228],[8.44236,47.1133],[8.38789,47.06219],[8.49822,47.00527],[8.15483,46.96044],[8.04373,46.78833],[7.87051,46.85032],[7.95247,47.00271],[7.87335,47.04814],[7.83935,47.23185],[7.9827,47.2774],[8.18351,47.22386],[8.26061,47.28228]]]}},{"type":"Feature","properties":{"id":"ch-ne","lat":47.00548,"lng":6.82636},"geometry":{"type":"Polygon","coordinates":[[[6.44312,46.85146],[6.44264,46.94416],[6.66541,47.02129],[6.83808,47.16813],[6.87729,47.08974],[7.03914,47.12335],[7.09422,47.08705],[7.0211,46.98966],[6.76603,46.84528],[6.72551,46.93897],[6.44312,46.85146]]]}},{"type":"Feature","properties":{"id":"ch-nw","lat":46.88846,"lng":8.39074},"geometry":{"type":"Polygon","coordinates":[[[8.22232,46.97925],[8.56323,46.98204],[8.45941,46.90473],[8.47259,46.85572],[8.36397,46.87218],[8.39161,46.7751],[8.32676,46.8175],[8.30764,46.96729],[8.22232,46.97925]]]}},{"type":"Feature","properties":{"id":"ch-ow","lat":46.89985,"lng":8.21428},"geometry":{"type":"MultiPolygon","coordinates":[[[[8.39161,46.7751],[8.36397,46.87218],[8.49946,46.84944],[8.47864,46.77603],[8.39161,46.7751]]],[[[8.36815,46.7895],[8.15059,46.76045],[8.04373,46.78833],[8.04652,46.83926],[8.15483,46.96044],[8.30175,46.97145],[8.36815,46.7895]]]]}},{"type":"Feature","properties":{"id":"ch-sg","lat":47.16613,"lng":9.27839},"geometry":{"type":"Polygon","coordinates":[[[9.55306,47.51689],[9.64952,47.40972],[9.48736,47.21001],[9.47718,47.06],[9.53196,46.98333],[9.44571,46.88272],[9.24086,46.92034],[9.21869,47.02674],[9.13224,47.04168],[9.17988,47.12224],[8.95535,47.21391],[8.77536,47.22058],[8.96605,47.31339],[8.93235,47.37995],[9.03028,47.44049],[9.02765,47.49571],[9.55306,47.51689]],[[9.37553,47.2397],[9.60844,47.44977],[9.52234,47.46811],[9.18609,47.3577],[9.20407,47.27507],[9.37553,47.2397]]]}},{"type":"Feature","properties":{"id":"ch-sh","lat":47.73873,"lng":8.57973},"geometry":{"type":"MultiPolygon","coordinates":[[[[8.55172,47.59686],[8.55594,47.56074],[8.52938,47.57544],[8.55172,47.59686]]],[[[8.58312,47.80024],[8.71314,47.75742],[8.71707,47.69456],[8.79758,47.72003],[8.85193,47.67128],[8.3913,47.66546],[8.46365,47.76391],[8.58312,47.80024]]]]}},{"type":"Feature","properties":{"id":"ch-so","lat":47.29934,"lng":7.68971},"geometry":{"type":"MultiPolygon","coordinates":[[[[7.56748,47.32112],[7.43715,47.37928],[7.65626,47.49196],[7.71336,47.46734],[7.65378,47.36807],[7.78612,47.33851],[7.95495,47.45772],[8.02802,47.39814],[7.99686,47.33447],[7.90188,47.3383],[7.82291,47.26898],[7.58344,47.27755],[7.67269,47.17242],[7.55337,47.16498],[7.46474,47.07971],[7.38826,47.09625],[7.49099,47.16456],[7.3926,47.16126],[7.34883,47.21658],[7.56748,47.32112]]],[[[7.38822,47.43329],[7.45513,47.42145],[7.38423,47.4131],[7.38822,47.43329]]],[[[7.4542,47.45204],[7.52898,47.49395],[7.53394,47.46082],[7.4542,47.45204]]]]}},{"type":"Feature","properties":{"id":"ch-sz","lat":47.04874,"lng":8.68036},"geometry":{"type":"Polygon","coordinates":[[[8.84487,46.89024],[8.48954,46.98158],[8.49807,47.02656],[8.38774,47.07093],[8.46282,47.12196],[8.63754,47.10017],[8.73206,47.21456],[8.95535,47.21391],[8.95737,47.08025],[8.88988,47.02648],[8.95163,46.92959],[8.84487,46.89024]]]}},{"type":"Feature","properties":{"id":"ch-tg","lat":47.52255,"lng":9.21479},"geometry":{"type":"Polygon","coordinates":[[[8.85193,47.67128],[9.1834,47.67043],[9.55306,47.51689],[9.02765,47.49571],[9.03028,47.44049],[8.93235,47.37995],[8.88848,47.52821],[8.73934,47.61058],[8.85193,47.67128]]]}},{"type":"Feature","properties":{"id":"ch-ti","lat":46.20418,"lng":8.80955},"geometry":{"type":"Polygon","coordinates":[[[8.83437,46.06639],[8.60183,46.12282],[8.43812,46.23537],[8.44577,46.41236],[8.39595,46.49086],[8.53713,46.58455],[9.02206,46.60488],[9.09777,46.41613],[9.05808,46.28997],[9.16379,46.17299],[9.00212,46.03931],[8.98052,45.96438],[9.0631,45.89896],[9.03436,45.84811],[8.9,45.8264],[8.87096,45.94707],[8.76792,45.98309],[8.83437,46.06639]]]}},{"type":"Feature","properties":{"id":"ch-ur","lat":46.79242,"lng":8.67036},"geometry":{"type":"Polygon","coordinates":[[[8.59098,46.98922],[8.94822,46.88047],[8.80373,46.7372],[8.67263,46.69053],[8.6779,46.58359],[8.52969,46.58307],[8.47693,46.53184],[8.41161,46.58119],[8.40169,46.68868],[8.4481,46.69477],[8.50008,46.84763],[8.45941,46.90473],[8.59098,46.98922]]]}},{"type":"Feature","properties":{"id":"ch-vd","lat":46.56044,"lng":6.51675},"geometry":{"type":"MultiPolygon","coordinates":[[[[6.17418,46.30002],[6.05424,46.41942],[6.1457,46.55163],[6.11842,46.58346],[6.41793,46.7511],[6.44312,46.85146],[6.72551,46.93897],[6.79347,46.79037],[6.91852,46.78619],[6.90736,46.92546],[7.00141,46.84438],[6.87217,46.66431],[6.80918,46.65136],[6.80701,46.58067],[6.90473,46.56925],[6.83786,46.50636],[6.9192,46.51892],[7.00033,46.4445],[7.25385,46.53861],[7.20316,46.43722],[7.22781,46.33144],[7.04487,46.18987],[6.86659,46.4027],[6.76267,46.42926],[6.48294,46.44859],[6.17418,46.30002]],[[6.75621,46.73539],[6.79176,46.73291],[6.7868,46.75193],[6.75621,46.73539]],[[6.83393,46.73622],[6.85956,46.77342],[6.79755,46.73043],[6.83393,46.73622]]],[[[7.06239,46.97822],[7.10694,46.90086],[7.04146,46.85239],[6.94586,46.94719],[7.06239,46.97822]]]]}},{"type":"Feature","properties":{"id":"ch-vs","lat":46.22967,"lng":7.5959},"geometry":{"type":"Polygon","coordinates":[[[7.84962,45.93971],[7.54112,45.98412],[7.09019,45.88051],[6.91511,46.04861],[6.85093,46.04964],[6.86922,46.11233],[6.77435,46.13481],[6.82768,46.26948],[6.75037,46.34552],[6.78811,46.40501],[6.86659,46.4027],[7.04487,46.18987],[7.27592,46.36399],[7.5096,46.37567],[7.62442,46.44337],[7.72313,46.42016],[8.00306,46.55744],[8.2664,46.5352],[8.41766,46.65294],[8.41161,46.58119],[8.47693,46.53184],[8.08734,46.2718],[8.11059,46.12695],[7.84962,45.93971]]]}},{"type":"Feature","properties":{"id":"ch-zg","lat":47.20109,"lng":8.48692},"geometry":{"type":"Polygon","coordinates":[[[8.44236,47.1133],[8.40742,47.24551],[8.70193,47.15666],[8.58772,47.08896],[8.44236,47.1133]]]}},{"type":"Feature","properties":{"id":"ch-zh","lat":47.46364,"lng":8.63633},"geometry":{"type":"Polygon","coordinates":[[[8.55594,47.56074],[8.64002,47.69631],[8.70782,47.64722],[8.80497,47.66743],[8.79335,47.60753],[8.73934,47.61058],[8.89112,47.5249],[8.89251,47.40858],[8.96915,47.31727],[8.93003,47.27484],[8.68348,47.16536],[8.41595,47.22663],[8.38246,47.28611],[8.44561,47.33277],[8.37079,47.3783],[8.40355,47.41044],[8.35807,47.51684],[8.49238,47.61983],[8.55594,47.56074]]]}}]}
