{"type":"FeatureCollection","features":[{"type":"Feature","properties":{"id":"ci-01","lat":5.68695,"lng":-4.70597},"geometry":{"type":"MultiPolygon","coordinates":[[[[-5.32396,5.19013],[-5.35936,5.12865],[-5.41393,5.17032],[-5.399,5.14199],[-5.3579,5.12352],[-5.30883,5.11815],[-5.2694,5.12865],[-5.33829,5.14912],[-5.18139,5.20234],[-5.12076,5.16698],[-5.03319,5.1833],[-5.00243,5.12865],[-5.42832,5.09888],[-5.43566,5.25986],[-5.32396,5.19013]]],[[[-3.53875,5.15729],[-3.71801,5.18871],[-3.72142,5.23851],[-3.75552,5.19013],[-3.98705,5.24396],[-4.00194,5.26651],[-3.72887,5.26651],[-3.71569,5.28229],[-3.7589,5.3662],[-3.80492,5.37596],[-3.74397,5.27399],[-3.90632,5.34837],[-4.00935,5.31363],[-3.94054,5.29316],[-3.98908,5.26911],[-4.12548,5.30744],[-4.24104,5.28392],[-4.27457,5.31241],[-4.46353,5.29824],[-4.45373,5.25898],[-4.56363,5.29999],[-4.68716,5.23168],[-4.67345,5.31363],[-4.81005,5.18993],[-4.18383,5.28018],[-3.99576,5.23168],[-4.89265,5.12865],[-4.982,5.13614],[-5.00976,5.21605],[-5.22159,5.21117],[-5.08808,5.23146],[-4.9377,5.79567],[-5.00778,6.11082],[-5.24435,6.21812],[-5.21531,6.36677],[-5.00685,6.24156],[-4.70154,6.28205],[-4.463,6.22401],[-4.65912,5.85812],[-4.33981,5.60255],[-3.93125,5.62162],[-3.90423,5.7875],[-3.73282,5.90569],[-3.46766,5.83755],[-3.41454,5.75228],[-3.44059,5.29864],[-3.40229,5.2372],[-3.53875,5.15729]]]]}},{"type":"Feature","properties":{"id":"ci-02","lat":7.07439,"lng":-6.57289},"geometry":{"type":"Polygon","coordinates":[[[-7.05489,7.60899],[-7.07163,7.71948],[-7.02564,7.75767],[-6.63042,7.7856],[-6.45885,7.74097],[-6.24884,7.77674],[-6.2139,7.68442],[-6.12357,7.64346],[-6.31442,7.50021],[-6.44578,7.25483],[-6.25318,7.21292],[-6.17184,7.28811],[-5.93185,7.16535],[-6.21644,6.98342],[-6.16507,6.72763],[-6.04079,6.51976],[-6.09215,6.37796],[-6.82844,6.24667],[-6.96983,6.39803],[-6.95536,6.511],[-7.00988,6.56903],[-6.96993,6.69675],[-7.06191,6.86728],[-7.08532,7.36601],[-7.0059,7.44554],[-6.9829,7.58915],[-7.05489,7.60899]]]}},{"type":"Feature","properties":{"id":"ci-03","lat":9.63595,"lng":-5.59198},"geometry":{"type":"Polygon","coordinates":[[[-5.52258,10.42549],[-5.40253,10.30056],[-5.11919,10.29353],[-5.11707,10.20803],[-5.08441,10.22744],[-5.03946,10.13434],[-5.0701,10.11016],[-4.96334,10.04032],[-4.96608,9.90103],[-4.79846,9.84253],[-4.79645,9.7545],[-4.68108,9.68207],[-4.50396,9.74202],[-4.50171,9.65502],[-4.40911,9.64773],[-4.37118,9.58296],[-4.36503,9.62417],[-4.31025,9.60391],[-4.24436,9.52895],[-4.17367,9.23334],[-4.09052,9.2675],[-3.85079,9.11913],[-3.88531,9.05836],[-3.80537,8.99377],[-3.89766,8.94628],[-3.79121,8.77636],[-3.9266,8.68717],[-3.93172,8.61389],[-4.21702,8.64167],[-4.33619,8.71012],[-4.40451,8.84659],[-4.53173,8.90501],[-4.93605,8.90897],[-4.88747,9.11588],[-4.97331,9.16073],[-5.01914,9.29331],[-5.2013,9.29721],[-5.25825,9.38666],[-5.33809,9.3848],[-5.45478,9.21349],[-5.4972,9.06335],[-5.42067,8.99439],[-5.46098,9.00059],[-5.46666,8.86799],[-5.69693,8.83401],[-5.70169,8.63175],[-5.63875,8.61413],[-5.61043,8.52925],[-5.95635,8.64058],[-6.13515,8.94519],[-6.22713,9.00353],[-6.21504,9.15148],[-6.26444,9.20254],[-6.33653,9.20564],[-6.46025,9.07547],[-6.53399,9.15701],[-6.60602,9.0673],[-6.74658,9.11782],[-6.784,9.38759],[-6.74085,9.51234],[-6.79774,9.56533],[-6.7332,9.85046],[-6.78591,9.94784],[-6.9475,9.96025],[-6.87319,10.1221],[-6.72281,10.10238],[-6.58349,10.16718],[-6.69579,10.4712],[-6.66918,10.65416],[-6.44598,10.55225],[-6.39922,10.59248],[-6.42702,10.68609],[-6.24584,10.72074],[-6.20445,10.62961],[-6.26129,10.51409],[-6.19029,10.49114],[-6.18057,10.42022],[-6.24,10.25193],[-6.10533,10.18928],[-6.01593,10.18987],[-5.80628,10.41347],[-5.52258,10.42549]]]}},{"type":"Feature","properties":{"id":"ci-04","lat":8.31182,"lng":-4.71106},"geometry":{"type":"Polygon","coordinates":[[[-4.01011,8.02832],[-4.17858,7.99282],[-4.40879,7.80451],[-4.52719,7.79978],[-4.5169,7.59899],[-4.66103,7.51621],[-4.89429,7.54166],[-5.28859,7.23628],[-5.37571,7.23008],[-5.44542,7.30043],[-5.66216,7.257],[-5.78613,7.62398],[-5.74014,8.00003],[-5.40119,8.11284],[-5.34553,8.26012],[-5.61906,8.44783],[-5.52304,8.46618],[-5.70169,8.63175],[-5.66934,8.73409],[-5.72112,8.76339],[-5.69161,8.84114],[-5.45927,8.87819],[-5.49198,8.91346],[-5.42067,8.99439],[-5.49571,9.08996],[-5.33809,9.3848],[-5.25252,9.38542],[-5.19433,9.29504],[-5.01914,9.29331],[-4.97331,9.16073],[-4.88468,9.11169],[-4.93605,8.90897],[-4.53173,8.90501],[-4.40451,8.84659],[-4.33619,8.71012],[-4.21702,8.64167],[-3.93172,8.61389],[-3.98128,8.52762],[-3.93285,8.46959],[-3.98784,8.41892],[-3.95983,8.31885],[-4.04267,8.30479],[-4.01993,8.18376],[-3.9403,8.11609],[-4.01011,8.02832]]]}},{"type":"Feature","properties":{"id":"ci-05","lat":6.4961,"lng":-3.43741},"geometry":{"type":"Polygon","coordinates":[[[-3.09659,7.05448],[-3.24168,6.8109],[-3.21042,6.716],[-3.26111,6.63394],[-3.17172,6.24958],[-3.30897,5.91879],[-3.43413,5.78029],[-3.46678,5.85773],[-3.38462,6.0017],[-3.42699,6.061],[-3.39563,6.1628],[-3.46048,6.19073],[-3.54244,6.3763],[-3.61132,6.35584],[-3.68021,6.63639],[-3.76899,6.6159],[-3.8031,6.67114],[-3.72972,6.91201],[-3.77519,6.97901],[-3.56998,7.07184],[-3.64548,7.17762],[-3.49836,7.34878],[-3.37056,7.2269],[-3.16696,7.17964],[-3.09659,7.05448]]]}},{"type":"Feature","properties":{"id":"ci-06","lat":7.40578,"lng":-7.73243},"geometry":{"type":"Polygon","coordinates":[[[-8.06909,8.02928],[-7.87065,8.01378],[-7.69268,7.8458],[-7.56307,7.86681],[-7.49527,7.94021],[-7.50313,8.11493],[-7.44101,8.16707],[-7.23947,7.99484],[-7.08383,7.98925],[-7.07912,7.6779],[-6.9829,7.58915],[-7.0059,7.44554],[-7.08532,7.36601],[-7.06274,6.9295],[-7.53941,6.93906],[-7.60379,6.92927],[-7.62214,6.84702],[-7.8027,6.84191],[-7.98966,6.96836],[-8.09937,6.89544],[-8.09209,6.80475],[-8.16428,6.71701],[-8.32768,6.58619],[-8.44165,6.65531],[-8.32499,6.80625],[-8.30261,7.1376],[-8.48545,7.55799],[-8.4148,7.61292],[-8.22898,7.54429],[-8.09826,7.79188],[-8.12888,7.88257],[-8.06909,8.02928]]]}},{"type":"Feature","properties":{"id":"ci-07","lat":6.88944,"lng":-5.16815},"geometry":{"type":"Polygon","coordinates":[[[-4.7402,6.60115],[-4.79384,6.4888],[-4.7343,6.47175],[-4.6942,6.28817],[-4.74914,6.24303],[-5.00685,6.24156],[-5.17872,6.377],[-5.28657,6.36576],[-5.33685,6.51898],[-5.30853,6.58916],[-5.40941,6.61399],[-5.4371,6.76672],[-5.53736,6.89645],[-5.45922,7.02898],[-5.49395,7.13533],[-5.59575,7.15101],[-5.66216,7.257],[-5.44542,7.30043],[-5.37571,7.23008],[-5.28859,7.23628],[-4.89429,7.54166],[-4.66103,7.51621],[-4.63209,7.44895],[-4.73048,7.41665],[-4.70836,7.26917],[-4.8174,7.01035],[-4.8036,6.88242],[-4.95403,6.82142],[-4.9716,6.74819],[-4.91631,6.5951],[-4.7402,6.60115]]]}},{"type":"Feature","properties":{"id":"ci-08","lat":8.4986,"lng":-3.25461},"geometry":{"type":"Polygon","coordinates":[[[-2.68921,9.48872],[-2.715,9.31106],[-2.66115,9.25391],[-2.77484,9.05498],[-2.66079,9.0149],[-2.61945,8.92362],[-2.50633,8.20927],[-2.61066,8.16485],[-2.61056,8.04],[-2.79063,7.94329],[-2.94152,7.57716],[-2.97281,7.21496],[-3.09659,7.05448],[-3.22308,7.21749],[-3.36457,7.2245],[-3.43072,7.32898],[-3.53505,7.33793],[-3.5089,7.44887],[-3.59391,7.51683],[-3.57872,7.58713],[-3.63804,7.58168],[-3.74005,7.73284],[-3.87203,7.7741],[-3.87994,7.88505],[-3.97657,7.91295],[-3.9342,7.97776],[-4.0099,7.96683],[-3.9943,8.08969],[-3.9403,8.11609],[-4.01993,8.18376],[-4.04267,8.30479],[-3.95983,8.31885],[-3.98784,8.41892],[-3.93285,8.46959],[-3.98128,8.52762],[-3.92288,8.57263],[-3.93652,8.67337],[-3.79121,8.77636],[-3.89766,8.94628],[-3.8031,9.00741],[-3.87787,9.04183],[-3.84408,9.10363],[-3.89932,9.11045],[-3.89363,9.16549],[-4.09052,9.2675],[-4.17713,9.23729],[-4.19641,9.44457],[-4.32248,9.60898],[-4.28364,9.73202],[-4.15026,9.81829],[-4.05368,9.79762],[-3.66166,9.94893],[-3.31718,9.90133],[-3.30173,9.84113],[-3.21476,9.91562],[-3.09456,9.73385],[-2.98999,9.70843],[-2.81042,9.41111],[-2.76368,9.39188],[-2.68921,9.48872]]]}},{"type":"Feature","properties":{"id":"ci-09","lat":5.47676,"lng":-6.62081},"geometry":{"type":"Polygon","coordinates":[[[-7.38412,5.56896],[-7.41796,5.62776],[-7.09406,5.69061],[-7.11545,6.45955],[-6.99742,6.55787],[-6.96983,6.39803],[-6.83981,6.24977],[-6.39994,6.30478],[-6.37457,6.10337],[-6.21856,5.77812],[-6.10626,5.77704],[-5.96958,5.51481],[-5.82881,5.55948],[-5.75274,5.21198],[-5.86468,5.16573],[-5.85868,5.02769],[-6.90315,4.66201],[-7.43871,4.35098],[-7.54067,4.35285],[-7.6055,4.89743],[-7.54953,4.91389],[-7.57579,5.07207],[-7.48892,5.14067],[-7.47569,5.26423],[-7.38975,5.31714],[-7.45021,5.43871],[-7.38412,5.56896]]]}},{"type":"Feature","properties":{"id":"ci-10","lat":9.45353,"lng":-7.43485},"geometry":{"type":"Polygon","coordinates":[[[-8.14536,9.49715],[-8.17384,9.94187],[-8.12753,10.03712],[-7.98966,10.16199],[-7.829,10.21165],[-7.66441,10.43714],[-7.48985,10.45611],[-7.44442,10.3342],[-7.37234,10.34477],[-7.3634,10.25219],[-7.10636,10.20726],[-7.04052,10.14005],[-6.95939,10.1855],[-6.99711,10.25276],[-6.96125,10.34487],[-6.6562,10.35415],[-6.58349,10.16718],[-6.72281,10.10238],[-6.87319,10.1221],[-6.9475,9.96025],[-6.78591,9.94784],[-6.73449,9.85568],[-6.79774,9.56533],[-6.74085,9.51234],[-6.784,9.38759],[-6.73832,9.1459],[-6.89733,9.05226],[-6.9074,8.94271],[-7.12326,9.0078],[-7.23271,8.94302],[-7.18645,8.52361],[-7.66012,8.94535],[-7.73629,9.07257],[-7.92956,9.18389],[-7.86538,9.40992],[-8.05405,9.38909],[-8.14536,9.49715]]]}},{"type":"Feature","properties":{"id":"ci-11","lat":7.12473,"lng":-4.18847},"geometry":{"type":"Polygon","coordinates":[[[-3.77488,6.62714],[-4.09765,6.47694],[-4.15543,6.37313],[-4.14659,6.23424],[-4.24824,6.18539],[-4.42218,6.27949],[-4.463,6.22401],[-4.70154,6.28205],[-4.70165,6.40067],[-4.79384,6.4888],[-4.7402,6.60115],[-4.91042,6.59262],[-4.95403,6.66533],[-4.95403,6.82142],[-4.80107,6.88963],[-4.8174,7.01035],[-4.70836,7.26917],[-4.72583,7.42683],[-4.63209,7.44895],[-4.66103,7.51621],[-4.5169,7.59899],[-4.52719,7.79978],[-4.39407,7.81105],[-4.15713,7.9991],[-4.01011,8.02832],[-4.0099,7.96683],[-3.9342,7.97776],[-3.97657,7.91295],[-3.87994,7.88505],[-3.87203,7.7741],[-3.72713,7.72203],[-3.5089,7.44887],[-3.52828,7.28589],[-3.64548,7.17762],[-3.56998,7.07184],[-3.77519,6.97901],[-3.72972,6.91201],[-3.79627,6.7599],[-3.77488,6.62714]]]}},{"type":"Feature","properties":{"id":"ci-12","lat":7.08215,"lng":-5.76929},"geometry":{"type":"Polygon","coordinates":[[[-5.4134,6.64009],[-5.73993,6.48865],[-6.04079,6.51976],[-6.0888,6.56973],[-6.21644,6.98342],[-5.93185,7.16535],[-6.17184,7.28811],[-6.25318,7.21292],[-6.44578,7.25483],[-6.31442,7.50021],[-6.07655,7.63607],[-6.00787,7.73772],[-5.79574,7.74392],[-5.67471,7.22364],[-5.49395,7.13533],[-5.45922,7.02898],[-5.53736,6.89645],[-5.4134,6.64009]]]}},{"type":"Feature","properties":{"id":"ci-13","lat":5.65627,"lng":-3.19084},"geometry":{"type":"MultiPolygon","coordinates":[[[[-3.11962,5.09133],[-3.26207,5.11099],[-3.27636,5.11811],[-3.23412,5.16348],[-3.11962,5.09133]]],[[[-3.16879,6.24605],[-3.02252,5.8545],[-3.02976,5.70425],[-2.9648,5.70978],[-2.94586,5.60829],[-2.78559,5.59503],[-2.73014,5.37316],[-2.78957,5.34686],[-2.78089,5.15088],[-3.13915,5.14232],[-3.20507,5.21866],[-3.14607,5.36884],[-3.26207,5.34089],[-3.28942,5.25218],[-3.24096,5.23168],[-3.32071,5.19351],[-3.27579,5.14912],[-3.31216,5.11994],[-3.53875,5.15729],[-3.40229,5.2372],[-3.43413,5.78029],[-3.30897,5.91879],[-3.16879,6.24605]]]]}},{"type":"Feature","properties":{"id":"ci-14","lat":8.42633,"lng":-6.37594},"geometry":{"type":"Polygon","coordinates":[[[-6.10575,7.6184],[-6.2139,7.68442],[-6.24884,7.77674],[-6.99722,7.7641],[-7.07163,7.71948],[-7.11266,8.3228],[-7.22997,8.62382],[-7.18899,8.7883],[-7.23079,8.94496],[-7.12326,9.0078],[-6.9074,8.94271],[-6.89733,9.05226],[-6.74658,9.11782],[-6.60602,9.0673],[-6.53399,9.15701],[-6.46025,9.07547],[-6.33653,9.20564],[-6.26444,9.20254],[-6.21504,9.15148],[-6.22713,9.00353],[-6.13515,8.94519],[-5.95635,8.64058],[-5.61043,8.52925],[-5.52304,8.46618],[-5.61906,8.44783],[-5.5787,8.40484],[-5.35406,8.27748],[-5.40119,8.11284],[-5.73993,8.00049],[-5.7791,7.75384],[-5.90633,7.70669],[-6.00787,7.73772],[-6.10575,7.6184]]]}},{"type":"Feature","properties":{"id":"ci-15","lat":5.61884,"lng":-5.50333},"geometry":{"type":"Polygon","coordinates":[[[-5.42832,5.09888],[-5.55053,5.11498],[-5.85868,5.02769],[-5.86468,5.16573],[-5.75274,5.21198],[-5.74396,5.27591],[-5.82881,5.55948],[-5.96958,5.51481],[-6.05164,5.67821],[-5.78484,5.9569],[-5.72882,6.19616],[-5.50521,6.16676],[-5.31256,6.23393],[-5.00778,6.11082],[-4.9377,5.79567],[-5.08808,5.23146],[-5.32152,5.23021],[-5.32448,5.19083],[-5.43566,5.25986],[-5.42832,5.09888]]]}},{"type":"Feature","properties":{"id":"ci-16","lat":6.1119,"lng":-3.96629},"geometry":{"type":"Polygon","coordinates":[[[-4.14659,6.23424],[-4.15543,6.37313],[-4.09765,6.47694],[-3.69044,6.64468],[-3.61132,6.35584],[-3.54244,6.3763],[-3.46048,6.19073],[-3.39563,6.1628],[-3.42699,6.061],[-3.38462,6.0017],[-3.46766,5.83755],[-3.72491,5.90708],[-3.81514,5.85525],[-3.92464,5.75787],[-3.93125,5.62162],[-4.33981,5.60255],[-4.65912,5.85812],[-4.4321,6.27608],[-4.24824,6.18539],[-4.14659,6.23424]]]}},{"type":"Feature","properties":{"id":"ci-17","lat":8.46218,"lng":-7.42455},"geometry":{"type":"Polygon","coordinates":[[[-7.83102,8.74766],[-7.95892,8.782],[-7.9416,8.97222],[-7.73629,9.07257],[-7.66012,8.94535],[-7.18645,8.52361],[-7.08383,7.98925],[-7.23947,7.99484],[-7.4497,8.16676],[-7.51222,8.08103],[-7.51062,7.9036],[-7.69268,7.8458],[-7.87065,8.01378],[-7.96564,8.02693],[-8.02129,8.10266],[-8.0033,8.18405],[-8.08552,8.16203],[-8.26598,8.24598],[-8.2544,8.44651],[-8.2003,8.49183],[-7.95628,8.49437],[-7.88233,8.42145],[-7.82383,8.47786],[-7.77102,8.38652],[-7.66245,8.37486],[-7.69681,8.62485],[-7.83102,8.74766]]]}},{"type":"Feature","properties":{"id":"ci-18","lat":6.13507,"lng":-6.06084},"geometry":{"type":"Polygon","coordinates":[[[-5.4817,6.64073],[-5.30853,6.58916],[-5.31091,6.39858],[-5.21531,6.36677],[-5.24435,6.21812],[-5.50521,6.16676],[-5.72882,6.19616],[-5.78484,5.9569],[-6.05164,5.67821],[-6.13003,5.79179],[-6.21856,5.77812],[-6.37457,6.10337],[-6.39994,6.30478],[-6.09856,6.37367],[-6.04079,6.51976],[-5.71037,6.49503],[-5.4817,6.64073]]]}},{"type":"Feature","properties":{"id":"ci-19","lat":6.30588,"lng":-7.63713},"geometry":{"type":"Polygon","coordinates":[[[-8.61872,6.49284],[-8.44165,6.65531],[-8.32768,6.58619],[-8.25016,6.62598],[-8.09209,6.80475],[-8.09937,6.89544],[-7.98966,6.96836],[-7.8027,6.84191],[-7.62214,6.84702],[-7.60379,6.92927],[-7.53941,6.93906],[-7.06274,6.9295],[-6.96993,6.69675],[-6.99742,6.55787],[-7.11545,6.45955],[-7.09406,5.69061],[-7.41796,5.62776],[-7.44654,5.84595],[-7.4944,5.80618],[-7.78663,5.95817],[-7.91437,6.27174],[-8.41181,6.34003],[-8.41827,6.45121],[-8.46752,6.48707],[-8.49723,6.43137],[-8.61872,6.49284]]]}}]}
