{"type":"FeatureCollection","features":[{"type":"Feature","properties":{"id":"cl-ai","lat":-46.44248,"lng":-72.73055},"geometry":{"type":"MultiPolygon","coordinates":[[[[-75.34496,-48.65032],[-75.29699,-48.72715],[-75.38419,-48.69647],[-75.49323,-48.77557],[-75.64786,-48.7789],[-75.64184,-48.70135],[-75.50756,-48.71754],[-75.34496,-48.65032]]],[[[-75.50621,-48.69476],[-75.61018,-48.66806],[-75.44066,-48.61053],[-75.62613,-48.63201],[-75.67536,-48.58319],[-75.65575,-48.48504],[-75.60644,-48.43922],[-75.54772,-48.47291],[-75.34435,-48.42742],[-75.3662,-48.54168],[-75.32152,-48.60003],[-75.50621,-48.69476]]],[[[-74.307,-48.46592],[-74.42903,-48.52581],[-74.51024,-48.4083],[-74.40722,-48.41815],[-74.307,-48.46592]]],[[[-74.52774,-48.6749],[-75.01085,-48.58685],[-75.03307,-48.50449],[-74.94563,-48.41758],[-74.83186,-48.3908],[-74.78157,-48.48504],[-74.71715,-48.45355],[-74.81359,-48.34254],[-74.73766,-48.12575],[-74.68004,-48.3034],[-74.58479,-48.37656],[-74.67349,-48.41815],[-74.60521,-48.45916],[-74.59944,-48.56365],[-74.53063,-48.62176],[-74.48713,-48.59043],[-74.52774,-48.6749]]],[[[-75.22448,-48.70648],[-75.31794,-48.34889],[-75.48656,-48.42303],[-75.55419,-48.39715],[-75.34577,-48.30145],[-75.55431,-48.30771],[-75.43391,-48.19899],[-75.53051,-48.23138],[-75.56583,-48.17132],[-75.58532,-48.08571],[-75.50463,-48.03135],[-75.45645,-48.06553],[-75.35098,-48.00449],[-75.28995,-48.21551],[-75.16478,-48.36956],[-75.18741,-48.41131],[-75.0987,-48.46592],[-75.14989,-48.483],[-75.0834,-48.50774],[-75.08275,-48.61346],[-75.22448,-48.70648]]],[[[-75.03112,-48.44378],[-75.25634,-48.06862],[-75.0175,-48.08302],[-74.80451,-48.17449],[-74.8413,-48.35931],[-75.03112,-48.44378]]],[[[-74.54381,-48.19899],[-74.60375,-48.23545],[-74.55818,-48.12233],[-74.37263,-48.25319],[-74.53441,-48.33563],[-74.54381,-48.19899]]],[[[-75.20702,-47.91695],[-74.94293,-47.88367],[-74.78832,-47.81232],[-74.77718,-47.97061],[-74.83487,-48.00791],[-74.76442,-48.02144],[-74.72738,-48.10589],[-75.01285,-48.04144],[-75.05236,-47.98626],[-75.27062,-48.02777],[-75.20702,-47.91695]]],[[[-74.52467,-47.86835],[-74.64402,-47.92311],[-74.68917,-47.81389],[-74.52618,-47.81287],[-74.52467,-47.86835]]],[[[-75.33396,-47.75895],[-75.31849,-47.70658],[-75.09164,-47.68049],[-75.05937,-47.74989],[-75.1232,-47.78191],[-75.02368,-47.80333],[-75.22731,-47.85471],[-75.19157,-47.80801],[-75.33396,-47.75895]]],[[[-74.98484,-47.76573],[-75.04263,-47.6668],[-74.90395,-47.68594],[-74.86137,-47.74388],[-74.98484,-47.76573]]],[[[-75.17399,-46.67796],[-75.16178,-46.78158],[-75.34225,-46.70174],[-75.17399,-46.67796]]],[[[-74.7211,-45.80983],[-74.78075,-46.01149],[-74.91967,-46.10418],[-75.06286,-46.10166],[-75.10611,-46.04705],[-74.98884,-46.00555],[-74.89045,-46.01621],[-74.85912,-45.99871],[-75.07877,-45.98504],[-75.02978,-45.96453],[-75.08873,-45.95029],[-75.09659,-45.86696],[-74.88353,-45.92938],[-74.97053,-45.86289],[-74.88939,-45.88193],[-74.83186,-45.80755],[-74.7211,-45.80983]]],[[[-74.54133,-45.57871],[-74.59569,-45.74578],[-74.70051,-45.72763],[-74.66047,-45.60149],[-74.54133,-45.57871]]],[[[-74.74987,-45.69769],[-74.86986,-45.60491],[-74.81583,-45.60516],[-74.74987,-45.69769]]],[[[-74.56819,-45.5237],[-74.44567,-45.42815],[-74.50133,-45.58807],[-74.56819,-45.5237]]],[[[-74.33312,-45.39902],[-74.48917,-45.35508],[-74.52579,-45.29502],[-74.38927,-45.28167],[-74.33312,-45.39902]]],[[[-75.03127,-44.90397],[-75.15236,-44.92121],[-75.19832,-44.80723],[-75.11318,-44.76652],[-75.02173,-44.84367],[-75.03127,-44.90397]]],[[[-74.31237,-44.8414],[-74.46939,-44.82684],[-74.52286,-44.73358],[-74.42711,-44.71819],[-74.31237,-44.8414]]],[[[-74.46898,-44.6972],[-74.63874,-44.68939],[-74.66735,-44.65618],[-74.55065,-44.622],[-74.46931,-44.63909],[-74.46898,-44.6972]]],[[[-74.76403,-44.67327],[-74.82584,-44.63096],[-74.79825,-44.54876],[-74.73253,-44.59319],[-74.76403,-44.67327]]],[[[-74.82733,-43.57179],[-74.71525,-43.5331],[-74.55749,-43.62741],[-74.77543,-43.67463],[-74.82733,-43.57179]]],[[[-74.23522,-48.3681],[-74.16381,-48.37396],[-74.05419,-48.45501],[-74.17907,-48.44313],[-74.23522,-48.3681]]],[[[-74.39318,-48.31316],[-74.29796,-48.28802],[-74.30232,-48.36338],[-74.2233,-48.44492],[-74.49543,-48.34987],[-74.3588,-48.37029],[-74.39318,-48.31316]]],[[[-74.39635,-47.83945],[-74.24893,-47.87689],[-74.33092,-47.8222],[-74.24523,-47.80641],[-73.90758,-47.88388],[-73.8369,-47.85687],[-73.81078,-47.91172],[-73.83703,-47.95387],[-73.923,-47.96364],[-73.92488,-47.91595],[-74.31847,-47.98121],[-74.50284,-47.9179],[-74.39635,-47.83945]]],[[[-74.31579,-47.07806],[-74.4547,-47.16774],[-74.49218,-47.09889],[-74.39843,-47.04949],[-74.31579,-47.07806]]],[[[-73.97525,-47.04762],[-74.1459,-47.17116],[-74.2307,-47.10215],[-74.16706,-47.01287],[-73.97525,-47.04762]]],[[[-73.92683,-45.74538],[-74.01561,-45.91399],[-74.09459,-45.76393],[-73.92683,-45.74538]]],[[[-74.11465,-45.59971],[-74.03059,-45.53314],[-73.91023,-45.591],[-73.92064,-45.69769],[-74.04357,-45.71551],[-74.11465,-45.59971]]],[[[-74.48029,-45.62119],[-74.40388,-45.44736],[-74.27355,-45.49529],[-74.22167,-45.60149],[-74.28991,-45.62249],[-74.208,-45.63551],[-74.43969,-45.77695],[-74.50284,-45.73235],[-74.44815,-45.643],[-74.48029,-45.62119]]],[[[-73.87047,-45.5617],[-74.02965,-45.51735],[-74.14501,-45.55804],[-74.04711,-45.42164],[-73.82502,-45.45208],[-73.87047,-45.5617]]],[[[-74.32535,-45.30234],[-74.41511,-45.247],[-74.38756,-45.15521],[-74.27355,-45.20794],[-74.32535,-45.30234]]],[[[-73.80968,-45.25644],[-73.98957,-45.24578],[-74.0841,-45.14007],[-74.20547,-45.16937],[-74.25011,-45.10963],[-74.1739,-45.02606],[-73.84557,-45.00124],[-73.70153,-45.13592],[-73.74185,-45.27996],[-73.80968,-45.25644]]],[[[-74.1883,-44.86907],[-73.9132,-44.95037],[-74.28014,-45.02744],[-74.3636,-44.99725],[-74.1883,-44.86907]]],[[[-74.17626,-44.81846],[-74.00992,-44.77321],[-73.96125,-44.7907],[-74.0393,-44.85312],[-74.17626,-44.81846]]],[[[-73.87755,-44.6806],[-74.27969,-44.80381],[-74.36876,-44.74749],[-74.31786,-44.70452],[-74.41344,-44.65277],[-74.02562,-44.60312],[-73.87755,-44.6806]]],[[[-74.30089,-44.57781],[-74.3684,-44.52557],[-74.19371,-44.49228],[-74.13288,-44.54697],[-74.30089,-44.57781]]],[[[-74.13659,-44.445],[-73.97155,-44.47129],[-73.94734,-44.54355],[-74.12645,-44.53428],[-74.03604,-44.49847],[-74.13659,-44.445]]],[[[-74.54113,-44.45379],[-74.42028,-44.47129],[-74.30639,-44.39373],[-74.22305,-44.46738],[-74.42028,-44.5053],[-74.42101,-44.54664],[-74.5233,-44.52646],[-74.54113,-44.45379]]],[[[-73.9405,-44.45062],[-74.08153,-44.38397],[-74.11242,-44.32724],[-73.92683,-44.35459],[-73.9405,-44.45062]]],[[[-74.29003,-44.2973],[-74.4099,-44.28444],[-74.41686,-44.26491],[-74.32201,-44.24944],[-74.29003,-44.2973]]],[[[-74.12629,-44.20029],[-74.06432,-44.14902],[-73.89363,-44.23935],[-74.00935,-44.25726],[-73.98957,-44.32724],[-74.0314,-44.32586],[-74.12629,-44.20029]]],[[[-74.38557,-44.1596],[-74.29621,-44.14332],[-74.25817,-44.17311],[-74.33739,-44.18987],[-74.38557,-44.1596]]],[[[-74.29833,-44.03191],[-74.27742,-44.0119],[-74.208,-44.0193],[-74.29833,-44.03191]]],[[[-71.85874,-44.1078],[-71.80401,-44.31481],[-71.86416,-44.35915],[-71.82205,-44.40318],[-71.20978,-44.42757],[-71.1224,-44.54942],[-71.2134,-44.6071],[-71.29784,-44.79561],[-71.4971,-44.7429],[-71.85455,-44.79096],[-72.04782,-44.75479],[-72.08094,-44.88656],[-71.58873,-44.97813],[-71.31153,-45.29946],[-71.50832,-45.40839],[-71.48909,-45.49851],[-71.7651,-45.57241],[-71.80179,-45.72403],[-71.75848,-45.84816],[-71.61229,-45.97053],[-71.77016,-46.11264],[-71.91263,-46.14209],[-71.76334,-46.24451],[-71.6805,-46.53814],[-71.68717,-46.69007],[-71.9501,-46.81399],[-71.97036,-46.94845],[-71.91481,-46.99847],[-72.00519,-47.06193],[-71.86328,-47.1966],[-71.91253,-47.23453],[-72.0303,-47.19753],[-72.03816,-47.28704],[-72.17055,-47.40754],[-72.36119,-47.45095],[-72.34444,-47.60226],[-72.54391,-47.9148],[-72.34305,-48.07045],[-72.29509,-48.33328],[-72.57678,-48.45213],[-72.61471,-48.51001],[-72.59233,-48.79113],[-72.78121,-48.93386],[-73.00973,-48.99039],[-73.17114,-49.25074],[-74.08922,-48.71722],[-74.33092,-48.71299],[-74.28991,-48.69248],[-74.36433,-48.68231],[-74.39977,-48.61053],[-74.32799,-48.54901],[-74.19713,-48.47332],[-73.99348,-48.59726],[-74.02855,-48.44801],[-73.89269,-48.41131],[-74.2379,-48.35076],[-74.10717,-48.30609],[-74.27009,-48.33563],[-74.31786,-48.21209],[-74.44249,-48.18239],[-74.51207,-48.08994],[-74.46866,-48.02777],[-74.62682,-48.0589],[-74.62541,-48.00423],[-74.53746,-47.96307],[-74.4154,-47.98366],[-74.20564,-48.23105],[-74.17199,-48.2186],[-74.33092,-48.00042],[-73.8911,-48.02223],[-73.87971,-48.09596],[-73.76985,-48.02777],[-73.80419,-48.10809],[-73.60131,-48.13014],[-73.55626,-48.24684],[-73.4864,-48.17254],[-73.35143,-48.2195],[-73.27668,-48.13836],[-73.29003,-48.06243],[-73.29459,-48.12705],[-73.4003,-48.16204],[-73.6422,-47.98358],[-73.64269,-47.89658],[-73.50707,-47.97796],[-73.22785,-48.00408],[-73.48131,-47.96307],[-73.51684,-47.87851],[-73.61901,-47.86386],[-73.55012,-47.80804],[-73.73192,-47.7431],[-73.66617,-47.61631],[-73.70153,-47.62982],[-73.67357,-47.56846],[-73.72142,-47.52744],[-73.77599,-47.58896],[-73.73095,-47.62371],[-73.77294,-47.77947],[-73.92369,-47.84271],[-74.06774,-47.77077],[-74.5489,-47.78476],[-74.73559,-47.71868],[-74.65673,-47.64414],[-74.56762,-47.68092],[-74.63219,-47.62127],[-74.55671,-47.55006],[-74.52066,-47.6032],[-74.43765,-47.55478],[-74.34455,-47.63665],[-74.48176,-47.69883],[-74.34455,-47.67083],[-74.29589,-47.72536],[-74.20507,-47.75661],[-74.15966,-47.74652],[-74.30358,-47.67832],[-74.04353,-47.60947],[-74.14,-47.5862],[-74.0572,-47.53428],[-74.31412,-47.5958],[-74.34455,-47.51995],[-74.45352,-47.48105],[-74.3944,-47.44655],[-74.46532,-47.41815],[-74.50658,-47.46966],[-74.52855,-47.43174],[-74.3247,-47.21893],[-74.1776,-47.20526],[-74.11242,-47.33555],[-74.11539,-47.19297],[-74.01623,-47.17742],[-73.9735,-47.25498],[-73.98957,-47.16741],[-74.0572,-47.15691],[-73.94127,-47.02793],[-74.15323,-46.96722],[-74.20865,-46.89398],[-74.12609,-46.82855],[-74.24332,-46.86468],[-74.26684,-46.78167],[-74.59162,-46.72552],[-74.47765,-46.77239],[-74.64,-46.78004],[-74.67349,-46.84905],[-74.43456,-46.85589],[-74.47916,-46.90228],[-74.68098,-46.88388],[-74.81526,-46.76849],[-74.85635,-46.8139],[-75.0065,-46.75351],[-75.08336,-46.64088],[-74.94164,-46.51678],[-74.93419,-46.4376],[-75.20173,-46.62998],[-75.41487,-46.63274],[-75.57506,-46.68792],[-75.66104,-46.76718],[-75.5406,-46.69817],[-75.42248,-46.71396],[-75.47606,-46.77402],[-75.38671,-46.78004],[-75.43391,-46.86338],[-75.3463,-46.8668],[-75.41055,-46.93157],[-75.55175,-46.94834],[-75.65022,-46.87322],[-75.70702,-46.78655],[-75.7047,-46.63925],[-75.51708,-46.5543],[-75.5406,-46.51328],[-75.37304,-46.47161],[-75.40111,-46.44053],[-75.34533,-46.39479],[-75.27062,-46.3624],[-75.22224,-46.40398],[-75.19628,-46.29827],[-75.10578,-46.3471],[-75.02978,-46.34197],[-75.13866,-46.31406],[-75.09069,-46.21608],[-74.92805,-46.27361],[-74.95812,-46.21527],[-74.87955,-46.14674],[-74.77721,-46.21217],[-74.8212,-46.11224],[-74.70149,-46.03289],[-74.72875,-45.94402],[-74.64733,-45.81618],[-74.55997,-45.82627],[-74.55809,-45.90309],[-74.45816,-45.93385],[-74.46471,-46.02215],[-74.39977,-45.93719],[-74.46182,-45.81504],[-74.17028,-45.79176],[-74.10314,-45.83685],[-74.19278,-45.88193],[-74.05919,-45.92986],[-74.16706,-46.00555],[-74.08385,-46.02972],[-74.16706,-46.13641],[-74.07628,-46.09612],[-74.04353,-45.97877],[-73.96947,-46.06097],[-74.02131,-46.14821],[-74.33837,-46.25254],[-74.4899,-46.18939],[-74.34215,-46.26084],[-74.04971,-46.19109],[-74.07771,-46.32203],[-74.02644,-46.28672],[-73.84488,-46.34197],[-74.01928,-46.20436],[-73.88183,-46.14178],[-73.76232,-46.27361],[-73.98917,-46.55975],[-73.92455,-46.59694],[-73.85171,-46.59515],[-73.78213,-46.49481],[-73.74185,-46.53379],[-73.75552,-46.44443],[-73.67227,-46.35955],[-73.48864,-46.30096],[-73.56835,-46.27044],[-73.52392,-46.17523],[-73.34459,-46.02654],[-73.43029,-46.02972],[-73.68786,-46.32203],[-73.61901,-46.10231],[-73.66055,-45.97568],[-73.40209,-45.70192],[-73.18578,-45.66253],[-73.32726,-45.61907],[-73.59166,-45.78021],[-73.51732,-45.46038],[-73.44587,-45.41351],[-73.40608,-45.45127],[-73.39244,-45.37558],[-73.32356,-45.39593],[-73.32771,-45.34092],[-73.22643,-45.30088],[-73.01431,-45.44476],[-72.85953,-45.46445],[-72.83064,-45.41806],[-72.98152,-45.40097],[-73.25666,-45.24822],[-73.44807,-45.27947],[-73.45006,-45.19948],[-73.30443,-45.14479],[-73.39778,-44.98821],[-73.1171,-44.94834],[-72.72765,-44.75856],[-72.67984,-44.54355],[-72.59797,-44.5053],[-72.59113,-44.34075],[-72.72191,-44.5014],[-72.75023,-44.44899],[-72.92463,-44.37371],[-72.93993,-44.30674],[-73.1835,-44.24814],[-73.12808,-44.14577],[-73.19766,-44.19549],[-73.2836,-44.17409],[-73.2154,-44.06797],[-73.11612,-44.08571],[-73.13915,-43.98512],[-73.01269,-43.77215],[-72.96728,-43.82008],[-72.89892,-43.77695],[-72.82461,-43.80788],[-72.84716,-43.67946],[-72.88589,-43.75115],[-73.04233,-43.72959],[-72.82545,-43.63646],[-72.76832,-43.72565],[-72.56166,-43.77733],[-72.34819,-43.73304],[-72.12952,-43.94626],[-71.79484,-44.00093],[-71.74526,-44.045],[-71.85874,-44.1078]]],[[[-73.68668,-46.07285],[-73.79206,-46.19687],[-73.9405,-46.06813],[-73.83739,-46.01295],[-73.68668,-46.07285]]],[[[-73.81949,-45.99871],[-73.75552,-45.88885],[-73.68318,-46.01767],[-73.81949,-45.99871]]],[[[-73.69408,-45.88885],[-73.78966,-45.87575],[-73.88313,-45.98089],[-73.93432,-45.97194],[-73.91145,-45.87526],[-73.74185,-45.79388],[-73.69408,-45.88885]]],[[[-73.60318,-45.4577],[-73.61148,-45.62933],[-73.68041,-45.62249],[-73.61148,-45.69085],[-73.65392,-45.7527],[-73.81827,-45.64251],[-73.74185,-45.60898],[-73.7862,-45.56992],[-73.72224,-45.45778],[-73.60318,-45.4577]]],[[[-74.01122,-45.41123],[-73.94103,-45.36631],[-73.82445,-45.39593],[-73.92174,-45.43043],[-74.01122,-45.41123]]],[[[-73.78124,-45.32415],[-74.11852,-45.3283],[-74.16706,-45.25262],[-74.07038,-45.20428],[-73.98607,-45.27077],[-73.82445,-45.26629],[-73.78124,-45.32415]]],[[[-73.85448,-44.76873],[-73.76232,-44.92986],[-73.81371,-44.96087],[-73.92369,-44.89267],[-73.92675,-44.85442],[-73.8579,-44.89569],[-73.94058,-44.80291],[-73.85448,-44.76873]]],[[[-73.65242,-44.83913],[-73.74926,-44.80283],[-73.74169,-44.75465],[-73.60473,-44.74489],[-73.65242,-44.83913]]],[[[-73.39127,-44.58896],[-73.23168,-44.63258],[-73.25866,-44.53265],[-73.13244,-44.55633],[-73.24157,-44.51214],[-73.24625,-44.43719],[-73.1671,-44.40911],[-73.0362,-44.4848],[-73.09081,-44.40228],[-73.00202,-44.36126],[-72.92626,-44.43711],[-72.98095,-44.51214],[-72.8723,-44.43711],[-72.72118,-44.52801],[-72.81334,-44.63633],[-72.98095,-44.60149],[-72.83764,-44.71014],[-73.25699,-44.94004],[-73.40758,-44.82244],[-73.20743,-44.79266],[-73.39342,-44.78867],[-73.46813,-44.64251],[-73.39127,-44.58896]]],[[[-73.60294,-44.71575],[-73.75251,-44.74139],[-73.84431,-44.65252],[-73.8214,-44.57871],[-73.67992,-44.54485],[-73.62515,-44.622],[-73.65998,-44.67653],[-73.60294,-44.71575]]],[[[-73.86701,-44.46608],[-73.88769,-44.36924],[-73.78295,-44.44305],[-73.86701,-44.46608]]],[[[-73.68212,-44.34889],[-73.65998,-44.38551],[-73.72883,-44.3886],[-73.6787,-44.4345],[-73.78966,-44.38242],[-73.68212,-44.34889]]],[[[-73.25805,-44.30918],[-73.21056,-44.32383],[-73.17675,-44.37493],[-73.28319,-44.38152],[-73.25805,-44.30918]]],[[[-73.97525,-44.28965],[-73.81383,-44.26507],[-73.78905,-44.3095],[-73.89615,-44.33473],[-73.97525,-44.28965]]],[[[-73.72204,-44.30283],[-73.75316,-44.25286],[-73.67569,-44.24131],[-73.67536,-44.27793],[-73.72204,-44.30283]]],[[[-73.91763,-44.0984],[-73.83568,-44.18304],[-74.01623,-44.14284],[-73.91763,-44.0984]]],[[[-73.71133,-43.93719],[-73.61022,-44.08514],[-73.65054,-44.13193],[-73.75499,-43.98528],[-73.71133,-43.93719]]],[[[-73.27261,-43.91937],[-73.14428,-43.89251],[-73.1516,-44.0158],[-73.27514,-43.99407],[-73.27261,-43.91937]]],[[[-74.11652,-43.8096],[-73.8651,-43.76263],[-73.76232,-43.88893],[-73.92846,-43.84075],[-73.97525,-43.86785],[-73.90636,-43.90944],[-73.99572,-43.9367],[-74.16637,-43.87298],[-74.11652,-43.8096]]]]}},{"type":"Feature","properties":{"id":"cl-an","lat":-23.49326,"lng":-68.82396},"geometry":{"type":"Polygon","coordinates":[[[-68.53155,-20.92769],[-68.41631,-20.9598],[-68.20754,-21.28433],[-68.19844,-21.57186],[-68.09623,-21.95396],[-67.96063,-22.10289],[-67.95189,-22.33409],[-67.85919,-22.54731],[-67.87634,-22.83359],[-67.61677,-22.89726],[-67.1939,-22.82222],[-67.01397,-23.00071],[-67.33979,-24.0006],[-68.24449,-24.38538],[-68.32681,-24.49825],[-68.39766,-24.50052],[-68.4515,-24.6293],[-68.50369,-24.61235],[-68.57801,-24.80872],[-68.36665,-25.12343],[-68.49305,-25.15588],[-68.55423,-25.29119],[-68.68976,-25.37085],[-69.00552,-25.38501],[-68.99426,-25.47958],[-69.07953,-25.64954],[-69.56825,-25.64805],[-69.88325,-25.7467],[-70.14734,-25.73714],[-70.27142,-25.82623],[-70.3987,-25.82307],[-70.63464,-26.02863],[-70.73999,-25.82932],[-70.63478,-25.6255],[-70.64688,-25.52166],[-70.44481,-25.3449],[-70.58283,-24.52483],[-70.5061,-24.16738],[-70.49853,-23.7846],[-70.39074,-23.57692],[-70.49698,-23.46947],[-70.53932,-23.53227],[-70.63161,-23.51704],[-70.58507,-23.4236],[-70.60012,-23.24423],[-70.56225,-23.05983],[-70.50617,-23.01002],[-70.48439,-23.08603],[-70.42542,-23.08853],[-70.29157,-22.90195],[-70.19213,-21.88437],[-70.08292,-21.48333],[-69.7424,-21.38417],[-69.44999,-21.44634],[-68.79435,-21.24087],[-68.5579,-21.06414],[-68.53155,-20.92769]]]}},{"type":"Feature","properties":{"id":"cl-ap","lat":-18.39159,"lng":-69.72026},"geometry":{"type":"Polygon","coordinates":[[[-69.51009,-17.50659],[-69.49712,-17.6214],[-69.33424,-17.80579],[-69.30241,-17.97621],[-69.08172,-18.03998],[-69.15544,-18.14024],[-68.95984,-18.90784],[-69.19298,-19.10287],[-69.78829,-18.9882],[-70.27033,-19.17148],[-70.3566,-18.77337],[-70.30356,-18.44544],[-70.3947,-18.33775],[-70.15907,-18.32597],[-69.97034,-18.25062],[-69.7831,-17.9816],[-69.84983,-17.69159],[-69.6839,-17.65604],[-69.51009,-17.50659]]]}},{"type":"Feature","properties":{"id":"cl-ar","lat":-38.68919,"lng":-72.15288},"geometry":{"type":"MultiPolygon","coordinates":[[[[-71.00998,-38.16227],[-70.97375,-38.42468],[-70.8343,-38.56441],[-70.87383,-38.69144],[-71.3999,-38.91054],[-71.41205,-39.31796],[-71.54196,-39.53231],[-71.49566,-39.56559],[-71.52,-39.615],[-71.63239,-39.60755],[-71.68092,-39.49599],[-71.77021,-39.45537],[-71.99203,-39.72972],[-72.37385,-39.73303],[-72.54533,-39.62321],[-72.96619,-39.58916],[-72.95694,-39.37977],[-73.24669,-39.38585],[-73.20983,-39.19378],[-73.24543,-39.22129],[-73.43342,-38.68694],[-73.44506,-38.76141],[-73.52066,-38.52158],[-73.52514,-38.47568],[-73.36417,-38.42536],[-73.27046,-38.47682],[-73.28082,-38.33167],[-73.09137,-38.13783],[-73.16656,-38.02502],[-73.05915,-37.81133],[-73.11194,-37.72204],[-73.07156,-37.64928],[-72.50565,-37.67951],[-72.37721,-37.85356],[-72.08916,-38.01649],[-71.72063,-38.05706],[-71.74556,-38.10227],[-71.65508,-38.24614],[-71.31293,-38.06305],[-71.00998,-38.16227]]],[[[-73.87532,-38.36842],[-73.9121,-38.40993],[-73.95344,-38.31357],[-73.93078,-38.32383],[-73.87532,-38.36842]]]]}},{"type":"Feature","properties":{"id":"cl-at","lat":-27.54114,"lng":-69.98328},"geometry":{"type":"Polygon","coordinates":[[[-68.55423,-25.29119],[-68.60824,-25.49291],[-68.40902,-26.14424],[-68.57516,-26.30351],[-68.59532,-26.4573],[-68.30536,-26.898],[-68.33048,-27.04496],[-68.51801,-27.0769],[-68.58586,-27.16278],[-68.81432,-27.12031],[-68.93145,-27.39523],[-69.01741,-27.46044],[-69.19019,-27.95137],[-69.30323,-27.99953],[-69.42031,-28.21264],[-69.49051,-28.19838],[-69.65303,-28.39785],[-69.6784,-28.57386],[-69.75339,-28.67339],[-69.80393,-29.09869],[-70.04066,-29.29754],[-69.92935,-29.71788],[-70.08915,-29.74697],[-70.30216,-29.6756],[-70.45598,-29.51086],[-70.60532,-29.09145],[-70.70813,-29.07089],[-70.76283,-29.15135],[-70.97471,-29.20664],[-71.05238,-29.3858],[-71.19932,-29.33547],[-71.33735,-29.19238],[-71.48712,-29.21134],[-71.51122,-28.88958],[-71.30187,-28.6749],[-71.31623,-28.57293],[-71.17394,-28.36061],[-71.10473,-27.83896],[-71.03161,-27.6574],[-70.91242,-27.62184],[-70.95995,-27.16139],[-70.78865,-26.99627],[-70.82421,-26.87379],[-70.73247,-26.74928],[-70.69929,-26.393],[-70.62995,-26.34098],[-70.68144,-26.3045],[-70.63464,-26.02863],[-70.3987,-25.82307],[-70.27142,-25.82623],[-70.14734,-25.73714],[-69.88325,-25.7467],[-69.56825,-25.64805],[-69.07953,-25.64954],[-68.99426,-25.47958],[-69.00552,-25.38501],[-68.71668,-25.37943],[-68.55423,-25.29119]]]}},{"type":"Feature","properties":{"id":"cl-bi","lat":-37.40716,"lng":-72.39706},"geometry":{"type":"MultiPolygon","coordinates":[[[[-71.08912,-37.10342],[-71.2056,-37.29266],[-71.1177,-37.4665],[-71.19227,-37.6609],[-71.01614,-38.1437],[-71.31293,-38.06305],[-71.65508,-38.24614],[-71.74556,-38.10227],[-71.72063,-38.05706],[-72.08916,-38.01649],[-72.37721,-37.85356],[-72.50565,-37.67951],[-73.06109,-37.64716],[-73.11194,-37.72204],[-73.05915,-37.81133],[-73.16656,-38.02502],[-73.09137,-38.13783],[-73.28082,-38.33167],[-73.27046,-38.47682],[-73.36417,-38.42536],[-73.52477,-38.47811],[-73.46296,-38.0512],[-73.66808,-37.71941],[-73.68513,-37.5984],[-73.59789,-37.49188],[-73.68041,-37.34783],[-73.64464,-37.20143],[-73.59447,-37.15244],[-73.46068,-37.24196],[-73.23697,-37.1915],[-73.14538,-36.83392],[-73.20743,-36.77532],[-73.1317,-36.73642],[-73.11864,-36.5971],[-73.07022,-36.7138],[-72.98803,-36.70257],[-72.98619,-36.52142],[-72.93224,-36.52361],[-72.89586,-36.43808],[-72.8126,-36.46281],[-72.79825,-36.60596],[-72.60024,-36.72401],[-72.55632,-36.87181],[-72.6546,-36.91577],[-72.38594,-36.92484],[-72.19189,-37.03317],[-72.25936,-37.09805],[-72.24171,-37.19097],[-71.57232,-37.13094],[-71.45131,-37.03658],[-71.08912,-37.10342]]],[[[-73.51888,-37.07992],[-73.5203,-37.00581],[-73.44649,-37.05917],[-73.51888,-37.07992]]]]}},{"type":"Feature","properties":{"id":"cl-co","lat":-30.72665,"lng":-70.98467},"geometry":{"type":"Polygon","coordinates":[[[-69.92935,-29.71788],[-69.92219,-29.93957],[-69.98037,-30.07248],[-69.84974,-30.12664],[-69.84896,-30.19909],[-69.96459,-30.37479],[-70.17341,-30.36466],[-70.14393,-30.43959],[-70.21711,-30.51514],[-70.33922,-30.93816],[-70.26656,-31.03645],[-70.33979,-31.04172],[-70.40864,-31.15004],[-70.4798,-31.09671],[-70.56897,-31.30424],[-70.58977,-31.56768],[-70.47523,-31.82007],[-70.24447,-31.94224],[-70.2847,-32.04678],[-70.38748,-32.04171],[-70.33082,-32.20959],[-70.44445,-32.21405],[-70.72123,-32.0305],[-70.95987,-31.97391],[-71.04542,-32.03065],[-71.18097,-31.99712],[-71.339,-32.07923],[-71.44837,-32.04316],[-71.54384,-32.19303],[-71.50113,-31.88982],[-71.66617,-31.16985],[-71.70348,-30.50856],[-71.63777,-30.24147],[-71.54214,-30.28533],[-71.44591,-30.16237],[-71.39879,-30.17669],[-71.41246,-29.99179],[-71.28258,-29.88014],[-71.33593,-29.72812],[-71.28808,-29.60312],[-71.33605,-29.525],[-71.30883,-29.40887],[-71.36091,-29.29559],[-71.48712,-29.21134],[-71.33735,-29.19238],[-71.19932,-29.33547],[-71.05238,-29.3858],[-70.97471,-29.20664],[-70.76283,-29.15135],[-70.70813,-29.07089],[-70.60532,-29.09145],[-70.45598,-29.51086],[-70.30216,-29.6756],[-70.08915,-29.74697],[-69.92935,-29.71788]]]}},{"type":"Feature","properties":{"id":"cl-li","lat":-34.58689,"lng":-71.1376},"geometry":{"type":"Polygon","coordinates":[[[-70.04818,-34.28346],[-70.06758,-34.41459],[-70.3163,-34.74563],[-70.27671,-34.79824],[-70.37245,-35.02739],[-70.64925,-35.01399],[-70.78513,-34.91988],[-70.95695,-34.91544],[-71.17053,-34.81839],[-71.32572,-34.84516],[-71.41796,-34.92531],[-71.7368,-34.95105],[-72.10302,-34.76092],[-72.05549,-34.42815],[-71.98908,-34.35524],[-72.02684,-34.16269],[-71.87125,-33.9328],[-71.06685,-34.18577],[-70.94913,-34.15104],[-70.815,-34.02738],[-70.81156,-33.95757],[-70.43758,-33.90015],[-70.314,-34.06004],[-70.18876,-34.08154],[-70.04818,-34.28346]]]}},{"type":"Feature","properties":{"id":"cl-ll","lat":-42.15974,"lng":-72.23911},"geometry":{"type":"MultiPolygon","coordinates":[[[[-74.25336,-43.35039],[-74.23073,-43.41337],[-74.28403,-43.41784],[-74.25336,-43.35039]]],[[[-73.66124,-43.2448],[-73.71852,-43.21598],[-73.72669,-43.19169],[-73.65642,-43.196],[-73.66124,-43.2448]]],[[[-73.58845,-42.91351],[-73.3651,-42.99082],[-73.61148,-42.93621],[-73.58845,-42.91351]]],[[[-73.60717,-42.63738],[-73.72142,-42.63453],[-73.75504,-42.59881],[-73.62096,-42.56805],[-73.60717,-42.63738]]],[[[-74.40722,-43.23789],[-74.16736,-42.88251],[-74.12838,-42.64114],[-74.18962,-42.43191],[-74.1595,-42.2413],[-74.05334,-42.13034],[-74.05529,-41.945],[-74.00878,-41.88787],[-74.06404,-41.80592],[-73.91706,-41.78265],[-73.89611,-41.84271],[-74.00617,-41.84515],[-73.76985,-41.90154],[-73.69099,-41.80902],[-73.50231,-41.84002],[-73.57844,-41.94549],[-73.45645,-42.04437],[-73.50231,-42.11663],[-73.38622,-42.19573],[-73.38475,-42.29306],[-73.66617,-42.3541],[-73.68855,-42.45273],[-73.61148,-42.51165],[-73.75373,-42.53362],[-73.76232,-42.45713],[-73.82445,-42.51442],[-73.80915,-42.60866],[-73.49193,-42.81862],[-73.50951,-42.8777],[-73.70767,-42.86736],[-73.57738,-42.96575],[-73.52278,-43.05291],[-73.61174,-43.04955],[-73.50231,-43.12803],[-73.77575,-43.1181],[-73.74498,-43.22698],[-73.66605,-43.29441],[-73.73154,-43.31673],[-73.66901,-43.36385],[-73.79998,-43.35978],[-73.84749,-43.42348],[-73.92953,-43.3649],[-74.08495,-43.40163],[-74.40722,-43.23789]]],[[[-73.42097,-42.54795],[-73.62515,-42.44346],[-73.64631,-42.37379],[-73.5432,-42.37916],[-73.42097,-42.54795]]],[[[-73.03072,-42.69679],[-72.93044,-42.72334],[-72.91881,-42.78653],[-72.95652,-42.8078],[-73.03072,-42.69679]]],[[[-73.24104,-42.63137],[-73.29518,-42.65395],[-73.35693,-42.62904],[-73.24104,-42.63137]]],[[[-73.07323,-42.28899],[-73.14159,-42.31374],[-73.19392,-42.24912],[-73.10607,-42.24098],[-73.07323,-42.28899]]],[[[-71.73957,-42.0319],[-71.74944,-42.10435],[-71.90948,-42.17226],[-72.00984,-42.12471],[-72.12471,-42.26331],[-72.03919,-42.48123],[-72.14321,-42.55709],[-72.14854,-42.99872],[-72.05443,-43.10538],[-71.75016,-43.17245],[-71.75068,-43.29534],[-71.90173,-43.32201],[-71.95511,-43.44355],[-71.7143,-43.6022],[-71.70918,-43.68436],[-71.8192,-43.75805],[-71.75502,-43.77138],[-71.6696,-43.9598],[-71.74526,-44.045],[-72.10766,-43.95453],[-72.34819,-43.73304],[-72.56166,-43.77733],[-72.76832,-43.72565],[-72.82545,-43.63646],[-72.87573,-43.69589],[-73.04589,-43.72845],[-72.90583,-43.60768],[-73.02603,-43.58668],[-73.11132,-43.46103],[-73.08458,-43.31634],[-72.91218,-43.23545],[-72.93444,-43.09824],[-72.86486,-43.01873],[-72.73449,-43.07968],[-72.74714,-42.90976],[-72.86486,-42.75124],[-72.82384,-42.6653],[-72.8568,-42.55592],[-72.75357,-42.49188],[-72.53942,-42.55828],[-72.67846,-42.47845],[-72.84374,-42.27825],[-72.59455,-42.18206],[-72.41979,-42.43963],[-72.48131,-42.28851],[-72.41234,-42.2374],[-72.48131,-42.19915],[-72.42602,-42.14723],[-72.48803,-42.12754],[-72.46434,-41.97617],[-72.5172,-41.95094],[-72.58056,-42.03118],[-72.73729,-42.01393],[-72.88858,-41.91082],[-72.64513,-41.72283],[-72.49494,-41.71657],[-72.30309,-41.64821],[-72.34341,-41.61297],[-72.30309,-41.38079],[-72.33922,-41.37152],[-72.41609,-41.6583],[-72.5843,-41.70973],[-72.66967,-41.68239],[-72.75886,-41.54388],[-72.94738,-41.48317],[-73.10411,-41.57659],[-73.05919,-41.69744],[-73.2014,-41.78476],[-73.49486,-41.80592],[-73.75995,-41.74884],[-73.69663,-41.63712],[-73.55476,-41.60849],[-73.49486,-41.51043],[-73.61522,-41.59987],[-73.79817,-41.56569],[-73.93169,-41.09488],[-73.9469,-40.97284],[-73.85464,-40.91616],[-73.89323,-40.86378],[-73.80889,-40.70599],[-73.84149,-40.66671],[-73.7285,-40.54418],[-73.78283,-40.42457],[-73.74865,-40.27305],[-72.99288,-40.35304],[-72.88627,-40.52228],[-72.52665,-40.67256],[-72.01144,-40.65132],[-71.8606,-40.55944],[-71.8531,-40.61638],[-71.95558,-40.72036],[-71.85145,-40.93833],[-71.90395,-41.36765],[-71.85326,-41.56733],[-71.92592,-41.65301],[-71.73957,-42.0319]]],[[[-72.61779,-42.10361],[-72.51476,-42.06048],[-72.51818,-42.15065],[-72.61779,-42.10361]]],[[[-73.08764,-41.84344],[-73.06688,-41.73699],[-73.00963,-41.85768],[-73.08764,-41.84344]]]]}},{"type":"Feature","properties":{"id":"cl-lr","lat":-40.03079,"lng":-72.67406},"geometry":{"type":"Polygon","coordinates":[[[-71.6411,-39.6],[-71.70541,-39.58358],[-71.71435,-39.72631],[-71.61663,-39.90986],[-71.68371,-40.099],[-71.81404,-40.0929],[-71.82375,-40.2101],[-71.67849,-40.34022],[-71.72929,-40.42136],[-71.79641,-40.41454],[-71.89263,-40.59349],[-72.01144,-40.65132],[-72.63435,-40.65292],[-72.88627,-40.52228],[-72.99288,-40.35304],[-73.74865,-40.27305],[-73.65998,-40.10955],[-73.71117,-39.96868],[-73.4584,-39.83375],[-73.37877,-39.90049],[-73.40608,-39.69492],[-73.24157,-39.48952],[-73.24645,-39.38576],[-72.95694,-39.37977],[-72.96619,-39.58916],[-72.54533,-39.62321],[-72.37385,-39.73303],[-71.99203,-39.72972],[-71.77021,-39.45537],[-71.68092,-39.49599],[-71.6411,-39.6]]]}},{"type":"Feature","properties":{"id":"cl-ma","lat":-51.33408,"lng":-73.01358},"geometry":{"type":"MultiPolygon","coordinates":[[[[-74.78409,-52.36786],[-74.9003,-52.19004],[-74.54442,-52.24616],[-74.59384,-52.39482],[-74.78409,-52.36786]]],[[[-74.77033,-52.11875],[-74.628,-52.06162],[-74.59923,-52.07024],[-74.68358,-52.16668],[-74.79084,-52.17946],[-74.77033,-52.11875]]],[[[-74.49389,-51.99228],[-74.73559,-52.08457],[-74.54381,-51.92067],[-74.49987,-51.95184],[-74.49389,-51.99228]]],[[[-74.87072,-52.13714],[-74.75088,-51.83392],[-74.72875,-51.87225],[-74.59846,-51.8375],[-74.87072,-52.13714]]],[[[-74.97517,-52.11191],[-74.94786,-52.05657],[-75.01399,-52.1041],[-74.97517,-52.03623],[-75.0714,-51.98211],[-74.96898,-51.92694],[-75.03722,-51.92067],[-74.95751,-51.81561],[-74.86535,-51.87908],[-74.83845,-51.84832],[-74.88638,-51.77305],[-74.85228,-51.70721],[-74.92516,-51.636],[-74.80724,-51.63421],[-74.76293,-51.78289],[-74.88638,-52.04306],[-74.97517,-52.11191]]],[[[-75.10212,-51.89951],[-75.0546,-51.72487],[-74.98265,-51.72145],[-75.01305,-51.86199],[-75.10212,-51.89951]]],[[[-75.0006,-51.39039],[-75.11596,-51.47324],[-75.16076,-51.42669],[-75.14175,-51.56504],[-75.2154,-51.54949],[-75.2058,-51.60174],[-75.3129,-51.62916],[-75.31469,-51.53655],[-75.22533,-51.49065],[-75.18741,-51.37542],[-75.21984,-51.30543],[-75.1424,-51.26385],[-75.15453,-51.3637],[-75.10241,-51.29616],[-75.0006,-51.39039]]],[[[-74.78336,-51.42669],[-75.02416,-51.45623],[-74.79833,-51.33001],[-74.96377,-51.34368],[-74.79308,-51.2112],[-74.64306,-51.19695],[-74.55573,-51.25042],[-74.62633,-51.26214],[-74.54381,-51.36517],[-74.59423,-51.39951],[-74.64623,-51.39251],[-74.68716,-51.2833],[-74.78336,-51.42669]]],[[[-74.86535,-51.12152],[-75.0039,-51.17596],[-75.02269,-51.16188],[-74.96898,-51.10442],[-74.86535,-51.12152]]],[[[-74.43415,-51.20582],[-74.57437,-51.15488],[-74.60521,-51.08026],[-74.45889,-51.03411],[-74.51952,-51.09637],[-74.39452,-51.12225],[-74.43415,-51.20582]]],[[[-74.39517,-51.06308],[-74.47549,-50.99456],[-74.72545,-51.10508],[-74.74987,-51.04241],[-74.68098,-51.00823],[-74.77457,-50.99334],[-74.83186,-51.07643],[-74.89322,-51.04925],[-74.838,-50.97422],[-74.96642,-50.94988],[-74.90319,-50.88543],[-74.62548,-50.9249],[-74.58479,-50.88543],[-74.64306,-50.84783],[-74.55809,-50.81707],[-74.66047,-50.72772],[-74.39977,-50.84441],[-74.43456,-50.92571],[-74.39517,-51.06308]]],[[[-74.84484,-50.74822],[-74.90111,-50.67604],[-74.74242,-50.70721],[-74.71508,-50.80283],[-74.77721,-50.80283],[-74.71817,-50.86151],[-74.67349,-50.81023],[-74.69302,-50.89007],[-74.93126,-50.85101],[-74.85912,-50.82391],[-74.94164,-50.79656],[-74.90632,-50.79656],[-74.95897,-50.72828],[-74.84484,-50.74822]]],[[[-75.01684,-50.81276],[-75.11254,-50.73252],[-75.04406,-50.70721],[-75.08169,-50.65488],[-74.98542,-50.65716],[-75.01684,-50.81276]]],[[[-75.0974,-50.49725],[-75.2154,-50.59694],[-75.34557,-50.56072],[-75.26317,-50.66627],[-75.30793,-50.78948],[-75.33629,-50.74082],[-75.46182,-50.76246],[-75.40705,-50.67376],[-75.51427,-50.65683],[-75.35936,-50.59051],[-75.46862,-50.49432],[-75.4038,-50.46014],[-75.0974,-50.49725]]],[[[-74.64045,-50.58636],[-74.64757,-50.50449],[-74.5841,-50.53094],[-74.64045,-50.58636]]],[[[-74.73672,-50.37184],[-74.60871,-50.36395],[-74.54381,-50.39186],[-74.77676,-50.49334],[-74.73672,-50.37184]]],[[[-74.88926,-50.29492],[-75.04452,-50.47599],[-75.17158,-50.46215],[-74.9266,-50.27543],[-74.88926,-50.29492]]],[[[-74.94237,-50.22015],[-75.24608,-50.43971],[-75.32323,-50.40032],[-75.1949,-50.3025],[-75.45494,-50.36395],[-75.39045,-50.16229],[-75.26789,-50.15862],[-75.35261,-50.20078],[-75.17931,-50.25579],[-75.11978,-50.13877],[-75.30476,-50.1251],[-75.39477,-50.032],[-75.29699,-50.00286],[-75.27147,-50.06707],[-75.15705,-50.02142],[-75.05211,-50.12518],[-74.95328,-50.07977],[-75.0714,-50.18646],[-74.79971,-50.12542],[-74.81127,-50.2138],[-74.94237,-50.22015]]],[[[-75.54414,-49.83668],[-75.63485,-49.82794],[-75.62679,-49.75634],[-75.51076,-49.71822],[-75.61352,-49.63638],[-75.49506,-49.5574],[-75.35534,-49.61018],[-75.18065,-49.90537],[-75.26277,-49.83457],[-75.27042,-49.89805],[-75.33971,-49.85955],[-75.3662,-49.72031],[-75.54414,-49.83668]]],[[[-75.47058,-49.40315],[-75.44042,-49.51781],[-75.5443,-49.45287],[-75.50158,-49.43841],[-75.54149,-49.39056],[-75.47058,-49.40315]]],[[[-75.13394,-49.85833],[-75.29817,-49.62103],[-75.23591,-49.55584],[-75.31778,-49.54901],[-75.25634,-49.49383],[-75.33519,-49.51116],[-75.32527,-49.45965],[-75.4232,-49.41106],[-75.46198,-49.30657],[-75.38329,-49.28045],[-75.16698,-49.50115],[-75.32335,-49.2636],[-75.15221,-49.3777],[-75.09244,-49.37029],[-75.18741,-49.29518],[-75.11115,-49.31943],[-75.11254,-49.27321],[-75.03722,-49.26043],[-75.09244,-49.19964],[-74.89322,-49.36403],[-74.85912,-49.11077],[-74.80451,-49.10394],[-74.9547,-49.00709],[-74.81819,-49.00709],[-74.82364,-48.95037],[-74.96898,-48.98659],[-74.9547,-48.91839],[-75.01521,-48.89178],[-74.87279,-48.84271],[-75.01183,-48.87322],[-75.05797,-48.81666],[-74.94164,-48.82903],[-75.00992,-48.77435],[-74.83031,-48.68955],[-74.79479,-48.74725],[-74.78332,-48.68776],[-74.69665,-48.67986],[-74.62267,-48.72283],[-74.63484,-48.85524],[-74.54381,-48.70615],[-74.56387,-48.90097],[-74.47549,-48.94638],[-74.53014,-49.02825],[-74.46178,-49.11932],[-74.44579,-49.30234],[-74.53942,-49.5193],[-74.50365,-49.5875],[-74.60521,-49.71356],[-74.50829,-49.62029],[-74.43008,-49.65789],[-74.42365,-49.74489],[-74.53637,-49.747],[-74.43456,-49.78867],[-74.45442,-49.88486],[-74.5233,-49.85687],[-74.47423,-49.94451],[-74.61213,-49.91155],[-74.53637,-49.99472],[-74.76842,-50.05332],[-74.85627,-49.99131],[-74.68053,-49.9284],[-74.91369,-49.92588],[-74.89123,-49.86785],[-74.72875,-49.84319],[-74.838,-49.83636],[-74.77375,-49.76751],[-74.88256,-49.79697],[-74.86535,-49.73398],[-74.92052,-49.67938],[-74.84484,-49.68621],[-74.89196,-49.61444],[-74.70832,-49.63836],[-74.76659,-49.62103],[-74.75601,-49.57635],[-74.864,-49.58945],[-74.88695,-49.5346],[-74.78295,-49.47869],[-74.74332,-49.51873],[-74.75255,-49.4577],[-74.66047,-49.43231],[-74.73559,-49.43231],[-74.64623,-49.34979],[-74.81127,-49.3777],[-74.74889,-49.4249],[-74.94473,-49.54217],[-74.9877,-49.47926],[-75.04406,-49.59002],[-75.01098,-49.67604],[-74.95287,-49.64088],[-75.02257,-49.74212],[-74.96154,-49.78525],[-75.04345,-49.82635],[-75.00992,-49.89853],[-75.13394,-49.85833]]],[[[-74.9357,-49.28045],[-75.05773,-49.16546],[-75.20173,-49.1723],[-75.11978,-49.13128],[-75.22964,-49.11696],[-75.0987,-49.04876],[-75.12605,-49.02142],[-74.99975,-49.07977],[-74.97204,-49.03167],[-74.89045,-49.09547],[-74.9357,-49.28045]]],[[[-75.64981,-49.20485],[-75.44811,-49.09645],[-75.39428,-48.99814],[-75.33727,-48.98935],[-75.37304,-49.05625],[-75.28742,-49.0866],[-75.4038,-49.18662],[-75.41519,-49.13494],[-75.49376,-49.26344],[-75.64981,-49.20485]]],[[[-75.31505,-48.96551],[-75.37304,-48.95257],[-75.47916,-49.04192],[-75.53327,-49.01946],[-75.46862,-48.95257],[-75.5974,-48.98773],[-75.65856,-48.93231],[-75.61473,-48.85866],[-75.46862,-48.84271],[-75.51106,-48.90862],[-75.39415,-48.82903],[-75.42683,-48.87835],[-75.35936,-48.91839],[-75.37926,-48.85223],[-75.30598,-48.86492],[-75.21321,-49.05267],[-75.27603,-49.06325],[-75.31505,-48.96551]]],[[[-75.194,-48.9957],[-75.30818,-48.79485],[-75.12084,-48.84979],[-75.07877,-48.89463],[-75.13707,-48.9293],[-75.06444,-48.94834],[-75.194,-48.9957]]],[[[-75.08503,-48.6373],[-75.13215,-48.82008],[-75.24913,-48.76678],[-75.08503,-48.6373]]],[[[-74.97517,-48.68499],[-75.00992,-48.6373],[-74.82494,-48.66448],[-75.02306,-48.74456],[-75.01822,-48.68109],[-74.97517,-48.68499]]],[[[-72.95758,-54.44659],[-73.08571,-54.495],[-73.09831,-54.48581],[-72.95758,-54.44659]]],[[[-72.29695,-54.3458],[-72.47069,-54.42767],[-72.54174,-54.34303],[-72.41588,-54.30413],[-72.29695,-54.3458]]],[[[-73.17846,-54.12721],[-73.31338,-54.12119],[-73.33739,-54.06585],[-73.47436,-54.07195],[-73.27497,-54.02825],[-73.18786,-54.05364],[-73.17846,-54.12721]]],[[[-72.62344,-54.03688],[-72.84309,-54.13356],[-73.02684,-54.07488],[-72.76244,-54.03045],[-72.85058,-53.95526],[-72.64513,-53.85963],[-72.76863,-53.87273],[-72.72765,-53.83864],[-72.80956,-53.85963],[-72.80167,-53.81748],[-73.00731,-53.87371],[-73.05602,-53.81276],[-73.1044,-53.93418],[-73.0362,-53.98602],[-73.09826,-54.03786],[-73.30895,-53.97381],[-73.2364,-53.89658],[-73.31306,-53.8445],[-73.25284,-53.78607],[-73.31046,-53.74236],[-73.24535,-53.71575],[-73.59166,-53.75604],[-73.48485,-53.70086],[-73.61535,-53.61403],[-73.43546,-53.56325],[-73.20421,-53.66619],[-72.95287,-53.66448],[-73.0808,-53.64821],[-73.02929,-53.58473],[-73.13484,-53.64625],[-73.25866,-53.63519],[-73.26207,-53.55804],[-73.42032,-53.47894],[-73.07714,-53.53069],[-73.17516,-53.42083],[-73.03771,-53.38551],[-73.00202,-53.49326],[-73.01561,-53.40732],[-72.91324,-53.42702],[-72.94099,-53.51832],[-72.87255,-53.53484],[-72.88415,-53.68133],[-72.81705,-53.56487],[-72.85847,-53.45273],[-72.73449,-53.51653],[-72.67858,-53.67327],[-72.63048,-53.65993],[-72.673,-53.53688],[-72.46418,-53.57513],[-72.39729,-53.63348],[-72.48469,-53.67401],[-72.45328,-53.74236],[-72.37304,-53.68776],[-72.13866,-53.79762],[-72.25088,-53.87754],[-72.39184,-53.84539],[-72.34407,-53.91009],[-72.41979,-53.89707],[-72.37141,-53.9485],[-72.41979,-53.9695],[-72.3236,-53.98944],[-72.34341,-54.04404],[-72.51537,-53.9826],[-72.54328,-54.10003],[-72.62344,-54.03688]]],[[[-73.70177,-53.53818],[-73.84854,-53.58831],[-73.82445,-53.53688],[-73.89232,-53.5263],[-73.83336,-53.50579],[-73.85485,-53.44817],[-73.70177,-53.53818]]],[[[-73.48591,-53.47129],[-73.39244,-53.53069],[-73.50723,-53.56862],[-73.54328,-53.51035],[-73.57799,-53.54437],[-73.80321,-53.42205],[-73.57494,-53.49114],[-73.61901,-53.45501],[-73.53702,-53.45501],[-73.5926,-53.38584],[-73.39244,-53.40732],[-73.48591,-53.47129]]],[[[-74.07079,-53.23089],[-74.19371,-53.33148],[-74.24218,-53.31097],[-74.07079,-53.23089]]],[[[-73.09081,-53.35573],[-73.42032,-53.28314],[-73.58422,-53.3178],[-73.49486,-53.29062],[-73.88044,-53.05771],[-74.0572,-53.05779],[-74.01623,-53.08514],[-74.08629,-53.10491],[-74.24893,-53.03729],[-74.23986,-53.08294],[-74.31835,-53.09734],[-74.40722,-52.96901],[-74.59655,-52.92295],[-74.57116,-52.85174],[-74.74987,-52.75555],[-74.67443,-52.72129],[-74.37096,-52.87265],[-74.40722,-52.91375],[-74.3588,-52.94793],[-74.1883,-52.94053],[-74.14297,-52.98968],[-74.08385,-52.9616],[-74.13288,-52.93426],[-74.07457,-52.94793],[-73.6289,-53.14658],[-73.65998,-53.05779],[-73.62328,-53.05983],[-73.55118,-53.11842],[-73.57799,-53.1876],[-73.51635,-53.26141],[-73.45954,-53.13291],[-73.31168,-53.23886],[-73.36604,-53.27117],[-73.09081,-53.35573]]],[[[-73.4193,-52.9577],[-73.50194,-52.88592],[-73.81078,-52.91375],[-73.60131,-52.86541],[-73.61172,-52.82171],[-73.38532,-52.89764],[-73.4193,-52.9577]]],[[[-73.37194,-52.7077],[-73.33096,-52.69402],[-73.39981,-52.7282],[-73.37194,-52.7077]]],[[[-74.34926,-52.62298],[-74.45979,-52.59009],[-74.49157,-52.55181],[-74.41531,-52.50487],[-74.34926,-52.62298]]],[[[-73.74853,-52.62786],[-73.95474,-52.7077],[-73.84488,-52.59783],[-73.98217,-52.6325],[-73.87218,-52.55006],[-74.12342,-52.70662],[-74.18437,-52.5868],[-73.944,-52.48279],[-74.03421,-52.47599],[-74.02973,-52.42992],[-73.72517,-52.40472],[-73.67699,-52.48512],[-73.78734,-52.5543],[-73.74853,-52.62786]]],[[[-74.46188,-52.43759],[-74.53777,-52.40433],[-74.50821,-52.30397],[-74.47637,-52.30967],[-74.46188,-52.43759]]],[[[-73.88215,-52.36956],[-73.82445,-52.33847],[-74.00255,-52.25579],[-74.07917,-52.14772],[-73.78026,-52.27484],[-73.76985,-52.37933],[-73.88215,-52.36956]]],[[[-74.22566,-52.32643],[-74.2071,-52.22633],[-74.10497,-52.24831],[-74.22167,-52.18694],[-74.1459,-52.19378],[-74.41686,-52.129],[-74.28677,-52.08864],[-73.9357,-52.32488],[-74.12255,-52.39772],[-74.22566,-52.32643]]],[[[-73.70694,-52.23789],[-73.87125,-52.0949],[-74.09024,-52.01002],[-74.11242,-51.99456],[-74.04353,-52.00888],[-74.11022,-51.96893],[-74.09439,-51.92702],[-73.78401,-52.05967],[-73.70694,-52.23789]]],[[[-74.38781,-52.07724],[-74.40722,-52.04306],[-74.34455,-52.06406],[-74.38781,-52.07724]]],[[[-73.73916,-51.83235],[-73.71345,-51.99601],[-73.76706,-52.0053],[-73.97936,-51.83854],[-73.73916,-51.83235]]],[[[-74.40966,-51.80869],[-74.50284,-51.70721],[-74.16308,-51.85556],[-74.22167,-51.87225],[-74.0963,-51.87737],[-74.1459,-51.94736],[-74.24218,-51.94061],[-74.43456,-51.8449],[-74.40966,-51.80869]]],[[[-73.79845,-51.77996],[-73.85538,-51.80145],[-73.9405,-51.66318],[-73.85058,-51.68385],[-73.79845,-51.77996]]],[[[-73.93297,-51.77947],[-74.04963,-51.79339],[-74.24063,-51.6985],[-74.13907,-51.66676],[-74.14965,-51.60418],[-74.07144,-51.60475],[-74.08214,-51.53818],[-73.93297,-51.77947]]],[[[-74.36984,-51.41784],[-74.41203,-51.36704],[-74.38428,-51.33619],[-74.29651,-51.39539],[-74.36984,-51.41784]]],[[[-74.26293,-51.32789],[-74.16511,-51.28704],[-74.11937,-51.44744],[-74.2386,-51.4096],[-74.26293,-51.32789]]],[[[-73.77892,-51.36346],[-73.89037,-51.34564],[-73.82445,-51.30364],[-73.92064,-51.30364],[-73.79308,-51.25872],[-73.77892,-51.36346]]],[[[-74.2626,-51.24147],[-74.32177,-50.96478],[-74.35196,-50.92571],[-74.30134,-50.93922],[-74.19693,-51.17539],[-74.2626,-51.24147]]],[[[-74.32217,-50.84588],[-74.58121,-50.63356],[-74.42028,-50.5285],[-74.67349,-50.47381],[-74.55248,-50.42392],[-74.47667,-50.47633],[-74.38313,-50.45599],[-74.239,-50.6762],[-74.42711,-50.6526],[-74.22265,-50.72161],[-74.18065,-50.80804],[-74.23672,-50.84108],[-74.26936,-50.78655],[-74.32217,-50.84588]]],[[[-74.46862,-49.50115],[-74.42703,-49.42653],[-74.28799,-49.54843],[-74.4154,-49.62379],[-74.46862,-49.50115]]],[[[-67.4716,-55.8177],[-67.62184,-55.9185],[-67.63203,-55.8594],[-67.69356,-55.88952],[-67.74841,-55.8492],[-67.80281,-55.89796],[-67.91394,-55.83657],[-67.4716,-55.8177]]],[[[-67.07844,-55.91009],[-67.17003,-55.87379],[-67.14037,-55.81732],[-67.08064,-55.81243],[-67.07844,-55.91009]]],[[[-67.21007,-55.87949],[-67.25813,-55.89105],[-67.41706,-55.83359],[-67.28197,-55.82098],[-67.21007,-55.87949]]],[[[-67.18782,-55.75693],[-67.2285,-55.79843],[-67.2401,-55.78973],[-67.18782,-55.75693]]],[[[-67.25255,-55.76393],[-67.58153,-55.7094],[-67.50585,-55.65407],[-67.42064,-55.70745],[-67.432,-55.59547],[-67.3487,-55.57562],[-67.32087,-55.65407],[-67.36181,-55.70623],[-67.25255,-55.76393]]],[[[-67.59557,-55.53314],[-67.66104,-55.60866],[-67.7386,-55.61688],[-67.6787,-55.49163],[-67.59557,-55.53314]]],[[[-69.63732,-55.38836],[-69.80175,-55.40781],[-69.80175,-55.33261],[-69.63732,-55.38836]]],[[[-69.94782,-55.28387],[-70.00646,-55.37444],[-70.11022,-55.29225],[-69.94782,-55.28387]]],[[[-67.98559,-55.67523],[-68.0983,-55.71209],[-68.15331,-55.59629],[-68.28978,-55.61012],[-68.25251,-55.52451],[-68.35363,-55.47527],[-68.50048,-55.49098],[-68.61681,-55.40781],[-68.60253,-55.46234],[-68.80114,-55.42132],[-68.7683,-55.49261],[-68.86535,-55.5053],[-68.96569,-55.40781],[-68.75341,-55.38047],[-68.80867,-55.35996],[-68.76024,-55.33261],[-68.9713,-55.37713],[-68.80114,-55.18865],[-68.98668,-55.26523],[-69.11661,-55.20566],[-69.12267,-55.14764],[-69.1341,-55.24773],[-69.21272,-55.21648],[-69.23998,-55.12713],[-69.43863,-55.16188],[-69.28783,-55.16815],[-69.26732,-55.23016],[-69.4796,-55.23699],[-69.4591,-55.30592],[-69.28038,-55.31894],[-69.30826,-55.35996],[-69.24059,-55.36956],[-69.30085,-55.42815],[-69.13703,-55.44183],[-69.16161,-55.51434],[-69.33922,-55.47487],[-69.36286,-55.38893],[-69.43708,-55.49131],[-69.45153,-55.40887],[-69.52058,-55.39398],[-69.41609,-55.35312],[-69.60765,-55.36549],[-69.78808,-55.30592],[-69.56896,-55.27117],[-69.67398,-55.26035],[-69.50007,-55.17498],[-69.84805,-55.25791],[-69.92467,-55.22275],[-69.84268,-55.16815],[-70.03108,-55.14764],[-69.88598,-55.06357],[-69.58747,-55.04119],[-69.58202,-55.15447],[-69.52758,-55.032],[-69.32877,-55.05202],[-69.38341,-55.0167],[-68.44115,-54.93971],[-68.33483,-55.06243],[-68.4414,-55.04567],[-68.51081,-55.1124],[-68.60261,-55.06609],[-68.56945,-55.13543],[-68.61608,-55.15228],[-69.06188,-55.04461],[-68.78661,-55.16522],[-68.38313,-55.1845],[-68.20922,-55.26287],[-68.50007,-55.31146],[-68.66096,-55.2575],[-68.74596,-55.27117],[-68.56159,-55.32635],[-68.60253,-55.35996],[-68.44799,-55.32635],[-68.34533,-55.34401],[-68.32437,-55.39951],[-68.14647,-55.40439],[-68.17736,-55.46234],[-68.05748,-55.46901],[-68.10139,-55.5276],[-67.96516,-55.59336],[-68.03336,-55.66155],[-67.98559,-55.67523]]],[[[-66.89631,-55.33261],[-67.06941,-55.26718],[-66.99226,-55.22869],[-66.86531,-55.233],[-66.82958,-55.28249],[-66.89631,-55.33261]]],[[[-66.42675,-55.18548],[-66.62975,-55.27793],[-66.63219,-55.20599],[-66.42675,-55.18548]]],[[[-67.88549,-55.17897],[-68.13508,-55.21885],[-68.18635,-54.9782],[-68.32885,-54.99065],[-68.3605,-54.93092],[-67.30183,-54.92889],[-67.05338,-55.09368],[-67.08849,-55.19053],[-67.27062,-55.3069],[-67.45116,-55.27158],[-67.444,-55.18231],[-67.80065,-55.26434],[-67.88317,-55.24383],[-67.7386,-55.23699],[-67.88549,-55.17897]]],[[[-70.26724,-55.11289],[-70.41808,-55.07879],[-70.44603,-55.12713],[-70.37027,-55.16188],[-70.49446,-55.20965],[-70.53848,-55.15447],[-70.54809,-55.21356],[-70.56408,-55.14031],[-70.51366,-55.10662],[-70.59008,-55.05047],[-70.71581,-55.12282],[-70.72899,-55.05397],[-70.81534,-55.0862],[-71.00715,-55.04461],[-70.91902,-54.99065],[-71.01285,-54.96502],[-70.86441,-54.93084],[-70.79548,-54.97633],[-70.78856,-54.93222],[-70.56265,-54.96893],[-70.61046,-54.94215],[-70.31566,-54.90057],[-70.4938,-54.94215],[-70.52453,-54.99676],[-70.73029,-55.00482],[-70.29515,-55.03094],[-70.34293,-55.06911],[-70.26724,-55.11289]]],[[[-66.80687,-55.11289],[-67.07091,-55.00945],[-66.86901,-55.0241],[-66.80687,-55.11289]]],[[[-69.84268,-54.94842],[-69.92829,-54.89764],[-69.83633,-54.87225],[-69.7744,-54.95582],[-69.71349,-54.94883],[-69.73347,-54.91424],[-69.69188,-54.91424],[-69.7744,-54.87949],[-69.67146,-54.86647],[-69.51374,-54.89373],[-69.53002,-54.94606],[-69.42638,-54.89959],[-69.1643,-54.95582],[-69.91779,-55.03834],[-69.95035,-54.95289],[-69.84268,-54.94842]]],[[[-71.03506,-54.94215],[-71.27904,-54.86541],[-71.35098,-54.95436],[-71.33463,-54.90228],[-71.40282,-54.94264],[-71.45958,-54.87949],[-71.40412,-54.82985],[-71.1654,-54.83229],[-70.91153,-54.92108],[-71.03506,-54.94215]]],[[[-70.39688,-54.86907],[-70.65453,-54.90195],[-70.74767,-54.86647],[-70.54161,-54.83229],[-70.39688,-54.86907]]],[[[-71.92927,-54.69492],[-72.00707,-54.74684],[-72.04027,-54.65049],[-72.10432,-54.64479],[-72.02819,-54.62933],[-71.92927,-54.69492]]],[[[-70.52111,-54.17441],[-70.21866,-54.23463],[-70.33975,-54.2658],[-70.52111,-54.17441]]],[[[-71.55435,-53.94183],[-71.5148,-53.98944],[-71.45568,-53.94647],[-71.39635,-54.06276],[-71.39879,-53.97576],[-71.3015,-53.99147],[-71.22106,-54.18467],[-71.17968,-54.08563],[-71.15514,-54.15537],[-71.11246,-54.07049],[-71.02888,-54.08563],[-71.06237,-54.20233],[-70.99669,-54.17457],[-70.99242,-54.27207],[-71.05647,-54.33001],[-71.15795,-54.2973],[-71.08283,-54.33514],[-71.10652,-54.37664],[-71.17683,-54.32773],[-71.20751,-54.36924],[-71.35782,-54.2973],[-71.21321,-54.2291],[-71.411,-54.23333],[-71.44595,-54.18532],[-71.37145,-54.1539],[-71.41661,-54.11004],[-71.50796,-54.14031],[-71.54214,-54.26995],[-71.59679,-54.2291],[-71.54963,-54.18182],[-71.65152,-54.23203],[-71.69982,-54.16619],[-71.59634,-54.08782],[-71.65705,-53.98317],[-71.55435,-53.94183]]],[[[-72.20629,-54.14031],[-72.3199,-54.25693],[-72.47444,-54.25303],[-72.51537,-54.20233],[-72.3448,-54.1596],[-72.38972,-54.12884],[-72.29695,-54.11354],[-72.39314,-54.0945],[-72.31457,-54.06308],[-72.20629,-54.14031]]],[[[-70.29814,-54.12595],[-70.40513,-54.15044],[-70.51369,-54.09129],[-70.31325,-54.05275],[-70.29814,-54.12595]]],[[[-72.04239,-54.14031],[-72.12438,-54.13348],[-72.04239,-54.11354],[-72.10387,-54.05836],[-72.20531,-54.09189],[-72.2591,-53.92986],[-72.06477,-53.98358],[-72.0834,-53.9485],[-71.94571,-53.8528],[-71.83015,-53.92059],[-71.85188,-53.97405],[-71.79259,-53.89707],[-71.6529,-53.92636],[-71.79223,-53.99798],[-71.70059,-53.98545],[-71.76867,-54.05145],[-71.65201,-54.08904],[-71.7661,-54.16399],[-71.9523,-54.01491],[-71.91552,-54.1168],[-71.74446,-54.23105],[-71.87108,-54.28362],[-71.83015,-54.33148],[-71.98786,-54.3178],[-71.90526,-54.2291],[-72.04263,-54.19655],[-72.11071,-54.1539],[-72.04239,-54.14031]]],[[[-70.46261,-53.57636],[-70.44433,-53.90521],[-70.33628,-54.0074],[-70.38477,-54.05036],[-70.66996,-53.95034],[-70.51366,-54.21543],[-70.68562,-54.18808],[-70.88419,-54.02703],[-70.88151,-53.84226],[-70.60611,-53.86512],[-70.69929,-53.78721],[-70.71288,-53.70143],[-70.53555,-53.56048],[-70.46261,-53.57636]]],[[[-68.66584,-54.88641],[-68.96569,-54.7907],[-68.73786,-54.89609],[-69.06701,-54.94883],[-69.50593,-54.86151],[-69.67443,-54.80478],[-69.62707,-54.69207],[-69.67882,-54.76474],[-69.71605,-54.68906],[-69.73078,-54.80315],[-69.7744,-54.71559],[-69.80899,-54.81097],[-69.91161,-54.81862],[-69.96662,-54.77842],[-69.96955,-54.67685],[-69.99328,-54.83506],[-70.09284,-54.84905],[-70.08715,-54.77858],[-70.16487,-54.84596],[-70.30944,-54.83856],[-70.24454,-54.68906],[-70.36535,-54.83522],[-70.58117,-54.77898],[-70.75878,-54.84059],[-70.83703,-54.78769],[-70.62458,-54.73154],[-70.45287,-54.63372],[-70.54308,-54.62347],[-70.63097,-54.66774],[-70.60635,-54.70379],[-70.81591,-54.75042],[-70.92211,-54.71258],[-70.77432,-54.68157],[-70.94481,-54.67213],[-71.02758,-54.77703],[-70.95157,-54.61639],[-71.06237,-54.59271],[-71.05004,-54.6574],[-71.10334,-54.63372],[-71.17968,-54.70257],[-71.28966,-54.67645],[-71.1927,-54.62689],[-71.25577,-54.61386],[-71.23363,-54.53135],[-71.29796,-54.55934],[-71.34708,-54.51718],[-71.33605,-54.56553],[-71.41246,-54.5792],[-71.33605,-54.60638],[-71.48786,-54.68743],[-71.49429,-54.59271],[-71.58312,-54.65488],[-71.55578,-54.58587],[-71.59777,-54.58099],[-71.64517,-54.65488],[-71.68505,-54.6347],[-71.65201,-54.59954],[-71.75446,-54.59271],[-71.82266,-54.65488],[-71.94433,-54.65456],[-71.98095,-54.61321],[-71.88976,-54.56813],[-72.00145,-54.57171],[-72.00772,-54.5053],[-71.94001,-54.51084],[-71.9735,-54.44866],[-71.84976,-54.53818],[-71.67186,-54.57171],[-71.7482,-54.51084],[-71.58312,-54.54502],[-71.69359,-54.46933],[-71.84069,-54.46592],[-71.85066,-54.41465],[-71.74913,-54.39715],[-71.56322,-54.51084],[-71.49429,-54.47601],[-71.61413,-54.4109],[-71.38927,-54.45729],[-71.32307,-54.42767],[-71.43293,-54.40097],[-71.36461,-54.37298],[-71.09024,-54.51084],[-71.14489,-54.43515],[-70.9724,-54.46901],[-70.9525,-54.3388],[-70.80065,-54.31585],[-70.61046,-54.3388],[-70.72716,-54.42767],[-70.76439,-54.59954],[-70.74022,-54.5512],[-70.63402,-54.60027],[-70.69693,-54.49481],[-70.58519,-54.39056],[-70.24942,-54.57537],[-70.30199,-54.49652],[-70.13073,-54.54502],[-70.42764,-54.43768],[-70.57771,-54.27484],[-70.84325,-54.26312],[-70.89851,-54.18182],[-70.82274,-54.19549],[-70.93269,-54.11354],[-70.13687,-54.42767],[-70.07482,-54.36981],[-70.19904,-54.32057],[-70.0345,-54.25693],[-69.96687,-54.37982],[-69.87487,-54.42099],[-69.88366,-54.50335],[-69.78523,-54.48414],[-69.77538,-54.55486],[-69.74132,-54.47796],[-69.88195,-54.31268],[-69.85912,-54.28037],[-69.69188,-54.3178],[-69.55858,-54.43646],[-69.52294,-54.3375],[-69.23998,-54.44134],[-69.41747,-54.62331],[-69.37719,-54.68157],[-69.37304,-54.6159],[-69.26944,-54.5324],[-69.16991,-54.57822],[-69.15746,-54.45306],[-68.99494,-54.46844],[-68.989,-54.43141],[-69.27961,-54.32155],[-70.01403,-54.11354],[-70.17821,-53.83343],[-70.13695,-53.7387],[-69.36084,-53.52168],[-69.31861,-53.45052],[-69.35265,-53.35573],[-69.89782,-53.38664],[-70.20271,-53.46868],[-70.47354,-53.30926],[-70.41899,-53.01172],[-70.31486,-52.96805],[-70.33524,-53.0513],[-70.24345,-53.06173],[-70.13423,-53.01195],[-70.08917,-52.91106],[-70.21939,-52.86517],[-70.30089,-52.91493],[-70.2572,-52.8683],[-70.28266,-52.79845],[-70.41613,-52.75807],[-70.12861,-52.73228],[-70.00113,-52.84173],[-69.9114,-52.8479],[-69.59101,-52.64187],[-69.60387,-52.52117],[-69.41756,-52.45147],[-69.14025,-52.68377],[-68.92066,-52.64017],[-68.77903,-52.54825],[-68.62762,-52.63957],[-68.64188,-54.78297],[-68.71239,-54.77093],[-68.642,-54.79917],[-68.64234,-54.85365],[-68.66584,-54.88641]]],[[[-70.67627,-52.89483],[-70.78974,-52.90054],[-70.61925,-52.84338],[-70.67627,-52.89483]]],[[[-73.45786,-49.30769],[-73.58804,-49.54054],[-73.4651,-49.75996],[-73.57274,-49.93235],[-73.47858,-50.00945],[-73.53057,-50.14081],[-73.30144,-50.29956],[-73.25762,-50.57304],[-73.13948,-50.77023],[-72.77842,-50.61965],[-72.66261,-50.66781],[-72.50598,-50.60125],[-72.30284,-50.6489],[-72.34739,-50.74316],[-72.26347,-50.83628],[-72.26595,-50.96071],[-72.40459,-51.10582],[-72.25881,-51.24519],[-72.35121,-51.47598],[-72.45007,-51.55267],[-72.3309,-51.59938],[-72.30072,-51.69147],[-71.98173,-51.84495],[-71.96524,-51.97062],[-69.95275,-52.00742],[-68.4545,-52.29991],[-68.44861,-52.34662],[-68.89846,-52.30354],[-69.23471,-52.20314],[-69.47094,-52.27272],[-69.49694,-52.38535],[-69.67235,-52.53086],[-69.84658,-52.48654],[-70.51773,-52.72326],[-70.52588,-52.65993],[-70.69818,-52.73943],[-70.86376,-52.72137],[-70.73884,-52.78387],[-70.88921,-52.91363],[-70.80915,-52.9616],[-70.95055,-53.19752],[-70.99275,-53.38299],[-70.93944,-53.59222],[-70.97362,-53.75604],[-71.28502,-53.886],[-71.64464,-53.82366],[-71.87442,-53.69655],[-72.10387,-53.68906],[-72.45328,-53.40732],[-72.41234,-53.31097],[-72.2823,-53.24277],[-72.11461,-53.25677],[-72.08043,-53.32903],[-72.0996,-53.39007],[-72.24169,-53.4345],[-72.09252,-53.42262],[-72.01513,-53.393],[-72.02172,-53.24733],[-71.85562,-53.22536],[-71.78917,-53.44134],[-72.00796,-53.5543],[-71.8142,-53.52069],[-71.75446,-53.4625],[-71.74242,-53.2234],[-71.36022,-53.11614],[-71.19858,-52.9239],[-71.11876,-52.91964],[-71.16929,-52.81281],[-71.35211,-52.80711],[-71.39879,-52.7282],[-71.39863,-52.83172],[-71.90623,-53.01089],[-72.02196,-53.12542],[-72.11705,-53.12859],[-72.286,-53.02988],[-72.26895,-53.07147],[-72.38004,-53.05039],[-72.56314,-53.07887],[-72.3671,-53.06813],[-72.1914,-53.1806],[-72.36457,-53.18076],[-72.31579,-53.20672],[-72.36457,-53.22226],[-72.48803,-53.1876],[-72.46198,-53.22991],[-72.5382,-53.19736],[-72.41234,-53.25644],[-72.53588,-53.27011],[-72.52221,-53.36631],[-72.64513,-53.3178],[-72.36457,-53.53688],[-72.53173,-53.54209],[-72.72142,-53.4625],[-72.76317,-53.38779],[-72.79467,-53.44012],[-72.80956,-53.38681],[-73.19909,-53.24082],[-73.30305,-53.15342],[-72.95637,-53.16058],[-72.71329,-53.2903],[-72.6892,-53.24033],[-72.79597,-53.17327],[-72.65258,-53.15342],[-72.71398,-53.10556],[-72.84508,-53.15016],[-72.93375,-53.10475],[-72.87849,-53.01678],[-72.92642,-53.02459],[-72.92398,-52.88641],[-72.97647,-52.8388],[-72.76244,-52.76979],[-72.70348,-52.7077],[-72.61132,-52.7741],[-72.71483,-52.8694],[-72.58821,-52.79599],[-72.59586,-52.83424],[-72.47399,-52.80641],[-72.43126,-52.85662],[-72.39806,-52.78346],[-72.16087,-52.65212],[-71.85053,-52.69471],[-71.4781,-52.64614],[-71.57161,-52.56128],[-72.28157,-52.51385],[-72.41926,-52.65301],[-72.54914,-52.59157],[-72.38964,-52.50758],[-72.56998,-52.5569],[-72.85802,-52.50221],[-72.98835,-52.70428],[-72.8192,-52.58652],[-72.6739,-52.65252],[-73.01561,-52.84173],[-72.9536,-52.89332],[-72.97956,-53.05478],[-73.13972,-53.09922],[-73.17667,-53.01523],[-73.19848,-53.10491],[-73.45596,-52.98651],[-73.35143,-52.99578],[-73.31387,-52.93426],[-73.24157,-52.9616],[-73.21386,-52.88779],[-73.56371,-52.79705],[-73.23306,-52.79062],[-73.30663,-52.71543],[-73.1527,-52.63397],[-73.12214,-52.55006],[-73.00398,-52.55828],[-73.11799,-52.53281],[-73.09162,-52.49383],[-72.88585,-52.52565],[-72.90583,-52.49603],[-73.14354,-52.49],[-73.19498,-52.42986],[-73.23534,-52.49603],[-73.15966,-52.56374],[-73.26891,-52.6736],[-73.39363,-52.54412],[-73.39733,-52.63649],[-73.61644,-52.74912],[-73.69953,-52.71453],[-73.57055,-52.63201],[-73.66959,-52.64324],[-73.68786,-52.59783],[-73.49486,-52.47552],[-73.51529,-52.42034],[-73.66617,-52.42401],[-73.56298,-52.32285],[-73.61266,-52.27744],[-73.58056,-52.20843],[-73.74498,-52.06536],[-73.71589,-52.0206],[-73.55012,-52.18694],[-73.46833,-52.16904],[-73.49572,-52.13193],[-73.30305,-52.22178],[-73.20409,-52.10809],[-72.99779,-52.06487],[-72.98746,-52.143],[-73.07925,-52.23707],[-72.99454,-52.18694],[-72.86644,-52.25677],[-72.75487,-52.05682],[-72.8837,-52.19834],[-72.94738,-52.16644],[-72.94738,-52.04974],[-72.89452,-52.05706],[-72.83446,-51.94199],[-72.69579,-51.98138],[-72.70348,-52.06032],[-72.53653,-52.19557],[-72.57421,-52.30918],[-72.9217,-52.45322],[-72.72142,-52.40667],[-72.52221,-52.44834],[-72.63756,-52.39764],[-72.49714,-52.31536],[-72.46695,-52.20428],[-72.64867,-52.04901],[-72.66967,-51.96103],[-72.45328,-51.91326],[-72.50792,-51.85858],[-72.46695,-51.78973],[-72.50984,-51.7282],[-72.71251,-51.58221],[-73.05354,-51.48748],[-73.07714,-51.41969],[-73.26765,-51.48056],[-73.05431,-51.50262],[-73.09826,-51.60475],[-72.98917,-51.52663],[-72.79381,-51.59612],[-72.70295,-51.69801],[-72.55525,-51.72967],[-72.56241,-51.77825],[-72.72411,-51.83815],[-72.82974,-51.768],[-72.97667,-51.76922],[-73.04882,-51.69687],[-73.15079,-51.70306],[-73.28002,-51.60621],[-73.22448,-51.71087],[-73.07006,-51.72454],[-72.99454,-51.78973],[-73.10603,-51.74489],[-73.13915,-51.76922],[-73.06037,-51.76922],[-73.04979,-51.83131],[-73.20743,-51.87908],[-72.9724,-51.82171],[-72.91942,-51.85858],[-73.14533,-51.94004],[-73.17667,-52.08123],[-73.2237,-52.09148],[-73.32677,-51.72698],[-73.38622,-51.65252],[-73.29284,-52.1657],[-73.56355,-52.03997],[-73.62092,-51.81219],[-73.39981,-52.01572],[-73.58918,-51.74961],[-73.46068,-51.6867],[-73.65486,-51.68857],[-73.7189,-51.77581],[-73.812,-51.68857],[-73.71459,-51.63885],[-73.89953,-51.62518],[-73.81696,-51.53655],[-73.90925,-51.52695],[-73.93432,-51.40602],[-73.81404,-51.39218],[-73.61189,-51.62542],[-73.6046,-51.51295],[-73.65998,-51.49489],[-73.59789,-51.43279],[-73.69221,-51.41448],[-73.78283,-51.2348],[-73.75959,-51.195],[-73.68273,-51.27597],[-73.67357,-51.18768],[-73.72883,-51.17962],[-73.69408,-51.13925],[-73.76985,-51.1181],[-73.76285,-51.16383],[-73.87938,-51.23789],[-74.0233,-51.11102],[-74.0299,-51.20761],[-74.12951,-51.18768],[-74.15294,-51.06097],[-74.07144,-50.95371],[-74.23225,-51.03558],[-74.25642,-50.93939],[-74.15103,-50.87282],[-73.92683,-50.86435],[-73.80333,-50.96055],[-73.87971,-50.83416],[-73.74185,-50.82049],[-73.78966,-50.79656],[-73.77294,-50.67067],[-73.63671,-50.63991],[-73.55321,-50.70721],[-73.47436,-50.67246],[-73.72509,-50.5595],[-73.56371,-50.40496],[-73.75939,-50.51572],[-73.82262,-50.75791],[-74.04271,-50.82203],[-74.12609,-50.76246],[-74.06017,-50.71201],[-74.11864,-50.68678],[-74.14713,-50.72869],[-74.23595,-50.60418],[-74.19872,-50.55902],[-74.29735,-50.48065],[-74.208,-50.46364],[-74.12609,-50.59051],[-74.14981,-50.48309],[-73.87971,-50.54274],[-74.1289,-50.42295],[-74.01623,-50.36395],[-74.25255,-50.44053],[-74.32128,-50.38445],[-74.2827,-50.26491],[-74.35485,-50.35955],[-74.43932,-50.35711],[-74.53637,-50.29632],[-74.48176,-50.24863],[-74.69465,-50.18304],[-74.57372,-50.0993],[-74.50438,-50.13193],[-74.49543,-50.07659],[-74.34765,-50.08611],[-74.28991,-50.13128],[-74.3247,-50.17278],[-74.22496,-50.19703],[-74.19441,-50.2597],[-74.12145,-50.22308],[-73.8579,-50.28948],[-74.00609,-50.20192],[-74.17471,-50.1985],[-74.36486,-49.99033],[-74.34944,-49.93532],[-74.26635,-49.93255],[-73.88589,-50.07659],[-73.9132,-50.00774],[-74.00768,-49.99139],[-73.87971,-49.91904],[-73.90636,-49.85687],[-74.03596,-49.96478],[-74.3247,-49.87119],[-74.34826,-49.79209],[-74.06404,-49.71356],[-74.28991,-49.74147],[-74.32225,-49.6325],[-74.05382,-49.53932],[-74.02302,-49.61785],[-73.99913,-49.55926],[-73.92683,-49.56951],[-73.90136,-49.65],[-73.72785,-49.78167],[-73.68786,-49.72031],[-73.85253,-49.65325],[-73.87971,-49.5285],[-74.09097,-49.49717],[-74.12353,-49.42262],[-74.07445,-49.26165],[-73.96353,-49.32977],[-73.84488,-49.34979],[-73.9851,-49.27337],[-73.97973,-49.16424],[-74.04353,-49.08294],[-73.83288,-49.03216],[-74.05748,-49.01246],[-74.03604,-49.14495],[-74.10644,-49.22129],[-74.19286,-49.20819],[-74.1459,-49.30202],[-74.21492,-49.52313],[-74.42276,-49.3847],[-74.3719,-49.18662],[-74.46866,-49.03167],[-74.40315,-48.98724],[-74.42248,-48.93499],[-74.36563,-48.93206],[-74.45348,-48.83099],[-74.3719,-48.71917],[-74.06673,-48.74196],[-73.09763,-49.26655],[-73.45786,-49.30769]]]]}},{"type":"Feature","properties":{"id":"cl-ml","lat":-35.66859,"lng":-71.50395},"geometry":{"type":"Polygon","coordinates":[[[-70.37245,-35.02739],[-70.38663,-35.16669],[-70.57889,-35.25971],[-70.42838,-35.35707],[-70.47177,-35.37939],[-70.36157,-35.78309],[-70.42024,-35.86835],[-70.38032,-36.04602],[-70.45148,-36.15226],[-70.58142,-36.14317],[-70.71051,-36.26585],[-70.71865,-36.41457],[-70.90779,-36.40517],[-70.97104,-36.48547],[-71.10876,-36.40191],[-71.41472,-36.42608],[-72.05061,-36.12405],[-72.1904,-36.19561],[-72.38304,-36.1874],[-72.49606,-36.05987],[-72.69822,-36.01268],[-72.79914,-36.0531],[-72.79332,-35.96746],[-72.58357,-35.7706],[-72.6466,-35.56658],[-72.52965,-35.49041],[-72.39806,-35.23349],[-72.23058,-35.11614],[-72.18782,-34.88551],[-72.10302,-34.76092],[-71.7368,-34.95105],[-71.41796,-34.92531],[-71.32572,-34.84516],[-71.17053,-34.81839],[-70.95695,-34.91544],[-70.78513,-34.91988],[-70.64925,-35.01399],[-70.37245,-35.02739]]]}},{"type":"Feature","properties":{"id":"cl-nb","lat":-36.54357,"lng":-71.92064},"geometry":{"type":"Polygon","coordinates":[[[-71.02782,-36.48117],[-71.05744,-36.68763],[-71.14534,-36.68825],[-71.19686,-36.84824],[-71.13568,-36.95149],[-71.20715,-36.97237],[-71.08912,-37.10342],[-71.45131,-37.03658],[-71.57232,-37.13094],[-72.20395,-37.19829],[-72.26893,-37.15463],[-72.18724,-37.05314],[-72.21279,-37.0191],[-72.38594,-36.92484],[-72.6546,-36.91577],[-72.55632,-36.87181],[-72.60024,-36.72401],[-72.79825,-36.60596],[-72.8126,-36.46281],[-72.89586,-36.43808],[-72.82616,-36.28704],[-72.81908,-36.08115],[-72.69822,-36.01268],[-72.49606,-36.05987],[-72.38304,-36.1874],[-72.1904,-36.19561],[-72.05061,-36.12405],[-71.41472,-36.42608],[-71.10876,-36.40191],[-71.02782,-36.48117]]]}},{"type":"Feature","properties":{"id":"cl-rm","lat":-33.64218,"lng":-70.62581},"geometry":{"type":"Polygon","coordinates":[[[-70.1061,-33.05259],[-70.10946,-33.1696],[-70.01001,-33.2991],[-69.86968,-33.2496],[-69.78767,-33.37941],[-69.87883,-33.558],[-69.86005,-33.72636],[-69.91425,-33.77194],[-69.83276,-34.24323],[-70.04818,-34.28346],[-70.18876,-34.08154],[-70.314,-34.06004],[-70.43758,-33.90015],[-70.81156,-33.95757],[-70.815,-34.02738],[-70.94913,-34.15104],[-71.06685,-34.18577],[-71.71208,-33.98144],[-71.40068,-33.79711],[-71.36672,-33.51268],[-71.45119,-33.43331],[-71.44432,-33.33688],[-71.05336,-33.04444],[-70.79813,-32.96042],[-70.67651,-33.01328],[-70.61623,-32.97365],[-70.30201,-33.17136],[-70.1061,-33.05259]]]}},{"type":"Feature","properties":{"id":"cl-ta","lat":-20.2398,"lng":-69.42622},"geometry":{"type":"Polygon","coordinates":[[[-68.98961,-18.94649],[-68.9085,-19.06793],[-68.44763,-19.43463],[-68.70322,-19.71554],[-68.55351,-19.85786],[-68.57935,-20.04544],[-68.79259,-20.10663],[-68.72626,-20.15096],[-68.67852,-20.32863],[-68.75768,-20.36429],[-68.75071,-20.45182],[-68.48096,-20.62474],[-68.57279,-20.74287],[-68.5579,-21.06414],[-68.79435,-21.24087],[-69.44999,-21.44634],[-69.7424,-21.38417],[-70.06135,-21.44834],[-70.1713,-21.01458],[-70.12746,-20.93528],[-70.21384,-20.81158],[-70.12328,-19.99993],[-70.15119,-19.71942],[-70.24254,-19.5982],[-70.19957,-19.53436],[-70.28775,-19.30096],[-70.27033,-19.17148],[-69.78829,-18.9882],[-69.19298,-19.10287],[-68.98961,-18.94649]]]}},{"type":"Feature","properties":{"id":"cl-vs","lat":-32.96703,"lng":-71.18695},"geometry":{"type":"MultiPolygon","coordinates":[[[[-80.76708,-33.7011],[-80.71093,-33.70534],[-80.7047,-33.76678],[-80.75935,-33.76678],[-80.76708,-33.7011]]],[[[-78.76928,-33.64235],[-78.86364,-33.63047],[-78.99169,-33.65691],[-78.88488,-33.57562],[-78.76928,-33.64235]]],[[[-70.33082,-32.20959],[-70.13773,-32.56902],[-70.18109,-32.60757],[-70.15574,-32.73841],[-70.00022,-32.8766],[-70.1061,-33.05259],[-70.30201,-33.17136],[-70.61623,-32.97365],[-70.67651,-33.01328],[-70.79813,-32.96042],[-71.05336,-33.04444],[-71.44432,-33.33688],[-71.45119,-33.43331],[-71.36672,-33.51268],[-71.40068,-33.79711],[-71.71794,-33.97116],[-71.87125,-33.9328],[-71.80809,-33.77695],[-71.67186,-33.6985],[-71.62466,-33.54144],[-71.70592,-33.43434],[-71.67186,-33.32578],[-71.76187,-33.10198],[-71.57286,-33.01019],[-71.5183,-32.87314],[-71.54869,-32.78484],[-71.45417,-32.68564],[-71.47671,-32.53525],[-71.40795,-32.38633],[-71.54385,-32.19329],[-71.44837,-32.04316],[-71.339,-32.07923],[-71.18097,-31.99712],[-71.04542,-32.03065],[-70.95987,-31.97391],[-70.74454,-32.01975],[-70.44445,-32.21405],[-70.33082,-32.20959]]],[[[-109.2316,-27.09246],[-109.42927,-27.19939],[-109.45373,-27.18776],[-109.37963,-27.0595],[-109.2316,-27.09246]]],[[[-105.47094,-26.4577],[-105.4619,-26.46063],[-105.45954,-26.46478],[-105.47094,-26.4577]]],[[[-79.89074,-26.35174],[-79.90941,-26.35817],[-79.90176,-26.34743],[-79.89074,-26.35174]]],[[[-80.09569,-26.26605],[-80.09044,-26.27451],[-80.10778,-26.275],[-80.09569,-26.26605]]]]}}]}
