{"type":"FeatureCollection","features":[{"type":"Feature","properties":{"id":"cm-ad","lat":7.12194,"lng":13.1923},"geometry":{"type":"Polygon","coordinates":[[[11.73663,7.26328],[12.02105,7.57623],[12.01899,7.71886],[12.1921,7.96065],[12.23371,8.18845],[12.47855,7.94758],[12.61632,7.91755],[12.64427,7.75477],[12.75491,7.69607],[13.12528,7.5953],[13.25204,7.6076],[13.29488,7.708],[13.52468,7.58972],[13.85939,7.67498],[13.90347,7.59902],[14.10382,7.5738],[14.32153,7.31056],[14.3451,7.173],[14.49238,7.16452],[14.65712,7.02805],[15.24656,7.26673],[14.77225,6.31832],[14.43271,6.07912],[14.38251,6.11523],[13.76167,6.0032],[12.52273,6.00232],[12.3122,6.19569],[12.09526,6.17032],[11.9747,6.25859],[11.61607,6.0696],[11.29169,5.99292],[11.29924,6.24334],[11.18767,6.29088],[11.20228,6.43674],[11.38936,6.47392],[11.41675,6.572],[11.50977,6.61231],[11.56237,6.71249],[11.56175,6.87607],[11.87223,7.07936],[11.73663,7.26328]]]}},{"type":"Feature","properties":{"id":"cm-ce","lat":4.6654,"lng":11.85083},"geometry":{"type":"Polygon","coordinates":[[[11.9747,6.25859],[12.09526,6.17032],[12.3122,6.19569],[12.52273,6.00232],[12.88291,6.00005],[12.87966,5.89272],[13.06988,5.54116],[12.96715,5.31988],[12.82426,5.29926],[13.0151,5.11189],[13.04849,4.97691],[13.18688,4.92259],[13.23793,4.81257],[13.21034,4.58789],[12.88942,4.53016],[12.80002,4.35007],[12.79181,4.05567],[12.50397,3.86896],[12.61197,3.75119],[12.56944,3.55839],[12.4664,3.65916],[12.26952,3.47839],[12.20311,3.31742],[12.12611,3.30481],[12.13262,3.34605],[11.89925,3.46201],[11.68376,3.19867],[11.21728,3.13438],[11.05,3.40646],[10.84784,3.41633],[10.8202,3.47875],[10.2886,3.35793],[10.23863,3.52227],[10.33403,3.5895],[10.38586,3.79176],[10.46425,3.84064],[10.61644,3.74406],[10.72134,4.05991],[11.12121,4.21897],[10.95471,4.41472],[10.91518,4.62618],[10.8109,4.61589],[10.74449,4.48469],[10.70692,4.52277],[10.59055,4.43374],[10.40157,4.49378],[10.5027,4.7101],[10.48611,4.75175],[10.37144,4.70462],[10.37981,4.78317],[10.50363,4.90843],[10.6076,4.89944],[10.78744,5.01298],[10.94603,4.96941],[11.00298,5.14377],[11.08215,5.19467],[11.08122,5.31182],[11.18968,5.41983],[11.21077,5.68363],[11.31443,5.79009],[11.27542,5.98134],[11.61607,6.0696],[11.9747,6.25859]]]}},{"type":"Feature","properties":{"id":"cm-en","lat":11.47347,"lng":14.80824},"geometry":{"type":"Polygon","coordinates":[[[14.41817,13.08114],[14.4901,12.87361],[14.57526,12.74491],[14.81918,12.63882],[14.90827,12.3269],[14.89804,12.1528],[15.04945,12.08459],[15.08118,11.97167],[15.04418,11.87731],[15.11094,11.7829],[15.0665,11.68063],[15.13564,11.53082],[15.06061,11.41613],[15.02123,11.18255],[15.13823,10.52166],[15.21833,10.48722],[15.30142,10.31175],[15.4764,10.13274],[15.68124,9.99128],[15.4394,9.93169],[15.15549,9.98652],[14.77257,9.92175],[14.44049,9.99531],[14.19634,9.97915],[14.19379,10.05861],[14.05556,10.09272],[13.96042,10.19163],[13.71,10.22656],[13.65036,10.18331],[13.66933,10.11876],[13.56954,10.07964],[13.43735,10.06306],[13.39267,10.11696],[13.45084,10.18716],[13.53879,10.62142],[13.90626,11.20802],[13.98233,11.27626],[14.16547,11.23833],[14.61619,11.53868],[14.62136,11.62978],[14.54188,11.70983],[14.66828,12.17807],[14.4871,12.3378],[14.18893,12.37041],[14.06491,13.07799],[14.41817,13.08114]]]}},{"type":"Feature","properties":{"id":"cm-es","lat":3.94752,"lng":13.84691},"geometry":{"type":"Polygon","coordinates":[[[16.19666,2.23645],[16.08577,2.14917],[16.06489,1.97895],[16.15904,1.7348],[16.06985,1.65455],[16.01383,1.77131],[15.88991,1.79328],[15.70677,1.93198],[15.48291,1.97585],[15.33739,1.92146],[15.21264,2.03962],[15.07487,1.97936],[14.98072,2.03311],[14.89245,2.00639],[14.857,2.11594],[14.76481,2.06546],[14.56214,2.20881],[14.43295,2.13212],[13.66227,2.15776],[13.62091,2.90628],[13.50396,2.84324],[13.50458,2.79042],[13.43162,2.78562],[12.79724,2.92561],[12.73564,3.18751],[12.55472,3.4215],[12.61197,3.75119],[12.50397,3.86896],[12.79181,4.05567],[12.80002,4.35007],[12.90167,4.5437],[13.20098,4.57259],[13.23793,4.81257],[13.17199,4.93851],[13.04849,4.97691],[13.0151,5.11189],[12.82426,5.29926],[12.96715,5.31988],[13.06988,5.54116],[12.87966,5.89272],[12.88291,6.00005],[13.76167,6.0032],[14.38251,6.11523],[14.46571,5.92067],[14.58477,5.92341],[14.61743,5.4953],[14.51987,5.29058],[14.65888,5.16454],[14.71727,4.62202],[14.99395,4.4133],[15.0912,4.12179],[15.1898,4.06311],[15.02599,4.02609],[15.1713,3.75897],[15.78563,3.10798],[15.91399,3.09795],[16.05538,2.93977],[16.09517,2.83678],[16.05931,2.71183],[16.11047,2.70144],[16.09032,2.51049],[16.19666,2.23645]]]}},{"type":"Feature","properties":{"id":"cm-lt","lat":4.32904,"lng":10.24486},"geometry":{"type":"MultiPolygon","coordinates":[[[[9.45729,4.07111],[9.53248,3.98945],[9.42921,4.02656],[9.4769,3.91584],[9.33158,3.92185],[9.45729,4.07111]]],[[[9.92945,3.27155],[9.6421,3.53905],[9.81959,3.62787],[9.62623,3.6],[9.54591,3.81965],[9.62428,3.75019],[9.66261,3.75072],[9.5892,3.80964],[9.6211,3.87482],[9.74448,3.81965],[9.67628,3.909],[9.76441,3.95747],[9.61891,3.96035],[9.75457,4.13569],[9.55934,4.01679],[9.49855,4.07722],[9.55288,4.19871],[9.43946,4.24336],[9.52219,4.55605],[9.79437,4.91247],[9.77788,4.9998],[9.85318,5.06961],[9.75417,5.28857],[9.87039,5.35709],[9.86341,5.28366],[9.98381,5.24232],[9.99777,5.11912],[10.11962,4.92694],[10.26018,5.07969],[10.37439,5.08899],[10.50363,4.90843],[10.37129,4.76431],[10.37144,4.70462],[10.48611,4.75175],[10.5027,4.7101],[10.40157,4.49378],[10.59055,4.43374],[10.70692,4.52277],[10.74449,4.48469],[10.8109,4.61589],[10.91518,4.62618],[10.95471,4.41472],[11.12121,4.21897],[10.72134,4.05991],[10.61644,3.74406],[10.46425,3.84064],[10.40901,3.81413],[10.3303,3.5849],[10.27088,3.54449],[10.19068,3.60407],[10.12861,3.57839],[10.02495,3.34367],[9.92945,3.27155]]]]}},{"type":"Feature","properties":{"id":"cm-no","lat":8.62668,"lng":13.82538},"geometry":{"type":"Polygon","coordinates":[[[14.19634,9.97915],[13.9476,9.63776],[14.34954,9.16836],[15.05193,8.64379],[15.1837,8.47915],[15.44074,7.83942],[15.56291,7.79244],[15.54895,7.6308],[15.43278,7.38973],[14.6919,7.02572],[14.49238,7.16452],[14.3451,7.173],[14.32153,7.31056],[14.10382,7.5738],[13.90347,7.59902],[13.85939,7.67498],[13.52468,7.58972],[13.29488,7.708],[13.25204,7.6076],[13.12528,7.5953],[12.75491,7.69607],[12.64427,7.75477],[12.61632,7.91755],[12.47855,7.94758],[12.23371,8.18845],[12.22704,8.38631],[12.40387,8.49654],[12.36884,8.60958],[12.55797,8.60568],[12.79455,8.78861],[12.82214,9.09681],[12.89842,9.26243],[12.84839,9.35995],[12.98244,9.47459],[13.19545,9.54221],[13.26294,9.80173],[13.21106,9.89276],[13.24796,10.07941],[13.39267,10.11696],[13.43735,10.06306],[13.55466,10.07499],[13.66933,10.11876],[13.68049,10.22087],[13.87402,10.21281],[14.19379,10.05861],[14.19634,9.97915]]]}},{"type":"Feature","properties":{"id":"cm-nw","lat":6.39699,"lng":10.47796},"geometry":{"type":"Polygon","coordinates":[[[9.69398,6.5343],[9.78853,6.79475],[9.87462,6.7877],[10.14293,7.00769],[10.21083,6.87917],[10.49598,6.87467],[10.57866,7.13083],[10.62062,7.04376],[10.83188,6.94521],[10.90939,6.78426],[11.03672,6.74055],[11.09708,6.44912],[11.20228,6.43674],[11.20736,6.35724],[11.13661,6.24592],[11.01135,6.24448],[10.9681,6.0742],[10.83772,6.00749],[10.69343,6.02372],[10.59365,5.83975],[10.32395,5.80342],[10.28783,5.72337],[10.17564,5.78228],[10.09569,5.72839],[9.91974,5.73329],[9.60875,5.91359],[9.59634,6.02315],[9.79561,6.16138],[9.80569,6.26582],[9.69398,6.5343]]]}},{"type":"Feature","properties":{"id":"cm-ou","lat":5.62521,"lng":10.61439},"geometry":{"type":"Polygon","coordinates":[[[11.01135,6.24448],[11.18767,6.29088],[11.29578,6.25388],[11.31257,6.05358],[11.25919,5.92382],[11.31443,5.79009],[11.21077,5.68363],[11.18968,5.41983],[11.08122,5.31182],[11.08215,5.19467],[11.00298,5.14377],[10.94603,4.96941],[10.79741,5.01577],[10.6076,4.89944],[10.50363,4.90843],[10.37439,5.08899],[10.26018,5.07969],[10.11962,4.92694],[9.99777,5.11912],[9.98381,5.24232],[9.86341,5.28366],[9.96878,5.56679],[10.1652,5.7797],[10.28783,5.72337],[10.32395,5.80342],[10.59365,5.83975],[10.69343,6.02372],[10.92154,6.04893],[10.99616,6.11022],[11.01135,6.24448]]]}},{"type":"Feature","properties":{"id":"cm-su","lat":2.91595,"lng":11.36736},"geometry":{"type":"Polygon","coordinates":[[[11.76815,2.28017],[11.65725,2.32249],[11.35164,2.30058],[11.32208,2.16576],[9.991,2.1656],[9.87214,2.21124],[9.79957,2.34174],[9.87778,2.88142],[9.95574,3.05048],[9.90211,3.25796],[10.02123,3.33871],[10.06732,3.50532],[10.19068,3.60407],[10.29558,3.35458],[10.8202,3.47875],[10.84784,3.41633],[11.05,3.40646],[11.21728,3.13438],[11.56067,3.14771],[11.69462,3.20673],[11.89925,3.46201],[12.13262,3.34605],[12.12611,3.30481],[12.20311,3.31742],[12.26952,3.47839],[12.48924,3.66572],[12.56944,3.55839],[12.55937,3.41065],[12.73564,3.18751],[12.79724,2.92561],[13.43162,2.78562],[13.50458,2.79042],[13.50396,2.84324],[13.62091,2.90628],[13.66227,2.15776],[13.29457,2.16106],[13.28465,2.24224],[13.16383,2.28317],[12.7499,2.23671],[12.3216,2.31407],[11.76815,2.28017]]]}},{"type":"Feature","properties":{"id":"cm-sw","lat":5.2241,"lng":9.29889},"geometry":{"type":"Polygon","coordinates":[[[9.64481,6.52123],[9.73401,6.4826],[9.80569,6.26582],[9.78259,6.13275],[9.59634,6.02315],[9.60875,5.91359],[9.79824,5.78032],[10.11259,5.68937],[9.96878,5.56679],[9.90842,5.38593],[9.75417,5.28857],[9.85318,5.06961],[9.79096,5.03034],[9.79437,4.91247],[9.63872,4.6515],[9.52219,4.55605],[9.43946,4.24336],[9.56208,4.16528],[9.33158,3.92185],[9.32618,4.03193],[9.2107,3.96426],[9.19646,4.01887],[8.9712,4.10077],[8.99098,4.21748],[8.89479,4.46052],[8.93572,4.55329],[8.90056,4.52163],[8.84702,4.63972],[8.86785,4.54458],[8.7986,4.60114],[8.78842,4.54145],[8.65512,4.73827],[8.72267,4.51313],[8.57667,4.49189],[8.59376,4.53278],[8.51027,4.52705],[8.55209,4.61473],[8.51124,4.62906],[8.60224,4.88133],[8.79893,5.15963],[8.90393,5.59509],[8.81929,5.70345],[8.84523,5.83104],[8.98269,5.89576],[9.34101,6.31398],[9.64481,6.52123]]]}}]}
