{"type":"FeatureCollection","features":[{"type":"Feature","properties":{"id":"co-ama","lat":-1.93203,"lng":-71.34926},"geometry":{"type":"Polygon","coordinates":[[[-69.42106,-1.23931],[-69.96495,-4.23648],[-70.1884,-4.02895],[-70.3111,-3.82927],[-70.49089,-3.87847],[-70.73413,-3.78204],[-70.05063,-2.71513],[-70.09497,-2.63255],[-70.15047,-2.66924],[-70.27395,-2.54625],[-70.36462,-2.55762],[-70.35753,-2.48693],[-70.44526,-2.4985],[-70.57861,-2.40549],[-70.64759,-2.45075],[-70.70658,-2.32828],[-70.90456,-2.21108],[-71.02145,-2.19671],[-71.02969,-2.26399],[-71.11997,-2.25211],[-71.20906,-2.33924],[-71.42083,-2.37603],[-71.45649,-2.25511],[-71.49814,-2.31505],[-71.53839,-2.22296],[-71.7314,-2.18989],[-71.74613,-2.13232],[-71.94865,-2.32415],[-72.06151,-2.32001],[-72.17639,-2.41034],[-72.37803,-2.45075],[-72.64432,-2.33407],[-72.71243,-2.42212],[-72.73372,-2.36755],[-72.93541,-2.42533],[-72.98756,-2.33769],[-73.15891,-2.29304],[-73.19777,-2.21356],[-73.11106,-2.07341],[-73.19302,-1.78868],[-73.25726,-1.74237],[-73.35053,-1.79064],[-73.51094,-1.69855],[-73.49716,-1.478],[-73.63656,-1.25517],[-73.75472,-1.18334],[-73.85717,-1.21052],[-74.07689,-0.99089],[-74.26675,-0.97229],[-74.41472,-0.56376],[-73.71366,-0.38669],[-73.55421,-0.52064],[-73.33177,-0.50731],[-73.16532,-0.60839],[-72.99743,-0.52658],[-72.88482,-0.60172],[-72.74989,-0.55924],[-72.54975,-0.68327],[-72.42185,-0.55656],[-72.27982,-0.62125],[-72.23238,-0.46731],[-72.03686,-0.25962],[-71.77419,-0.22469],[-71.68905,-0.08568],[-71.32233,0.13322],[-71.17387,0.11581],[-71.14005,0.03767],[-70.97153,-0.01282],[-70.84732,-0.32132],[-70.74092,-0.27926],[-70.50086,-0.35956],[-70.44833,-0.46555],[-70.21612,-0.42344],[-70.30503,-0.53423],[-70.24447,-0.5641],[-70.27307,-0.75205],[-70.21271,-0.8524],[-70.27974,-0.93369],[-70.24219,-0.988],[-70.18597,-0.95612],[-70.13837,-1.07136],[-70.07236,-1.04412],[-70.09985,-0.94237],[-69.90278,-0.91607],[-69.93149,-1.05503],[-69.71644,-0.99513],[-69.6491,-1.05549],[-69.6506,-1.1605],[-69.56446,-1.13745],[-69.42106,-1.23931]]]}},{"type":"Feature","properties":{"id":"co-ant","lat":7.10308,"lng":-75.44912},"geometry":{"type":"Polygon","coordinates":[[[-76.98546,8.25618],[-76.91759,8.18895],[-76.94254,8.12885],[-76.82543,8.10301],[-76.86644,8.062],[-76.83227,8.02729],[-76.9077,8.04409],[-76.93371,7.96459],[-76.75723,7.92357],[-76.77481,8.41669],[-76.94717,8.54548],[-76.89371,8.62035],[-76.66023,8.68745],[-76.64733,8.7473],[-76.44483,8.86987],[-76.34632,8.67479],[-76.22911,8.57759],[-76.21369,8.45292],[-76.41939,8.09865],[-76.50512,7.74074],[-76.40776,7.38035],[-75.85699,7.36725],[-75.76943,7.4989],[-75.59001,7.56951],[-75.45857,7.80779],[-75.22876,8.04597],[-74.94258,8.07258],[-74.83488,8.18872],[-74.55247,7.92921],[-74.4809,7.72423],[-74.57356,7.60597],[-74.5626,7.42358],[-74.46865,7.36136],[-74.36437,7.48882],[-74.40506,7.19997],[-74.34391,7.01042],[-74.25288,6.99606],[-73.93024,7.30079],[-73.88781,7.01986],[-74.10857,6.79031],[-74.38644,6.62629],[-74.3792,6.42348],[-74.57984,6.21595],[-74.57425,6.0016],[-74.66249,5.77195],[-74.77726,5.68968],[-74.86677,5.74384],[-75.0912,5.65958],[-75.13443,5.53543],[-75.27612,5.43365],[-75.38462,5.67415],[-75.60114,5.73505],[-75.58574,5.51876],[-75.72473,5.55894],[-75.92541,5.49393],[-76.09791,5.64343],[-76.11127,5.97558],[-76.21697,6.03477],[-76.25821,6.17396],[-76.71374,6.17838],[-76.79802,6.3006],[-76.7881,6.48346],[-76.89318,6.58216],[-76.90574,6.69365],[-76.96995,6.70466],[-76.97279,6.8102],[-76.81104,6.86263],[-76.8166,7.00833],[-76.5461,6.99102],[-76.50835,7.18631],[-77.12637,7.78092],[-76.95987,8.06522],[-76.98546,8.25618]]]}},{"type":"Feature","properties":{"id":"co-ara","lat":6.61675,"lng":-70.97824},"geometry":{"type":"Polygon","coordinates":[[[-71.96402,7.00592],[-71.84819,6.98386],[-71.6204,7.05213],[-71.29252,7.02577],[-71.18405,6.96257],[-70.7033,7.09993],[-70.57861,7.08582],[-70.31906,6.93829],[-70.1292,6.97255],[-69.43202,6.12224],[-69.53236,6.06232],[-69.85576,6.02627],[-70.1653,6.26753],[-70.72723,6.20913],[-71.20715,6.27406],[-72.15631,6.07397],[-72.25985,6.13836],[-72.35059,6.29758],[-72.27269,6.43209],[-72.13629,6.50441],[-72.10169,6.7291],[-71.96402,7.00592]]]}},{"type":"Feature","properties":{"id":"co-atl","lat":10.70528,"lng":-74.97844},"geometry":{"type":"Polygon","coordinates":[[[-75.25383,10.49737],[-75.21569,10.82661],[-75.04955,10.90119],[-74.92357,11.04567],[-74.8475,11.08767],[-74.77427,11.01003],[-74.72471,10.90032],[-74.72864,10.58395],[-74.91746,10.26741],[-75.25383,10.49737]]]}},{"type":"Feature","properties":{"id":"co-bol","lat":8.8939,"lng":-74.23841},"geometry":{"type":"MultiPolygon","coordinates":[[[[-75.58859,10.10838],[-75.53067,10.24067],[-75.70358,10.13443],[-75.59215,10.30272],[-75.5157,10.319],[-75.52383,10.39151],[-75.57848,10.39834],[-75.50276,10.48774],[-75.49328,10.43464],[-75.48913,10.50137],[-75.52453,10.56708],[-75.26305,10.73981],[-75.25383,10.49737],[-74.98265,10.34275],[-74.91746,10.26741],[-74.94348,10.13747],[-74.8076,10.03445],[-74.87886,9.91549],[-74.78135,9.63133],[-74.7998,9.44862],[-74.63647,9.38217],[-74.53265,9.24298],[-74.43072,9.2675],[-74.15327,9.04901],[-73.8721,8.97328],[-73.75469,8.38874],[-73.78565,8.16147],[-73.87225,8.04491],[-73.83048,7.61008],[-73.91318,7.49487],[-73.93024,7.30079],[-74.25288,6.99606],[-74.34391,7.01042],[-74.39827,7.16855],[-74.36437,7.48882],[-74.48906,7.35777],[-74.58177,7.46678],[-74.57356,7.60597],[-74.4809,7.72423],[-74.55247,7.92921],[-74.83488,8.18872],[-74.80496,8.27988],[-74.65712,8.31745],[-74.56751,8.41308],[-74.60296,8.72709],[-74.54219,8.81453],[-74.90041,9.17686],[-74.94079,9.34669],[-74.90398,9.43741],[-75.02045,9.46828],[-75.00841,9.53128],[-75.18277,9.64316],[-75.29793,9.67768],[-75.37446,9.64029],[-75.32721,9.88141],[-75.4782,9.91542],[-75.47575,10.03962],[-75.53655,10.04722],[-75.48565,10.14313],[-75.58859,10.10838]]],[[[-75.5926,10.3602],[-75.53532,10.35065],[-75.59066,10.31904],[-75.5926,10.3602]]],[[[-75.22155,10.77947],[-75.27554,10.77778],[-75.22874,10.81087],[-75.22155,10.77947]]]]}},{"type":"Feature","properties":{"id":"co-boy","lat":5.85122,"lng":-72.88477},"geometry":{"type":"Polygon","coordinates":[[[-71.99382,7.01286],[-72.13629,6.50441],[-72.28204,6.42224],[-72.41573,6.20407],[-72.34103,6.07885],[-72.44738,5.85424],[-72.23765,5.68309],[-72.31928,5.5061],[-72.42061,5.5577],[-72.69018,5.27792],[-72.80847,5.38399],[-72.85759,5.34582],[-72.95319,5.16046],[-72.90611,5.08302],[-72.97368,4.97877],[-73.03094,4.98512],[-73.05298,4.73483],[-73.11323,4.66398],[-73.21808,4.67765],[-73.40272,4.87146],[-73.5453,4.91939],[-73.47595,5.06589],[-73.65377,5.46173],[-73.81262,5.56196],[-74.0001,5.3743],[-74.24993,5.49075],[-74.33907,5.82569],[-74.44064,5.76719],[-74.66249,5.77195],[-74.57425,6.0016],[-74.60513,6.13611],[-74.51942,6.2823],[-74.41953,6.07358],[-74.26998,6.04984],[-74.25745,5.8482],[-74.17451,5.90078],[-73.97318,5.73257],[-73.73712,5.76115],[-73.64865,5.71544],[-73.58925,5.98886],[-73.49928,6.1071],[-73.38187,6.00103],[-73.47156,5.84771],[-73.40301,5.75624],[-73.21925,5.98248],[-73.01686,5.94075],[-72.75462,6.22952],[-72.73341,6.45661],[-72.79162,6.56709],[-72.66155,6.4348],[-72.55058,6.49035],[-72.47686,6.75982],[-72.50487,6.91508],[-72.3832,6.87837],[-72.28783,7.0057],[-72.24207,6.97885],[-72.18171,7.04014],[-71.99382,7.01286]]]}},{"type":"Feature","properties":{"id":"co-cal","lat":5.28159,"lng":-75.34527},"geometry":{"type":"Polygon","coordinates":[[[-74.66249,5.77195],[-74.64068,5.56289],[-74.74869,5.29084],[-75.01275,5.29392],[-75.1251,5.16372],[-75.29436,5.13183],[-75.37803,4.80007],[-75.49244,4.91939],[-75.70558,4.9491],[-75.74842,5.04509],[-75.8188,4.92016],[-75.89588,4.97316],[-75.92681,5.04347],[-75.88764,5.12439],[-75.83792,5.11111],[-75.81733,5.27234],[-75.69245,5.25699],[-75.64372,5.30435],[-75.71881,5.39626],[-75.85637,5.37422],[-75.85779,5.48935],[-75.72473,5.55894],[-75.58574,5.51876],[-75.61323,5.73518],[-75.38462,5.67415],[-75.27612,5.43365],[-75.13443,5.53543],[-75.0912,5.65958],[-74.86677,5.74384],[-74.77726,5.68968],[-74.66249,5.77195]]]}},{"type":"Feature","properties":{"id":"co-caq","lat":1.09998,"lng":-74.73066},"geometry":{"type":"Polygon","coordinates":[[[-75.15559,2.52367],[-75.00319,2.63819],[-75.05291,2.7682],[-74.92258,2.94173],[-74.71257,2.89696],[-74.59645,2.72123],[-74.65944,2.38265],[-74.54374,2.18193],[-74.6159,2.04313],[-74.55053,1.87136],[-73.91783,1.63473],[-73.67506,1.6245],[-73.42575,1.20944],[-73.1353,0.94154],[-73.01135,0.94775],[-72.89307,1.04655],[-72.82558,1.19476],[-72.76075,1.15342],[-72.6707,1.19109],[-72.42811,1.04242],[-72.23812,0.7366],[-72.01966,0.65546],[-71.847,0.35553],[-71.78709,0.37331],[-71.53855,0.17766],[-71.42142,0.19162],[-71.32233,0.13322],[-71.68905,-0.08568],[-71.77419,-0.22469],[-72.01219,-0.24758],[-72.12864,-0.32634],[-72.27982,-0.62125],[-72.42185,-0.55656],[-72.56443,-0.68497],[-72.74989,-0.55924],[-72.88482,-0.60172],[-72.99743,-0.52658],[-73.16532,-0.60839],[-73.33177,-0.50731],[-73.55421,-0.52064],[-73.69586,-0.39377],[-73.94168,-0.36974],[-74.11669,-0.24634],[-74.24042,-0.22789],[-74.32758,-0.12283],[-74.59268,-0.10206],[-74.66384,-0.05416],[-74.6829,0.15095],[-74.96245,0.27084],[-74.99617,0.46995],[-75.1867,0.4962],[-75.26287,0.72895],[-75.8281,0.87948],[-75.93275,1.03074],[-76.06052,1.04366],[-76.29534,1.18479],[-76.28229,1.33997],[-76.16465,1.5627],[-75.98058,1.56373],[-75.841,1.68062],[-75.30597,2.34508],[-75.23145,2.53132],[-75.15559,2.52367]]]}},{"type":"Feature","properties":{"id":"co-cas","lat":5.32975,"lng":-71.665},"geometry":{"type":"Polygon","coordinates":[[[-72.32168,6.35134],[-72.32331,6.22572],[-72.13123,6.06909],[-71.722,6.20003],[-71.46227,6.19887],[-71.20715,6.27406],[-70.67178,6.20887],[-70.34774,6.27902],[-70.11809,6.25001],[-69.85576,6.02627],[-70.0914,5.64529],[-70.4488,5.5331],[-70.66209,5.40455],[-70.69571,5.31368],[-70.96029,5.11772],[-71.04858,4.93011],[-71.21521,4.8156],[-71.80944,4.57786],[-72.01216,4.39865],[-72.14991,4.45071],[-72.32346,4.40996],[-72.36666,4.34356],[-72.55965,4.35472],[-72.71811,4.29824],[-73.0406,4.69431],[-73.06631,4.83009],[-73.03094,4.98512],[-72.97368,4.97877],[-72.90611,5.08302],[-72.95319,5.16046],[-72.85759,5.34582],[-72.80847,5.38399],[-72.69018,5.27792],[-72.42061,5.5577],[-72.31928,5.5061],[-72.23765,5.68309],[-72.44764,5.87432],[-72.39276,5.90093],[-72.34103,6.07885],[-72.41573,6.20407],[-72.32168,6.35134]]]}},{"type":"Feature","properties":{"id":"co-cau","lat":2.157,"lng":-76.86035},"geometry":{"type":"MultiPolygon","coordinates":[[[[-78.0739,2.64682],[-77.94984,2.67452],[-77.88435,2.57209],[-77.83967,2.56586],[-77.76041,2.59162],[-77.75154,2.62726],[-77.81237,2.76447],[-77.64171,2.84638],[-77.71569,2.89753],[-77.64013,2.90005],[-77.62735,2.99103],[-77.72179,2.982],[-77.46486,3.30163],[-77.3724,3.16968],[-77.26148,3.12405],[-77.1096,3.19187],[-76.86959,3.09286],[-76.77859,3.18394],[-76.67283,3.10785],[-76.55331,3.11009],[-76.4476,3.20397],[-76.4367,3.31794],[-76.07576,3.21329],[-76.11279,3.09511],[-76.04458,3.03553],[-76.02442,2.91186],[-75.78103,2.6696],[-75.79534,2.47473],[-75.87753,2.42662],[-75.96618,2.49096],[-76.23366,2.3518],[-76.3789,2.41996],[-76.35732,2.27154],[-76.41675,2.13145],[-76.5508,2.12158],[-76.60072,1.95864],[-76.38177,1.65907],[-76.1453,1.57551],[-76.28229,1.33997],[-76.29704,1.19605],[-76.255,1.1375],[-76.15961,1.13264],[-76.06052,1.04366],[-76.08638,1.01141],[-76.35102,0.97694],[-76.51246,1.03859],[-76.52047,1.30152],[-76.63818,1.4319],[-76.77275,1.31398],[-76.91171,1.3132],[-76.92447,1.50296],[-76.84365,1.59887],[-76.92445,1.71979],[-77.09937,1.66791],[-77.32507,1.68941],[-77.19926,1.96102],[-77.32639,2.0622],[-77.31303,2.17139],[-77.44633,2.22136],[-77.70274,2.14261],[-77.84013,2.17723],[-77.94875,2.38197],[-77.95273,2.55566],[-78.0739,2.64682]]],[[[-77.91637,2.69721],[-77.78502,2.59382],[-77.88805,2.59382],[-77.91637,2.69721]]],[[[-77.75414,2.61799],[-77.84708,2.64838],[-77.88256,2.72459],[-77.84708,2.72411],[-77.75414,2.61799]]],[[[-78.18661,2.99037],[-78.16709,2.9597],[-78.22029,2.93362],[-78.18661,2.99037]]]]}},{"type":"Feature","properties":{"id":"co-ces","lat":9.301,"lng":-73.64832},"geometry":{"type":"Polygon","coordinates":[[[-72.91523,10.42817],[-72.98554,9.81217],[-73.4366,9.11634],[-73.4267,8.78195],[-73.56233,8.60862],[-73.49181,8.46222],[-73.52721,8.38052],[-73.45564,8.32412],[-73.41993,8.45545],[-73.35668,8.43918],[-73.40856,8.12759],[-73.29082,7.94595],[-73.48378,7.68155],[-73.7519,7.7409],[-73.6703,7.92897],[-73.79637,8.21294],[-73.76224,8.45936],[-73.82965,8.64358],[-73.80758,8.81659],[-73.8704,8.88767],[-73.79981,9.0556],[-73.87869,9.18445],[-73.95853,9.20293],[-74.00096,9.39907],[-74.1371,9.49823],[-74.0271,9.59117],[-73.78423,9.59745],[-73.84177,9.78994],[-74.0662,10.05375],[-74.05054,10.1699],[-73.90639,10.3679],[-73.57088,10.51243],[-73.61408,10.65046],[-73.56372,10.74402],[-73.6456,10.7711],[-73.60579,10.84551],[-73.28495,10.85249],[-73.24992,10.73387],[-73.0752,10.63005],[-73.18134,10.45657],[-73.13959,10.40443],[-72.91523,10.42817]]]}},{"type":"Feature","properties":{"id":"co-cho","lat":6.39203,"lng":-77.08088},"geometry":{"type":"MultiPolygon","coordinates":[[[[-77.43517,4.15522],[-77.3601,4.22114],[-77.28523,4.21128],[-77.29864,4.17876],[-77.43517,4.15522]]],[[[-77.35302,4.26533],[-77.27172,4.25849],[-77.30297,4.2176],[-77.33316,4.24482],[-77.54955,4.20478],[-77.43562,4.25849],[-77.42813,4.34101],[-77.35302,4.26533]]],[[[-77.48873,8.47364],[-77.35167,8.66934],[-77.27473,8.49579],[-76.98426,8.25327],[-76.95393,8.08653],[-77.02168,7.89848],[-77.12017,7.84239],[-77.11878,7.76736],[-76.50835,7.18631],[-76.5461,6.99102],[-76.8166,7.00833],[-76.81104,6.86263],[-76.97279,6.8102],[-76.96995,6.70466],[-76.90574,6.69365],[-76.89318,6.58216],[-76.7881,6.48346],[-76.79802,6.3006],[-76.67384,6.16172],[-76.25821,6.17396],[-76.21697,6.03477],[-76.11127,5.97558],[-76.13558,5.83724],[-76.04248,5.57733],[-76.18291,5.35195],[-76.07592,5.03571],[-76.42732,4.58174],[-76.45571,4.42069],[-76.54711,4.39167],[-76.44334,4.1883],[-76.57496,4.0558],[-76.74324,3.99464],[-76.89274,4.0419],[-76.9568,4.12259],[-77.06581,4.10388],[-77.15547,4.18287],[-77.22117,4.16807],[-77.23632,4.26533],[-77.33654,4.26874],[-77.3872,4.34724],[-77.31273,4.47138],[-77.32575,4.75251],[-77.25805,4.70409],[-77.34862,4.85419],[-77.38097,5.40302],[-77.46215,5.50104],[-77.55919,5.50308],[-77.49083,5.59479],[-77.33316,5.6153],[-77.24592,5.7342],[-77.35302,6.02619],[-77.48436,6.18879],[-77.48339,6.29434],[-77.41511,6.23908],[-77.38097,6.30052],[-77.34537,6.56611],[-77.41124,6.69379],[-77.46264,6.72069],[-77.53799,6.66364],[-77.59325,6.82811],[-77.69628,6.84919],[-77.66503,7.01557],[-77.89584,7.2351],[-77.82018,7.47655],[-77.73125,7.53034],[-77.76421,7.70573],[-77.57999,7.52838],[-77.33974,7.70723],[-77.3799,7.77441],[-77.30042,7.9021],[-77.16327,7.93926],[-77.42232,8.45641],[-77.48873,8.47364]]]]}},{"type":"Feature","properties":{"id":"co-cor","lat":8.42743,"lng":-75.72339},"geometry":{"type":"Polygon","coordinates":[[[-76.44483,8.86987],[-76.26427,8.99632],[-76.0961,9.3332],[-75.9438,9.44073],[-75.81103,9.44355],[-75.85285,9.41206],[-75.81188,9.39155],[-75.69827,9.4169],[-75.69909,9.35408],[-75.21285,9.04162],[-75.2092,8.92385],[-75.35661,8.84176],[-75.30527,8.49124],[-75.18354,8.40194],[-74.94333,8.48628],[-74.80941,8.35073],[-74.80096,8.24963],[-74.94258,8.07258],[-75.22876,8.04597],[-75.45857,7.80779],[-75.59001,7.56951],[-75.76943,7.4989],[-75.85699,7.36725],[-76.40776,7.38035],[-76.50512,7.74074],[-76.41939,8.09865],[-76.21369,8.45292],[-76.22911,8.57759],[-76.34632,8.67479],[-76.44483,8.86987]]]}},{"type":"Feature","properties":{"id":"co-cun","lat":4.80628,"lng":-74.06936},"geometry":{"type":"Polygon","coordinates":[[[-74.20846,4.01994],[-74.46455,3.67763],[-74.56353,3.77212],[-74.4802,4.13344],[-74.52389,4.24253],[-74.58138,4.27263],[-74.65464,4.20918],[-74.89116,4.27964],[-74.80576,4.50464],[-74.82791,4.72217],[-74.72864,4.98536],[-74.75052,5.30236],[-74.66037,5.45832],[-74.64608,5.75252],[-74.44064,5.76719],[-74.34752,5.82639],[-74.24389,5.48393],[-74.0001,5.3743],[-73.79825,5.56398],[-73.79151,5.50796],[-73.65377,5.46173],[-73.52163,5.23728],[-73.47595,5.06589],[-73.52326,4.88836],[-73.41169,4.87774],[-73.21808,4.67765],[-73.11323,4.66398],[-73.05298,4.73483],[-73.13773,4.22982],[-73.36567,4.3223],[-73.52765,4.29987],[-73.62237,4.48376],[-73.69728,4.5213],[-73.81068,4.421],[-73.7519,4.2022],[-73.91918,4.15432],[-74.1233,4.00513],[-74.20846,4.01994]]]}},{"type":"Feature","properties":{"id":"co-gua","lat":2.56992,"lng":-69.1229},"geometry":{"type":"Polygon","coordinates":[[[-67.06523,1.17269],[-67.11716,1.70979],[-67.38175,2.12274],[-67.59295,2.05481],[-67.82084,1.784],[-67.92885,1.74129],[-68.03179,1.77751],[-68.19219,2.01489],[-68.28025,1.8294],[-68.1633,1.72129],[-69.3524,1.72021],[-69.54195,1.77271],[-69.84118,1.70758],[-70.05019,1.78098],[-70.16385,1.88536],[-70.10303,2.12225],[-69.99446,2.21335],[-70.03732,2.27743],[-70.49287,2.24477],[-70.62233,2.32761],[-70.74707,2.52904],[-70.90854,2.6108],[-70.49975,2.78453],[-70.28147,2.94197],[-70.26341,3.06291],[-70.30852,3.08395],[-70.15987,3.22771],[-70.12925,3.20427],[-70.15114,3.34788],[-70.06861,3.42462],[-70.08277,3.5255],[-69.96299,3.50501],[-69.8941,3.56645],[-69.65812,3.53247],[-69.61241,3.68634],[-69.47428,3.71574],[-69.27954,3.72892],[-69.0903,3.60937],[-68.96243,3.64094],[-68.93778,3.70735],[-68.80448,3.69014],[-68.6888,3.7978],[-68.54635,3.79594],[-68.37254,3.92359],[-68.35554,4.01986],[-68.26789,4.00273],[-68.25237,3.94322],[-68.18811,3.97317],[-68.18348,3.92211],[-68.09274,4.00544],[-67.87696,3.92273],[-67.71693,4.03988],[-67.63176,3.76186],[-67.49983,3.71791],[-67.40392,3.50446],[-67.30465,3.42571],[-67.3958,3.26657],[-67.83862,2.88613],[-67.85593,2.78975],[-67.75103,2.8421],[-67.62659,2.81342],[-67.57559,2.6911],[-67.18972,2.39438],[-67.21726,2.26606],[-67.11463,2.103],[-67.13262,1.99081],[-66.88354,1.34994],[-66.87506,1.22251],[-67.06523,1.17269]]]}},{"type":"Feature","properties":{"id":"co-guv","lat":1.81671,"lng":-72.35865},"geometry":{"type":"Polygon","coordinates":[[[-73.0829,0.92434],[-73.42575,1.20944],[-73.44319,1.30235],[-73.66521,1.58404],[-73.66033,2.2534],[-73.59827,2.38637],[-73.45507,2.3472],[-73.44469,2.3859],[-73.42686,2.33102],[-73.14476,2.36172],[-72.93045,2.46776],[-72.93764,2.51364],[-72.81994,2.59674],[-72.73721,2.55953],[-72.67044,2.6139],[-72.64199,2.56279],[-72.61003,2.62051],[-72.57673,2.57958],[-72.55368,2.67544],[-72.28375,2.75239],[-72.2523,2.69761],[-72.18071,2.85375],[-71.98038,2.79911],[-71.79205,2.86119],[-71.75931,2.81673],[-71.74316,2.88199],[-71.62262,2.81572],[-71.32959,2.8581],[-71.2934,2.90543],[-71.22513,2.85507],[-71.04101,2.87316],[-70.98013,2.81301],[-70.9699,2.86538],[-70.90407,2.85763],[-70.73482,2.78252],[-70.69478,2.86941],[-70.59284,2.84187],[-70.49975,2.78453],[-70.90939,2.60191],[-70.74707,2.52904],[-70.62233,2.32761],[-70.49287,2.24477],[-70.30426,2.22643],[-70.0514,2.28684],[-69.99508,2.21956],[-70.20165,2.03125],[-70.67279,1.90118],[-70.90453,1.91859],[-71.26376,1.67339],[-71.39078,1.73225],[-71.55245,1.26204],[-71.50506,1.11513],[-71.55291,1.16096],[-71.60986,1.04252],[-71.7567,0.97131],[-72.03575,0.66404],[-72.23812,0.7366],[-72.42811,1.04242],[-72.70323,1.20385],[-72.76075,1.15342],[-72.85792,1.17399],[-72.89307,1.04655],[-73.0829,0.92434]]]}},{"type":"Feature","properties":{"id":"co-hui","lat":2.67909,"lng":-75.41154},"geometry":{"type":"Polygon","coordinates":[[[-74.8246,3.10738],[-75.05291,2.7682],[-75.00319,2.63819],[-75.12239,2.53411],[-75.23145,2.53132],[-75.30597,2.34508],[-75.96016,1.57303],[-76.34694,1.63892],[-76.5769,1.87968],[-76.56697,2.10003],[-76.41944,2.12617],[-76.35732,2.27154],[-76.3789,2.41996],[-76.23366,2.3518],[-75.96618,2.49096],[-75.87753,2.42662],[-75.79534,2.47473],[-75.80604,2.71999],[-76.03124,2.92954],[-75.81247,2.89192],[-75.62755,3.0903],[-75.49231,3.34726],[-75.35532,3.40865],[-75.25778,3.37364],[-75.03565,3.43416],[-75.06784,3.30143],[-74.90888,3.28993],[-74.77711,3.44139],[-74.72799,3.60867],[-74.56353,3.77212],[-74.49837,3.67515],[-74.6159,3.48506],[-74.65174,3.25998],[-74.8246,3.10738]]]}},{"type":"Feature","properties":{"id":"co-lag","lat":11.47154,"lng":-72.573},"geometry":{"type":"Polygon","coordinates":[[[-71.32751,11.85],[-71.99061,11.64906],[-72.26708,11.1549],[-72.49932,11.12079],[-72.91523,10.42817],[-73.13959,10.40443],[-73.18134,10.45657],[-73.0752,10.63005],[-73.24992,10.73387],[-73.28495,10.85249],[-73.60579,10.84551],[-73.65015,11.00977],[-73.56558,11.27709],[-73.29239,11.29401],[-72.74132,11.70795],[-72.26305,11.88597],[-72.13866,12.10456],[-72.17052,12.23428],[-71.96963,12.25511],[-72.01513,12.194],[-71.93761,12.16645],[-71.87108,12.25605],[-71.96052,12.2827],[-71.82909,12.37621],[-71.80285,12.32368],[-71.73253,12.41022],[-71.69359,12.3653],[-71.63093,12.4274],[-71.73453,12.41372],[-71.69725,12.4643],[-71.5113,12.44326],[-71.22716,12.30541],[-71.10749,12.07494],[-71.32751,11.85]]]}},{"type":"Feature","properties":{"id":"co-mag","lat":10.12256,"lng":-74.47486},"geometry":{"type":"Polygon","coordinates":[[[-74.8475,11.08767],[-74.29783,10.9915],[-74.49157,10.97948],[-74.48176,10.85082],[-74.597,10.86782],[-74.59846,10.78193],[-74.56428,10.83096],[-74.54381,10.76203],[-74.49966,10.76472],[-74.50963,10.84455],[-74.45661,10.74803],[-74.40209,10.74803],[-74.21813,11.07909],[-74.23363,11.24116],[-74.15339,11.34366],[-73.56558,11.27709],[-73.651,10.99982],[-73.60579,10.84551],[-73.6456,10.7711],[-73.56372,10.74402],[-73.61408,10.65046],[-73.57088,10.51243],[-73.92016,10.35717],[-74.06909,10.07949],[-73.84177,9.78994],[-73.78423,9.59745],[-74.0271,9.59117],[-74.1371,9.49823],[-74.00096,9.39907],[-73.95853,9.20293],[-73.87869,9.18445],[-73.79981,9.0556],[-73.8704,8.88767],[-73.8721,8.97328],[-74.15327,9.04901],[-74.43072,9.2675],[-74.53265,9.24298],[-74.63647,9.38217],[-74.7998,9.44862],[-74.78135,9.63133],[-74.87886,9.91549],[-74.80437,10.02533],[-74.94774,10.16563],[-74.72585,10.60511],[-74.72864,10.91913],[-74.8475,11.08767]]]}},{"type":"Feature","properties":{"id":"co-met","lat":3.37252,"lng":-72.84834},"geometry":{"type":"Polygon","coordinates":[[[-74.89752,2.95072],[-74.8246,3.10738],[-74.65174,3.25998],[-74.6159,3.48506],[-74.49356,3.70401],[-74.42778,3.67957],[-74.22355,4.00963],[-74.1233,4.00513],[-73.91918,4.15432],[-73.7519,4.2022],[-73.81068,4.421],[-73.70958,4.51789],[-73.62237,4.48376],[-73.52765,4.29987],[-73.36567,4.3223],[-73.14434,4.22633],[-73.05298,4.73483],[-72.72555,4.30056],[-72.36666,4.34356],[-72.32346,4.40996],[-72.14991,4.45071],[-72.04976,4.38826],[-71.80944,4.57786],[-71.06033,4.91939],[-71.06367,2.86864],[-71.22513,2.85507],[-71.30347,2.90543],[-71.32959,2.8581],[-71.62262,2.81572],[-71.74316,2.88199],[-71.75931,2.81673],[-71.79205,2.86119],[-71.98038,2.79911],[-72.12104,2.86709],[-72.19236,2.84786],[-72.2523,2.69761],[-72.28375,2.75239],[-72.55368,2.67544],[-72.57673,2.57958],[-72.61003,2.62051],[-72.64199,2.56279],[-72.67044,2.6139],[-72.73721,2.55953],[-72.81994,2.59674],[-72.93764,2.51364],[-72.93045,2.46776],[-73.14476,2.36172],[-73.42686,2.33102],[-73.44469,2.3859],[-73.45507,2.3472],[-73.60672,2.38265],[-73.66033,2.2534],[-73.67506,1.6245],[-73.91783,1.63473],[-74.55053,1.87136],[-74.6159,2.04313],[-74.54374,2.18193],[-74.65944,2.38265],[-74.59645,2.72123],[-74.71257,2.89696],[-74.89752,2.95072]]]}},{"type":"Feature","properties":{"id":"co-nar","lat":1.46863,"lng":-77.87985},"geometry":{"type":"MultiPolygon","coordinates":[[[[-78.66468,1.26664],[-78.82868,1.43431],[-78.86071,1.5585],[-79.02151,1.63831],[-78.84605,1.82159],[-78.57123,1.78221],[-78.5454,1.91474],[-78.59137,1.89684],[-78.60802,2.02798],[-78.66561,1.98291],[-78.70316,2.1898],[-78.57409,2.43317],[-78.55899,2.38154],[-78.52505,2.49551],[-78.34602,2.64799],[-78.25475,2.5419],[-78.24693,2.6636],[-78.20775,2.53734],[-78.13248,2.49274],[-78.08528,2.51606],[-78.0961,2.65145],[-77.98392,2.58692],[-77.84013,2.17723],[-77.70274,2.14261],[-77.44633,2.22136],[-77.31303,2.17139],[-77.32639,2.0622],[-77.19926,1.96102],[-77.32507,1.68941],[-77.09937,1.66791],[-76.94091,1.72754],[-76.84481,1.60709],[-76.92447,1.50296],[-76.91171,1.3132],[-77.0887,1.18608],[-77.03821,0.99643],[-77.23856,0.69717],[-77.10914,0.58451],[-77.08625,0.39062],[-77.18518,0.33543],[-77.42439,0.4083],[-77.46806,0.65087],[-77.64557,0.71629],[-77.70319,0.8431],[-77.84798,0.80925],[-78.07794,0.90077],[-78.66468,1.26664]]],[[[-78.21487,2.68191],[-78.09618,2.54002],[-78.13443,2.50438],[-78.20702,2.57534],[-78.21487,2.68191]]]]}},{"type":"Feature","properties":{"id":"co-nsa","lat":8.09653,"lng":-72.86292},"geometry":{"type":"Polygon","coordinates":[[[-73.00973,9.29538],[-72.95531,9.10399],[-72.79103,9.11394],[-72.67543,8.65151],[-72.38677,8.33861],[-72.33385,8.06548],[-72.4912,7.9375],[-72.45177,7.8328],[-72.4787,7.48445],[-72.41462,7.41381],[-72.20621,7.38188],[-72.09826,7.08675],[-71.99382,7.01286],[-72.18171,7.04014],[-72.24207,6.97885],[-72.28783,7.0057],[-72.3832,6.87837],[-72.54657,6.88495],[-72.56073,6.9995],[-72.67008,6.97342],[-72.87937,7.05985],[-72.83004,7.16209],[-72.88146,7.25638],[-72.84229,7.35754],[-72.99133,7.61318],[-73.2164,7.63003],[-73.26074,7.54491],[-73.36035,7.54964],[-73.49672,7.60085],[-73.64033,7.74516],[-73.45282,7.6956],[-73.28697,7.96039],[-73.40856,8.12759],[-73.35668,8.43918],[-73.41993,8.45545],[-73.40629,8.37386],[-73.46205,8.32838],[-73.52923,8.38548],[-73.49181,8.46222],[-73.5622,8.5879],[-73.4267,8.78195],[-73.4366,9.11634],[-73.00973,9.29538]]]}},{"type":"Feature","properties":{"id":"co-put","lat":0.43021,"lng":-75.61203},"geometry":{"type":"Polygon","coordinates":[[[-76.05347,0.36355],[-76.31159,0.45853],[-76.41639,0.40189],[-76.40802,0.25451],[-76.56543,0.21606],[-76.72454,0.27755],[-76.73435,0.23311],[-76.88246,0.24014],[-77.10386,0.35414],[-77.11224,0.59428],[-77.23856,0.69717],[-77.02883,1.02319],[-77.08671,1.07342],[-77.0887,1.18608],[-76.9769,1.23801],[-76.9701,1.29522],[-76.77275,1.31398],[-76.63818,1.4319],[-76.52047,1.30152],[-76.54618,1.11761],[-76.49241,1.02459],[-76.20984,0.97214],[-75.9498,1.03482],[-75.8281,0.87948],[-75.27388,0.73629],[-75.1867,0.4962],[-74.99617,0.46995],[-74.96245,0.27084],[-74.6829,0.15095],[-74.66384,-0.05416],[-74.55896,-0.11663],[-74.42964,-0.08299],[-74.32758,-0.12283],[-74.25161,-0.22143],[-73.86414,-0.39295],[-74.41472,-0.56376],[-74.64231,-0.33977],[-74.7907,-0.31259],[-74.75533,-0.27828],[-74.82465,-0.17048],[-74.93346,-0.20944],[-75.14169,-0.04346],[-75.2221,-0.0324],[-75.28349,-0.10702],[-75.62677,0.07891],[-75.78971,0.08439],[-75.95197,0.20397],[-76.05347,0.36355]]]}},{"type":"Feature","properties":{"id":"co-qui","lat":4.38724,"lng":-75.70583},"geometry":{"type":"Polygon","coordinates":[[[-75.39038,4.71682],[-75.71057,4.13742],[-75.76222,4.07851],[-75.82991,4.10941],[-75.78793,4.35085],[-75.89038,4.42363],[-75.82485,4.66444],[-75.71602,4.65879],[-75.70305,4.72023],[-75.48456,4.67137],[-75.39038,4.71682]]]}},{"type":"Feature","properties":{"id":"co-ris","lat":5.19069,"lng":-75.98136},"geometry":{"type":"Polygon","coordinates":[[[-75.85779,5.48935],[-75.85637,5.37422],[-75.71881,5.39626],[-75.64372,5.30435],[-75.69245,5.25699],[-75.81733,5.27234],[-75.83792,5.11111],[-75.88764,5.12439],[-75.92681,5.04347],[-75.89588,4.97316],[-75.8188,4.92016],[-75.74842,5.04509],[-75.70558,4.9491],[-75.49244,4.91939],[-75.37803,4.80007],[-75.44141,4.68517],[-75.85356,4.73196],[-76.07592,5.03571],[-76.17992,5.30872],[-76.16555,5.40866],[-76.04248,5.57733],[-75.85779,5.48935]]]}},{"type":"Feature","properties":{"id":"co-san","lat":6.94425,"lng":-73.25721},"geometry":{"type":"Polygon","coordinates":[[[-73.62545,7.73454],[-73.49672,7.60085],[-73.36035,7.54964],[-73.26074,7.54491],[-73.2164,7.63003],[-72.99133,7.61318],[-72.84229,7.35754],[-72.88146,7.25638],[-72.83004,7.16209],[-72.87937,7.05985],[-72.67008,6.97342],[-72.56073,6.9995],[-72.54657,6.88495],[-72.50487,6.91508],[-72.47797,6.84408],[-72.4812,6.72158],[-72.54241,6.50255],[-72.61667,6.43808],[-72.79162,6.56709],[-72.73341,6.45661],[-72.74775,6.24132],[-73.01686,5.94075],[-73.21925,5.98248],[-73.41531,5.75507],[-73.47156,5.84771],[-73.38187,6.00103],[-73.49928,6.1071],[-73.61372,5.9222],[-73.63837,5.72273],[-73.73712,5.76115],[-73.87853,5.71141],[-74.00842,5.75213],[-74.17451,5.90078],[-74.25745,5.8482],[-74.26998,6.04984],[-74.41953,6.07358],[-74.51942,6.2823],[-74.3792,6.42348],[-74.38644,6.62629],[-74.10857,6.79031],[-73.88781,7.01986],[-73.93711,7.2539],[-73.81554,7.77952],[-73.87225,8.04491],[-73.78565,8.16147],[-73.6703,7.92897],[-73.7519,7.7409],[-73.62545,7.73454]]]}},{"type":"Feature","properties":{"id":"co-sap","lat":13.33031,"lng":-81.37666},"geometry":{"type":"MultiPolygon","coordinates":[[[[-81.70474,12.50446],[-81.71695,12.56322],[-81.69103,12.59125],[-81.70474,12.50446]]],[[[-81.38614,13.34146],[-81.3463,13.3487],[-81.38264,13.31916],[-81.38614,13.34146]]],[[[-80.09089,13.57803],[-80.08943,13.57685],[-80.09089,13.57709],[-80.09089,13.57803]]]]}},{"type":"Feature","properties":{"id":"co-suc","lat":9.26177,"lng":-75.23802},"geometry":{"type":"Polygon","coordinates":[[[-75.69827,9.4169],[-75.62063,9.45285],[-75.57637,9.62109],[-75.61803,9.68928],[-75.70514,9.70066],[-75.63994,9.78326],[-75.58158,10.092],[-75.48565,10.14313],[-75.53655,10.04722],[-75.47575,10.03962],[-75.4782,9.91542],[-75.32721,9.88141],[-75.37446,9.64029],[-75.29793,9.67768],[-75.18277,9.64316],[-75.00841,9.53128],[-75.02045,9.46828],[-74.90398,9.43741],[-74.94079,9.34669],[-74.90041,9.17686],[-74.54219,8.81453],[-74.60296,8.72709],[-74.55051,8.46276],[-74.63601,8.33195],[-74.80496,8.27988],[-74.80941,8.35073],[-74.94333,8.48628],[-75.18354,8.40194],[-75.29511,8.48062],[-75.35661,8.84176],[-75.2092,8.92385],[-75.21285,9.04162],[-75.69909,9.35408],[-75.69827,9.4169]]]}},{"type":"Feature","properties":{"id":"co-tol","lat":3.95278,"lng":-75.1676},"geometry":{"type":"Polygon","coordinates":[[[-74.56353,3.77212],[-74.72799,3.60867],[-74.77711,3.44139],[-74.90888,3.28993],[-75.06784,3.30143],[-75.03565,3.43416],[-75.25778,3.37364],[-75.35532,3.40865],[-75.49231,3.34726],[-75.62755,3.0903],[-75.81247,2.89192],[-76.03124,2.92954],[-76.113,3.10591],[-75.96171,3.71215],[-75.6014,4.29646],[-75.51265,4.55941],[-75.42213,4.63698],[-75.33072,4.8789],[-75.33886,5.08581],[-75.1251,5.16372],[-75.01275,5.29392],[-74.83307,5.3144],[-74.74231,5.26963],[-74.72864,4.98536],[-74.82791,4.72217],[-74.80576,4.50464],[-74.89116,4.27964],[-74.65464,4.20918],[-74.58138,4.27263],[-74.52389,4.24253],[-74.4802,4.13344],[-74.56353,3.77212]]]}},{"type":"Feature","properties":{"id":"co-vac","lat":4.06156,"lng":-76.16909},"geometry":{"type":"Polygon","coordinates":[[[-77.46486,3.30163],[-77.38097,3.38764],[-77.31892,3.31997],[-77.36705,3.40209],[-77.33316,3.51179],[-77.26427,3.47085],[-77.32177,3.54784],[-77.11828,3.67805],[-77.20079,3.74348],[-77.12564,3.73355],[-77.17492,3.7582],[-77.12645,3.77871],[-77.15038,3.81367],[-77.03157,3.91584],[-77.29161,3.86058],[-77.3002,3.96914],[-77.20963,3.97728],[-77.1892,4.06733],[-77.26427,4.10822],[-77.36213,3.92805],[-77.43078,4.01264],[-77.43516,4.15285],[-77.29864,4.17876],[-77.25444,4.24219],[-77.22117,4.16807],[-77.15547,4.18287],[-77.06581,4.10388],[-76.9568,4.12259],[-76.76141,3.99588],[-76.57496,4.0558],[-76.43964,4.20065],[-76.54571,4.39485],[-76.45571,4.42069],[-76.42732,4.58174],[-76.07592,5.03571],[-75.98112,4.87262],[-75.92218,4.87242],[-75.91929,4.77012],[-75.71395,4.71294],[-75.71602,4.65879],[-75.82485,4.66444],[-75.86211,4.61295],[-75.89038,4.42363],[-75.78793,4.35085],[-75.83816,4.12182],[-75.74545,4.04151],[-75.98879,3.64675],[-76.07576,3.21329],[-76.4367,3.31794],[-76.4476,3.20397],[-76.55331,3.11009],[-76.67283,3.10785],[-76.77859,3.18394],[-76.86959,3.09286],[-77.1096,3.19187],[-77.26148,3.12405],[-77.3724,3.16968],[-77.46486,3.30163]]]}},{"type":"Feature","properties":{"id":"co-vau","lat":0.50268,"lng":-70.98279},"geometry":{"type":"Polygon","coordinates":[[[-69.84118,1.70758],[-69.85219,1.05942],[-69.33879,1.06412],[-69.15239,0.8678],[-69.16234,0.63143],[-69.29706,0.6181],[-69.47808,0.73282],[-69.61916,0.65066],[-70.05425,0.58813],[-70.06804,-0.16014],[-69.61975,-0.52457],[-69.58422,-0.64456],[-69.62838,-0.73344],[-69.44286,-1.00836],[-69.42106,-1.23931],[-69.56446,-1.13745],[-69.6506,-1.1605],[-69.6491,-1.05549],[-69.71644,-0.99513],[-69.93149,-1.05503],[-69.90278,-0.91607],[-70.09985,-0.94237],[-70.07236,-1.04412],[-70.13837,-1.07136],[-70.18597,-0.95612],[-70.24219,-0.988],[-70.27974,-0.93369],[-70.21271,-0.8524],[-70.27307,-0.75205],[-70.24447,-0.5641],[-70.30503,-0.53423],[-70.21612,-0.42344],[-70.44833,-0.46555],[-70.50086,-0.35956],[-70.74092,-0.27926],[-70.84732,-0.32132],[-70.98411,0.00093],[-71.14005,0.03767],[-71.17387,0.11581],[-71.53855,0.17766],[-71.78709,0.37331],[-71.847,0.35553],[-71.84302,0.41724],[-72.03575,0.66404],[-71.7567,0.97131],[-71.60986,1.04252],[-71.55291,1.16096],[-71.50506,1.11513],[-71.55245,1.26204],[-71.39078,1.73225],[-71.26376,1.67339],[-70.90453,1.91859],[-70.65535,1.90428],[-70.10497,2.10116],[-70.15657,1.86934],[-69.84118,1.70758]]]}},{"type":"Feature","properties":{"id":"co-vid","lat":4.72602,"lng":-69.45292},"geometry":{"type":"Polygon","coordinates":[[[-67.4563,6.19322],[-67.4912,6.11449],[-67.42247,5.97824],[-67.62514,5.78451],[-67.61703,5.5416],[-67.84368,5.29725],[-67.79309,5.06334],[-67.87505,4.53264],[-67.79309,4.42898],[-67.79945,4.23532],[-67.71408,4.0565],[-67.7971,3.95376],[-67.99913,3.93637],[-68.01341,3.99846],[-68.04871,3.95594],[-68.09274,4.00544],[-68.16943,3.91971],[-68.18811,3.97317],[-68.25237,3.94322],[-68.26789,4.00273],[-68.35554,4.01986],[-68.37254,3.92359],[-68.54635,3.79594],[-68.6888,3.7978],[-68.80448,3.69014],[-68.93778,3.70735],[-68.96243,3.64094],[-69.0903,3.60937],[-69.27954,3.72892],[-69.60321,3.692],[-69.65812,3.53247],[-69.8941,3.56645],[-69.96299,3.50501],[-70.08277,3.5255],[-70.06861,3.42462],[-70.15114,3.34788],[-70.12925,3.20427],[-70.15987,3.22771],[-70.30852,3.08395],[-70.26341,3.06291],[-70.27509,2.96036],[-70.38342,2.84675],[-70.49975,2.78453],[-70.69478,2.86941],[-70.73482,2.78252],[-71.06367,2.86864],[-71.06033,4.91939],[-70.96029,5.11772],[-70.69571,5.31368],[-70.67865,5.38941],[-70.4488,5.5331],[-70.12277,5.62095],[-69.8171,6.0548],[-69.53236,6.06232],[-69.3314,6.15637],[-69.2461,6.08066],[-69.06113,6.21784],[-68.63532,6.13588],[-68.44902,6.195],[-68.01902,6.21161],[-67.8272,6.31341],[-67.4563,6.19322]]]}}]}
