{"type":"FeatureCollection","features":[{"type":"Feature","properties":{"id":"cr-a","lat":10.40598,"lng":-84.47869},"geometry":{"type":"Polygon","coordinates":[[[-84.35547,10.99463],[-84.15773,10.78843],[-84.17762,10.00435],[-84.21467,9.94146],[-84.46104,9.91728],[-84.57106,9.82452],[-84.67441,9.88436],[-84.55011,9.99774],[-84.66043,10.1138],[-84.66607,10.26728],[-84.78663,10.31534],[-84.79327,10.49662],[-84.93732,10.56876],[-85.023,10.69935],[-85.28272,10.75955],[-85.44119,10.91541],[-85.23648,11.0531],[-84.9084,10.93936],[-84.67646,11.07041],[-84.4382,10.9522],[-84.35547,10.99463]]]}},{"type":"Feature","properties":{"id":"cr-c","lat":9.79434,"lng":-83.70693},"geometry":{"type":"Polygon","coordinates":[[[-83.91224,9.94379],[-83.87239,10.02605],[-83.94273,10.13623],[-83.58905,9.97717],[-83.31891,9.96962],[-83.33591,9.821],[-83.51092,9.56644],[-83.48686,9.46759],[-83.63874,9.56991],[-83.71416,9.53689],[-83.98815,9.76767],[-84.07613,9.75672],[-83.99996,9.9303],[-83.91224,9.94379]]]}},{"type":"Feature","properties":{"id":"cr-g","lat":10.48117,"lng":-85.29782},"geometry":{"type":"Polygon","coordinates":[[[-85.59779,11.20994],[-85.23648,11.0531],[-85.43878,10.90859],[-85.28272,10.75955],[-85.023,10.69935],[-84.76399,10.44215],[-84.78663,10.31534],[-84.87481,10.29286],[-84.91993,10.11122],[-85.19347,10.17011],[-85.28917,10.28225],[-85.23827,10.10244],[-85.15258,10.03583],[-85.30329,9.92968],[-85.17384,9.8518],[-85.22929,9.72482],[-85.33243,9.82661],[-85.66381,9.90009],[-85.87499,10.35505],[-85.7755,10.44729],[-85.80923,10.51504],[-85.63174,10.62116],[-85.70006,10.61123],[-85.68029,10.79633],[-85.94644,10.89859],[-85.87816,10.94636],[-85.71056,10.92829],[-85.746,11.02302],[-85.66751,11.03986],[-85.70174,11.08088],[-85.59779,11.20994]]]}},{"type":"Feature","properties":{"id":"cr-h","lat":10.45926,"lng":-84.00675},"geometry":{"type":"Polygon","coordinates":[[[-83.85953,10.72178],[-83.76382,10.77368],[-83.70357,10.68808],[-83.827,10.63925],[-83.85108,10.27927],[-83.91356,10.19896],[-84.0714,10.15152],[-84.02799,9.98203],[-84.19997,9.95722],[-84.15773,10.78843],[-83.85953,10.72178]]]}},{"type":"Feature","properties":{"id":"cr-l","lat":10.00359,"lng":-83.36723},"geometry":{"type":"Polygon","coordinates":[[[-82.63214,9.48467],[-82.84747,9.60065],[-82.84638,9.49255],[-82.9417,9.45635],[-82.93952,9.07064],[-83.16567,9.31685],[-83.31679,9.36671],[-83.39012,9.32646],[-83.45363,9.37731],[-83.51092,9.56644],[-83.33591,9.821],[-83.31891,9.96962],[-83.58905,9.97717],[-83.94273,10.13623],[-83.84842,10.2865],[-83.827,10.63925],[-83.70357,10.68808],[-83.76382,10.77368],[-83.66303,10.80702],[-83.6965,10.93659],[-83.64436,10.92593],[-83.58056,10.80732],[-83.62385,10.85761],[-83.63752,10.7211],[-83.57543,10.76826],[-83.46618,10.49453],[-83.20373,10.12934],[-83.08532,10.00214],[-83.02603,10.00503],[-82.78775,9.67276],[-82.61644,9.62434],[-82.56284,9.5387],[-82.63214,9.48467]]]}},{"type":"Feature","properties":{"id":"cr-p","lat":9.17732,"lng":-83.28623},"geometry":{"type":"MultiPolygon","coordinates":[[[[-87.07852,5.52066],[-87.07852,5.55508],[-87.06461,5.55785],[-87.07852,5.52066]]],[[[-83.88346,8.71299],[-83.87808,8.69882],[-83.89662,8.70649],[-83.88346,8.71299]]],[[[-83.05309,9.155],[-82.71936,8.92152],[-82.92297,8.75616],[-82.84186,8.59948],[-82.8483,8.46517],[-83.05211,8.32763],[-82.94367,8.24857],[-82.88641,8.10219],[-82.89763,8.03475],[-82.9685,8.22122],[-83.15087,8.36929],[-83.09268,8.44668],[-83.1372,8.51455],[-83.10245,8.54804],[-83.1577,8.55549],[-83.18505,8.60269],[-83.12356,8.59646],[-83.31908,8.66958],[-83.34586,8.72993],[-83.46825,8.71748],[-83.40478,8.58902],[-83.28738,8.54181],[-83.27636,8.40156],[-83.57559,8.44497],[-83.7399,8.62381],[-83.57543,8.78828],[-83.64257,8.78189],[-83.58288,8.84662],[-83.61636,8.89069],[-83.57543,8.87763],[-83.63004,8.91177],[-83.63475,9.04409],[-83.91808,9.29475],[-84.1787,9.39777],[-84.20836,9.46499],[-84.61657,9.57807],[-84.67838,9.65103],[-84.63455,9.78339],[-84.73363,9.96695],[-84.85094,9.96695],[-84.78824,9.98745],[-85.06857,10.15582],[-84.91993,10.11122],[-84.82918,10.33079],[-84.66607,10.26728],[-84.66043,10.1138],[-84.55011,9.99774],[-84.67441,9.88436],[-84.54318,9.78359],[-84.59163,9.7455],[-84.53638,9.57807],[-84.42815,9.56221],[-84.35084,9.63657],[-84.1455,9.6144],[-84.01024,9.44144],[-83.90242,9.39622],[-83.82782,9.24522],[-83.71527,9.23055],[-83.56536,9.08038],[-83.48229,9.09464],[-83.50965,9.19965],[-83.45126,9.33095],[-83.31679,9.36671],[-83.16567,9.31685],[-83.05309,9.155]]],[[[-85.1674,10.0194],[-84.9226,9.92145],[-84.93285,9.83662],[-84.86461,9.82294],[-84.95958,9.72736],[-85.0076,9.74409],[-85.11783,9.55545],[-85.22929,9.72482],[-85.17384,9.8518],[-85.30329,9.92968],[-85.1674,10.0194]]],[[[-85.1079,10.08954],[-85.1588,10.07616],[-85.19913,10.11774],[-85.11046,10.1103],[-85.14513,10.10346],[-85.1079,10.08954]]]]}},{"type":"Feature","properties":{"id":"cr-sj","lat":9.62549,"lng":-84.03376},"geometry":{"type":"Polygon","coordinates":[[[-84.08422,9.96022],[-84.00941,10.03494],[-84.0714,10.15152],[-83.91356,10.19896],[-83.94273,10.13623],[-83.86821,9.96988],[-83.99996,9.9303],[-84.07871,9.76106],[-83.98815,9.76767],[-83.71416,9.53689],[-83.63874,9.56991],[-83.48686,9.46759],[-83.4294,9.35369],[-83.49983,9.25008],[-83.50782,9.06828],[-83.65615,9.13862],[-83.71527,9.23055],[-83.82095,9.23907],[-83.90242,9.39622],[-84.01024,9.44144],[-84.1455,9.6144],[-84.35084,9.63657],[-84.42815,9.56221],[-84.54259,9.58639],[-84.59163,9.7455],[-84.54491,9.76194],[-84.57997,9.81733],[-84.53763,9.86999],[-84.08422,9.96022]]]}}]}
