{"type":"FeatureCollection","features":[{"type":"Feature","properties":{"id":"cu-01","lat":22.35993,"lng":-83.77305},"geometry":{"type":"MultiPolygon","coordinates":[[[[-83.60782,21.9665],[-83.54532,21.96125],[-83.5926,21.96011],[-83.60782,21.9665]]],[[[-82.84923,22.60293],[-83.41547,22.18609],[-83.57543,22.24665],[-83.67101,22.17154],[-83.92544,22.17154],[-84.02941,21.91987],[-84.24014,21.91083],[-84.50837,21.76683],[-84.49617,21.93378],[-84.83992,21.8229],[-84.94725,21.86034],[-84.93122,21.91474],[-84.87759,21.89033],[-84.52135,22.04804],[-84.28856,22.0207],[-84.27432,22.07599],[-84.30818,22.03669],[-84.3358,22.13056],[-84.44567,22.20502],[-84.30907,22.47321],[-84.23029,22.50361],[-84.21288,22.58308],[-84.1446,22.5694],[-84.04161,22.65843],[-84.048,22.71825],[-83.98404,22.68708],[-83.53498,22.87702],[-83.39346,22.8769],[-83.22619,23.00186],[-83.16942,22.93012],[-83.14582,22.9914],[-83.00202,23.01923],[-82.94442,22.98508],[-82.91468,22.84951],[-82.97803,22.80711],[-82.84923,22.60293]]]]}},{"type":"Feature","properties":{"id":"cu-03","lat":23.07059,"lng":-82.37659},"geometry":{"type":"Polygon","coordinates":[[[-82.53874,23.07356],[-82.21935,23.19424],[-82.10009,23.18765],[-82.0762,23.13939],[-82.11098,23.06761],[-82.21035,23.09415],[-82.24983,22.97258],[-82.38879,22.94785],[-82.53874,23.07356]]]}},{"type":"Feature","properties":{"id":"cu-04","lat":22.62349,"lng":-81.0787},"geometry":{"type":"MultiPolygon","coordinates":[[[[-81.55626,22.06599],[-81.58186,22.05061],[-81.58886,22.0727],[-81.55626,22.06599]]],[[[-81.68391,23.15693],[-81.53555,23.12938],[-81.5288,23.04719],[-81.14916,23.21239],[-81.28629,23.12425],[-81.1293,23.03449],[-81.07811,23.10383],[-80.95938,23.05903],[-80.66316,23.08955],[-80.58747,23.15103],[-80.61802,22.9873],[-80.72595,22.97072],[-80.74842,22.88052],[-80.66747,22.79597],[-80.58492,22.81365],[-80.51968,22.54201],[-80.6237,22.45953],[-80.8371,22.48204],[-80.94299,22.35491],[-80.89743,22.21149],[-80.74478,22.11695],[-80.61817,22.12129],[-80.59337,22.05423],[-81.08845,22.08584],[-81.19396,22.28156],[-81.19689,22.09125],[-81.22549,22.06167],[-81.23913,22.15107],[-81.33788,22.08902],[-81.39611,22.17072],[-81.52351,22.20502],[-81.81021,22.18382],[-82.15453,22.37987],[-82.11874,22.43183],[-81.65156,22.48783],[-81.59809,22.70497],[-81.74717,22.98684],[-81.68056,23.06451],[-81.68391,23.15693]]],[[[-80.84813,23.18513],[-80.83064,23.13565],[-80.97167,23.11066],[-80.84813,23.18513]]],[[[-80.47338,23.19603],[-80.49523,23.16836],[-80.58064,23.1789],[-80.55968,23.20506],[-80.47338,23.19603]]],[[[-80.6949,23.20393],[-80.67467,23.18683],[-80.70425,23.18032],[-80.6949,23.20393]]],[[[-80.71247,23.1999],[-80.81005,23.1966],[-80.86144,23.22036],[-80.71247,23.1999]]],[[[-80.87857,23.23212],[-80.92447,23.24311],[-80.9427,23.25727],[-80.91299,23.26557],[-80.87857,23.23212]]]]}},{"type":"Feature","properties":{"id":"cu-05","lat":22.45045,"lng":-79.83954},"geometry":{"type":"MultiPolygon","coordinates":[[[[-80.59929,23.06567],[-80.27961,22.91201],[-80.04621,22.95917],[-79.91649,22.84931],[-79.86315,22.88369],[-79.79296,22.89777],[-79.86803,22.83625],[-79.65172,22.75877],[-79.62702,22.6575],[-79.45653,22.52847],[-79.36112,22.2312],[-79.45145,22.24242],[-79.54196,22.15069],[-79.76662,22.19283],[-79.72355,22.09387],[-79.76593,22.00155],[-79.9145,22.00899],[-80.02405,21.93851],[-80.09986,22.1234],[-80.08407,22.24562],[-80.24249,22.38465],[-80.25755,22.57854],[-80.37537,22.51625],[-80.44622,22.58642],[-80.51968,22.54201],[-80.58492,22.81365],[-80.66747,22.79597],[-80.74842,22.88052],[-80.72595,22.97072],[-80.63019,22.97397],[-80.59929,23.06567]]],[[[-79.32681,22.61652],[-79.57177,22.78827],[-79.63532,22.80215],[-79.56998,22.8041],[-79.37198,22.67666],[-79.32681,22.61652]]],[[[-79.66637,22.85212],[-79.73986,22.8758],[-79.72753,22.90396],[-79.66637,22.85212]]],[[[-79.83853,22.96808],[-79.84651,22.91035],[-79.87117,22.9477],[-79.83853,22.96808]]],[[[-79.88711,22.9597],[-79.9497,22.92841],[-79.95743,22.95303],[-79.88711,22.9597]]],[[[-80.27188,23.00869],[-80.2318,22.95917],[-80.34781,22.98652],[-80.27188,23.00869]]],[[[-80.06461,23.05801],[-80.09122,23.04287],[-80.08764,23.06745],[-80.06461,23.05801]]],[[[-80.20446,23.12425],[-80.13126,23.08698],[-80.22496,23.08955],[-80.20446,23.12425]]],[[[-80.24462,23.08527],[-80.29304,23.11587],[-80.30573,23.13451],[-80.27245,23.14004],[-80.24462,23.08527]]],[[[-80.3861,23.14582],[-80.45808,23.12678],[-80.46223,23.1352],[-80.44612,23.15062],[-80.3861,23.14582]]]]}},{"type":"Feature","properties":{"id":"cu-06","lat":22.21883,"lng":-80.49017},"geometry":{"type":"Polygon","coordinates":[[[-80.10103,21.82476],[-80.26993,21.88703],[-80.44811,22.05028],[-80.38878,22.08218],[-80.48445,22.19204],[-80.53824,22.16446],[-80.47077,22.04121],[-80.83227,22.15754],[-80.92831,22.25479],[-80.92867,22.41923],[-80.82927,22.48336],[-80.57608,22.47439],[-80.45462,22.5871],[-80.38398,22.56932],[-80.38083,22.51604],[-80.25755,22.57854],[-80.24249,22.38465],[-80.08407,22.24562],[-80.09986,22.1234],[-80.02327,21.95212],[-80.10103,21.82476]]]}},{"type":"Feature","properties":{"id":"cu-07","lat":22.05143,"lng":-79.3703},"geometry":{"type":"MultiPolygon","coordinates":[[[[-79.34179,22.41315],[-78.92719,22.39875],[-79.04783,22.11677],[-78.96048,22.00321],[-79.12208,21.74989],[-79.10025,21.6538],[-79.01726,21.71495],[-78.97067,21.6902],[-78.95995,21.59955],[-79.24942,21.55195],[-79.65209,21.69172],[-79.85082,21.68008],[-79.89538,21.76],[-80.0218,21.72919],[-80.10103,21.82476],[-80.08728,21.88342],[-79.9145,22.00899],[-79.76593,22.00155],[-79.72355,22.09387],[-79.76662,22.19283],[-79.54196,22.15069],[-79.45145,22.24242],[-79.36112,22.2312],[-79.41674,22.47248],[-79.34179,22.41315]]],[[[-79.17687,22.64468],[-79.20641,22.62442],[-79.22452,22.63972],[-79.21573,22.64301],[-79.17687,22.64468]]],[[[-78.96117,22.64911],[-79.06444,22.66035],[-79.08723,22.67182],[-78.96117,22.64911]]]]}},{"type":"Feature","properties":{"id":"cu-08","lat":21.96441,"lng":-78.59541},"geometry":{"type":"MultiPolygon","coordinates":[[[[-78.75084,20.72598],[-78.79235,20.71992],[-78.82657,20.75324],[-78.80704,20.75723],[-78.75084,20.72598]]],[[[-78.84704,20.77314],[-78.94164,20.79263],[-78.96434,20.81411],[-78.93273,20.83893],[-78.84704,20.77314]]],[[[-78.97118,20.87352],[-78.98888,20.83906],[-79.07982,20.89728],[-79.04882,20.89802],[-78.97118,20.87352]]],[[[-79.0913,20.9121],[-79.17504,20.99702],[-79.22444,21.00585],[-79.18212,21.008],[-79.13769,20.98265],[-79.0913,20.9121]]],[[[-79.29263,21.07477],[-79.34073,21.0729],[-79.3889,21.12324],[-79.35733,21.12759],[-79.29263,21.07477]]],[[[-78.77672,22.38056],[-78.75764,22.32233],[-78.70808,22.38691],[-78.07086,22.05989],[-78.25191,21.92561],[-78.15608,21.81813],[-78.18321,21.76921],[-78.29906,21.81805],[-78.35242,21.67118],[-78.64163,21.53388],[-78.74633,21.56806],[-78.68912,21.58641],[-78.75927,21.64061],[-78.95995,21.59955],[-79.01726,21.71495],[-79.10898,21.66545],[-79.08278,21.84889],[-78.96048,22.00321],[-79.04638,22.09639],[-79.03473,22.17646],[-78.92719,22.39875],[-78.77672,22.38056]]],[[[-78.27847,22.44868],[-78.69359,22.50751],[-78.6962,22.54145],[-78.39635,22.5598],[-78.27847,22.44868]]],[[[-78.76814,22.54165],[-78.73876,22.52432],[-78.76598,22.51879],[-78.76814,22.54165]]]]}},{"type":"Feature","properties":{"id":"cu-09","lat":21.37779,"lng":-77.83642},"geometry":{"type":"MultiPolygon","coordinates":[[[[-78.33898,20.51801],[-78.3966,20.54645],[-78.46345,20.60244],[-78.34358,20.56733],[-78.33898,20.51801]]],[[[-78.58169,20.66161],[-78.60098,20.64525],[-78.61339,20.65795],[-78.58169,20.66161]]],[[[-78.62975,20.65884],[-78.64647,20.65229],[-78.65469,20.6638],[-78.62975,20.65884]]],[[[-78.44913,20.71161],[-78.5454,20.70425],[-78.43615,20.72598],[-78.44913,20.71161]]],[[[-78.05557,22.07746],[-77.88805,21.86986],[-77.8601,21.96613],[-77.80614,21.96613],[-77.84854,21.91059],[-77.75158,21.80463],[-77.45564,21.77684],[-77.43029,21.65762],[-77.33654,21.65013],[-77.4488,21.80191],[-77.61433,21.88418],[-77.57165,21.93081],[-77.13394,21.66446],[-77.15441,21.55459],[-77.36425,21.61176],[-77.25512,21.56745],[-77.25805,21.47639],[-77.16186,21.48013],[-77.08829,21.60619],[-76.94481,21.45775],[-77.10048,21.41647],[-77.13159,21.33911],[-77.07167,21.30917],[-77.13113,21.17351],[-77.29184,20.99502],[-77.35659,20.98066],[-77.43767,21.0761],[-77.58735,20.93779],[-77.64743,20.96515],[-77.6581,20.89686],[-77.76579,20.87619],[-77.83113,20.72556],[-77.94205,20.69798],[-78.06554,20.71166],[-78.4879,21.03856],[-78.5382,21.23164],[-78.4982,21.26996],[-78.64163,21.53388],[-78.35242,21.67118],[-78.29906,21.81805],[-78.18321,21.76921],[-78.15608,21.81813],[-78.24036,21.95468],[-78.05557,22.07746]]],[[[-77.65172,22.07026],[-77.63419,21.94501],[-77.70889,21.91218],[-77.82258,21.98314],[-77.81713,22.03132],[-77.90184,22.0152],[-77.94945,22.10261],[-77.65172,22.07026]]],[[[-78.04573,22.19888],[-78.00792,22.23383],[-78.00267,22.31269],[-77.98742,22.23672],[-77.86758,22.22675],[-77.90233,22.19204],[-77.826,22.1579],[-77.89489,22.10261],[-78.04573,22.19888]]],[[[-77.88069,22.30874],[-77.83422,22.29588],[-77.75772,22.17837],[-77.80712,22.20258],[-77.88069,22.30874]]],[[[-78.01098,22.2814],[-78.31261,22.40428],[-78.14419,22.42894],[-78.01098,22.2814]]]]}},{"type":"Feature","properties":{"id":"cu-10","lat":21.03556,"lng":-76.85459},"geometry":{"type":"Polygon","coordinates":[[[-76.94481,21.45775],[-76.81176,21.39753],[-76.88728,21.30736],[-76.82946,21.31411],[-76.80557,21.39008],[-76.6715,21.35594],[-76.63659,21.32136],[-76.73469,21.28555],[-76.61315,21.24673],[-76.65355,21.29414],[-76.54491,21.28767],[-76.61315,21.22557],[-76.53746,21.18464],[-76.45613,21.22557],[-76.52904,21.25263],[-76.50731,21.28767],[-76.31355,21.2519],[-76.33851,21.13406],[-76.52078,20.97841],[-76.67467,20.97035],[-76.70224,20.73207],[-76.78288,20.69099],[-76.83611,20.74333],[-77.23864,20.78421],[-77.4934,20.67748],[-77.83113,20.72556],[-77.76579,20.87619],[-77.6581,20.89686],[-77.64743,20.96515],[-77.58735,20.93779],[-77.43767,21.0761],[-77.35659,20.98066],[-77.29184,20.99502],[-77.13113,21.17351],[-77.07167,21.30917],[-77.13159,21.33911],[-77.10048,21.41647],[-76.94481,21.45775]]]}},{"type":"Feature","properties":{"id":"cu-11","lat":20.80105,"lng":-76.24124},"geometry":{"type":"MultiPolygon","coordinates":[[[[-75.57848,20.78742],[-75.48217,20.73778],[-75.57775,20.76952],[-75.57848,20.78742]]],[[[-76.29027,21.23371],[-76.13781,21.16722],[-76.11677,21.0915],[-75.87353,21.08877],[-75.82177,21.13687],[-75.61315,21.06257],[-75.57848,21.01337],[-75.63488,20.91254],[-75.7434,20.88935],[-75.55114,20.82152],[-75.77025,20.83584],[-75.78392,20.7464],[-75.72452,20.6955],[-75.63313,20.78058],[-75.55114,20.68439],[-75.44811,20.69115],[-75.43969,20.74063],[-75.31282,20.66474],[-75.25634,20.67072],[-75.33141,20.70425],[-75.2943,20.72313],[-75.10611,20.66327],[-74.99836,20.70075],[-74.75121,20.61957],[-74.71517,20.55606],[-74.83871,20.40677],[-74.96878,20.47206],[-74.98878,20.41323],[-75.11047,20.48475],[-75.21235,20.45922],[-75.24049,20.39679],[-75.37547,20.42286],[-75.42459,20.48043],[-75.39271,20.54751],[-75.5074,20.55185],[-75.65881,20.44149],[-75.85627,20.4101],[-76.04667,20.5736],[-76.11134,20.40062],[-76.37448,20.58125],[-76.55984,20.63822],[-76.57031,20.69646],[-76.7219,20.7223],[-76.67467,20.97035],[-76.52078,20.97841],[-76.29027,21.23371]]]]}},{"type":"Feature","properties":{"id":"cu-12","lat":20.22258,"lng":-76.88236},"geometry":{"type":"Polygon","coordinates":[[[-77.03464,19.88777],[-77.73721,19.8557],[-77.58642,20.08853],[-77.11343,20.36848],[-77.08243,20.46528],[-77.2399,20.56306],[-77.19542,20.63654],[-77.33668,20.71634],[-77.28533,20.78163],[-76.57031,20.69646],[-76.55984,20.63822],[-76.20434,20.47433],[-76.21953,20.39387],[-76.26601,20.46056],[-76.29335,20.37054],[-76.36947,20.35664],[-76.44737,20.0611],[-76.56248,20.00377],[-76.92584,20.00335],[-77.04777,19.93891],[-77.03464,19.88777]]]}},{"type":"Feature","properties":{"id":"cu-13","lat":20.22265,"lng":-75.92109},"geometry":{"type":"Polygon","coordinates":[[[-75.38208,19.88254],[-76.20226,19.99234],[-76.95889,19.89106],[-77.03464,19.88777],[-77.04777,19.93891],[-76.80071,20.03795],[-76.65472,19.99932],[-76.46243,20.05118],[-76.40828,20.10528],[-76.36319,20.36661],[-76.29335,20.37054],[-76.26601,20.46056],[-76.22731,20.39325],[-76.17966,20.43759],[-76.11134,20.40062],[-76.04667,20.5736],[-75.82467,20.40762],[-75.65881,20.44149],[-75.51164,20.55087],[-75.39271,20.54751],[-75.42459,20.48043],[-75.37547,20.42286],[-75.47913,20.34003],[-75.42883,20.10363],[-75.48968,20.06172],[-75.38208,19.88254]]]}},{"type":"Feature","properties":{"id":"cu-14","lat":20.17298,"lng":-74.81707},"geometry":{"type":"Polygon","coordinates":[[[-75.09501,19.89723],[-75.09495,19.97158],[-75.13704,19.97155],[-75.09244,20.06123],[-75.28466,19.88825],[-75.38208,19.88254],[-75.48371,20.00953],[-75.42883,20.10363],[-75.47913,20.34003],[-75.41924,20.40793],[-75.33723,20.43989],[-75.24049,20.39679],[-75.21235,20.45922],[-75.11047,20.48475],[-74.98878,20.41323],[-74.96878,20.47206],[-74.83871,20.40677],[-74.71517,20.55606],[-74.39297,20.28653],[-74.23595,20.32123],[-74.13964,20.24234],[-74.2674,20.0683],[-74.81298,20.03726],[-75.09501,19.89723]]]}},{"type":"Feature","properties":{"id":"cu-15","lat":22.82384,"lng":-82.70086},"geometry":{"type":"MultiPolygon","coordinates":[[[[-82.52831,22.64004],[-82.50772,22.59007],[-82.52286,22.55931],[-82.52831,22.64004]]],[[[-82.91594,22.84057],[-82.91759,23.03246],[-82.48501,23.06955],[-82.50297,23.01826],[-82.43592,22.95728],[-82.4578,22.8021],[-82.39158,22.68842],[-82.75988,22.70596],[-82.8246,22.61058],[-82.97803,22.80711],[-82.91594,22.84057]]]]}},{"type":"Feature","properties":{"id":"cu-16","lat":22.87969,"lng":-82.06868},"geometry":{"type":"Polygon","coordinates":[[[-82.10009,23.18765],[-81.68391,23.15693],[-81.68056,23.06451],[-81.74717,22.98684],[-81.59809,22.70497],[-81.65072,22.57507],[-81.8775,22.67973],[-82.39158,22.68842],[-82.4578,22.8021],[-82.43592,22.95728],[-82.24983,22.97258],[-82.16488,23.11249],[-82.11098,23.06761],[-82.10009,23.18765]]]}},{"type":"Feature","properties":{"id":"cu-99","lat":21.7153,"lng":-82.81835},"geometry":{"type":"MultiPolygon","coordinates":[[[[-81.98119,21.64777],[-82.07433,21.57221],[-82.11425,21.5703],[-81.98119,21.64777]]],[[[-81.8378,21.66108],[-81.90136,21.61563],[-81.93236,21.62849],[-81.9357,21.64191],[-81.8378,21.66108]]],[[[-81.37165,21.71475],[-81.49669,21.61848],[-81.56066,21.60297],[-81.37165,21.71475]]],[[[-82.55264,21.60139],[-82.59463,21.54181],[-82.90624,21.43749],[-83.07852,21.46922],[-83.1918,21.63032],[-83.08202,21.55146],[-82.96593,21.59927],[-82.9591,21.562],[-82.94612,21.60464],[-83.0856,21.80028],[-82.9591,21.92512],[-82.98949,21.94843],[-82.70373,21.89281],[-82.55264,21.60139]]],[[[-82.6029,21.92194],[-82.65787,21.93207],[-82.66808,21.94912],[-82.64517,21.95453],[-82.6029,21.92194]]]]}}]}
