{"type":"FeatureCollection","features":[{"type":"Feature","properties":{"id":"cv-br","lat":14.85456,"lng":-24.71934},"geometry":{"type":"Polygon","coordinates":[[[-24.70434,14.90082],[-24.68326,14.84248],[-24.71801,14.80394],[-24.75894,14.86665],[-24.70434,14.90082]]]}},{"type":"Feature","properties":{"id":"cv-bv","lat":16.13793,"lng":-22.82209},"geometry":{"type":"Polygon","coordinates":[[[-22.72387,16.21263],[-22.6798,16.06322],[-22.80614,15.98591],[-22.96398,16.05219],[-22.9156,16.24396],[-22.72387,16.21263]]]}},{"type":"Feature","properties":{"id":"cv-ca","lat":15.04982,"lng":-23.70177},"geometry":{"type":"Polygon","coordinates":[[[-23.71508,14.96845],[-23.79259,15.08576],[-23.77013,15.18399],[-23.62055,15.1235],[-23.64159,15.01387],[-23.71508,14.96845]]]}},{"type":"Feature","properties":{"id":"cv-cf","lat":14.91526,"lng":-24.34238},"geometry":{"type":"Polygon","coordinates":[[[-24.30148,14.95485],[-24.32087,14.87277],[-24.37381,14.88561],[-24.37404,14.94492],[-24.30148,14.95485]]]}},{"type":"Feature","properties":{"id":"cv-cr","lat":15.11656,"lng":-23.56117},"geometry":{"type":"Polygon","coordinates":[[[-23.5916,15.17021],[-23.51138,15.12735],[-23.491,15.05152],[-23.61834,15.10578],[-23.5916,15.17021]]]}},{"type":"Feature","properties":{"id":"cv-ma","lat":15.21546,"lng":-23.18581},"geometry":{"type":"Polygon","coordinates":[[[-23.1278,15.31167],[-23.11193,15.17194],[-23.19595,15.12206],[-23.25817,15.17451],[-23.25133,15.25642],[-23.18985,15.33275],[-23.1278,15.31167]]]}},{"type":"Feature","properties":{"id":"cv-mo","lat":14.98993,"lng":-24.36193},"geometry":{"type":"Polygon","coordinates":[[[-24.42969,15.02501],[-24.34325,15.04072],[-24.30148,14.95485],[-24.37404,14.94492],[-24.42969,15.02501]]]}},{"type":"Feature","properties":{"id":"cv-pa","lat":17.09621,"lng":-25.0054},"geometry":{"type":"Polygon","coordinates":[[[-25.07298,17.11356],[-24.97497,17.11449],[-24.98668,17.07887],[-25.07298,17.11356]]]}},{"type":"Feature","properties":{"id":"cv-pn","lat":16.99171,"lng":-25.21545},"geometry":{"type":"Polygon","coordinates":[[[-24.98668,17.07887],[-25.18786,16.92817],[-25.28966,16.91718],[-25.36042,17.05524],[-25.24535,17.1367],[-24.98668,17.07887]]]}},{"type":"Feature","properties":{"id":"cv-pr","lat":14.93971,"lng":-23.51984},"geometry":{"type":"Polygon","coordinates":[[[-23.47147,14.97372],[-23.49401,14.91869],[-23.5393,14.90762],[-23.56408,14.96072],[-23.47147,14.97372]]]}},{"type":"Feature","properties":{"id":"cv-rb","lat":16.58226,"lng":-24.0924},"geometry":{"type":"Polygon","coordinates":[[[-24.37562,16.67712],[-24.09,16.62246],[-24.03283,16.5624],[-24.23331,16.60212],[-24.3247,16.48265],[-24.32022,16.61279],[-24.37562,16.67712]]]}},{"type":"Feature","properties":{"id":"cv-rg","lat":17.15221,"lng":-25.12983},"geometry":{"type":"Polygon","coordinates":[[[-25.24535,17.1367],[-25.10261,17.1966],[-25.02627,17.16771],[-25.15831,17.08578],[-25.24535,17.1367]]]}},{"type":"Feature","properties":{"id":"cv-rs","lat":15.00469,"lng":-23.62791},"geometry":{"type":"Polygon","coordinates":[[[-23.5393,14.90762],[-23.6765,14.93553],[-23.71508,14.96845],[-23.61204,15.04092],[-23.5393,14.90762]]]}},{"type":"Feature","properties":{"id":"cv-sd","lat":15.03785,"lng":-23.50751},"geometry":{"type":"Polygon","coordinates":[[[-23.48466,15.06404],[-23.45466,14.98591],[-23.58069,14.96847],[-23.59619,15.01166],[-23.48466,15.06404]]]}},{"type":"Feature","properties":{"id":"cv-sf","lat":14.91008,"lng":-24.44709},"geometry":{"type":"Polygon","coordinates":[[[-24.29821,14.89545],[-24.33446,14.83185],[-24.41503,14.82087],[-24.52623,14.92471],[-24.42969,15.02501],[-24.37381,14.88561],[-24.29821,14.89545]]]}},{"type":"Feature","properties":{"id":"cv-sl","lat":16.75418,"lng":-22.93508},"geometry":{"type":"Polygon","coordinates":[[[-22.92919,16.59341],[-22.99079,16.81566],[-22.92243,16.8603],[-22.88134,16.69269],[-22.92919,16.59341]]]}},{"type":"Feature","properties":{"id":"cv-sm","lat":15.19997,"lng":-23.64725},"geometry":{"type":"Polygon","coordinates":[[[-23.65608,15.22972],[-23.5916,15.17021],[-23.64048,15.11907],[-23.68699,15.16668],[-23.65608,15.22972]]]}},{"type":"Feature","properties":{"id":"cv-so","lat":15.03547,"lng":-23.57599},"geometry":{"type":"Polygon","coordinates":[[[-23.59619,15.01166],[-23.57998,15.08156],[-23.52643,15.05927],[-23.59619,15.01166]]]}},{"type":"Feature","properties":{"id":"cv-ss","lat":15.06061,"lng":-23.62293},"geometry":{"type":"Polygon","coordinates":[[[-23.64796,15.08188],[-23.57848,15.08806],[-23.62941,15.03934],[-23.64796,15.08188]]]}},{"type":"Feature","properties":{"id":"cv-sv","lat":16.87946,"lng":-24.97806},"geometry":{"type":"MultiPolygon","coordinates":[[[[-24.59266,16.62431],[-24.5753,16.60551],[-24.60423,16.62142],[-24.59266,16.62431]]],[[[-24.78797,16.78924],[-24.72576,16.75741],[-24.68525,16.74294],[-24.74022,16.73426],[-24.78797,16.78924]]],[[[-24.9781,16.923],[-24.87361,16.83592],[-24.91552,16.80549],[-25.09415,16.82616],[-24.9781,16.923]]]]}},{"type":"Feature","properties":{"id":"cv-ta","lat":15.26451,"lng":-23.72883},"geometry":{"type":"Polygon","coordinates":[[[-23.77013,15.18399],[-23.78576,15.29181],[-23.74413,15.33275],[-23.64855,15.23721],[-23.77013,15.18399]]]}},{"type":"Feature","properties":{"id":"cv-ts","lat":16.54772,"lng":-24.34777},"geometry":{"type":"Polygon","coordinates":[[[-24.3247,16.48265],[-24.42471,16.61713],[-24.4226,16.6623],[-24.32022,16.61279],[-24.3247,16.48265]]]}}]}
