{"type":"FeatureCollection","features":[{"type":"Feature","properties":{"id":"cy-01","lat":35.02462,"lng":33.04512},"geometry":{"type":"Polygon","coordinates":[[[33.41355,35.1994],[33.46657,35.0051],[33.50748,35.04413],[33.49613,34.96484],[33.13067,34.87973],[32.9699,34.96079],[32.79937,34.95533],[32.68842,34.88983],[32.56538,35.16891],[32.71139,35.18163],[32.85492,35.07915],[33.15749,35.1853],[33.41355,35.1994]]]}},{"type":"Feature","properties":{"id":"cy-02","lat":34.86424,"lng":32.93895},"geometry":{"type":"Polygon","coordinates":[[[32.98753,34.67339],[32.64171,34.66089],[32.79937,34.95533],[32.976,34.95936],[33.27221,34.77315],[33.2601,34.70051],[33.08644,34.69481],[32.96252,34.62502],[32.98753,34.67339]]]}},{"type":"Feature","properties":{"id":"cy-03","lat":34.91182,"lng":33.4866},"geometry":{"type":"MultiPolygon","coordinates":[[[[33.49385,35.05662],[33.71544,34.9973],[33.60564,34.82176],[33.27255,34.70734],[33.25309,34.80178],[33.13005,34.86113],[33.49241,34.96252],[33.49385,35.05662]]],[[[33.83807,34.96371],[33.82939,35.00117],[33.89627,34.96199],[33.83807,34.96371]]],[[[33.77399,34.98867],[33.79435,34.97776],[33.75921,34.98867],[33.77399,34.98867]]],[[[33.75206,35.0144],[33.7397,35.00258],[33.74131,35.01373],[33.75206,35.0144]]]]}},{"type":"Feature","properties":{"id":"cy-04","lat":35.00184,"lng":33.95623},"geometry":{"type":"Polygon","coordinates":[[[33.799,35.03853],[34.01229,35.06379],[34.09913,34.96516],[33.89627,34.96199],[33.799,35.03853]]]}},{"type":"Feature","properties":{"id":"cy-05","lat":34.97621,"lng":32.48686},"geometry":{"type":"Polygon","coordinates":[[[32.64171,34.66089],[32.41334,34.75348],[32.27516,35.09105],[32.41383,35.04304],[32.55397,35.17805],[32.62776,35.10959],[32.66346,34.90939],[32.78341,34.87177],[32.64171,34.66089]]]}}]}
