{"type":"FeatureCollection","features":[{"type":"Feature","properties":{"id":"cz-jc","lat":49.05257,"lng":14.56881},"geometry":{"type":"Polygon","coordinates":[[[13.99112,48.70018],[13.52113,48.97898],[13.71807,49.1932],[13.70535,49.26369],[13.78307,49.35033],[13.75558,49.48949],[14.24796,49.55408],[14.62332,49.51755],[14.76685,49.61393],[14.94366,49.52524],[14.88952,49.49947],[14.92059,49.30029],[15.59843,49.08936],[15.49924,49.01577],[15.57377,48.96975],[15.54419,48.90261],[15.27455,48.98673],[15.14195,48.93748],[15.1374,48.99303],[14.97886,49.00626],[14.93958,48.76281],[14.80037,48.77651],[14.67562,48.57623],[14.45817,48.64318],[14.32536,48.55864],[14.04083,48.60117],[13.99112,48.70018]]]}},{"type":"Feature","properties":{"id":"cz-jm","lat":49.122,"lng":16.69752},"geometry":{"type":"Polygon","coordinates":[[[15.8185,48.87232],[15.54419,48.90261],[15.57751,48.97077],[15.73582,48.95444],[15.94825,49.05606],[16.22766,49.08487],[16.27718,49.30058],[16.39151,49.35971],[16.39197,49.59729],[16.61697,49.63401],[16.78919,49.60794],[16.72732,49.58282],[16.79055,49.52424],[16.7891,49.41352],[16.86974,49.39316],[16.87592,49.49865],[16.9397,49.49265],[17.13699,49.30988],[17.1295,49.23592],[17.20188,49.15776],[17.11584,49.08624],[17.52316,48.94827],[17.64603,48.84182],[17.16746,48.85976],[16.94504,48.60417],[16.87301,48.71899],[16.51954,48.8056],[16.35831,48.72726],[16.08535,48.74287],[15.8185,48.87232]]]}},{"type":"Feature","properties":{"id":"cz-ka","lat":50.20177,"lng":12.7888},"geometry":{"type":"Polygon","coordinates":[[[12.81739,50.44302],[13.22476,50.32675],[13.28993,50.10847],[13.21804,49.99901],[13.08144,50.03515],[12.92517,49.92872],[12.52407,49.90496],[12.24688,50.04496],[12.07955,50.24272],[12.07614,50.31517],[12.14931,50.31171],[12.30042,50.16081],[12.33649,50.25859],[12.51022,50.38876],[12.81739,50.44302]]]}},{"type":"Feature","properties":{"id":"cz-kr","lat":50.39705,"lng":15.6939},"geometry":{"type":"Polygon","coordinates":[[[15.52213,50.78236],[15.79224,50.74269],[15.85457,50.6737],[15.95802,50.68688],[15.982,50.60363],[16.33164,50.64404],[16.4259,50.56756],[16.19015,50.42416],[16.34374,50.36995],[16.58424,50.12743],[16.47837,50.14937],[16.18879,50.02233],[15.94926,50.1578],[15.4099,50.10318],[15.34675,50.27859],[15.12019,50.34437],[15.12206,50.49462],[15.30004,50.51733],[15.42256,50.46038],[15.47955,50.52296],[15.61871,50.4968],[15.52213,50.78236]]]}},{"type":"Feature","properties":{"id":"cz-li","lat":50.72631,"lng":14.95968},"geometry":{"type":"Polygon","coordinates":[[[14.60834,50.85307],[14.75923,50.81018],[14.81039,50.85845],[14.98206,50.85907],[14.96098,50.99265],[15.15611,51.00784],[15.2698,50.95265],[15.25605,50.89989],[15.3561,50.77546],[15.52213,50.78236],[15.62253,50.50233],[15.22421,50.4824],[14.95168,50.60343],[14.70431,50.48843],[14.47527,50.49439],[14.34038,50.67717],[14.44884,50.82221],[14.53036,50.78686],[14.60834,50.85307]]]}},{"type":"Feature","properties":{"id":"cz-mo","lat":49.87447,"lng":17.85762},"geometry":{"type":"Polygon","coordinates":[[[17.69104,50.31507],[17.74758,50.2175],[17.58945,50.16324],[17.63275,50.10635],[17.73197,50.09488],[17.83936,49.97364],[18.03242,50.00284],[18.00245,50.04677],[18.29245,49.90781],[18.55921,49.90719],[18.61771,49.71387],[18.78844,49.6686],[18.8332,49.51026],[18.55621,49.49016],[18.37597,49.3778],[18.28504,49.48233],[17.85003,49.54983],[17.65199,49.7254],[17.43962,49.73258],[17.13682,49.84175],[17.21693,50.12347],[17.3957,50.19855],[17.38801,50.27264],[17.6064,50.25823],[17.69104,50.31507]]]}},{"type":"Feature","properties":{"id":"cz-ol","lat":49.83519,"lng":16.94384},"geometry":{"type":"Polygon","coordinates":[[[16.86587,50.40845],[17.18761,50.37848],[17.38801,50.27264],[17.3957,50.19855],[17.21693,50.12347],[17.13682,49.84175],[17.43962,49.73258],[17.65199,49.7254],[17.89129,49.50108],[17.46982,49.36396],[17.32156,49.40618],[17.32363,49.33684],[17.16532,49.26089],[16.9397,49.49265],[16.87592,49.49865],[16.86974,49.39316],[16.7891,49.41352],[16.79055,49.52424],[16.72732,49.58282],[16.84118,49.6777],[16.73307,49.82864],[16.72356,49.98791],[16.81219,50.03788],[16.86976,50.18973],[17.01481,50.21849],[16.86587,50.40845]]]}},{"type":"Feature","properties":{"id":"cz-pa","lat":49.91551,"lng":16.11137},"geometry":{"type":"Polygon","coordinates":[[[16.47837,50.14937],[16.70123,50.09493],[16.86976,50.18973],[16.81219,50.03788],[16.72356,49.98791],[16.73307,49.82864],[16.84118,49.6777],[16.78919,49.60794],[16.39197,49.59729],[16.00061,49.73154],[15.85878,49.69983],[15.75586,49.77917],[15.5839,49.80753],[15.48498,49.87556],[15.50473,49.95546],[15.34025,50.03405],[15.4099,50.10318],[15.70611,50.10724],[15.79119,50.16024],[15.82879,50.11233],[15.97699,50.15246],[16.18879,50.02233],[16.47837,50.14937]]]}},{"type":"Feature","properties":{"id":"cz-pl","lat":49.54974,"lng":13.1542},"geometry":{"type":"Polygon","coordinates":[[[12.38362,49.74286],[12.52407,49.90496],[12.92517,49.92872],[13.07682,50.03451],[13.21804,49.99901],[13.28993,50.10847],[13.81207,49.92419],[13.80555,49.74137],[13.68902,49.68219],[13.78386,49.42799],[13.71807,49.1932],[13.60898,49.12489],[13.52239,48.96934],[13.42727,48.95996],[12.99981,49.29492],[12.77791,49.33255],[12.64355,49.42949],[12.49637,49.66999],[12.38362,49.74286]]]}},{"type":"Feature","properties":{"id":"cz-pr","lat":50.04614,"lng":14.45867},"geometry":{"type":"Polygon","coordinates":[[[14.52695,50.16883],[14.68307,50.09242],[14.64675,49.99985],[14.32619,49.95192],[14.21303,50.09648],[14.52695,50.16883]]]}},{"type":"Feature","properties":{"id":"cz-st","lat":50.06062,"lng":13.8252},"geometry":{"type":"Polygon","coordinates":[[[15.50473,49.95546],[15.43066,49.79523],[15.21762,49.74441],[15.168,49.68684],[15.23548,49.61517],[15.1571,49.59062],[14.98238,49.59832],[14.91629,49.5437],[14.76685,49.61393],[14.62332,49.51755],[14.24796,49.55408],[13.75558,49.48949],[13.68902,49.68219],[13.80555,49.74137],[13.82514,49.91335],[13.41032,50.03271],[13.40569,50.08718],[14.0042,50.33182],[14.34913,50.34928],[14.35783,50.42726],[14.47527,50.49439],[14.70431,50.48843],[14.95867,50.60276],[15.13089,50.51459],[15.12019,50.34437],[15.35126,50.27278],[15.35668,50.15389],[15.41285,50.10599],[15.34025,50.03405],[15.50473,49.95546]],[[14.32289,49.95282],[14.64675,49.99985],[14.68447,50.08741],[14.54416,50.16578],[14.21353,50.09938],[14.32289,49.95282]]]}},{"type":"Feature","properties":{"id":"cz-us","lat":50.54715,"lng":13.83805},"geometry":{"type":"Polygon","coordinates":[[[14.31936,51.04001],[14.48214,51.0372],[14.57433,50.97549],[14.55036,50.91209],[14.63459,50.9094],[14.53785,50.79013],[14.44884,50.82221],[14.34038,50.67717],[14.47527,50.49439],[14.35783,50.42726],[14.34913,50.34928],[14.0042,50.33182],[13.3706,50.07749],[13.24678,50.13302],[13.21964,50.33321],[12.96063,50.40923],[13.00962,50.49268],[13.16011,50.49702],[13.36877,50.62833],[13.44794,50.59727],[13.55657,50.70672],[13.83454,50.72368],[13.95959,50.80207],[14.34655,50.8802],[14.38189,50.92087],[14.23833,50.98247],[14.31936,51.04001]]]}},{"type":"Feature","properties":{"id":"cz-vy","lat":49.43396,"lng":15.63944},"geometry":{"type":"Polygon","coordinates":[[[16.39197,49.59729],[16.39151,49.35971],[16.27349,49.29418],[16.24948,49.10242],[16.11384,49.04047],[15.94825,49.05606],[15.73582,48.95444],[15.49924,49.00115],[15.59825,49.08667],[15.5427,49.12921],[15.40524,49.12373],[15.33172,49.2046],[14.97708,49.26982],[14.88495,49.36846],[14.88952,49.49947],[14.97959,49.59662],[15.23548,49.61517],[15.168,49.68684],[15.21762,49.74441],[15.43066,49.79523],[15.48498,49.87556],[15.85878,49.69983],[16.00061,49.73154],[16.39197,49.59729]]]}},{"type":"Feature","properties":{"id":"cz-zl","lat":49.20427,"lng":17.65255},"geometry":{"type":"Polygon","coordinates":[[[18.38701,49.37762],[18.16058,49.2587],[18.07552,49.04719],[17.91408,49.0105],[17.86034,48.92172],[17.64603,48.84182],[17.52316,48.94827],[17.42372,48.94518],[17.22779,49.03318],[17.221,49.08512],[17.10832,49.09538],[17.20188,49.15776],[17.13095,49.25077],[17.32023,49.33403],[17.32156,49.40618],[17.46982,49.36396],[17.645,49.44808],[17.78629,49.44483],[17.90628,49.52733],[18.28504,49.48233],[18.38701,49.37762]]]}}]}
