{"type":"FeatureCollection","features":[{"type":"Feature","properties":{"id":"de-bb","lat":52.43352,"lng":14.16011},"geometry":{"type":"Polygon","coordinates":[[[14.60797,52.59646],[14.63232,52.49674],[14.5454,52.38215],[14.58415,52.29123],[14.71241,52.23591],[14.68637,52.12103],[14.7614,52.07667],[14.58281,51.82508],[14.73246,51.65835],[14.70677,51.54083],[14.15875,51.52688],[13.96058,51.35705],[13.53388,51.36374],[13.41079,51.42141],[13.18765,51.38524],[13.19964,51.52435],[13.06166,51.61509],[13.17835,51.69659],[13.15789,51.78211],[13.23685,51.85549],[12.42082,52.01161],[12.20761,52.17818],[12.29509,52.51612],[12.12332,52.55299],[12.22574,52.6726],[12.20838,52.86174],[11.89672,52.90173],[11.62568,53.0503],[11.34414,53.06632],[11.27409,53.11754],[11.52809,53.12069],[11.52951,53.19518],[11.59963,53.23732],[11.83921,53.22647],[12.06374,53.35612],[12.19195,53.36928],[12.43013,53.26848],[13.00099,53.16766],[13.1459,53.2576],[13.23049,53.23318],[13.28232,53.28778],[13.46898,53.30233],[13.55295,53.4046],[13.80861,53.4847],[13.79772,53.54226],[13.92061,53.42714],[14.24262,53.42714],[14.1032,53.27251],[14.24884,53.25914],[14.39126,53.33402],[14.44163,53.25184],[14.35678,53.06668],[14.14449,52.95992],[14.12392,52.85065],[14.60797,52.59646]],[[13.62633,52.48703],[13.64757,52.53927],[13.47378,52.66356],[13.36423,52.62361],[13.28914,52.65712],[13.21685,52.58744],[13.1523,52.59793],[13.09164,52.41525],[13.42567,52.38109],[13.45813,52.41675],[13.65398,52.34233],[13.75092,52.45029],[13.62633,52.48703]]]}},{"type":"Feature","properties":{"id":"de-be","lat":52.51315,"lng":13.3813},"geometry":{"type":"Polygon","coordinates":[[[13.47378,52.66356],[13.64757,52.53927],[13.62633,52.48703],[13.75092,52.45029],[13.70142,52.37001],[13.0921,52.4137],[13.15478,52.59956],[13.47378,52.66356]]]}},{"type":"Feature","properties":{"id":"de-bw","lat":48.63976,"lng":9.07481},"geometry":{"type":"Polygon","coordinates":[[[9.54989,47.53353],[9.1834,47.67043],[8.71707,47.69456],[8.71314,47.75742],[8.58312,47.80024],[8.39099,47.69213],[8.45827,47.63988],[8.60731,47.65629],[8.5607,47.5894],[8.23297,47.62195],[7.68344,47.54426],[7.51787,47.67502],[7.62112,47.97144],[7.57264,48.09497],[7.75072,48.34137],[7.81025,48.61502],[8.09034,48.80751],[8.47988,49.29699],[8.50458,49.43109],[8.44251,49.45218],[8.41683,49.57946],[8.56617,49.52731],[8.61661,49.54504],[8.59889,49.60999],[8.67573,49.6225],[8.7181,49.54178],[8.8905,49.50613],[8.82921,49.46551],[8.84626,49.39629],[8.95364,49.50274],[9.12681,49.50817],[9.07498,49.57227],[9.42287,49.65123],[9.42426,49.71118],[9.31362,49.73211],[9.32835,49.77836],[9.64926,49.78316],[9.6319,49.69671],[9.79716,49.7196],[9.88232,49.61118],[9.83922,49.54816],[9.91291,49.57904],[9.93632,49.48174],[10.08515,49.54431],[10.12753,49.51145],[10.11244,49.44215],[10.17155,49.38205],[10.12179,49.36955],[10.14768,49.20348],[10.45882,48.93939],[10.43164,48.75589],[10.4951,48.69946],[10.3719,48.6645],[10.29387,48.70302],[10.31945,48.53265],[10.06407,48.47123],[9.98056,48.38134],[10.13931,48.09443],[10.08531,47.96596],[10.12954,47.81651],[10.07926,47.79],[10.12706,47.6773],[9.86465,47.67482],[9.54989,47.53353]]]}},{"type":"Feature","properties":{"id":"de-by","lat":48.84379,"lng":12.08866},"geometry":{"type":"Polygon","coordinates":[[[12.10134,50.31398],[12.07955,50.24272],[12.24688,50.04496],[12.52407,49.90496],[12.38362,49.74286],[12.49637,49.66999],[12.64355,49.42949],[12.77791,49.33255],[12.99981,49.29492],[13.1785,49.11835],[13.29953,49.09365],[13.4589,48.94502],[13.60866,48.94616],[13.81573,48.76643],[13.80239,48.61171],[13.71651,48.52169],[13.45456,48.57344],[13.40557,48.37658],[12.73894,48.11345],[12.99123,47.84711],[12.89201,47.72355],[13.06409,47.67399],[13.03732,47.49305],[12.94255,47.47049],[12.77894,47.55483],[12.81315,47.61182],[12.76199,47.66686],[12.49658,47.6289],[12.42413,47.69156],[12.23871,47.6789],[12.24223,47.73202],[12.1766,47.70582],[12.1736,47.60508],[11.62046,47.58965],[11.55121,47.51369],[11.41262,47.50609],[11.38388,47.44486],[11.23702,47.39396],[11.19382,47.42894],[10.97946,47.39055],[10.85864,47.53067],[10.48254,47.53286],[10.42921,47.57702],[10.42828,47.39605],[10.15988,47.27112],[10.20928,47.37248],[10.08288,47.35907],[10.07182,47.43912],[9.94594,47.54077],[9.83349,47.53462],[9.78212,47.58841],[9.6767,47.52263],[9.55414,47.53274],[9.86465,47.67482],[10.12706,47.6773],[10.07926,47.79],[10.12954,47.81651],[10.08531,47.96596],[10.13931,48.09443],[9.98056,48.38134],[10.06407,48.47123],[10.31945,48.53265],[10.29387,48.70302],[10.3719,48.6645],[10.4951,48.69946],[10.43164,48.75589],[10.46751,48.92115],[10.14768,49.20348],[10.12179,49.36955],[10.17155,49.38205],[10.11244,49.44215],[10.12753,49.51145],[10.08515,49.54431],[9.93632,49.48174],[9.91291,49.57904],[9.83922,49.54816],[9.88232,49.61118],[9.79452,49.72131],[9.65267,49.68829],[9.64926,49.78316],[9.33977,49.78316],[9.31362,49.73211],[9.42426,49.71118],[9.42287,49.65123],[9.11069,49.57511],[9.07266,49.61087],[9.14092,49.78735],[9.02672,49.90739],[9.05312,49.98165],[8.97659,50.05279],[9.01214,50.09906],[9.23513,50.14433],[9.50669,50.10811],[9.50793,50.23559],[9.6612,50.23435],[9.77897,50.41426],[9.98087,50.43733],[10.12613,50.56286],[10.55236,50.35879],[10.60915,50.23068],[10.72057,50.20727],[10.84567,50.24655],[10.71499,50.32194],[10.78888,50.38625],[11.11253,50.36519],[11.14328,50.30122],[11.25531,50.27486],[11.24865,50.47263],[11.34673,50.51873],[11.42709,50.51309],[11.4212,50.44304],[11.52579,50.37915],[11.93171,50.41692],[12.10134,50.31398]]]}},{"type":"Feature","properties":{"id":"de-hb","lat":53.1282,"lng":8.7946},"geometry":{"type":"MultiPolygon","coordinates":[[[[8.52954,53.22466],[8.93623,53.1628],[8.98992,53.09361],[8.91453,53.02462],[8.70487,53.04955],[8.52954,53.22466]]],[[[8.62359,53.50221],[8.53517,53.59077],[8.51304,53.6171],[8.63087,53.60396],[8.62359,53.50221]]]]}},{"type":"Feature","properties":{"id":"de-he","lat":50.55327,"lng":9.07024},"geometry":{"type":"Polygon","coordinates":[[[9.94924,51.3818],[9.94702,51.30395],[10.23289,51.17987],[10.19874,51.11634],[10.12598,51.1361],[10.19114,50.99663],[10.05115,51.00702],[10.04138,50.94092],[9.95188,50.93591],[10.05596,50.88263],[9.9494,50.81519],[9.87767,50.6436],[10.06035,50.66587],[10.05503,50.5165],[9.91834,50.41377],[9.77897,50.41426],[9.6612,50.23435],[9.50793,50.23559],[9.50669,50.10811],[9.23513,50.14433],[9.01214,50.09906],[8.97659,50.05279],[9.05312,49.98165],[9.02672,49.90739],[9.14092,49.78735],[9.07266,49.61087],[9.12681,49.50817],[8.95364,49.50274],[8.94031,49.44732],[8.81443,49.40301],[8.8905,49.50613],[8.7181,49.54178],[8.67573,49.6225],[8.59889,49.60999],[8.61661,49.54504],[8.56617,49.52731],[8.41683,49.57946],[8.36226,49.69092],[8.47662,49.7675],[8.42381,49.7673],[8.33544,49.95964],[8.22811,50.03819],[7.87815,49.97295],[7.77139,50.05348],[7.92172,50.1088],[7.92218,50.20009],[8.12207,50.27166],[7.9734,50.40026],[8.00445,50.52074],[8.16382,50.5858],[8.13416,50.78135],[8.28345,50.87943],[8.46375,50.91449],[8.54488,51.02066],[8.52473,51.09332],[8.70627,51.10634],[8.75221,51.17794],[8.72275,51.26871],[8.57563,51.2702],[8.68162,51.36201],[8.93515,51.39128],[8.90088,51.47621],[9.0154,51.50916],[9.10867,51.44291],[9.21244,51.45696],[9.336,51.55396],[9.33305,51.60667],[9.46679,51.65501],[9.68605,51.57194],[9.59479,51.5182],[9.63856,51.4087],[9.53475,51.36658],[9.56937,51.34234],[9.72564,51.29067],[9.78476,51.3387],[9.71256,51.3626],[9.79638,51.40839],[9.94924,51.3818]]]}},{"type":"Feature","properties":{"id":"de-hh","lat":53.56013,"lng":9.98751},"geometry":{"type":"Polygon","coordinates":[[[9.76397,53.54768],[9.83204,53.54361],[9.74081,53.57258],[9.76843,53.62918],[9.81607,53.59311],[10.18742,53.72752],[10.16473,53.68453],[10.22277,53.63365],[10.18323,53.52896],[10.32798,53.43266],[9.91291,53.4156],[9.76397,53.54768]]]}},{"type":"Feature","properties":{"id":"de-mv","lat":53.80644,"lng":12.34124},"geometry":{"type":"MultiPolygon","coordinates":[[[[14.21274,53.70808],[14.39126,53.33402],[14.24884,53.25914],[14.1032,53.27251],[14.24262,53.42714],[13.92061,53.42714],[13.7806,53.54381],[13.80861,53.4847],[13.55295,53.4046],[13.46898,53.30233],[13.28232,53.28778],[13.23049,53.23318],[13.1459,53.2576],[12.97536,53.165],[12.43013,53.26848],[12.19195,53.36928],[12.06374,53.35612],[11.83921,53.22647],[11.59963,53.23732],[11.52951,53.19518],[11.52809,53.12069],[11.27409,53.11754],[11.15615,53.17386],[11.08943,53.1442],[10.73943,53.30845],[10.70971,53.36834],[10.60125,53.37183],[10.64083,53.45097],[10.82252,53.51647],[10.82966,53.57006],[10.9544,53.56614],[10.94277,53.68055],[10.75782,53.74917],[10.76325,53.86506],[10.96127,53.9119],[10.90602,53.96121],[11.17506,54.01801],[11.24293,53.94522],[11.45769,53.90615],[11.51905,54.03644],[11.68971,54.15522],[12.08815,54.19408],[12.09164,54.114],[12.115,54.09789],[12.1089,54.18301],[12.34213,54.30394],[12.50196,54.47358],[12.53387,54.48827],[12.92115,54.4335],[12.6242,54.42292],[12.52703,54.37226],[12.43849,54.38752],[12.36883,54.26919],[12.41245,54.25141],[12.45818,54.25556],[12.41033,54.26919],[12.47869,54.33185],[12.68084,54.41087],[12.71754,54.4138],[12.69239,54.39619],[12.68409,54.37226],[12.85467,54.35786],[13.03419,54.43366],[13.11492,54.28001],[13.28883,54.23428],[13.32154,54.16681],[13.40349,54.17365],[13.48357,54.0913],[13.71193,54.17365],[13.80812,54.10468],[13.7461,54.03644],[13.90602,53.94306],[13.81853,53.878],[13.81707,53.85293],[14.03745,53.75528],[14.25017,53.75995],[14.21274,53.70808]]],[[[11.46803,54.03095],[11.45769,53.96137],[11.37566,53.98184],[11.39039,54.00458],[11.46803,54.03095]]],[[[14.21005,53.93846],[14.20082,53.87816],[13.8401,53.85029],[13.93165,53.89932],[13.90447,53.99543],[14.04835,53.94086],[14.05128,54.00507],[13.94606,54.0666],[13.89088,54.01016],[13.86362,54.04999],[13.7741,54.02277],[13.81495,54.10126],[13.75294,54.15314],[13.81495,54.17365],[14.01661,54.06],[14.21005,53.93846]]],[[[11.53956,54.05695],[11.6019,54.10415],[11.6159,54.11213],[11.53956,54.05695]]],[[[13.76645,54.34492],[13.72316,54.27839],[13.65113,54.29719],[13.71193,54.33185],[13.61695,54.31761],[13.69093,54.35175],[13.49968,54.34492],[13.35963,54.27546],[13.40724,54.22822],[13.31153,54.25113],[13.33522,54.28352],[13.14967,54.29027],[13.14894,54.37727],[13.26686,54.38589],[13.15699,54.42683],[13.27312,54.48212],[13.1434,54.54291],[13.29786,54.51968],[13.3694,54.58515],[13.34889,54.52367],[13.37672,54.56464],[13.50709,54.48827],[13.52076,54.57079],[13.44142,54.5572],[13.36915,54.61213],[13.25327,54.56464],[13.29347,54.64228],[13.22478,54.63495],[13.44508,54.68008],[13.39454,54.60444],[13.67066,54.56623],[13.57911,54.45506],[13.76645,54.34492]]],[[[13.15105,54.60493],[13.07504,54.50943],[13.06137,54.46845],[13.10231,54.5961],[13.15105,54.60493]]]]}},{"type":"Feature","properties":{"id":"de-ni","lat":52.59967,"lng":8.84097},"geometry":{"type":"MultiPolygon","coordinates":[[[[7.18362,52.96612],[7.19459,53.24502],[7.25473,53.31952],[7.36655,53.3028],[7.30291,53.33275],[7.03826,53.34858],[7.05144,53.5126],[7.14177,53.53718],[7.10092,53.59789],[7.30502,53.6848],[7.95143,53.72191],[8.03142,53.70808],[8.16798,53.55321],[8.05877,53.50202],[8.08619,53.45612],[8.20533,53.41071],[8.31512,53.47492],[8.23121,53.52521],[8.27068,53.61286],[8.55209,53.54361],[8.49,53.4864],[8.50441,53.35806],[8.51287,53.49649],[8.64266,53.5319],[8.63087,53.60396],[8.51304,53.6171],[8.4861,53.70043],[8.57325,53.85765],[8.65187,53.89248],[8.86069,53.831],[9.27467,53.86514],[9.56707,53.5996],[9.76397,53.54768],[9.85721,53.43286],[10.35051,53.43204],[10.70971,53.36834],[10.73943,53.30845],[11.08943,53.1442],[11.15615,53.17386],[11.34414,53.06632],[11.58134,53.04286],[11.40874,52.90525],[11.01466,52.91186],[10.7586,52.8351],[10.80097,52.72247],[10.97678,52.61627],[10.9465,52.56294],[11.00174,52.49814],[10.93905,52.46212],[11.073,52.37218],[10.99926,52.34032],[11.08509,52.23071],[10.96298,52.05982],[10.57008,52.0068],[10.64548,51.95709],[10.57784,51.80521],[10.69762,51.63737],[10.63137,51.60703],[10.64998,51.56249],[10.37485,51.58574],[10.1497,51.4318],[9.94924,51.3818],[9.89757,51.41908],[9.86093,51.37206],[9.79638,51.40839],[9.71256,51.3626],[9.78476,51.3387],[9.72202,51.29046],[9.53475,51.36658],[9.63624,51.40374],[9.59479,51.5182],[9.68605,51.57194],[9.65438,51.60817],[9.37305,51.64726],[9.46121,51.86536],[9.32199,51.85627],[9.32587,51.91611],[9.25528,51.92236],[9.28603,51.97277],[9.17105,51.98597],[9.1895,52.07902],[9.14294,52.12899],[8.99648,52.1341],[8.98806,52.18849],[9.07266,52.23919],[8.98667,52.26048],[8.99509,52.32249],[9.12836,52.40845],[9.09669,52.49545],[8.82673,52.38879],[8.71108,52.39861],[8.64281,52.52405],[8.30144,52.45111],[8.44096,52.35376],[8.49186,52.17619],[8.40076,52.11243],[8.26686,52.13361],[7.97386,52.03845],[7.89164,52.08977],[8.01732,52.17005],[7.90063,52.20493],[7.97278,52.31464],[7.90575,52.37727],[7.70979,52.40734],[7.6806,52.46202],[7.60117,52.47447],[7.56159,52.37184],[7.30057,52.2718],[7.0266,52.23862],[7.04823,52.36507],[6.9733,52.45137],[6.71481,52.46155],[6.67172,52.54168],[6.74375,52.55971],[6.70396,52.58307],[6.73703,52.6347],[7.01846,52.62599],[7.06198,52.82401],[7.18362,52.96612]],[[8.51868,53.2261],[8.70487,53.04955],[8.91453,53.02462],[8.98992,53.09361],[8.93623,53.1628],[8.51868,53.2261]]],[[[6.72242,53.59077],[6.75652,53.56289],[6.65952,53.59911],[6.79811,53.60444],[6.72242,53.59077]]],[[[7.08546,53.687],[6.87379,53.67276],[7.04705,53.69416],[7.08546,53.687]]],[[[7.3462,53.72797],[7.29575,53.71101],[7.13315,53.70808],[7.23292,53.72944],[7.3462,53.72797]]],[[[8.13266,53.73404],[8.19597,53.72797],[8.12013,53.7143],[8.13266,53.73404]]],[[[7.38307,53.73485],[7.43556,53.72797],[7.36655,53.72797],[7.38307,53.73485]]],[[[7.62721,53.75092],[7.51124,53.72797],[7.46957,53.74535],[7.48699,53.76142],[7.62721,53.75092]]],[[[7.81284,53.77635],[7.74822,53.76093],[7.6609,53.76211],[7.72828,53.78657],[7.81284,53.77635]]],[[[7.8545,53.78457],[7.92897,53.79255],[7.95558,53.7829],[7.8545,53.78457]]]]}},{"type":"Feature","properties":{"id":"de-nrw","lat":51.41709,"lng":7.56452},"geometry":{"type":"Polygon","coordinates":[[[6.67296,52.05005],[7.0266,52.23862],[7.56159,52.37184],[7.60908,52.47556],[7.97045,52.31753],[7.90063,52.20493],[8.01732,52.17005],[7.89164,52.08977],[7.97386,52.03845],[8.26686,52.13361],[8.40076,52.11243],[8.49186,52.17619],[8.44096,52.35376],[8.30144,52.45111],[8.64281,52.52405],[8.71108,52.39861],[8.82673,52.38879],[9.09095,52.49744],[9.12836,52.40845],[8.99509,52.32249],[8.98667,52.26048],[9.07266,52.23919],[8.98806,52.18849],[8.99648,52.1341],[9.14294,52.12899],[9.1895,52.07902],[9.17105,51.98597],[9.28603,51.97277],[9.25528,51.92236],[9.32587,51.91611],[9.32199,51.85627],[9.46121,51.86536],[9.37243,51.65625],[9.44008,51.64904],[9.33305,51.60667],[9.336,51.55396],[9.21244,51.45696],[9.10867,51.44291],[9.0154,51.50916],[8.90088,51.47621],[8.93515,51.39128],[8.65397,51.34405],[8.57563,51.2702],[8.72275,51.26871],[8.75221,51.17794],[8.70627,51.10634],[8.52473,51.09332],[8.54488,51.02066],[8.46623,50.91671],[8.19715,50.82705],[8.13339,50.78],[8.17514,50.74207],[8.13447,50.68404],[8.05628,50.69091],[7.97029,50.83703],[7.7886,50.93028],[7.69408,50.77571],[7.38687,50.70365],[7.34046,50.6289],[6.93935,50.55477],[6.87357,50.46219],[6.76014,50.47067],[6.79765,50.35669],[6.45814,50.34101],[6.39762,50.38323],[6.42651,50.33372],[6.3734,50.32308],[6.3369,50.481],[6.17082,50.51795],[6.24906,50.61443],[6.01155,50.70853],[5.96876,50.79463],[6.06374,50.90754],[6.00369,50.97374],[5.87461,50.96537],[5.85817,51.01934],[6.14725,51.15225],[6.05661,51.21171],[6.20782,51.38767],[6.19335,51.50934],[6.08648,51.59553],[6.09919,51.64447],[5.93931,51.73188],[5.92804,51.80674],[6.15614,51.84206],[6.09299,51.88531],[6.12699,51.89673],[6.34497,51.8211],[6.74375,51.90833],[6.80918,51.97954],[6.67296,52.05005]]]}},{"type":"Feature","properties":{"id":"de-rp","lat":49.92339,"lng":7.27458},"geometry":{"type":"Polygon","coordinates":[[[6.10116,50.06341],[6.14684,50.21404],[6.42574,50.33243],[6.39515,50.38204],[6.45814,50.34101],[6.79502,50.35561],[6.76014,50.47067],[6.87357,50.46219],[6.93935,50.55477],[7.59946,50.73344],[7.77031,50.83935],[7.75754,50.91131],[7.85966,50.92247],[7.84617,50.87886],[7.97029,50.83703],[8.05628,50.69091],[8.13447,50.68404],[8.16382,50.5858],[8.00445,50.52074],[7.9734,50.40026],[8.12052,50.26892],[7.92218,50.20009],[7.92172,50.1088],[7.77139,50.05348],[7.87815,49.97295],[8.21302,50.04444],[8.33544,49.95964],[8.4158,49.77774],[8.47662,49.7675],[8.36055,49.66446],[8.44251,49.45218],[8.50458,49.43109],[8.47988,49.29699],[8.23023,48.96554],[7.63497,49.03778],[7.29468,49.20516],[7.39059,49.36071],[7.2523,49.43099],[7.30909,49.49026],[7.27065,49.5778],[6.94214,49.62793],[6.60511,49.53021],[6.34881,49.52529],[6.40274,49.65578],[6.49969,49.71221],[6.50258,49.79567],[6.2227,49.88714],[6.10116,50.06341]]]}},{"type":"Feature","properties":{"id":"de-sh","lat":54.13919,"lng":9.93861},"geometry":{"type":"MultiPolygon","coordinates":[[[[8.82425,54.9059],[9.31703,54.80162],[9.57993,54.86628],[9.82374,54.75674],[9.94752,54.77953],[10.01824,54.70124],[9.92945,54.6739],[10.03907,54.66681],[10.02687,54.55996],[9.8401,54.47529],[10.1434,54.49185],[10.20387,54.46101],[10.14178,54.32441],[10.31837,54.44331],[10.73129,54.31021],[11.13551,54.38589],[11.06658,54.35859],[11.06658,54.18391],[10.75262,54.05012],[10.96127,53.9119],[10.751,53.841],[10.75891,53.74788],[10.94557,53.67706],[10.9544,53.56614],[10.82966,53.57006],[10.82252,53.51647],[10.64083,53.45097],[10.56952,53.36388],[10.18665,53.52531],[10.19192,53.72657],[9.69239,53.57591],[9.55079,53.63459],[9.39519,53.831],[8.94947,53.91291],[8.83334,54.03644],[8.99724,54.03022],[9.01832,54.09789],[8.81284,54.18049],[8.83961,54.25556],[8.96315,54.31761],[8.67848,54.26919],[8.59986,54.33808],[8.69557,54.35859],[8.63478,54.36542],[8.64845,54.4064],[8.88608,54.41779],[9.01157,54.50633],[8.82586,54.59813],[8.80543,54.68757],[8.68873,54.7353],[8.64723,54.86738],[8.82425,54.9059]]],[[[7.90414,54.18041],[7.89039,54.18757],[7.87989,54.19391],[7.90414,54.18041]]],[[[7.91765,54.187],[7.91236,54.19229],[7.93344,54.18989],[7.91765,54.187]]],[[[11.31422,54.4138],[11.11264,54.41523],[11.00571,54.46845],[11.12127,54.53596],[11.31422,54.4138]]],[[[8.95582,54.51496],[8.88795,54.46845],[8.81284,54.48212],[8.87965,54.52912],[8.95582,54.51496]]],[[[8.6989,54.55858],[8.64129,54.49238],[8.59588,54.51366],[8.6989,54.55858]]],[[[8.36036,54.71483],[8.35369,54.61896],[8.29152,54.66706],[8.36036,54.71483]]],[[[8.59376,54.72167],[8.55209,54.685],[8.39454,54.71483],[8.49757,54.75641],[8.59376,54.72167]]],[[[8.65447,54.89362],[8.33741,54.87759],[8.27784,54.75641],[8.29803,54.91254],[8.37371,55.03498],[8.41578,55.06533],[8.46339,55.05069],[8.39454,55.04385],[8.43043,55.03001],[8.3545,54.91275],[8.65447,54.89362]]]]}},{"type":"Feature","properties":{"id":"de-sl","lat":49.39272,"lng":6.9318},"geometry":{"type":"Polygon","coordinates":[[[6.34531,49.45535],[6.34881,49.52529],[6.60511,49.53021],[6.94214,49.62793],[7.27065,49.5778],[7.30909,49.49026],[7.2523,49.43099],[7.39059,49.36071],[7.28693,49.23079],[7.37163,49.16617],[7.27437,49.10501],[7.04255,49.1076],[7.00947,49.1817],[6.91439,49.20666],[6.83346,49.20945],[6.82179,49.14775],[6.71378,49.15886],[6.51167,49.42474],[6.34531,49.45535]]]}},{"type":"Feature","properties":{"id":"de-sn","lat":50.9164,"lng":13.50065},"geometry":{"type":"Polygon","coordinates":[[[14.48214,51.0372],[14.28753,51.03683],[14.23833,50.98247],[14.38189,50.92087],[14.34655,50.8802],[13.95959,50.80207],[13.83454,50.72368],[13.55657,50.70672],[13.44794,50.59727],[13.36877,50.62833],[13.16011,50.49702],[13.00962,50.49268],[12.95257,50.40416],[12.81739,50.44302],[12.51022,50.38876],[12.33649,50.25859],[12.30042,50.16081],[12.16854,50.30298],[11.89739,50.42341],[11.98943,50.54611],[12.3015,50.65156],[12.24125,50.72218],[12.28905,50.76331],[12.25804,50.79251],[12.64691,50.8924],[12.48366,51.05833],[12.22264,51.08897],[12.15329,51.17],[12.15624,51.44611],[12.23536,51.56215],[12.89103,51.67008],[13.1692,51.5706],[13.21034,51.4965],[13.18408,51.38653],[13.41079,51.42141],[13.76648,51.34798],[13.97034,51.35919],[14.10615,51.5059],[14.22097,51.53629],[14.59537,51.56249],[14.94506,51.44919],[15.02206,51.23677],[14.78507,50.82005],[14.61319,50.84558],[14.62922,50.92072],[14.55036,50.91209],[14.57433,50.97549],[14.48214,51.0372]]]}},{"type":"Feature","properties":{"id":"de-st","lat":51.98194,"lng":11.59517},"geometry":{"type":"Polygon","coordinates":[[[10.71343,51.63111],[10.58388,51.7803],[10.64548,51.95709],[10.57008,52.0068],[10.96298,52.05982],[11.08509,52.23071],[10.99926,52.34032],[11.073,52.37218],[10.93905,52.46212],[11.00174,52.49814],[10.9465,52.56294],[10.97678,52.61627],[10.80097,52.72247],[10.7586,52.8351],[11.01466,52.91186],[11.40874,52.90525],[11.62568,53.0503],[11.89672,52.90173],[12.21381,52.8546],[12.22574,52.6726],[12.12332,52.55299],[12.29509,52.51612],[12.19908,52.19392],[12.36512,52.04008],[13.06616,51.85265],[13.23685,51.85549],[13.15789,51.78211],[13.17835,51.69659],[13.06166,51.61509],[12.86204,51.66832],[12.19536,51.52874],[12.18461,51.33108],[12.13262,51.28901],[12.15329,51.17],[12.27603,51.01286],[12.20078,50.9279],[11.73947,51.01472],[11.66774,51.10065],[11.42988,51.09717],[11.33304,51.21631],[11.45189,51.2715],[11.36719,51.35749],[10.97259,51.41821],[10.94184,51.59853],[10.71343,51.63111]]]}},{"type":"Feature","properties":{"id":"de-th","lat":50.91015,"lng":11.31762},"geometry":{"type":"Polygon","coordinates":[[[9.94986,51.30302],[9.93043,51.3717],[10.29124,51.49128],[10.37485,51.58574],[10.64532,51.56114],[10.64889,51.61974],[10.80345,51.63256],[10.94557,51.59473],[10.91208,51.56548],[10.97259,51.41821],[11.36719,51.35749],[11.45189,51.2715],[11.33304,51.21631],[11.43329,51.09562],[11.66774,51.10065],[11.73947,51.01472],[12.20078,50.9279],[12.27541,51.00975],[12.26455,51.08376],[12.32894,51.08784],[12.48366,51.05833],[12.64691,50.8924],[12.25804,50.79251],[12.28905,50.76331],[12.24125,50.72218],[12.3015,50.65156],[11.98943,50.54611],[11.87228,50.40271],[11.52579,50.37915],[11.4212,50.44304],[11.42709,50.51309],[11.34673,50.51873],[11.24865,50.47263],[11.25531,50.27486],[11.14328,50.30122],[11.11253,50.36519],[10.78888,50.38625],[10.71499,50.32194],[10.84567,50.24655],[10.72057,50.20727],[10.61706,50.2244],[10.59132,50.32597],[10.39738,50.39956],[10.32752,50.48911],[10.12613,50.56286],[10.04743,50.51697],[10.05688,50.66776],[9.87953,50.63712],[9.9494,50.81519],[10.05596,50.88263],[9.95327,50.93896],[10.04138,50.94092],[10.05115,51.00702],[10.19114,50.99663],[10.12598,51.1361],[10.19874,51.11634],[10.23289,51.17987],[9.94986,51.30302]]]}}]}
