{"type":"FeatureCollection","features":[{"type":"Feature","properties":{"id":"dj-ar","lat":11.45875,"lng":42.69882},"geometry":{"type":"Polygon","coordinates":[[[43.24073,11.48786],[43.18881,11.40776],[43.05849,11.47858],[42.91245,11.44974],[42.70657,11.26549],[42.49925,11.30148],[42.36535,11.65422],[42.60377,11.46776],[42.8558,11.59577],[42.95638,11.5247],[43.17311,11.54165],[43.24073,11.48786]]]}},{"type":"Feature","properties":{"id":"dj-as","lat":11.29155,"lng":42.92933},"geometry":{"type":"Polygon","coordinates":[[[43.18881,11.40776],[42.92372,10.99879],[42.77179,10.99646],[42.72962,11.06501],[42.60815,11.08909],[42.62585,11.2197],[42.86449,11.36339],[42.91245,11.44974],[43.05849,11.47858],[43.18881,11.40776]]]}},{"type":"Feature","properties":{"id":"dj-di","lat":11.41972,"lng":42.10307},"geometry":{"type":"Polygon","coordinates":[[[41.93752,10.92982],[41.76131,10.9962],[41.74911,11.53795],[41.80823,11.73624],[41.97468,11.88091],[42.19467,11.82349],[42.36535,11.65422],[42.49925,11.30148],[42.70657,11.26549],[42.62585,11.2197],[42.60815,11.08909],[41.93752,10.92982]]]}},{"type":"Feature","properties":{"id":"dj-dj","lat":11.56285,"lng":43.04364},"geometry":{"type":"Polygon","coordinates":[[[42.90071,11.58405],[43.15187,11.61176],[43.17311,11.54165],[42.95638,11.5247],[42.90071,11.58405]]]}},{"type":"Feature","properties":{"id":"dj-ob","lat":12.2742,"lng":43.05172},"geometry":{"type":"Polygon","coordinates":[[[42.89013,12.61541],[43.13396,12.69721],[43.32936,12.48876],[43.41139,12.24177],[43.39877,12.02953],[43.20655,11.95783],[43.086,11.83884],[42.67427,12.30664],[42.89013,12.61541]]]}},{"type":"Feature","properties":{"id":"dj-ta","lat":12.06641,"lng":42.49243},"geometry":{"type":"Polygon","coordinates":[[[41.97468,11.88091],[42.4485,12.52337],[42.69619,12.38013],[42.70006,12.25191],[43.086,11.83884],[42.8034,11.74799],[42.67742,11.57368],[42.52687,11.58246],[42.53248,11.54747],[42.19467,11.82349],[41.97468,11.88091]]]}}]}
