{"type":"FeatureCollection","features":[{"type":"Feature","properties":{"id":"dk-81","lat":57.15493,"lng":9.82112},"geometry":{"type":"MultiPolygon","coordinates":[[[[8.88111,56.80537],[8.65838,56.67813],[8.51466,56.73823],[8.66879,56.82583],[8.6211,56.83202],[8.65162,56.89419],[8.92888,56.97663],[8.9004,56.87482],[8.83961,56.87983],[8.88111,56.80537]]],[[[9.43542,56.63851],[9.16912,56.68867],[9.24252,56.74706],[9.16285,56.89411],[9.28875,56.99714],[9.47006,57.02383],[9.60792,56.96988],[9.68897,57.03913],[9.91578,57.05858],[9.79566,57.10639],[9.24537,57.00235],[9.11451,57.05858],[8.67953,56.95254],[8.49138,56.79426],[8.47641,56.71597],[8.52703,56.6953],[8.40821,56.68867],[8.58627,56.68867],[8.60808,56.63105],[8.55958,56.593],[8.35222,56.69294],[8.30201,56.76374],[8.24366,56.77741],[8.24586,56.70401],[8.23618,56.77119],[8.61801,57.12287],[9.41212,57.16543],[9.57325,57.24291],[9.96697,57.59138],[10.1976,57.60122],[10.53907,57.74384],[10.64894,57.73701],[10.43043,57.57054],[10.54656,57.43529],[10.53907,57.23672],[10.41147,57.14444],[10.34718,57.0102],[10.23976,56.99283],[9.99464,57.09272],[9.92693,57.05858],[10.00196,57.08389],[10.19239,56.99404],[10.31373,56.98286],[10.26588,56.9077],[10.34059,56.71735],[10.14649,56.72236],[9.80592,56.64704],[10.19321,56.69359],[9.81302,56.55526],[9.6241,56.58396],[9.65732,56.62246],[9.48767,56.68383],[9.43542,56.63851]]],[[[11.18149,57.33031],[11.18911,57.29428],[11.06658,57.29133],[11.0911,57.25278],[11.02884,57.20191],[10.85499,57.26463],[11.18149,57.33031]]]]}},{"type":"Feature","properties":{"id":"dk-82","lat":56.25766,"lng":9.24366},"geometry":{"type":"MultiPolygon","coordinates":[[[[10.57309,55.87885],[10.51539,55.95124],[10.54396,55.99799],[10.66928,55.88003],[10.58221,55.75975],[10.51157,55.82526],[10.57309,55.87885]]],[[[8.13071,55.97614],[8.19337,55.87385],[8.19361,55.81184],[8.39332,55.90917],[8.2824,56.07587],[8.14967,56.11115],[8.13478,55.99396],[8.10792,56.02432],[8.12241,56.55166],[8.21388,56.71182],[8.20216,56.6402],[8.29835,56.5583],[8.56577,56.5788],[8.64845,56.47574],[8.73316,56.48505],[8.76254,56.56338],[8.6819,56.62653],[8.91676,56.70881],[8.84083,56.72236],[8.95574,56.80297],[9.10597,56.80012],[9.17604,56.70856],[9.05934,56.63398],[9.06056,56.56574],[9.15545,56.66132],[9.27622,56.63296],[9.25034,56.5788],[9.31642,56.53083],[9.37306,56.55272],[9.29371,56.56102],[9.32602,56.66942],[9.43542,56.63851],[9.48767,56.68383],[9.65732,56.62246],[9.6241,56.58396],[9.81302,56.55526],[10.33424,56.70384],[10.34034,56.62035],[10.21437,56.5583],[10.18336,56.46955],[10.33033,56.60322],[10.4699,56.5209],[10.82228,56.53425],[10.96412,56.44843],[10.73862,56.15453],[10.62859,56.23754],[10.54916,56.17821],[10.57374,56.11262],[10.51857,56.10273],[10.50945,56.17011],[10.35467,56.20205],[10.49122,56.2163],[10.50473,56.27778],[10.44264,56.29865],[10.25847,56.19025],[10.23113,56.01703],[10.27752,56.01777],[10.18214,55.83369],[10.10182,55.88239],[9.86744,55.852],[10.04575,55.81395],[10.01735,55.76557],[10.05983,55.7495],[10.00522,55.70112],[9.73097,55.68814],[9.24939,55.94299],[9.04733,55.83091],[8.88006,55.88258],[8.77459,55.79882],[8.56959,55.8354],[8.47197,55.76941],[8.17561,55.80148],[8.13071,55.97614]]],[[[11.52084,56.7154],[11.60613,56.7204],[11.64943,56.72964],[11.56422,56.67744],[11.52084,56.7154]]]]}},{"type":"Feature","properties":{"id":"dk-83","lat":55.33373,"lng":9.15061},"geometry":{"type":"MultiPolygon","coordinates":[[[[10.18922,54.97748],[10.51857,54.852],[10.38347,54.83076],[10.18922,54.97748]]],[[[10.93426,55.15965],[10.90895,55.03022],[10.69386,54.7353],[10.60108,54.83832],[10.72446,54.88618],[10.69703,54.93134],[10.93426,55.15965]]],[[[10.06446,54.88101],[9.81471,54.90107],[9.76124,54.94306],[9.75815,54.98176],[9.8475,54.94819],[9.79908,55.01655],[9.62843,55.05805],[9.79347,55.08076],[9.96095,55.01504],[10.06446,54.88101]]],[[[10.73365,55.07185],[10.53826,55.02973],[10.08351,55.08698],[10.15602,55.14008],[10.094,55.18842],[10.00359,55.19733],[10.02565,55.12572],[9.98553,55.12775],[9.9795,55.21284],[9.88396,55.25348],[9.88478,55.34886],[9.70346,55.46841],[9.81218,55.44107],[9.67628,55.49567],[10.30763,55.61823],[10.51881,55.53343],[10.41961,55.45881],[10.47153,55.44306],[10.60914,55.49258],[10.56691,55.52363],[10.61378,55.5279],[10.62762,55.61359],[10.74236,55.48749],[10.5713,55.46125],[10.55405,55.44257],[10.69793,55.44025],[10.83432,55.29027],[10.78028,55.30492],[10.81267,55.19428],[10.73365,55.07185]]],[[[9.43692,54.81014],[8.90414,54.89794],[8.66078,54.89631],[8.6819,55.1332],[8.56365,55.14338],[8.49936,55.06558],[8.45883,55.10346],[8.48894,55.19717],[8.68946,55.14159],[8.63209,55.41877],[8.44191,55.46393],[8.33237,55.57827],[8.23902,55.55793],[8.31332,55.46931],[8.09522,55.54906],[8.17561,55.80148],[8.47197,55.76941],[8.56959,55.8354],[8.77459,55.79882],[8.88006,55.88258],[9.04733,55.83091],[9.24939,55.94299],[9.68063,55.72848],[9.55274,55.70112],[9.85377,55.62665],[9.49806,55.48945],[9.66017,55.47797],[9.58676,55.42744],[9.7103,55.24868],[9.68442,55.19758],[9.48634,55.15624],[9.45655,55.12572],[9.55958,55.08539],[9.43434,55.03754],[9.73097,54.99543],[9.76319,54.90046],[9.70346,54.88618],[9.74594,54.83601],[9.6233,54.8653],[9.615,54.93268],[9.43692,54.81014]]],[[[8.47641,55.34544],[8.36427,55.44904],[8.40821,55.46841],[8.47641,55.34544]]]]}},{"type":"Feature","properties":{"id":"dk-84","lat":55.85361,"lng":12.29574},"geometry":{"type":"MultiPolygon","coordinates":[[[[15.14454,55.12482],[15.07267,54.99164],[14.68417,55.10135],[14.76092,55.30927],[15.14454,55.12482]]],[[[12.67457,55.60126],[12.55633,55.55048],[12.52019,55.61921],[12.60841,55.70112],[12.67457,55.60126]]],[[[11.85328,55.73998],[11.95362,55.8535],[11.91684,55.93452],[11.99822,55.90282],[12.05193,55.73664],[11.85328,55.73998]]],[[[12.07609,55.77892],[12.01059,55.95527],[11.84864,55.94819],[12.24513,56.12873],[12.62192,56.04377],[12.51271,55.92829],[12.60222,55.70856],[12.48715,55.60985],[12.17019,55.62221],[12.15795,55.67056],[12.25804,55.71221],[12.07609,55.77892]]]]}},{"type":"Feature","properties":{"id":"dk-85","lat":55.27318,"lng":11.82166},"geometry":{"type":"MultiPolygon","coordinates":[[[[11.84864,54.77318],[11.81072,54.6551],[11.47438,54.62613],[10.9992,54.78677],[11.10816,54.83153],[11.0324,54.91926],[11.2317,54.96125],[11.59474,54.8111],[11.57277,54.84797],[11.65626,54.86628],[11.64943,54.91352],[11.84864,54.77318]]],[[[12.53761,55.00239],[12.54265,54.95116],[12.115,54.90729],[12.17701,54.9892],[12.28688,54.9892],[12.26197,55.06428],[12.53761,55.00239]]],[[[12.3592,55.60459],[12.19809,55.48749],[12.22486,55.43488],[12.41212,55.37914],[12.46502,55.29027],[12.18279,55.2272],[12.09897,55.14142],[12.01466,55.16747],[12.04664,55.14008],[12.16863,55.12848],[12.1185,55.07355],[12.16228,55.00438],[12.03297,54.96809],[11.91017,55.00971],[11.88282,54.94082],[12.17018,54.83832],[11.9607,54.69408],[11.94907,54.56859],[11.86915,54.65961],[11.91017,54.72167],[11.71144,54.94082],[11.88282,54.98176],[11.6159,55.09223],[11.82748,55.05069],[11.71762,55.12572],[11.80698,55.14688],[11.72853,55.15477],[11.71762,55.20832],[11.261,55.20059],[11.23854,55.24242],[11.26783,55.23591],[11.28631,55.25609],[11.15284,55.32844],[11.19012,55.34544],[11.08774,55.35855],[11.2142,55.4038],[11.16391,55.5019],[11.0809,55.51309],[11.14568,55.57612],[10.92994,55.66763],[11.08774,55.66014],[10.8755,55.74274],[11.16277,55.7495],[11.12184,55.73652],[11.19264,55.70034],[11.36402,55.76512],[11.3484,55.83832],[11.50522,55.86872],[11.47739,55.94135],[11.30453,55.96784],[11.27263,55.99657],[11.59938,55.94208],[11.76832,55.97053],[11.74399,55.90375],[11.6631,55.90717],[11.71762,55.81098],[11.60776,55.79047],[11.73878,55.79735],[11.76271,55.7495],[11.65724,55.73086],[11.74635,55.73102],[11.7798,55.66014],[11.92488,55.73794],[11.97267,55.72142],[11.91017,55.66014],[12.00115,55.69868],[12.06031,55.654],[12.11294,55.77882],[12.25804,55.71221],[12.15795,55.67056],[12.17019,55.62221],[12.3592,55.60459]]]]}}]}
