{"type":"FeatureCollection","features":[{"type":"Feature","properties":{"id":"dm-02","lat":15.53068,"lng":-61.35165},"geometry":{"type":"Polygon","coordinates":[[[-61.44921,15.6331],[-61.30769,15.57925],[-61.27491,15.47577],[-61.39286,15.4821],[-61.44921,15.6331]]]}},{"type":"Feature","properties":{"id":"dm-03","lat":15.45743,"lng":-61.28295},"geometry":{"type":"Polygon","coordinates":[[[-61.26863,15.50991],[-61.25406,15.33267],[-61.30822,15.31666],[-61.33457,15.40495],[-61.26863,15.50991]]]}},{"type":"Feature","properties":{"id":"dm-04","lat":15.30289,"lng":-61.35238},"geometry":{"type":"Polygon","coordinates":[[[-61.37318,15.26035],[-61.3936,15.31356],[-61.31124,15.33519],[-61.31659,15.29222],[-61.37318,15.26035]]]}},{"type":"Feature","properties":{"id":"dm-05","lat":15.54113,"lng":-61.43409},"geometry":{"type":"Polygon","coordinates":[[[-61.40772,15.50301],[-61.48888,15.57925],[-61.44921,15.6331],[-61.40772,15.50301]]]}},{"type":"Feature","properties":{"id":"dm-06","lat":15.43164,"lng":-61.37544},"geometry":{"type":"Polygon","coordinates":[[[-61.41601,15.39014],[-61.43066,15.4889],[-61.32287,15.45833],[-61.33457,15.40495],[-61.41601,15.39014]]]}},{"type":"Feature","properties":{"id":"dm-07","lat":15.2488,"lng":-61.35854},"geometry":{"type":"Polygon","coordinates":[[[-61.35565,15.2438],[-61.37318,15.26035],[-61.35661,15.2538],[-61.35565,15.2438]]]}},{"type":"Feature","properties":{"id":"dm-08","lat":15.22101,"lng":-61.36994},"geometry":{"type":"Polygon","coordinates":[[[-61.35565,15.2438],[-61.37409,15.20482],[-61.37279,15.23721],[-61.35565,15.2438]]]}},{"type":"Feature","properties":{"id":"dm-09","lat":15.26228,"lng":-61.3086},"geometry":{"type":"Polygon","coordinates":[[[-61.25406,15.33267],[-61.27721,15.25023],[-61.34638,15.2117],[-61.34266,15.27434],[-61.25406,15.33267]]]}},{"type":"Feature","properties":{"id":"dm-10","lat":15.36783,"lng":-61.36984},"geometry":{"type":"Polygon","coordinates":[[[-61.3936,15.31356],[-61.41601,15.39014],[-61.33457,15.40495],[-61.32757,15.34552],[-61.3936,15.31356]]]}},{"type":"Feature","properties":{"id":"dm-11","lat":15.51859,"lng":-61.46047},"geometry":{"type":"Polygon","coordinates":[[[-61.40772,15.50301],[-61.47208,15.48139],[-61.47952,15.53417],[-61.40772,15.50301]]]}}]}
