{"type":"FeatureCollection","features":[{"type":"Feature","properties":{"id":"do-01","lat":18.46371,"lng":-69.95783},"geometry":{"type":"Polygon","coordinates":[[[-69.87782,18.50096],[-69.98092,18.42646],[-69.99477,18.52244],[-69.87782,18.50096]]]}},{"type":"Feature","properties":{"id":"do-02","lat":18.64734,"lng":-70.88768},"geometry":{"type":"Polygon","coordinates":[[[-70.57938,18.27177],[-70.57946,18.38565],[-70.68248,18.43561],[-70.74169,18.35541],[-70.96561,18.26208],[-70.95938,18.35405],[-71.05235,18.40379],[-70.99328,18.52735],[-71.16131,18.61592],[-71.05581,18.67876],[-71.05943,18.76643],[-70.99026,18.76562],[-70.8912,18.98845],[-70.68583,18.73402],[-70.65033,18.57236],[-70.47908,18.41322],[-70.4874,18.32116],[-70.57938,18.27177]]]}},{"type":"Feature","properties":{"id":"do-03","lat":18.50267,"lng":-71.30704},"geometry":{"type":"Polygon","coordinates":[[[-71.29055,18.40417],[-71.5926,18.47799],[-71.59947,18.63258],[-71.19769,18.63537],[-70.99328,18.52735],[-71.20077,18.33836],[-71.29055,18.40417]]]}},{"type":"Feature","properties":{"id":"do-04","lat":18.22002,"lng":-71.21724},"geometry":{"type":"Polygon","coordinates":[[[-70.96561,18.26208],[-71.08397,18.30439],[-71.06111,18.14208],[-71.26781,17.84658],[-71.29768,17.92953],[-71.40223,17.96386],[-71.41757,18.16297],[-71.35101,18.17796],[-71.38137,18.29012],[-71.23391,18.29632],[-71.03442,18.52587],[-71.00147,18.45389],[-71.05235,18.40379],[-70.95938,18.35405],[-70.96561,18.26208]]]}},{"type":"Feature","properties":{"id":"do-05","lat":19.39339,"lng":-71.60301},"geometry":{"type":"Polygon","coordinates":[[[-71.65173,19.21792],[-71.77652,19.3275],[-71.70319,19.45928],[-71.74604,19.64902],[-71.50736,19.61286],[-71.41305,19.54454],[-71.50532,19.28198],[-71.65173,19.21792]]]}},{"type":"Feature","properties":{"id":"do-06","lat":19.3834,"lng":-70.2039},"geometry":{"type":"Polygon","coordinates":[[[-70.22579,19.49933],[-69.99128,19.25712],[-69.67675,19.17942],[-69.89343,19.03835],[-69.95384,19.11369],[-70.28144,19.14643],[-70.36273,19.26748],[-70.22579,19.49933]]]}},{"type":"Feature","properties":{"id":"do-07","lat":19.03212,"lng":-71.65549},"geometry":{"type":"Polygon","coordinates":[[[-71.86246,18.94709],[-71.66138,19.11759],[-71.65173,19.21792],[-71.57407,19.28404],[-71.48827,19.29885],[-71.32737,19.19108],[-71.36776,19.10718],[-71.47114,19.12839],[-71.62485,18.93784],[-71.6279,18.8142],[-71.53498,18.65077],[-71.7849,18.68473],[-71.72526,18.74697],[-71.72794,18.86407],[-71.79626,18.95706],[-71.86246,18.94709]]]}},{"type":"Feature","properties":{"id":"do-08","lat":18.83934,"lng":-69.05454},"geometry":{"type":"Polygon","coordinates":[[[-69.21174,19.02098],[-69.13952,19.05121],[-69.05443,18.97748],[-68.97541,19.03315],[-68.78515,18.97988],[-68.83241,18.93569],[-68.83871,18.7634],[-69.0927,18.52735],[-69.08017,18.57649],[-69.25357,18.64023],[-69.21983,18.7578],[-69.32855,18.92406],[-69.18954,18.91528],[-69.21174,19.02098]]]}},{"type":"Feature","properties":{"id":"do-09","lat":19.51908,"lng":-70.47868},"geometry":{"type":"Polygon","coordinates":[[[-70.37272,19.71418],[-70.28083,19.6518],[-70.09404,19.63672],[-70.11199,19.5787],[-70.20617,19.55165],[-70.21514,19.49739],[-70.28834,19.55857],[-70.36244,19.49871],[-70.4089,19.53945],[-70.46732,19.31882],[-70.59008,19.35195],[-70.50983,19.6373],[-70.39823,19.65924],[-70.37272,19.71418]]]}},{"type":"Feature","properties":{"id":"do-10","lat":18.38455,"lng":-71.58934},"geometry":{"type":"Polygon","coordinates":[[[-71.79178,18.68068],[-71.53498,18.65077],[-71.60428,18.62152],[-71.5926,18.47799],[-71.20077,18.33836],[-71.38137,18.29012],[-71.35101,18.17796],[-71.42194,18.13595],[-71.72171,18.293],[-71.91217,18.43074],[-72.00984,18.59881],[-71.84158,18.61799],[-71.79178,18.68068]]]}},{"type":"Feature","properties":{"id":"do-11","lat":18.58317,"lng":-68.60808},"geometry":{"type":"MultiPolygon","coordinates":[[[[-68.61238,18.1708],[-68.57185,18.10786],[-68.73705,18.1236],[-68.78694,18.19668],[-68.61238,18.1708]]],[[[-68.77697,18.97435],[-68.3286,18.61652],[-68.45568,18.35786],[-68.60546,18.37173],[-68.65844,18.21092],[-68.76024,18.21035],[-68.90115,18.40366],[-68.8531,18.54982],[-68.93886,18.70811],[-68.83871,18.7634],[-68.83241,18.93569],[-68.77697,18.97435]]]]}},{"type":"Feature","properties":{"id":"do-12","lat":18.51272,"lng":-68.97533},"geometry":{"type":"Polygon","coordinates":[[[-68.90115,18.40366],[-69.08544,18.3959],[-69.12177,18.47562],[-68.9353,18.66568],[-68.8531,18.54982],[-68.90115,18.40366]]]}},{"type":"Feature","properties":{"id":"do-13","lat":18.99593,"lng":-70.71526},"geometry":{"type":"Polygon","coordinates":[[[-70.74165,19.32094],[-70.51556,19.36151],[-70.27764,19.14108],[-70.50184,19.07421],[-70.58334,18.92246],[-70.54801,18.74356],[-70.61047,18.67736],[-70.69999,18.67685],[-70.68583,18.73402],[-70.82743,18.86229],[-70.91918,19.0694],[-70.68253,19.18599],[-70.74165,19.32094]]]}},{"type":"Feature","properties":{"id":"do-14","lat":19.39412,"lng":-69.98487},"geometry":{"type":"Polygon","coordinates":[[[-70.09404,19.63672],[-69.95954,19.68012],[-69.89794,19.63597],[-69.87438,19.44115],[-69.77148,19.30325],[-69.78615,19.19805],[-70.11869,19.34709],[-70.14574,19.45519],[-70.21514,19.49739],[-70.09404,19.63672]]]}},{"type":"Feature","properties":{"id":"do-15","lat":19.70039,"lng":-71.45072},"geometry":{"type":"Polygon","coordinates":[[[-71.74604,19.64902],[-71.77107,19.78514],[-71.64859,19.89672],[-71.4785,19.90689],[-71.22177,19.83457],[-71.13397,19.75177],[-71.1842,19.53651],[-71.41305,19.54454],[-71.50736,19.61286],[-71.74604,19.64902]]]}},{"type":"Feature","properties":{"id":"do-16","lat":17.94142,"lng":-71.4858},"geometry":{"type":"MultiPolygon","coordinates":[[[[-71.5074,17.55126],[-71.52107,17.62128],[-71.46711,17.58027],[-71.5074,17.55126]]],[[[-71.76427,18.06949],[-71.72171,18.293],[-71.39117,18.11897],[-71.42375,18.015],[-71.29768,17.92953],[-71.28102,17.85313],[-71.41723,17.6048],[-71.53161,17.75507],[-71.67931,17.76529],[-71.63093,17.8168],[-71.6588,17.95331],[-71.76427,18.06949]]]]}},{"type":"Feature","properties":{"id":"do-17","lat":18.32029,"lng":-70.38515},"geometry":{"type":"Polygon","coordinates":[[[-70.18039,18.23413],[-70.55285,18.20425],[-70.57938,18.27177],[-70.35655,18.50357],[-70.23697,18.43301],[-70.26974,18.3688],[-70.18039,18.23413]]]}},{"type":"Feature","properties":{"id":"do-18","lat":19.74037,"lng":-70.75952},"geometry":{"type":"Polygon","coordinates":[[[-71.22177,19.83457],[-71.00088,19.93769],[-70.94689,19.88931],[-70.84325,19.91035],[-70.62369,19.76655],[-70.43371,19.77521],[-70.37272,19.71418],[-70.39823,19.65924],[-70.50983,19.6373],[-70.5477,19.51783],[-70.65876,19.62872],[-70.71214,19.6511],[-70.76046,19.59043],[-71.19505,19.77158],[-71.22177,19.83457]]]}},{"type":"Feature","properties":{"id":"do-19","lat":19.38025,"lng":-70.37679},"geometry":{"type":"Polygon","coordinates":[[[-70.28834,19.55857],[-70.25056,19.44168],[-70.40451,19.22761],[-70.46732,19.31882],[-70.44226,19.50031],[-70.28834,19.55857]]]}},{"type":"Feature","properties":{"id":"do-20","lat":19.1908,"lng":-69.28188},"geometry":{"type":"Polygon","coordinates":[[[-69.77148,19.30325],[-69.52798,19.34178],[-69.3356,19.2934],[-69.23127,19.36335],[-69.24682,19.29963],[-69.15836,19.2851],[-69.25365,19.18354],[-69.6173,19.22525],[-69.63784,19.00889],[-69.75579,19.0876],[-69.6768,19.20648],[-69.78615,19.19805],[-69.77148,19.30325]]]}},{"type":"Feature","properties":{"id":"do-21","lat":18.49808,"lng":-70.19348},"geometry":{"type":"Polygon","coordinates":[[[-70.00402,18.41747],[-70.18039,18.23413],[-70.26974,18.3688],[-70.23697,18.43301],[-70.3788,18.56572],[-70.36875,18.67951],[-70.28539,18.78609],[-70.16718,18.73167],[-70.14212,18.56316],[-70.00402,18.41747]]]}},{"type":"Feature","properties":{"id":"do-22","lat":18.87602,"lng":-71.28785},"geometry":{"type":"Polygon","coordinates":[[[-71.40584,19.10514],[-71.32737,19.19108],[-71.06054,19.03894],[-70.89967,19.00992],[-70.99026,18.76562],[-71.05943,18.76643],[-71.05581,18.67876],[-71.11738,18.62713],[-71.34486,18.59961],[-71.53498,18.65077],[-71.6279,18.8142],[-71.62485,18.93784],[-71.47114,19.12839],[-71.40584,19.10514]]]}},{"type":"Feature","properties":{"id":"do-23","lat":18.60583,"lng":-69.49019},"geometry":{"type":"Polygon","coordinates":[[[-69.08544,18.3959],[-69.23632,18.45051],[-69.52526,18.40843],[-69.51826,18.46854],[-69.61657,18.51998],[-69.58781,18.63517],[-69.45911,18.80257],[-69.35375,18.52197],[-69.25357,18.64023],[-69.08017,18.57649],[-69.12177,18.47562],[-69.08544,18.3959]]]}},{"type":"Feature","properties":{"id":"do-24","lat":19.04596,"lng":-70.14256},"geometry":{"type":"Polygon","coordinates":[[[-70.22385,18.85477],[-70.36712,18.99843],[-70.36412,19.1033],[-70.26643,19.15563],[-69.90777,19.09349],[-69.95255,18.90998],[-70.22385,18.85477]]]}},{"type":"Feature","properties":{"id":"do-25","lat":19.33405,"lng":-70.96952},"geometry":{"type":"Polygon","coordinates":[[[-70.5477,19.51783],[-70.58367,19.39055],[-70.74165,19.32094],[-70.68253,19.18599],[-70.91918,19.0694],[-70.91621,19.02592],[-71.06054,19.03894],[-71.23084,19.17017],[-71.22686,19.34717],[-71.06871,19.41246],[-71.07516,19.46806],[-70.88556,19.44755],[-70.93564,19.59121],[-70.8852,19.57777],[-70.86412,19.64175],[-70.71576,19.59237],[-70.71214,19.6511],[-70.5477,19.51783]]]}},{"type":"Feature","properties":{"id":"do-26","lat":19.37524,"lng":-71.32063},"geometry":{"type":"Polygon","coordinates":[[[-71.3998,19.56054],[-71.20151,19.54206],[-71.07516,19.46806],[-71.06871,19.41246],[-71.24089,19.32898],[-71.23084,19.17017],[-71.41589,19.23448],[-71.51506,19.33802],[-71.3998,19.56054]]]}},{"type":"Feature","properties":{"id":"do-27","lat":19.61648,"lng":-71.01899},"geometry":{"type":"Polygon","coordinates":[[[-71.1842,19.53651],[-71.13397,19.75177],[-70.86412,19.64175],[-70.8852,19.57777],[-70.93564,19.59121],[-70.88556,19.44755],[-71.1488,19.48059],[-71.1842,19.53651]]]}},{"type":"Feature","properties":{"id":"do-28","lat":18.96449,"lng":-70.428},"geometry":{"type":"Polygon","coordinates":[[[-70.42373,19.11173],[-70.22385,18.85477],[-70.31307,18.71953],[-70.45146,18.73661],[-70.59238,18.85324],[-70.50184,19.07421],[-70.42373,19.11173]]]}},{"type":"Feature","properties":{"id":"do-29","lat":18.82824,"lng":-69.8279},"geometry":{"type":"Polygon","coordinates":[[[-70.25118,18.80172],[-70.22385,18.85477],[-69.98055,18.88939],[-69.92033,19.03925],[-69.82134,19.09],[-69.38088,18.87112],[-69.57533,18.64822],[-69.78997,18.57184],[-69.88826,18.70134],[-70.08884,18.67948],[-70.25118,18.80172]]]}},{"type":"Feature","properties":{"id":"do-30","lat":18.81952,"lng":-69.34011},"geometry":{"type":"Polygon","coordinates":[[[-69.62089,19.10196],[-69.40445,19.10847],[-69.21174,19.02098],[-69.18954,18.91528],[-69.32855,18.92406],[-69.21983,18.7578],[-69.35375,18.52197],[-69.45917,18.76793],[-69.38088,18.87112],[-69.63784,19.00889],[-69.62089,19.10196]]]}},{"type":"Feature","properties":{"id":"do-31","lat":18.59021,"lng":-70.49067},"geometry":{"type":"Polygon","coordinates":[[[-70.53367,18.78795],[-70.35002,18.72015],[-70.35655,18.50357],[-70.47908,18.41322],[-70.69999,18.67685],[-70.61047,18.67736],[-70.53367,18.78795]]]}},{"type":"Feature","properties":{"id":"do-32","lat":18.55429,"lng":-69.8671},"geometry":{"type":"Polygon","coordinates":[[[-69.98092,18.42646],[-70.12365,18.53125],[-70.16718,18.73167],[-70.00877,18.66222],[-69.88826,18.70134],[-69.78997,18.57184],[-69.57533,18.64822],[-69.61657,18.51998],[-69.51826,18.46854],[-69.52811,18.41031],[-69.61681,18.45734],[-69.6466,18.41356],[-69.968,18.53675],[-69.98092,18.42646]]]}}]}
