{"type":"FeatureCollection","features":[{"type":"Feature","properties":{"id":"dz-01","lat":23.8895,"lng":-0.92818},"geometry":{"type":"Polygon","coordinates":[[[1.14652,21.10171],[-5.66153,25.50888],[-2.97426,27.20328],[-3.75064,28.56689],[-3.55262,28.58244],[-3.02268,28.33104],[-2.81292,28.29435],[-1.87603,28.77904],[-0.95836,28.92301],[-0.82566,29.0082],[-0.19923,29.74503],[0.39913,30.70869],[0.75017,31.02994],[2.08538,31.65858],[2.07174,30.85969],[1.94343,30.0948],[2.13411,28.49152],[1.9394,26.80826],[1.76359,26.60944],[1.62887,26.58396],[1.5142,26.46164],[1.06777,26.41552],[0.82541,26.26884],[1.09123,25.95772],[1.11712,25.6928],[1.30719,25.54139],[1.30005,22.27011],[1.36899,22.1779],[3.67764,20.87839],[3.75148,20.77829],[3.78223,20.54942],[3.79029,19.06077],[3.33306,18.97556],[3.1586,19.08155],[3.10268,19.15356],[3.26081,19.38833],[3.19942,19.55377],[3.1988,19.82052],[2.946,19.94165],[2.4004,20.05655],[2.20083,20.27391],[2.07122,20.21326],[1.89139,20.23179],[1.77811,20.30429],[1.65915,20.39752],[1.64396,20.52268],[1.55973,20.5975],[1.36398,20.65771],[1.2967,20.73346],[1.15458,20.73879],[1.14652,21.10171]]]}},{"type":"Feature","properties":{"id":"dz-02","lat":36.19208,"lng":1.25829},"geometry":{"type":"Polygon","coordinates":[[[0.74041,36.33776],[1.04477,36.48688],[1.70094,36.54719],[1.55317,36.36768],[1.62872,36.21149],[1.58851,36.1433],[1.71269,35.92341],[1.55332,36.00566],[1.41162,35.84156],[1.28889,35.96587],[1.15934,35.94597],[0.95635,36.02708],[0.89739,36.19764],[0.70407,36.18653],[0.74041,36.33776]]]}},{"type":"Feature","properties":{"id":"dz-03","lat":33.66519,"lng":2.73304},"geometry":{"type":"Polygon","coordinates":[[[2.29147,32.69599],[1.97521,33.29218],[2.01929,33.49904],[1.77693,33.83135],[1.42811,33.95118],[1.33623,34.06893],[1.64159,34.25615],[1.80623,34.44909],[2.22057,34.67468],[2.35772,34.69287],[2.29581,34.43903],[2.48339,34.11358],[2.47487,33.92372],[2.6392,33.91101],[2.65021,34.09797],[2.81764,34.13885],[2.94941,34.26362],[3.09354,34.24003],[3.23213,33.94741],[4.05906,33.25252],[4.17621,33.02964],[3.73861,33.00047],[3.32133,32.78079],[3.10067,32.83068],[2.29147,32.69599]]]}},{"type":"Feature","properties":{"id":"dz-04","lat":35.81509,"lng":7.16896},"geometry":{"type":"Polygon","coordinates":[[[6.46682,35.84639],[6.15139,35.93527],[6.37856,36.01325],[6.4771,36.15862],[6.5848,36.1087],[6.77269,36.19244],[6.89853,36.10689],[7.01056,36.15516],[7.07898,36.0425],[7.2908,36.14332],[7.39834,35.967],[7.57724,35.8335],[7.66013,35.8342],[7.7346,35.9345],[7.86586,35.85872],[7.84074,35.61516],[7.54484,35.44781],[7.38516,35.57176],[7.31504,35.53525],[7.26755,35.62124],[7.08301,35.57687],[6.99258,35.63199],[6.82499,35.62356],[6.6495,35.79668],[6.48703,35.78143],[6.46682,35.84639]]]}},{"type":"Feature","properties":{"id":"dz-05","lat":35.37691,"lng":5.74822},"geometry":{"type":"Polygon","coordinates":[[[5.94019,35.86213],[5.97667,35.91579],[6.35107,35.88473],[6.47695,35.8404],[6.48703,35.78143],[6.6495,35.79668],[6.76913,35.68392],[6.78169,35.56256],[6.5927,35.43696],[6.62836,35.31686],[6.51493,35.11972],[6.5986,34.90035],[6.58103,34.76966],[6.43985,34.83826],[6.4293,35.06479],[6.16658,34.99208],[6.07222,35.05858],[5.9931,34.98936],[5.92701,35.06168],[6.00535,35.22627],[5.83063,35.28844],[5.55489,35.19139],[5.59664,35.09176],[5.30601,35.02143],[4.78243,35.16687],[4.88888,35.29986],[4.8802,35.5254],[5.17377,35.51034],[5.4382,35.64186],[5.57509,35.81828],[5.73642,35.77105],[5.71379,35.86042],[5.80009,35.91347],[5.94019,35.86213]]]}},{"type":"Feature","properties":{"id":"dz-06","lat":36.55092,"lng":4.74875},"geometry":{"type":"Polygon","coordinates":[[[4.59148,36.89525],[4.78712,36.89541],[5.10483,36.78132],[5.09018,36.71678],[5.23585,36.65095],[5.42804,36.66388],[5.46368,36.50883],[5.22219,36.38432],[5.19336,36.52754],[5.07652,36.57431],[4.94986,36.50299],[4.98681,36.46243],[4.92257,36.38941],[4.75824,36.42462],[4.63582,36.33845],[4.63009,36.25334],[4.42338,36.22616],[4.35635,36.34044],[4.39873,36.3737],[4.37093,36.47266],[4.59205,36.66161],[4.5441,36.74442],[4.64807,36.79548],[4.59148,36.89525]]]}},{"type":"Feature","properties":{"id":"dz-07","lat":34.46334,"lng":6.12687},"geometry":{"type":"Polygon","coordinates":[[[4.83209,34.81924],[5.02841,34.9002],[5.03864,35.08331],[5.27247,35.01843],[5.53675,35.06636],[5.61354,35.10644],[5.55489,35.19139],[5.83063,35.28844],[6.00535,35.22627],[5.92701,35.06168],[5.9931,34.98936],[6.07222,35.05858],[6.16658,34.99208],[6.4293,35.06479],[6.43985,34.83826],[6.54041,34.76568],[6.71435,34.78852],[6.74954,34.71222],[6.6959,34.37609],[6.55855,34.31703],[6.21143,34.42842],[5.99853,34.39496],[5.31175,34.49826],[5.18545,34.35666],[5.35986,34.16621],[5.33485,33.846],[5.12179,33.57268],[4.40664,33.92764],[4.33506,33.98604],[4.29848,34.1358],[4.21063,34.17461],[4.21373,34.2322],[4.31646,34.25179],[4.18443,34.5082],[4.27331,34.62584],[4.4347,34.77266],[4.83209,34.81924]]]}},{"type":"Feature","properties":{"id":"dz-08","lat":30.13124,"lng":-2.42972},"geometry":{"type":"Polygon","coordinates":[[[-2.51615,32.1322],[-1.24956,32.08166],[-1.19059,32.12522],[-1.30516,32.15116],[-1.27342,32.22944],[-1.11592,32.24336],[-0.99402,32.22349],[-0.89563,32.10463],[-0.03945,32.3273],[-0.40082,31.39067],[-0.15402,31.12379],[0.39913,30.70869],[-0.19923,29.74503],[-0.82566,29.0082],[-0.95836,28.92301],[-1.87603,28.77904],[-2.81292,28.29435],[-3.02268,28.33104],[-3.55262,28.58244],[-5.26678,28.20725],[-6.00077,29.57913],[-5.75616,29.61407],[-5.72121,29.52322],[-5.5395,29.52322],[-5.17608,29.97749],[-4.62397,30.285],[-4.37237,30.50864],[-3.64553,30.71132],[-3.65951,30.83712],[-3.55467,30.95593],[-3.73142,31.17634],[-3.84284,31.17019],[-3.81519,31.33716],[-3.67348,31.38923],[-3.65951,31.64782],[-2.82784,31.79459],[-2.93873,32.04864],[-2.51615,32.1322]]]}},{"type":"Feature","properties":{"id":"dz-09","lat":36.4855,"lng":2.90047},"geometry":{"type":"Polygon","coordinates":[[[3.47744,36.68856],[3.51005,36.62317],[3.46737,36.58317],[3.32179,36.55038],[3.00807,36.35644],[2.90983,36.41524],[2.82446,36.36517],[2.52251,36.36398],[2.47626,36.42062],[2.83738,36.63787],[3.02992,36.66223],[3.02512,36.71006],[3.09741,36.64993],[3.32365,36.71231],[3.47744,36.68856]]]}},{"type":"Feature","properties":{"id":"dz-10","lat":36.20988,"lng":3.90674},"geometry":{"type":"Polygon","coordinates":[[[4.39873,36.3737],[4.09363,36.04607],[4.03513,35.87081],[3.8508,35.86197],[3.73551,35.92998],[3.62844,35.9228],[3.57893,35.99935],[3.55552,36.42294],[3.42266,36.40786],[3.28303,36.49018],[3.51005,36.62317],[3.47744,36.68856],[3.63573,36.6944],[3.68074,36.66681],[3.64193,36.6004],[3.73365,36.60761],[3.88879,36.48852],[4.37093,36.47266],[4.39873,36.3737]]]}},{"type":"Feature","properties":{"id":"dz-11","lat":24.11605,"lng":4.95704},"geometry":{"type":"Polygon","coordinates":[[[11.96886,23.51735],[7.48273,20.87258],[5.7943,19.4498],[3.79029,19.06077],[3.78223,20.54942],[3.75148,20.77829],[3.67764,20.87839],[1.36899,22.1779],[1.30005,22.27011],[1.30719,25.54139],[1.11712,25.6928],[1.09123,25.95772],[0.82541,26.26884],[1.06777,26.41552],[1.5142,26.46164],[1.62887,26.58396],[1.76359,26.60944],[1.9318,26.78358],[2.13411,28.49152],[2.07934,29.03637],[2.986,29.12355],[3.81556,28.54591],[4.75049,28.46185],[5.95274,28.49079],[6.5109,28.08986],[6.56661,27.88809],[6.25784,27.76552],[5.83745,27.40629],[5.81575,27.32136],[5.95042,26.86182],[6.26187,26.59851],[6.18348,26.22566],[6.30735,26.1653],[6.53777,25.89491],[6.95857,25.75982],[6.99552,25.50157],[7.1707,25.28639],[7.0858,25.10919],[7.10694,24.92259],[7.31411,24.70764],[7.63063,24.59716],[7.95371,24.36766],[8.52132,24.22863],[8.69867,24.00347],[11.71014,24.00014],[11.96886,23.51735]]]}},{"type":"Feature","properties":{"id":"dz-12","lat":35.01507,"lng":7.79002},"geometry":{"type":"Polygon","coordinates":[[[8.23648,34.64765],[7.83154,34.41439],[7.76529,34.24471],[7.53923,34.11376],[7.13577,34.16058],[7.40036,34.73452],[7.36589,34.96247],[7.26445,34.94063],[7.26553,34.83234],[7.21975,34.93784],[7.41152,35.1561],[7.41307,35.38663],[7.84074,35.61516],[7.82338,35.73901],[7.90637,35.90349],[8.19405,36.00421],[8.26842,35.96986],[8.24578,35.78531],[8.32361,35.65219],[8.29436,35.32508],[8.4313,35.24173],[8.30045,35.06768],[8.23648,34.64765]]]}},{"type":"Feature","properties":{"id":"dz-13","lat":34.65428,"lng":-1.30991},"geometry":{"type":"Polygon","coordinates":[[[-1.67209,34.09202],[-1.80963,34.37245],[-1.70297,34.47968],[-1.87112,34.59665],[-1.76953,34.74134],[-2.19379,35.0036],[-2.22256,35.0893],[-1.95645,35.07502],[-1.36198,35.3199],[-1.33767,35.19082],[-0.93319,35.05181],[-0.94136,34.84258],[-0.89056,34.84361],[-0.88612,34.74302],[-0.75848,34.71191],[-0.82958,34.57838],[-0.90379,34.54719],[-0.88002,34.46761],[-1.12042,34.27129],[-1.67209,34.09202]]]}},{"type":"Feature","properties":{"id":"dz-14","lat":34.90746,"lng":1.59919},"geometry":{"type":"Polygon","coordinates":[[[1.34646,35.68981],[1.63461,35.55047],[2.24971,35.55961],[2.28682,35.32926],[2.62028,35.03114],[2.52344,34.9991],[2.35772,34.69287],[2.22057,34.67468],[1.80623,34.44909],[1.64159,34.25615],[1.33623,34.06893],[1.23148,34.19189],[1.02369,34.19125],[1.03196,34.33935],[0.97372,34.38209],[0.75761,34.43818],[0.85688,34.49986],[0.66743,34.84222],[0.78164,34.9727],[0.65255,35.0898],[0.49225,35.08633],[0.61777,35.27604],[0.81998,35.30611],[0.88049,35.38637],[0.82789,35.44347],[0.95946,35.54775],[1.20621,35.64568],[1.29246,35.61765],[1.34646,35.68981]]]}},{"type":"Feature","properties":{"id":"dz-15","lat":36.71197,"lng":4.24762},"geometry":{"type":"Polygon","coordinates":[[[4.03946,36.89692],[4.59148,36.89525],[4.64652,36.78517],[4.5441,36.74442],[4.59205,36.66161],[4.42664,36.48852],[3.88879,36.48852],[3.73551,36.64076],[3.93225,36.67952],[3.93256,36.769],[4.03946,36.89692]]]}},{"type":"Feature","properties":{"id":"dz-16","lat":36.71387,"lng":3.10424},"geometry":{"type":"Polygon","coordinates":[[[2.98487,36.81497],[3.17327,36.74262],[3.22981,36.68512],[3.07075,36.66004],[2.96631,36.74815],[2.98487,36.81497]]]}},{"type":"Feature","properties":{"id":"dz-17","lat":34.30885,"lng":3.24021},"geometry":{"type":"Polygon","coordinates":[[[4.97828,32.84076],[4.17621,33.02964],[4.05906,33.25252],[3.23213,33.94741],[3.09354,34.24003],[2.94941,34.26362],[2.81764,34.13885],[2.65021,34.09797],[2.6392,33.91101],[2.47487,33.92372],[2.48339,34.11358],[2.29348,34.47495],[2.36996,34.7763],[2.52344,34.9991],[2.62028,35.03114],[2.37932,35.20501],[2.28682,35.32926],[2.28573,35.43908],[2.52701,35.50119],[2.68715,35.4537],[2.89371,35.62082],[2.88425,35.7805],[2.96026,35.80474],[3.08191,35.67188],[3.19643,35.69446],[3.25508,35.7974],[3.37952,35.7512],[3.68043,35.49556],[3.66487,35.2949],[3.47357,35.15796],[3.53284,35.05445],[3.60808,35.06597],[3.57211,35.00169],[3.65883,34.80558],[3.91442,34.7586],[4.04769,34.35408],[4.29848,34.1358],[4.3624,33.95739],[5.12179,33.57268],[5.00805,33.44189],[4.95311,33.24149],[4.97828,32.84076]]]}},{"type":"Feature","properties":{"id":"dz-18","lat":36.74469,"lng":5.9885},"geometry":{"type":"Polygon","coordinates":[[[5.42804,36.66388],[5.71046,36.82551],[6.03712,36.85358],[6.24783,36.93532],[6.4785,36.66037],[6.45736,36.57989],[6.29458,36.62407],[5.54279,36.52397],[5.42804,36.66388]]]}},{"type":"Feature","properties":{"id":"dz-19","lat":36.08692,"lng":5.57053},"geometry":{"type":"Polygon","coordinates":[[[4.83844,36.30497],[4.80108,36.37974],[4.92257,36.38941],[4.98681,36.46243],[4.94986,36.50299],[5.07652,36.57431],[5.18762,36.53449],[5.18778,36.40842],[5.25542,36.37886],[5.45789,36.49992],[5.47546,36.59063],[5.54279,36.52397],[5.7372,36.55513],[5.77616,36.44],[5.87239,36.40189],[5.86603,36.25541],[5.93352,36.22497],[5.89936,36.16968],[5.98334,36.05847],[5.97667,35.91579],[5.94019,35.86213],[5.82288,35.91473],[5.74562,35.89021],[5.73642,35.77105],[5.57509,35.81828],[5.42347,35.63565],[5.22622,35.66403],[5.06577,35.76208],[5.05492,35.82086],[5.13998,35.85662],[5.18406,36.11537],[5.25356,36.19738],[5.03476,36.31088],[4.83844,36.30497]]]}},{"type":"Feature","properties":{"id":"dz-20","lat":34.52497,"lng":0.3746},"geometry":{"type":"Polygon","coordinates":[[[0.85688,34.49986],[0.23542,34.22587],[0.08602,34.04831],[-0.0441,33.98725],[-0.08177,34.08154],[-0.22021,34.05945],[-0.35612,33.91504],[-0.49968,34.19316],[-0.06089,34.55009],[-0.11438,34.68243],[-0.36806,34.86966],[-0.27272,34.90433],[-0.29928,34.98233],[-0.23628,35.02381],[-0.24688,35.09889],[-0.11169,35.16059],[-0.01434,35.06385],[0.11222,35.0961],[0.18999,35.0235],[0.62506,35.09592],[0.7542,35.00784],[0.78303,34.94815],[0.66976,34.8555],[0.67348,34.78938],[0.85688,34.49986]]]}},{"type":"Feature","properties":{"id":"dz-21","lat":36.81147,"lng":6.84824},"geometry":{"type":"Polygon","coordinates":[[[6.24783,36.93532],[6.27442,37.02424],[6.46241,37.09394],[6.59946,36.97309],[6.82203,36.95262],[6.90943,36.89305],[7.15699,36.9147],[7.25424,36.9947],[7.18165,37.07673],[7.22267,37.08979],[7.36387,36.88111],[7.38423,36.72613],[6.93795,36.43287],[6.81801,36.46682],[6.91108,36.5604],[6.65244,36.60789],[6.45736,36.57989],[6.47478,36.66905],[6.366,36.74184],[6.24783,36.93532]]]}},{"type":"Feature","properties":{"id":"dz-22","lat":34.7928,"lng":-0.57612},"geometry":{"type":"Polygon","coordinates":[[[-0.16518,35.12292],[-0.2507,35.09357],[-0.23628,35.02381],[-0.29928,34.98233],[-0.27272,34.90433],[-0.36806,34.86966],[-0.11438,34.68243],[-0.055,34.60404],[-0.0719,34.5297],[-0.48573,34.22933],[-0.57818,34.31294],[-0.8362,34.21512],[-1.12042,34.27129],[-0.88002,34.46761],[-0.90379,34.54719],[-0.82958,34.57838],[-0.75848,34.71191],[-0.88612,34.74302],[-0.89056,34.84361],[-0.94136,34.84258],[-0.96611,34.92273],[-0.92983,35.04716],[-1.00053,35.08739],[-0.89046,35.1599],[-0.88084,35.25431],[-0.75367,35.31826],[-0.63228,35.29816],[-0.56919,35.40523],[-0.46444,35.42939],[-0.46366,35.35805],[-0.18921,35.29932],[-0.21696,35.19093],[-0.16518,35.12292]]]}},{"type":"Feature","properties":{"id":"dz-23","lat":36.86759,"lng":7.55376},"geometry":{"type":"Polygon","coordinates":[[[7.26268,37.07601],[7.38347,37.08299],[7.71274,36.9632],[7.79859,36.9936],[7.75258,36.77197],[7.61233,36.62262],[7.48107,36.6341],[7.38423,36.72613],[7.26268,37.07601]]]}},{"type":"Feature","properties":{"id":"dz-24","lat":36.36889,"lng":7.39347},"geometry":{"type":"Polygon","coordinates":[[[7.01056,36.15516],[7.04565,36.27577],[6.93795,36.43287],[7.36728,36.72138],[7.53378,36.61539],[7.69703,36.65774],[7.98786,36.48439],[7.79527,36.44098],[7.81387,36.30492],[7.35752,36.12976],[7.22378,36.1441],[7.1336,36.05315],[7.06642,36.04728],[7.01056,36.15516]]]}},{"type":"Feature","properties":{"id":"dz-25","lat":36.32082,"lng":6.69729},"geometry":{"type":"Polygon","coordinates":[[[6.93795,36.43287],[7.04828,36.23841],[7.01056,36.15516],[6.89853,36.10689],[6.77269,36.19244],[6.57715,36.10919],[6.46837,36.27381],[6.31773,36.36783],[6.4785,36.42896],[6.50408,36.57772],[6.65244,36.60789],[6.92013,36.55715],[6.81801,36.46682],[6.93795,36.43287]]]}},{"type":"Feature","properties":{"id":"dz-26","lat":35.97026,"lng":3.01112},"geometry":{"type":"Polygon","coordinates":[[[2.28573,35.43908],[2.16269,35.70898],[2.64369,36.19154],[2.52639,36.19278],[2.4865,36.24197],[2.52685,36.30001],[2.90983,36.41524],[2.99628,36.35328],[3.28303,36.49018],[3.42266,36.40786],[3.55552,36.42294],[3.56436,36.05098],[3.63387,35.88954],[3.5409,35.80394],[3.54323,35.6724],[3.41104,35.80593],[3.33673,35.74753],[3.25508,35.7974],[3.19643,35.69446],[3.08191,35.67188],[2.96026,35.80474],[2.88425,35.7805],[2.89371,35.62082],[2.67103,35.44657],[2.52701,35.50119],[2.28573,35.43908]]]}},{"type":"Feature","properties":{"id":"dz-27","lat":36.00851,"lng":0.32116},"geometry":{"type":"Polygon","coordinates":[[[-0.11368,35.7888],[0.03452,35.86327],[0.12729,36.05077],[0.3423,36.20596],[0.74041,36.33776],[0.70407,36.18653],[0.54284,36.04896],[0.52904,35.96806],[0.45173,35.95197],[0.39246,35.79086],[0.15584,35.68206],[0.1099,35.75544],[-0.03862,35.7135],[-0.11368,35.7888]]]}},{"type":"Feature","properties":{"id":"dz-28","lat":35.12063,"lng":4.21267},"geometry":{"type":"Polygon","coordinates":[[[4.85493,35.87316],[5.3797,35.63292],[5.17377,35.51034],[4.87648,35.51915],[4.88888,35.29986],[4.77902,35.17284],[5.03864,35.08331],[5.04112,34.91864],[4.93281,34.83891],[4.39465,34.74659],[4.18443,34.5082],[4.31646,34.25179],[4.21373,34.2322],[4.04769,34.35408],[3.91442,34.7586],[3.67112,34.79028],[3.59924,34.88632],[3.60808,35.06597],[3.53284,35.05445],[3.47357,35.15796],[3.66487,35.2949],[3.69593,35.47205],[3.43693,35.67198],[3.39429,35.79384],[3.54323,35.6724],[3.53672,35.79223],[3.62844,35.9228],[4.02227,35.86686],[4.08433,36.02909],[4.37914,35.99108],[4.49412,36.02845],[4.54084,35.94215],[4.44927,35.8697],[4.46668,35.83228],[4.85493,35.87316]]]}},{"type":"Feature","properties":{"id":"dz-29","lat":35.39336,"lng":0.20025},"geometry":{"type":"Polygon","coordinates":[[[0.22937,35.69593],[0.31908,35.55778],[0.82789,35.44347],[0.87817,35.37474],[0.77854,35.27937],[0.61777,35.27604],[0.44879,35.05907],[0.20984,35.02148],[0.11222,35.0961],[-0.01434,35.06385],[-0.10596,35.15974],[-0.16518,35.12292],[-0.21696,35.19093],[-0.18921,35.29932],[-0.46366,35.35805],[-0.46444,35.42939],[-0.54536,35.41197],[-0.30248,35.6694],[-0.11438,35.78376],[-0.044,35.71446],[0.10447,35.75673],[0.15212,35.68263],[0.22937,35.69593]]]}},{"type":"Feature","properties":{"id":"dz-30","lat":31.01015,"lng":6.64778},"geometry":{"type":"Polygon","coordinates":[[[9.0633,32.00019],[9.51971,30.22891],[9.28654,30.11713],[9.36948,30.02279],[7.14637,28.83938],[6.78742,28.86826],[5.95274,28.49079],[4.75049,28.46185],[3.81556,28.54591],[2.986,29.12355],[3.34448,29.30656],[3.47961,29.63685],[3.80254,29.98985],[4.11084,31.79139],[4.35914,32.25599],[4.73886,32.53189],[4.97828,32.84076],[4.95311,33.24149],[5.00805,33.44189],[6.19299,33.37698],[6.37856,33.31755],[6.68376,32.51176],[7.03087,32.05295],[7.3138,32.00226],[9.0633,32.00019]]]}},{"type":"Feature","properties":{"id":"dz-31","lat":35.59867,"lng":-0.72834},"geometry":{"type":"Polygon","coordinates":[[[-1.10635,35.62324],[-0.80167,35.77391],[-0.60611,35.73094],[-0.47379,35.89126],[-0.34854,35.90705],[-0.28555,35.82827],[-0.11368,35.7888],[-0.40733,35.57411],[-0.6451,35.29454],[-0.62949,35.40962],[-0.68944,35.47605],[-1.06703,35.41613],[-1.00513,35.51701],[-1.10635,35.62324]]]}},{"type":"Feature","properties":{"id":"dz-32","lat":32.63155,"lng":1.1111},"geometry":{"type":"Polygon","coordinates":[[[0.23542,34.22587],[0.7295,34.43547],[0.97372,34.38209],[1.03196,34.33935],[1.02369,34.19125],[1.23148,34.19189],[1.40914,33.9618],[1.79398,33.81641],[2.01929,33.49904],[1.97521,33.29218],[2.29147,32.69599],[2.34485,32.17279],[2.2153,31.9233],[2.24212,31.79119],[2.19943,31.73525],[0.84246,31.09694],[0.39913,30.70869],[-0.15402,31.12379],[-0.40082,31.39067],[-0.00359,32.44396],[-0.10156,32.56711],[-0.00669,32.80477],[-0.02705,33.02062],[0.06349,33.3081],[0.08602,34.04831],[0.23542,34.22587]]]}},{"type":"Feature","properties":{"id":"dz-33","lat":27.11452,"lng":7.82575},"geometry":{"type":"Polygon","coordinates":[[[9.36948,30.02279],[9.66771,29.60832],[9.82615,29.12853],[9.85126,28.786],[9.77695,28.26758],[9.93591,27.86672],[9.72187,27.30846],[9.82553,26.92058],[9.91059,26.84312],[9.85457,26.52438],[9.4826,26.35255],[9.3778,26.16895],[10.00795,25.33143],[10.03203,24.85634],[10.19336,24.74994],[10.26033,24.57664],[10.41051,24.47329],[10.72067,24.5523],[11.50863,24.31381],[11.71014,24.00014],[8.6917,24.006],[8.52132,24.22863],[7.95371,24.36766],[7.63063,24.59716],[7.31411,24.70764],[7.10694,24.92259],[7.0858,25.10919],[7.1707,25.28639],[6.99552,25.50157],[6.95857,25.75982],[6.53777,25.89491],[6.30735,26.1653],[6.17883,26.23155],[6.27133,26.5705],[5.95832,26.84611],[5.81575,27.32136],[5.87239,27.4568],[6.25784,27.76552],[6.56661,27.88809],[6.5109,28.08986],[5.95274,28.49079],[6.78742,28.86826],[7.14637,28.83938],[9.36948,30.02279]]]}},{"type":"Feature","properties":{"id":"dz-34","lat":36.07223,"lng":4.64936},"geometry":{"type":"Polygon","coordinates":[[[4.74801,36.42075],[4.82124,36.30685],[5.03476,36.31088],[5.25356,36.19738],[5.18406,36.11537],[5.13998,35.85662],[5.06654,35.84047],[5.05445,35.77733],[4.85493,35.87316],[4.46668,35.83228],[4.44927,35.8697],[4.54084,35.94215],[4.49412,36.02845],[4.37914,35.99108],[4.08433,36.02909],[4.35635,36.34044],[4.42338,36.22616],[4.51138,36.22575],[4.63009,36.25334],[4.63582,36.33845],[4.74801,36.42075]]]}},{"type":"Feature","properties":{"id":"dz-35","lat":36.75581,"lng":3.56072},"geometry":{"type":"Polygon","coordinates":[[[3.17327,36.74262],[3.22731,36.81232],[3.4607,36.77509],[3.82748,36.91291],[4.03946,36.89692],[3.93256,36.769],[3.95912,36.70401],[3.74466,36.65626],[3.73365,36.60761],[3.64193,36.6004],[3.64735,36.69182],[3.22981,36.68512],[3.17327,36.74262]]]}},{"type":"Feature","properties":{"id":"dz-36","lat":36.6981,"lng":8.06443},"geometry":{"type":"Polygon","coordinates":[[[8.60251,36.93951],[8.64172,36.83636],[8.41311,36.78391],[8.46179,36.7328],[8.43037,36.66262],[8.19348,36.54899],[8.05489,36.41049],[8.00724,36.41279],[7.97464,36.50728],[7.64975,36.6634],[7.75258,36.77197],[7.77377,36.88976],[7.90846,36.84956],[8.23316,36.95808],[8.46323,36.90156],[8.60251,36.93951]]]}},{"type":"Feature","properties":{"id":"dz-37","lat":27.74633,"lng":-5.98053},"geometry":{"type":"Polygon","coordinates":[[[-5.66153,25.50888],[-8.68239,27.28542],[-8.66761,28.71168],[-7.61945,29.38942],[-7.34961,29.38344],[-7.14693,29.50924],[-6.78352,29.44634],[-6.69965,29.51623],[-6.41311,29.56515],[-6.00077,29.57913],[-5.26678,28.20725],[-3.75064,28.56689],[-2.97426,27.20328],[-5.66153,25.50888]]]}},{"type":"Feature","properties":{"id":"dz-38","lat":35.78177,"lng":1.78035},"geometry":{"type":"Polygon","coordinates":[[[1.54836,36.00395],[1.85356,35.8605],[2.00875,35.91791],[2.31178,35.86696],[2.15819,35.69823],[2.24971,35.55961],[1.65807,35.54793],[1.34646,35.68981],[1.29246,35.61765],[1.24559,35.64733],[1.27572,35.77549],[1.37721,35.78805],[1.54836,36.00395]]]}},{"type":"Feature","properties":{"id":"dz-39","lat":33.27448,"lng":7.05792},"geometry":{"type":"Polygon","coordinates":[[[7.70829,33.4107],[7.72499,33.23141],[8.08682,33.09429],[8.28288,32.83637],[8.33125,32.52763],[9.01989,32.10486],[9.0633,32.00019],[7.3138,32.00226],[7.03087,32.05295],[6.68376,32.51176],[6.37856,33.31755],[6.19299,33.37698],[5.00805,33.44189],[5.33485,33.846],[5.35986,34.16621],[5.18545,34.35666],[5.31578,34.49981],[5.99853,34.39496],[6.21143,34.42842],[6.52692,34.31654],[6.6959,34.37609],[6.74489,34.29873],[6.96059,34.19393],[7.27111,34.11384],[7.53923,34.11376],[7.4849,33.85502],[7.70829,33.4107]]]}},{"type":"Feature","properties":{"id":"dz-40","lat":34.92049,"lng":6.90959},"geometry":{"type":"Polygon","coordinates":[[[6.51214,35.05238],[6.5927,35.43696],[6.78169,35.56256],[6.76913,35.68392],[6.82499,35.62356],[7.00327,35.62982],[7.05123,35.57718],[7.26755,35.62124],[7.31504,35.53525],[7.38516,35.57176],[7.54484,35.44781],[7.41307,35.38663],[7.41152,35.1561],[7.22223,34.94629],[7.26553,34.83234],[7.26445,34.94063],[7.36589,34.96247],[7.40283,34.74605],[7.13577,34.16058],[6.71497,34.32661],[6.74846,34.7261],[6.71435,34.78852],[6.5879,34.77855],[6.5986,34.90035],[6.51214,35.05238]]]}},{"type":"Feature","properties":{"id":"dz-41","lat":36.13064,"lng":7.83162},"geometry":{"type":"Polygon","coordinates":[[[8.34924,36.44878],[8.26842,35.96986],[8.00275,35.97129],[7.86586,35.85872],[7.7346,35.9345],[7.66013,35.8342],[7.57724,35.8335],[7.32496,36.08002],[7.41043,36.18125],[7.82942,36.31504],[7.79527,36.44098],[7.98786,36.48439],[8.02321,36.40413],[8.16789,36.492],[8.34924,36.44878]]]}},{"type":"Feature","properties":{"id":"dz-42","lat":36.57176,"lng":2.29997},"geometry":{"type":"Polygon","coordinates":[[[1.70094,36.54719],[2.3296,36.63727],[2.60076,36.59634],[2.97706,36.81586],[2.96631,36.74815],[3.02667,36.73334],[3.03504,36.67097],[2.83738,36.63787],[2.47626,36.42062],[1.79305,36.43199],[1.70835,36.36768],[1.64779,36.44315],[1.70094,36.54719]]]}},{"type":"Feature","properties":{"id":"dz-43","lat":36.26461,"lng":6.16944},"geometry":{"type":"Polygon","coordinates":[[[5.87239,36.40189],[5.7372,36.55513],[6.29458,36.62407],[6.50408,36.57772],[6.4785,36.42896],[6.31773,36.36783],[6.46837,36.27381],[6.51633,36.16565],[6.40615,36.1103],[6.37856,36.01325],[6.1703,35.95124],[6.14922,35.90039],[5.97667,35.91579],[5.98334,36.05847],[5.89936,36.16968],[5.93352,36.22497],[5.86603,36.25541],[5.87239,36.40189]]]}},{"type":"Feature","properties":{"id":"dz-44","lat":36.16243,"lng":2.10947},"geometry":{"type":"Polygon","coordinates":[[[1.85356,35.8605],[1.71269,35.92341],[1.58851,36.1433],[1.62872,36.21149],[1.55317,36.36768],[1.64779,36.44315],[1.71672,36.36667],[1.79305,36.43199],[2.65269,36.39209],[2.64788,36.33251],[2.4865,36.24197],[2.63904,36.18156],[2.31178,35.86696],[2.00875,35.91791],[1.85356,35.8605]]]}},{"type":"Feature","properties":{"id":"dz-45","lat":33.16552,"lng":-0.78643},"geometry":{"type":"Polygon","coordinates":[[[-1.27342,32.22944],[-1.21798,32.39262],[-1.032,32.4944],[-1.42335,32.7424],[-1.55879,32.93365],[-1.49952,33.06021],[-1.68338,33.27084],[-1.61734,33.55444],[-1.74679,33.70239],[-1.67209,34.09202],[-1.12042,34.27129],[-0.8362,34.21512],[-0.59781,34.31372],[-0.50154,34.26564],[-0.36108,33.91646],[-0.14342,34.08681],[-0.0688,34.07224],[-0.05537,33.98625],[0.08602,34.04831],[0.06349,33.3081],[-0.02705,33.02062],[-0.00669,32.80477],[-0.10156,32.56711],[-0.00658,32.48701],[-0.03945,32.3273],[-0.89563,32.10463],[-1.01009,32.23191],[-1.27342,32.22944]]]}},{"type":"Feature","properties":{"id":"dz-46","lat":35.37081,"lng":-0.98413},"geometry":{"type":"Polygon","coordinates":[[[-1.36198,35.3199],[-1.10635,35.62324],[-1.00673,35.52491],[-1.05903,35.41153],[-1.01779,35.45587],[-0.71543,35.48249],[-0.62949,35.40962],[-0.66887,35.332],[-0.88084,35.25431],[-0.89046,35.1599],[-1.00053,35.08739],[-1.33767,35.19082],[-1.36198,35.3199]]]}},{"type":"Feature","properties":{"id":"dz-47","lat":31.25914,"lng":3.04916},"geometry":{"type":"Polygon","coordinates":[[[2.08538,31.65858],[2.23933,31.77354],[2.2153,31.9233],[2.3433,32.13266],[2.29147,32.69599],[3.10067,32.83068],[3.32133,32.78079],[3.73861,33.00047],[4.17621,33.02964],[4.97828,32.84076],[4.73886,32.53189],[4.35914,32.25599],[4.11084,31.79139],[3.80254,29.98985],[3.47961,29.63685],[3.34448,29.30656],[2.986,29.12355],[2.07934,29.03637],[1.94343,30.0948],[2.07174,30.85969],[2.08538,31.65858]]]}},{"type":"Feature","properties":{"id":"dz-48","lat":35.79708,"lng":0.88433},"geometry":{"type":"Polygon","coordinates":[[[1.41162,35.84156],[1.36181,35.77652],[1.27572,35.77549],[1.24559,35.64733],[0.95946,35.54775],[0.86608,35.43608],[0.31908,35.55778],[0.22937,35.69593],[0.42399,35.81763],[0.45173,35.95197],[0.52904,35.96806],[0.54284,36.04896],[0.70407,36.18653],[0.89739,36.19764],[0.94814,36.03201],[1.15934,35.94597],[1.28889,35.96587],[1.41162,35.84156]]]}}]}
