{"type":"FeatureCollection","features":[{"type":"Feature","properties":{"id":"ec-a","lat":-3.07772,"lng":-79.20365},"geometry":{"type":"Polygon","coordinates":[[[-79.43739,-2.49706],[-79.16361,-2.73167],[-79.06052,-2.65426],[-78.91515,-2.82252],[-78.81619,-2.82252],[-78.78423,-2.69963],[-78.56442,-2.5616],[-78.53332,-2.62392],[-78.48071,-2.56811],[-78.42136,-2.6185],[-78.59747,-2.77916],[-78.56993,-2.83921],[-78.67165,-3.09077],[-79.05509,-3.41225],[-79.08468,-3.63332],[-79.17878,-3.44816],[-79.28169,-3.44992],[-79.31787,-3.34677],[-79.66777,-3.31985],[-79.59516,-3.175],[-79.76047,-3.06467],[-79.69056,-2.82572],[-79.42484,-2.55535],[-79.43739,-2.49706]]]}},{"type":"Feature","properties":{"id":"ec-b","lat":-1.72289,"lng":-79.1111},"geometry":{"type":"Polygon","coordinates":[[[-78.86624,-1.17833],[-78.92755,-1.38317],[-78.85265,-1.54089],[-78.85976,-1.66393],[-79.00171,-1.78185],[-79.01636,-2.09879],[-79.13007,-2.20369],[-79.13994,-2.14654],[-79.23549,-2.15434],[-79.20552,-2.06504],[-79.2795,-1.94489],[-79.22945,-1.82294],[-79.34386,-1.63835],[-79.25009,-1.54089],[-79.31851,-1.46802],[-79.29218,-1.33444],[-79.38598,-1.30566],[-79.32784,-1.2252],[-79.13777,-1.15621],[-78.99091,-1.20928],[-78.86624,-1.17833]]]}},{"type":"Feature","properties":{"id":"ec-c","lat":0.74585,"lng":-77.95172},"geometry":{"type":"Polygon","coordinates":[[[-78.47812,1.18712],[-78.07794,0.90077],[-77.84798,0.80925],[-77.70319,0.8431],[-77.64557,0.71629],[-77.51414,0.66053],[-77.66954,0.63867],[-77.64996,0.58498],[-77.81408,0.34566],[-78.13081,0.5056],[-78.25842,0.77541],[-78.5235,0.92837],[-78.47812,1.18712]]]}},{"type":"Feature","properties":{"id":"ec-d","lat":-0.79042,"lng":-76.22708},"geometry":{"type":"Polygon","coordinates":[[[-75.26664,-0.6427],[-75.29703,-0.74698],[-75.22726,-0.96981],[-75.41258,-0.92392],[-75.58074,-1.54664],[-75.87846,-1.32845],[-76.10594,-1.27305],[-76.2842,-1.31108],[-76.46367,-1.25134],[-76.54537,-1.05156],[-76.81073,-1.08965],[-76.85001,-1.15683],[-77.05622,-1.09353],[-77.03615,-0.92522],[-77.19632,-0.83576],[-77.1242,-0.70791],[-77.25499,-0.83385],[-77.56616,-0.94718],[-77.49661,-0.69138],[-77.62172,-0.54477],[-77.55154,-0.45801],[-77.40403,-0.50416],[-77.27318,-0.36039],[-77.28401,-0.04734],[-77.07361,-0.10211],[-76.93171,-0.06961],[-76.62185,-0.42488],[-76.57573,-0.40509],[-76.41021,-0.5103],[-76.27438,-0.44312],[-76.10284,-0.44194],[-75.93719,-0.56167],[-75.94763,-0.42287],[-75.74832,-0.42261],[-75.26664,-0.6427]]]}},{"type":"Feature","properties":{"id":"ec-e","lat":0.66014,"lng":-79.27321},"geometry":{"type":"MultiPolygon","coordinates":[[[[-78.82868,1.43431],[-78.57006,1.19585],[-78.47812,1.18712],[-78.53479,0.96402],[-78.44211,0.87194],[-78.45063,0.78905],[-78.51345,0.7599],[-78.43118,0.55134],[-78.53921,0.51506],[-78.66742,0.37295],[-78.85996,0.42282],[-78.98758,0.26748],[-79.14506,0.31766],[-79.27363,0.28624],[-79.35223,0.23167],[-79.30366,0.17327],[-79.36988,0.03597],[-79.45037,-0.00093],[-79.43316,-0.05013],[-79.59555,-0.01359],[-79.56785,0.11653],[-79.70211,0.18743],[-79.65219,0.25916],[-79.71758,0.37078],[-79.96121,0.26608],[-80.04357,0.45893],[-80.03637,0.62523],[-80.10827,0.69505],[-80.07584,0.81615],[-79.65575,1.00361],[-79.67007,0.92162],[-79.61486,0.84528],[-79.63268,0.98603],[-79.43505,1.07803],[-79.16576,1.0998],[-79.05724,1.21751],[-78.99169,1.1197],[-78.92894,1.24315],[-78.90168,1.23631],[-78.87169,1.28897],[-78.81286,1.27729],[-78.88195,1.31928],[-78.82868,1.43431]]],[[[-78.90152,1.36465],[-78.89928,1.27143],[-78.9569,1.23631],[-78.99543,1.28681],[-78.90152,1.36465]]]]}},{"type":"Feature","properties":{"id":"ec-f","lat":-2.52925,"lng":-78.93959},"geometry":{"type":"Polygon","coordinates":[[[-79.15291,-2.73503],[-79.38812,-2.50775],[-79.51287,-2.50884],[-79.36479,-2.30854],[-79.13007,-2.20369],[-78.94507,-2.39737],[-78.59876,-2.30255],[-78.48122,-2.38068],[-78.51771,-2.54966],[-78.77581,-2.69193],[-78.81619,-2.82252],[-78.93001,-2.81709],[-79.07204,-2.64997],[-79.15291,-2.73503]]]}},{"type":"Feature","properties":{"id":"ec-g","lat":-1.96807,"lng":-79.91913},"geometry":{"type":"MultiPolygon","coordinates":[[[[-80.01452,-2.66424],[-79.91124,-2.73887],[-80.13103,-3.02092],[-80.26594,-3.01849],[-80.21068,-2.72487],[-80.01452,-2.66424]]],[[[-79.78472,-2.52077],[-79.83324,-2.63602],[-79.87724,-2.64968],[-79.81964,-2.48591],[-79.78472,-2.52077]]],[[[-79.89589,-3.04544],[-79.72643,-2.59384],[-79.83947,-2.37705],[-79.86864,-2.1609],[-79.76561,-2.00498],[-79.89196,-2.1159],[-79.89611,-2.54339],[-79.9984,-2.60817],[-80.06359,-2.57724],[-80.00178,-2.48016],[-79.94376,-2.49831],[-79.92968,-2.48414],[-80.03433,-2.47389],[-79.95002,-2.30722],[-80.01269,-2.32643],[-80.17512,-2.58668],[-80.27961,-2.61256],[-80.27843,-2.72715],[-80.54275,-2.52976],[-80.27652,-2.36794],[-80.21345,-2.11031],[-80.47827,-1.93116],[-80.51609,-1.84082],[-80.43754,-1.8357],[-80.3293,-1.68713],[-80.22117,-1.68067],[-80.28326,-1.56766],[-80.18818,-1.53655],[-80.19197,-1.43118],[-80.0433,-1.27181],[-79.98374,-1.11843],[-79.85305,-1.08831],[-79.71218,-0.87225],[-79.53589,-0.83747],[-79.58095,-1.05063],[-79.73831,-1.18484],[-79.84732,-1.39914],[-79.85969,-1.6337],[-79.75887,-1.69669],[-79.64953,-1.90655],[-79.48243,-1.89745],[-79.23549,-2.15434],[-79.13994,-2.14654],[-79.13007,-2.20369],[-79.41639,-2.34792],[-79.51431,-2.4952],[-79.4191,-2.54553],[-79.69056,-2.82572],[-79.76047,-3.06467],[-79.89589,-3.04544]]]]}},{"type":"Feature","properties":{"id":"ec-h","lat":-1.9096,"lng":-78.73011},"geometry":{"type":"Polygon","coordinates":[[[-78.92234,-2.40037],[-79.13007,-2.20369],[-79.01636,-2.09879],[-79.00171,-1.78185],[-78.85976,-1.66393],[-78.88074,-1.45924],[-78.79997,-1.42436],[-78.61972,-1.48983],[-78.48009,-1.44058],[-78.36893,-1.49319],[-78.35565,-1.61287],[-78.45017,-1.71731],[-78.41565,-1.85436],[-78.48955,-1.96484],[-78.4458,-2.07522],[-78.49781,-2.21051],[-78.5799,-2.31154],[-78.92234,-2.40037]]]}},{"type":"Feature","properties":{"id":"ec-i","lat":0.46421,"lng":-78.31696},"geometry":{"type":"Polygon","coordinates":[[[-77.81408,0.34566],[-77.94537,0.16128],[-78.07768,0.19777],[-78.20217,0.13472],[-78.36537,0.16666],[-78.38671,0.24231],[-78.95166,0.2113],[-79.0107,0.26743],[-78.85996,0.42282],[-78.66742,0.37295],[-78.53921,0.51506],[-78.43118,0.55134],[-78.51345,0.7599],[-78.45063,0.78905],[-78.44211,0.87194],[-78.25842,0.77541],[-78.13081,0.5056],[-77.81408,0.34566]]]}},{"type":"Feature","properties":{"id":"ec-l","lat":-4.0398,"lng":-79.81696},"geometry":{"type":"Polygon","coordinates":[[[-80.32551,-4.01541],[-80.16507,-3.8807],[-79.74133,-3.83284],[-79.60627,-3.75191],[-79.4153,-3.79336],[-79.36634,-3.65332],[-79.42799,-3.58944],[-79.48594,-3.62841],[-79.42277,-3.44935],[-79.45775,-3.32801],[-79.31787,-3.34677],[-79.28169,-3.44992],[-79.1849,-3.44206],[-79.13049,-3.53751],[-79.10225,-3.636],[-79.19356,-3.73104],[-79.11925,-3.88312],[-79.15478,-4.13877],[-79.10263,-4.20605],[-79.11354,-4.408],[-79.20506,-4.50298],[-79.29151,-4.48226],[-79.46082,-4.77046],[-79.52785,-4.61806],[-79.50721,-4.53156],[-79.65797,-4.43875],[-79.83287,-4.47895],[-80.14025,-4.2831],[-80.38287,-4.47626],[-80.46997,-4.44608],[-80.48855,-4.39596],[-80.34527,-4.19845],[-80.46961,-4.21323],[-80.51221,-4.06419],[-80.44769,-3.98275],[-80.32551,-4.01541]]]}},{"type":"Feature","properties":{"id":"ec-m","lat":-0.75623,"lng":-80.04218},"geometry":{"type":"Polygon","coordinates":[[[-80.81816,-1.67698],[-80.85558,-1.58831],[-80.74426,-1.34377],[-80.90961,-1.04492],[-80.81637,-0.94634],[-80.56988,-0.91224],[-80.44897,-0.60606],[-80.3788,-0.65789],[-80.29901,-0.66223],[-80.39174,-0.62549],[-80.49646,-0.38137],[-80.06646,0.05221],[-80.03653,0.35708],[-79.93344,0.25967],[-79.71758,0.37078],[-79.65219,0.25916],[-79.70211,0.18743],[-79.56785,0.11653],[-79.61901,0.04212],[-79.59875,-0.07178],[-79.41143,-0.1881],[-79.41026,-0.39827],[-79.61963,-0.85023],[-79.72236,-0.88124],[-79.90437,-1.12975],[-79.9931,-1.12882],[-80.0433,-1.27181],[-80.19197,-1.43118],[-80.18818,-1.53655],[-80.28326,-1.56766],[-80.22117,-1.68067],[-80.3293,-1.68713],[-80.43754,-1.8357],[-80.5528,-1.82811],[-80.5774,-1.65974],[-80.81816,-1.67698]]]}},{"type":"Feature","properties":{"id":"ec-n","lat":-1.29191,"lng":-78.51577},"geometry":{"type":"Polygon","coordinates":[[[-78.39144,-0.96356],[-78.33167,-1.05983],[-78.34508,-1.16427],[-78.22152,-1.13998],[-78.1197,-1.20065],[-78.14817,-1.42436],[-78.35338,-1.52637],[-78.48009,-1.44058],[-78.61972,-1.48983],[-78.79997,-1.42436],[-78.88074,-1.45924],[-78.92755,-1.38317],[-78.86624,-1.17833],[-78.55329,-1.06092],[-78.46784,-1.0805],[-78.39144,-0.96356]]]}},{"type":"Feature","properties":{"id":"ec-o","lat":-3.53402,"lng":-79.84854},"geometry":{"type":"Polygon","coordinates":[[[-80.16507,-3.8807],[-80.26566,-3.4264],[-80.34105,-3.36858],[-80.30687,-3.32073],[-80.31432,-3.37607],[-80.28645,-3.32073],[-80.13557,-3.32757],[-80.05988,-3.20403],[-80.02921,-3.27353],[-79.89589,-3.04544],[-79.63852,-3.12885],[-79.5947,-3.20435],[-79.66777,-3.31985],[-79.45775,-3.32801],[-79.42277,-3.44935],[-79.48773,-3.61869],[-79.37306,-3.62836],[-79.40755,-3.78551],[-79.60627,-3.75191],[-79.74133,-3.83284],[-80.16507,-3.8807]]]}},{"type":"Feature","properties":{"id":"ec-p","lat":-0.16188,"lng":-78.45572},"geometry":{"type":"Polygon","coordinates":[[[-77.83269,0.03194],[-78.01314,-0.13596],[-78.18321,-0.18779],[-78.32966,-0.66042],[-78.39676,-0.68435],[-78.52704,-0.60203],[-78.70757,-0.65588],[-78.92158,-0.34515],[-78.76439,-0.28495],[-78.74537,-0.21523],[-78.92285,-0.07578],[-79.10034,-0.08211],[-79.10667,0.00029],[-79.30951,0.00663],[-79.36383,0.04692],[-79.30366,0.17327],[-79.35223,0.23167],[-79.19513,0.3189],[-79.04021,0.29502],[-78.95166,0.2113],[-78.38671,0.24231],[-78.36537,0.16666],[-78.22677,0.13327],[-78.07768,0.19777],[-77.94537,0.16128],[-77.97043,0.11534],[-77.83269,0.03194]]]}},{"type":"Feature","properties":{"id":"ec-r","lat":-1.36679,"lng":-79.56478},"geometry":{"type":"Polygon","coordinates":[[[-79.28071,-1.20261],[-79.38838,-1.31806],[-79.33735,-1.29113],[-79.29218,-1.33444],[-79.31851,-1.46802],[-79.25009,-1.54089],[-79.34386,-1.63835],[-79.22945,-1.82294],[-79.2795,-1.94489],[-79.20552,-2.06504],[-79.23549,-2.15434],[-79.48243,-1.89745],[-79.64953,-1.90655],[-79.75887,-1.69669],[-79.86212,-1.62419],[-79.84732,-1.39914],[-79.74141,-1.18913],[-79.53279,-0.95953],[-79.52307,-0.84527],[-79.61963,-0.85023],[-79.47997,-0.54374],[-79.342,-0.55423],[-79.3606,-0.65572],[-79.31619,-0.69588],[-79.08682,-0.5519],[-79.30373,-0.94888],[-79.28071,-1.20261]]]}},{"type":"Feature","properties":{"id":"ec-s","lat":-2.53532,"lng":-77.67928},"geometry":{"type":"Polygon","coordinates":[[[-76.66966,-2.56459],[-77.86783,-2.99026],[-78.19641,-3.36367],[-78.15453,-3.45679],[-78.22631,-3.50702],[-78.25718,-3.40956],[-78.33397,-3.38455],[-78.37587,-3.52935],[-78.68436,-3.57932],[-78.82219,-3.54702],[-78.84939,-3.38915],[-78.93897,-3.32274],[-78.67165,-3.09077],[-78.56639,-2.72082],[-78.42144,-2.62702],[-78.4721,-2.56827],[-78.55026,-2.6125],[-78.48122,-2.38068],[-78.5799,-2.31154],[-78.4458,-2.07522],[-78.48955,-1.96484],[-78.41565,-1.85436],[-78.44758,-1.70599],[-78.30653,-1.48456],[-78.12928,-1.45624],[-78.00898,-1.66812],[-77.91413,-1.66812],[-77.82948,-1.92484],[-77.12306,-2.31366],[-76.99289,-2.50605],[-76.66966,-2.56459]]]}},{"type":"Feature","properties":{"id":"ec-sd","lat":-0.31505,"lng":-79.12575},"geometry":{"type":"Polygon","coordinates":[[[-78.92158,-0.34515],[-79.03235,-0.47563],[-78.99081,-0.53165],[-79.03703,-0.58084],[-79.11545,-0.54684],[-79.34078,-0.68905],[-79.342,-0.55423],[-79.47997,-0.54374],[-79.40693,-0.38344],[-79.41143,-0.1881],[-79.49669,-0.16185],[-79.60343,-0.02253],[-79.43316,-0.05013],[-79.45037,-0.00093],[-79.36383,0.04692],[-79.10667,0.00029],[-79.10034,-0.08211],[-78.92285,-0.07578],[-78.74537,-0.21523],[-78.76439,-0.28495],[-78.92158,-0.34515]]]}},{"type":"Feature","properties":{"id":"ec-se","lat":-2.01704,"lng":-80.54557},"geometry":{"type":"Polygon","coordinates":[[[-80.54275,-2.52976],[-80.65665,-2.41579],[-80.91365,-2.31878],[-81.01089,-2.17669],[-80.90634,-2.21626],[-80.74498,-2.10291],[-80.73302,-1.90399],[-80.81816,-1.67698],[-80.56381,-1.66734],[-80.56154,-1.81699],[-80.47827,-1.93116],[-80.21345,-2.11031],[-80.27652,-2.36794],[-80.54275,-2.52976]]]}},{"type":"Feature","properties":{"id":"ec-t","lat":-0.61399,"lng":-77.9433},"geometry":{"type":"Polygon","coordinates":[[[-78.33857,-1.16437],[-78.33573,-1.04521],[-78.44154,-0.93813],[-78.40505,-0.71024],[-78.2623,-0.53144],[-78.17726,-0.18087],[-78.01314,-0.13596],[-77.83269,0.03194],[-77.74029,-0.07839],[-77.58898,-0.10004],[-77.46488,-0.02346],[-77.44646,-0.12485],[-77.39106,-0.13942],[-77.29941,-0.05855],[-77.27318,-0.36039],[-77.40403,-0.50416],[-77.55154,-0.45801],[-77.62017,-0.53661],[-77.49661,-0.69138],[-77.57911,-0.94005],[-77.25499,-0.83385],[-77.1242,-0.70791],[-77.19247,-0.85225],[-77.03615,-0.92522],[-77.05165,-1.01038],[-77.89718,-1.23713],[-78.11652,-1.23331],[-78.22152,-1.13998],[-78.33857,-1.16437]]]}},{"type":"Feature","properties":{"id":"ec-u","lat":-0.00382,"lng":-76.62432},"geometry":{"type":"Polygon","coordinates":[[[-77.50935,0.6612],[-77.39747,0.38763],[-77.08286,0.34887],[-76.88246,0.24014],[-76.73435,0.23311],[-76.72454,0.27755],[-76.56543,0.21606],[-76.42569,0.24272],[-76.41639,0.40189],[-76.30048,0.46163],[-76.11956,0.35176],[-76.05347,0.36355],[-75.81787,0.1001],[-75.62677,0.07891],[-75.28349,-0.10702],[-75.4295,-0.16366],[-75.64321,-0.12883],[-75.48477,-0.24768],[-75.40563,-0.4424],[-75.27204,-0.5257],[-75.25765,-0.63319],[-75.74832,-0.42261],[-75.94763,-0.42287],[-75.93719,-0.56167],[-76.10284,-0.44194],[-76.27438,-0.44312],[-76.41021,-0.5103],[-76.57573,-0.40509],[-76.62185,-0.42488],[-76.94543,-0.06568],[-77.07361,-0.10211],[-77.28401,-0.04734],[-77.37421,-0.14108],[-77.44646,-0.12485],[-77.46488,-0.02346],[-77.58898,-0.10004],[-77.75892,-0.07503],[-77.77894,0.01581],[-77.97043,0.11973],[-77.64996,0.58498],[-77.66954,0.63867],[-77.50935,0.6612]]]}},{"type":"Feature","properties":{"id":"ec-w","lat":-0.62575,"lng":-90.37261},"geometry":{"type":"MultiPolygon","coordinates":[[[[-90.79259,-0.73895],[-90.9287,-0.97031],[-91.15978,-1.03021],[-91.43586,-0.99749],[-91.50231,-0.89625],[-91.46589,-0.80788],[-91.31046,-0.68328],[-91.15779,-0.67881],[-91.08678,-0.58245],[-91.37499,-0.28192],[-91.42333,-0.02858],[-91.60338,-0.01422],[-91.4973,0.10611],[-91.32364,0.13931],[-91.2093,-0.01068],[-91.17357,-0.22845],[-90.95604,-0.42213],[-90.99014,-0.5792],[-90.79259,-0.73895]]],[[[-91.50756,-0.49041],[-91.6114,-0.45281],[-91.66857,-0.28493],[-91.47419,-0.24928],[-91.39953,-0.30788],[-91.40111,-0.45289],[-91.50756,-0.49041]]],[[[-90.58678,-0.3637],[-90.81823,-0.33961],[-90.87413,-0.27125],[-90.82681,-0.16416],[-90.63248,-0.20127],[-90.55199,-0.27809],[-90.58678,-0.3637]]],[[[-90.76057,0.5537],[-90.80525,0.5716],[-90.79776,0.65351],[-90.75699,0.6306],[-90.76057,0.5537]]],[[[-91.81094,1.37718],[-91.82531,1.37702],[-91.81916,1.38642],[-91.81094,1.37718]]],[[[-91.81754,1.39476],[-91.82046,1.39134],[-91.82201,1.39448],[-91.81754,1.39476]]],[[[-91.99983,1.65998],[-92.01159,1.65864],[-92.00609,1.66437],[-91.99983,1.65998]]],[[[-89.63467,-1.34881],[-89.6761,-1.39756],[-89.75691,-1.36061],[-89.63467,-1.34881]]],[[[-90.36636,-1.27191],[-90.43863,-1.34743],[-90.52404,-1.30592],[-90.47191,-1.21673],[-90.36636,-1.27191]]],[[[-89.25719,-0.68157],[-89.43472,-0.92929],[-89.62995,-0.92588],[-89.41324,-0.71347],[-89.25719,-0.68157]]],[[[-90.18053,-0.54852],[-90.25036,-0.73691],[-90.35481,-0.77988],[-90.54454,-0.68157],[-90.52758,-0.56992],[-90.44896,-0.51092],[-90.25845,-0.48512],[-90.18053,-0.54852]]],[[[-90.54454,0.31086],[-90.48306,0.36546],[-90.40795,0.31086],[-90.47566,0.26309],[-90.54454,0.31086]]],[[[-89.94324,0.34187],[-89.97099,0.30974],[-89.97026,0.33457],[-89.94324,0.34187]]]]}},{"type":"Feature","properties":{"id":"ec-x","lat":-0.79918,"lng":-78.82154},"geometry":{"type":"Polygon","coordinates":[[[-78.39676,-0.68435],[-78.44154,-0.93813],[-78.39144,-0.96356],[-78.45544,-1.07477],[-78.55329,-1.06092],[-78.66124,-1.13854],[-78.96848,-1.20866],[-79.10945,-1.15228],[-79.28071,-1.20261],[-79.32298,-1.12096],[-79.29071,-0.914],[-79.08682,-0.5519],[-79.04724,-0.58508],[-78.99081,-0.53165],[-79.03235,-0.47563],[-78.92722,-0.34701],[-78.71405,-0.65262],[-78.48986,-0.60436],[-78.39676,-0.68435]]]}},{"type":"Feature","properties":{"id":"ec-y","lat":-1.79043,"lng":-76.83535},"geometry":{"type":"Polygon","coordinates":[[[-75.58074,-1.54664],[-76.09124,-2.12891],[-76.72591,-2.57705],[-76.95904,-2.52827],[-77.12306,-2.31366],[-77.71063,-2.02246],[-77.83832,-1.91275],[-77.91413,-1.66812],[-78.00898,-1.66812],[-78.07846,-1.50611],[-78.17256,-1.44699],[-78.11652,-1.23331],[-77.89718,-1.23713],[-77.05165,-1.01038],[-77.05622,-1.09353],[-76.86794,-1.1574],[-76.81073,-1.08965],[-76.54537,-1.05156],[-76.46367,-1.25134],[-76.2842,-1.31108],[-76.10594,-1.27305],[-75.87846,-1.32845],[-75.58074,-1.54664]]]}},{"type":"Feature","properties":{"id":"ec-z","lat":-4.17241,"lng":-78.87878},"geometry":{"type":"Polygon","coordinates":[[[-78.37587,-3.52935],[-78.41968,-3.79103],[-78.56207,-3.97976],[-78.68243,-4.32692],[-78.63721,-4.43513],[-78.68168,-4.56711],[-78.89864,-4.69423],[-78.90022,-4.84368],[-78.98034,-4.87397],[-79.06393,-5.01137],[-79.30322,-4.96125],[-79.46082,-4.77046],[-79.29151,-4.48226],[-79.20506,-4.50298],[-79.11354,-4.408],[-79.10263,-4.20605],[-79.15478,-4.13877],[-79.11925,-3.88312],[-79.19356,-3.73104],[-79.06548,-3.61942],[-79.05509,-3.41225],[-78.93897,-3.32274],[-78.84939,-3.38915],[-78.82219,-3.54702],[-78.68436,-3.57932],[-78.37587,-3.52935]]]}}]}
