{"type":"FeatureCollection","features":[{"type":"Feature","properties":{"id":"ee-37","lat":59.32448,"lng":24.99526},"geometry":{"type":"MultiPolygon","coordinates":[[[[23.73048,59.23041],[23.75685,59.28364],[24.08058,59.27131],[24.03484,59.38866],[24.22193,59.35517],[24.1631,59.40229],[24.30616,59.41909],[24.33383,59.47061],[24.64259,59.43643],[24.67498,59.49604],[24.77263,59.4501],[24.80348,59.5705],[24.93442,59.50804],[25.14552,59.53913],[25.40943,59.49103],[25.54371,59.53514],[25.48487,59.66983],[25.67677,59.56607],[25.71852,59.58759],[25.67066,59.6555],[25.78053,59.63569],[25.94548,59.2938],[25.48943,59.26377],[25.48974,59.08577],[25.32045,58.99221],[24.86611,59.22657],[24.6639,59.21685],[24.57357,59.16621],[24.56582,59.09668],[24.37436,59.08621],[24.29023,59.01526],[24.1045,58.98467],[24.14781,59.05808],[24.11504,59.10688],[23.90818,59.13135],[23.73048,59.23041]]],[[[24.5005,59.59626],[24.54282,59.5478],[24.48911,59.55964],[24.5005,59.59626]]]]}},{"type":"Feature","properties":{"id":"ee-39","lat":58.89431,"lng":22.61903},"geometry":{"type":"Polygon","coordinates":[[[22.42994,58.85244],[22.04469,58.93618],[22.46306,58.97089],[22.58717,59.08698],[22.66668,59.08491],[22.73666,59.00507],[22.93409,58.98404],[23.04054,58.84077],[22.87957,58.83271],[22.84539,58.77652],[22.7776,58.82437],[22.65496,58.70279],[22.55568,58.687],[22.46306,58.71646],[22.49724,58.73754],[22.42994,58.85244]]]}},{"type":"Feature","properties":{"id":"ee-44","lat":59.20251,"lng":27.36557},"geometry":{"type":"Polygon","coordinates":[[[28.01905,59.48176],[28.18182,59.35607],[27.88231,59.27566],[27.71333,58.9919],[27.44627,58.81887],[26.75173,58.88163],[26.703,58.95589],[26.81054,59.02012],[26.80155,59.1119],[26.94133,59.14988],[26.84346,59.25514],[26.74166,59.26103],[26.79891,59.34046],[26.70858,59.36062],[26.79442,59.40464],[26.78085,59.50255],[26.93767,59.4501],[27.8733,59.40762],[28.01905,59.48176]]]}},{"type":"Feature","properties":{"id":"ee-49","lat":58.72834,"lng":26.6277},"geometry":{"type":"Polygon","coordinates":[[[27.44627,58.81887],[27.42885,58.7094],[27.09094,58.67616],[27.01353,58.60237],[26.86206,58.63314],[26.81178,58.56144],[26.61737,58.52204],[26.13151,58.48467],[25.92899,58.59244],[25.74916,58.61312],[25.83577,58.74727],[26.2946,58.91609],[26.41036,58.88553],[26.703,58.95589],[26.75173,58.88163],[27.44627,58.81887]]]}},{"type":"Feature","properties":{"id":"ee-51","lat":58.89188,"lng":25.69766},"geometry":{"type":"Polygon","coordinates":[[[25.77711,58.68978],[25.34897,58.61508],[25.25854,58.63329],[25.29249,58.70766],[25.19984,58.72577],[25.2866,58.97304],[25.48974,59.08577],[25.48943,59.26377],[25.92589,59.27633],[26.0187,59.17871],[25.93085,59.05877],[26.04092,59.04487],[26.16055,58.94844],[26.11384,58.83532],[25.97679,58.81659],[25.77711,58.68978]]]}},{"type":"Feature","properties":{"id":"ee-57","lat":58.88286,"lng":23.80774},"geometry":{"type":"MultiPolygon","coordinates":[[[[23.90276,58.55562],[23.49806,58.57221],[23.53305,58.74746],[23.8025,58.7307],[23.78549,58.77798],[23.87436,58.77167],[23.78419,58.80097],[23.42945,58.76484],[23.52613,58.81977],[23.42205,58.9287],[23.6277,58.97915],[23.62159,59.01533],[23.55983,59.0528],[23.61443,59.0113],[23.55299,58.97089],[23.40838,59.02558],[23.51824,59.07331],[23.47088,59.21214],[23.66228,59.25829],[23.90818,59.13135],[24.11504,59.10688],[24.14781,59.05808],[24.08466,58.9649],[24.18595,58.83703],[24.07019,58.75109],[24.15122,58.73861],[24.13323,58.70148],[23.86137,58.63407],[23.90276,58.55562]]],[[[23.38966,59.00751],[23.17416,58.96833],[23.11411,59.0218],[23.34425,59.03929],[23.38966,59.00751]]]]}},{"type":"Feature","properties":{"id":"ee-59","lat":59.25809,"lng":26.35711},"geometry":{"type":"Polygon","coordinates":[[[25.8151,59.52143],[25.98854,59.63435],[26.09099,59.58564],[26.70232,59.54141],[26.79023,59.43929],[26.70858,59.36062],[26.79891,59.34046],[26.74166,59.26103],[26.84346,59.25514],[26.94133,59.14988],[26.80155,59.1119],[26.76977,58.97671],[26.41036,58.88553],[26.15368,58.88715],[26.13508,58.98126],[25.92796,59.06451],[26.0187,59.17871],[25.91767,59.25088],[25.94455,59.29943],[25.8151,59.52143]]]}},{"type":"Feature","properties":{"id":"ee-65","lat":58.01669,"lng":27.09615},"geometry":{"type":"Polygon","coordinates":[[[27.51958,58.19451],[27.63044,58.08829],[27.66496,57.9184],[27.78681,57.84758],[27.32136,57.82934],[27.24922,57.85306],[27.2809,57.9175],[27.09497,57.95708],[27.0391,57.91786],[26.54022,57.95564],[26.55422,58.0763],[26.63613,58.17454],[26.87601,58.24244],[27.12851,58.26342],[27.51958,58.19451]]]}},{"type":"Feature","properties":{"id":"ee-67","lat":58.29932,"lng":24.79982},"geometry":{"type":"MultiPolygon","coordinates":[[[[23.938,58.13727],[23.98422,58.15713],[24.02215,58.12987],[23.97071,58.0996],[23.938,58.13727]]],[[[24.97484,58.01584],[24.30616,57.86819],[24.46412,58.07217],[24.47096,58.25092],[24.55104,58.33373],[24.36183,58.39728],[24.24334,58.28022],[24.09409,58.2447],[23.98024,58.31843],[23.74098,58.34309],[23.67897,58.52416],[23.58581,58.54417],[23.90276,58.55562],[23.86137,58.63407],[24.13323,58.70148],[24.3635,58.67032],[24.69057,58.75125],[24.88006,58.7467],[24.91618,58.67234],[25.06284,58.7282],[25.28335,58.7136],[25.23198,58.588],[24.9876,58.48594],[24.96693,58.32373],[25.2495,58.26373],[24.97484,58.01584]]]]}},{"type":"Feature","properties":{"id":"ee-70","lat":58.9147,"lng":24.71553},"geometry":{"type":"Polygon","coordinates":[[[24.13323,58.70148],[24.15122,58.73861],[24.07019,58.75109],[24.18688,58.84473],[24.1045,58.98467],[24.29023,59.01526],[24.37436,59.08621],[24.56582,59.09668],[24.57357,59.16621],[24.6639,59.21685],[24.90363,59.22574],[24.95654,59.14652],[25.32045,58.99221],[25.19984,58.72577],[24.91618,58.67234],[24.85567,58.74995],[24.52499,58.73647],[24.3635,58.67032],[24.13323,58.70148]]]}},{"type":"Feature","properties":{"id":"ee-74","lat":58.28197,"lng":22.32227},"geometry":{"type":"MultiPolygon","coordinates":[[[[23.22429,57.82372],[23.27019,57.78563],[23.21778,57.80093],[23.22429,57.82372]]],[[[22.92205,58.61742],[23.32496,58.44229],[23.1565,58.47752],[23.04249,58.37149],[22.95484,58.38105],[22.90268,58.31184],[22.7212,58.27033],[22.72315,58.22541],[22.535,58.25406],[22.32342,58.20661],[22.20297,57.99396],[22.04835,57.91511],[21.96339,57.98404],[22.20297,58.14789],[21.84376,58.29361],[21.90821,58.29873],[21.8733,58.34162],[22.01124,58.35395],[21.83237,58.51097],[21.99562,58.51252],[22.08937,58.42219],[22.19459,58.54584],[22.2732,58.50202],[22.32195,58.58478],[22.58318,58.63451],[22.64812,58.58674],[22.92205,58.61742]]],[[[23.40024,58.55541],[23.22381,58.53547],[23.06284,58.62458],[23.28834,58.66649],[23.40024,58.55541]]]]}},{"type":"Feature","properties":{"id":"ee-78","lat":58.44875,"lng":26.84093},"geometry":{"type":"Polygon","coordinates":[[[27.42885,58.7094],[27.55489,58.39525],[27.48285,58.26864],[27.51958,58.19451],[27.03399,58.26283],[26.63613,58.17454],[26.595,58.12338],[26.37858,58.17536],[26.07146,58.12772],[26.0387,58.30006],[26.16536,58.41282],[26.13151,58.48467],[26.61737,58.52204],[26.81178,58.56144],[26.86206,58.63314],[27.01353,58.60237],[27.09094,58.67616],[27.42885,58.7094]]]}},{"type":"Feature","properties":{"id":"ee-82","lat":57.8652,"lng":26.15121},"geometry":{"type":"Polygon","coordinates":[[[26.01451,57.84283],[25.55182,57.94986],[25.61123,58.03641],[25.85328,58.15123],[25.92992,58.10891],[26.23905,58.12056],[26.37858,58.17536],[26.595,58.12338],[26.54022,57.95564],[26.39237,57.94026],[26.36488,57.88758],[26.45614,57.78417],[26.43068,57.56176],[26.02475,57.77436],[26.01451,57.84283]]]}},{"type":"Feature","properties":{"id":"ee-84","lat":58.31817,"lng":25.54316},"geometry":{"type":"Polygon","coordinates":[[[25.55182,57.94986],[25.2635,58.07514],[25.28438,58.00814],[25.21679,57.98538],[25.14103,58.06801],[25.03486,58.04857],[25.01148,58.09108],[25.15224,58.20177],[25.22981,58.20038],[25.2495,58.26373],[24.95499,58.33628],[24.99473,58.49421],[25.23229,58.62614],[25.43775,58.61368],[25.77711,58.68978],[25.75071,58.60707],[26.01281,58.55679],[26.16551,58.42026],[26.0387,58.30006],[26.07146,58.12772],[25.85328,58.15123],[25.61123,58.03641],[25.55182,57.94986]]]}},{"type":"Feature","properties":{"id":"ee-86","lat":57.76393,"lng":26.98194},"geometry":{"type":"Polygon","coordinates":[[[26.49955,57.51582],[26.43068,57.56176],[26.4687,57.70061],[26.36488,57.87895],[26.39237,57.94026],[27.0391,57.91786],[27.09497,57.95708],[27.2809,57.9175],[27.24922,57.85306],[27.29842,57.83156],[27.55634,57.81309],[27.50776,57.71477],[27.38466,57.67439],[27.31996,57.51613],[26.87265,57.62718],[26.49955,57.51582]]]}}]}
