{"type":"FeatureCollection","features":[{"type":"Feature","properties":{"id":"eg-alx","lat":30.80753,"lng":29.77302},"geometry":{"type":"Polygon","coordinates":[[[29.59807,31.00951],[30.06959,31.33348],[30.09848,31.28465],[30.03846,31.18127],[29.86715,31.07157],[29.90983,31.00511],[29.86715,30.91674],[30.01267,30.69831],[29.92844,30.59092],[29.68447,30.4622],[29.62489,30.33709],[29.59807,31.00951]]]}},{"type":"Feature","properties":{"id":"eg-asn","lat":23.62272,"lng":32.82031},"geometry":{"type":"Polygon","coordinates":[[[31.56953,22.09129],[31.43548,21.99535],[31.49056,22.14821],[31.4609,22.21549],[31.38535,22.21446],[31.31439,22.10227],[31.22505,22.19689],[31.2775,22.26916],[31.4918,22.32373],[31.59733,22.43253],[31.62291,22.70484],[31.83395,22.72259],[32.19331,22.87207],[32.43598,22.77269],[32.6337,23.21551],[32.76186,23.36175],[32.74775,23.41947],[32.50104,23.40575],[32.42637,23.44888],[32.52771,23.71403],[32.76294,23.79418],[32.64564,23.89578],[32.65525,23.99913],[32.8311,24.03776],[32.8864,24.12633],[32.87803,24.49],[32.93032,24.64904],[32.80842,25.03299],[32.65385,25.1457],[32.70475,25.26988],[32.97957,25.03119],[33.01869,24.74415],[33.1315,24.5238],[32.97213,24.15592],[33.00954,23.96215],[33.15832,23.74615],[33.14002,23.53141],[33.21278,23.32964],[33.05595,23.05697],[33.28312,22.88413],[33.32968,22.70632],[33.12142,22.84396],[32.95988,22.84538],[32.83777,22.92754],[32.76155,22.70231],[32.53732,22.4993],[32.33826,22.46147],[32.13698,22.58074],[31.99611,22.31202],[31.56953,22.09129]]]}},{"type":"Feature","properties":{"id":"eg-ast","lat":27.18158,"lng":31.18927},"geometry":{"type":"Polygon","coordinates":[[[30.67123,27.63402],[30.94124,27.62015],[30.96558,27.43646],[31.28835,27.28337],[31.61903,26.83319],[31.46199,26.94011],[31.29998,26.83738],[31.16206,27.07979],[30.79087,27.33745],[30.67123,27.63402]]]}},{"type":"Feature","properties":{"id":"eg-ba","lat":25.63855,"lng":33.65713},"geometry":{"type":"MultiPolygon","coordinates":[[[[36.89918,22.02985],[31.49472,21.99539],[31.56953,22.09129],[31.99611,22.31202],[32.13698,22.58074],[32.33826,22.46147],[32.53732,22.4993],[32.76155,22.70231],[32.83777,22.92754],[33.33371,22.71755],[33.28312,22.88413],[33.05595,23.05697],[33.21278,23.32964],[33.14002,23.53141],[33.15832,23.74615],[33.00954,23.96215],[32.97213,24.15592],[33.1315,24.5238],[33.01869,24.74415],[32.97957,25.03119],[32.67297,25.29683],[32.623,25.43152],[32.64548,25.55206],[32.91502,25.85853],[32.91921,26.04453],[32.84087,26.18473],[32.68444,26.25894],[32.30752,26.1582],[32.15528,26.34684],[31.97451,26.42105],[31.83101,26.68997],[31.61903,26.83319],[31.28835,27.28337],[30.95845,27.44776],[30.95473,27.78572],[30.81774,28.27665],[30.90724,28.45095],[30.97178,28.81155],[31.20443,29.10021],[31.25528,29.29875],[31.48214,29.07391],[31.91152,28.95133],[32.14505,28.9679],[32.65617,29.12065],[32.6255,28.97272],[32.80689,28.77814],[32.86891,28.57893],[33.00294,28.48949],[33.24936,28.14289],[33.55437,27.89647],[33.59205,27.79125],[33.47348,27.82319],[33.59205,27.64663],[33.49635,27.64663],[33.69166,27.34186],[33.83839,27.24258],[33.83676,27.12075],[33.9961,26.89655],[33.94825,26.831],[33.94142,26.65351],[34.01401,26.61164],[34.33872,26.00178],[34.54656,25.72504],[35.16027,24.57462],[35.14456,24.50021],[35.39186,24.28278],[35.49383,24.1089],[35.73857,23.98332],[35.79254,23.90229],[35.51393,23.97712],[35.48387,23.91779],[35.48943,23.49702],[35.6953,22.93213],[35.76368,22.87043],[35.75571,22.92231],[35.88596,22.73569],[36.22608,22.63544],[36.43982,22.35644],[36.78224,22.16446],[36.89918,22.02985]]],[[[33.95509,26.79002],[33.99545,26.7517],[34.00359,26.7082],[33.95509,26.79002]]],[[[33.96412,27.53412],[34.05128,27.44863],[33.91358,27.52375],[33.96412,27.53412]]]]}},{"type":"Feature","properties":{"id":"eg-bh","lat":30.64462,"lng":30.38242},"geometry":{"type":"Polygon","coordinates":[[[30.09848,31.28465],[30.17262,31.27143],[30.16521,31.21678],[30.28875,31.23794],[30.28761,31.27822],[30.17945,31.27827],[30.31284,31.35057],[30.35076,31.49799],[30.51822,31.32814],[30.5254,31.19649],[30.72322,31.06227],[30.79381,30.8683],[30.76187,30.82716],[30.8165,30.82716],[30.75324,30.77554],[30.87949,30.3729],[30.32862,29.8982],[29.67176,30.25198],[29.62489,30.33709],[29.68447,30.4622],[29.92844,30.59092],[30.01267,30.69831],[29.86715,30.91674],[29.90983,31.00511],[29.86761,31.07557],[30.01143,31.14869],[30.09848,31.28465]]]}},{"type":"Feature","properties":{"id":"eg-bns","lat":29.03234,"lng":30.843},"geometry":{"type":"Polygon","coordinates":[[[30.31637,28.97624],[30.8643,29.12063],[31.10185,29.40012],[31.2559,29.33935],[31.21699,29.12207],[30.94419,28.71566],[30.7687,28.78096],[29.74922,28.7593],[29.81485,29.08843],[30.31637,28.97624]]]}},{"type":"Feature","properties":{"id":"eg-c","lat":29.94897,"lng":31.58308},"geometry":{"type":"Polygon","coordinates":[[[31.8431,30.33903],[31.92893,29.78317],[31.29161,29.75986],[31.23761,30.11478],[31.59387,30.19043],[31.8431,30.33903]]]}},{"type":"Feature","properties":{"id":"eg-dk","lat":31.04847,"lng":31.496},"geometry":{"type":"MultiPolygon","coordinates":[[[[31.7964,31.27827],[31.90626,31.25161],[31.92644,31.187],[32.03712,31.21678],[32.01612,31.12808],[32.05234,31.12877],[31.78352,31.06586],[31.57573,30.80538],[31.36732,30.77169],[31.3529,30.57377],[31.25373,30.58839],[31.21389,30.83703],[31.30572,31.01702],[31.21838,31.03108],[31.23745,31.11474],[31.29952,31.13097],[31.25172,31.47852],[31.34991,31.52966],[31.57161,31.44375],[31.50033,31.36496],[31.6905,31.31062],[31.61004,31.16479],[31.7964,31.27827]]],[[[32.25646,31.27622],[32.20704,31.29507],[32.2566,31.2888],[32.25646,31.27622]]],[[[32.07008,31.35399],[32.14967,31.32779],[32.19955,31.29507],[32.07008,31.35399]]]]}},{"type":"Feature","properties":{"id":"eg-dt","lat":31.33989,"lng":31.67253},"geometry":{"type":"Polygon","coordinates":[[[32.08292,31.35901],[31.99497,31.39496],[31.91798,31.52399],[31.86525,31.52534],[31.87892,31.42914],[31.84164,31.4645],[31.82423,31.44335],[31.87892,31.41608],[31.83041,31.40864],[31.85841,31.35399],[31.79721,31.35952],[31.77964,31.24603],[31.61004,31.16479],[31.68621,31.32579],[31.63391,31.2906],[31.49925,31.37054],[31.57161,31.44375],[31.87436,31.53559],[31.91293,31.5349],[32.08292,31.35901]]]}},{"type":"Feature","properties":{"id":"eg-fym","lat":29.26037,"lng":30.50261},"geometry":{"type":"Polygon","coordinates":[[[31.10185,29.40012],[30.8643,29.12063],[30.36371,28.97976],[29.81485,29.08843],[30.35497,29.53644],[30.74601,29.71429],[31.00238,29.7054],[31.10185,29.40012]]]}},{"type":"Feature","properties":{"id":"eg-gh","lat":30.9069,"lng":31.00175},"geometry":{"type":"Polygon","coordinates":[[[31.2512,30.56509],[30.9276,30.71673],[30.79608,30.68022],[30.75324,30.77554],[30.8165,30.82716],[30.76187,30.82716],[30.75164,30.97677],[31.02377,31.01904],[31.0708,31.12123],[31.22195,31.12981],[31.21838,31.03108],[31.30541,31.02971],[31.21389,30.83703],[31.2512,30.56509]]]}},{"type":"Feature","properties":{"id":"eg-gz","lat":29.02832,"lng":29.40333},"geometry":{"type":"Polygon","coordinates":[[[29.74922,28.7593],[29.58706,28.38444],[29.45994,28.23606],[28.77486,27.87316],[28.65322,27.6679],[27.32477,27.6679],[27.83187,28.56647],[28.69916,28.77509],[29.55058,29.48283],[30.32862,29.8982],[30.83309,30.33381],[30.90957,30.33993],[30.99122,30.21536],[31.22862,30.14116],[31.29161,29.75986],[31.92893,29.78317],[31.86915,28.96821],[31.433,29.10313],[31.23482,29.37154],[31.10185,29.40012],[31.03049,29.68051],[30.95582,29.73707],[30.74601,29.71429],[30.28159,29.48505],[29.81485,29.08843],[29.74922,28.7593]]]}},{"type":"Feature","properties":{"id":"eg-is","lat":30.61844,"lng":32.33809},"geometry":{"type":"Polygon","coordinates":[[[32.14258,31.08027],[32.31124,31.11877],[32.60207,30.97374],[32.65199,30.50411],[32.79865,30.25405],[32.57737,30.26327],[32.45914,30.20376],[31.88734,30.23237],[31.76378,30.5572],[31.97405,30.55961],[32.09864,30.67728],[32.20184,30.99382],[32.14258,31.08027]]]}},{"type":"Feature","properties":{"id":"eg-js","lat":28.86278,"lng":33.92123},"geometry":{"type":"MultiPolygon","coordinates":[[[[34.73188,27.95714],[34.7047,27.90837],[34.66179,27.93022],[34.73188,27.95714]]],[[[34.60133,27.94261],[34.51808,27.93041],[34.48951,27.99604],[34.53484,28.00825],[34.50318,27.97557],[34.60133,27.94261]]],[[[34.86687,29.47919],[34.73658,29.31126],[34.62452,28.73599],[34.41017,28.32001],[34.43491,27.97557],[34.21412,27.79149],[34.25733,27.76952],[34.24985,27.72858],[33.76336,28.02399],[33.56471,28.2971],[33.22869,28.5694],[33.17791,28.98957],[32.88559,29.24307],[32.81723,29.41405],[32.71502,29.45596],[32.65178,29.79002],[32.85482,29.91376],[33.13026,29.9252],[33.76831,29.82704],[34.46816,29.54647],[34.86687,29.47919]]]]}},{"type":"Feature","properties":{"id":"eg-kb","lat":30.32757,"lng":31.21263},"geometry":{"type":"Polygon","coordinates":[[[31.59387,30.19043],[31.23761,30.11478],[31.1155,30.21549],[31.05607,30.37468],[31.25373,30.58839],[31.3529,30.57377],[31.27254,30.43698],[31.38566,30.28045],[31.59387,30.19043]]]}},{"type":"Feature","properties":{"id":"eg-kfs","lat":31.26232,"lng":30.9001},"geometry":{"type":"Polygon","coordinates":[[[30.51822,31.32814],[30.36215,31.50873],[30.53582,31.46385],[30.97389,31.58674],[30.54265,31.39496],[30.98072,31.43651],[31.02914,31.5185],[31.13038,31.517],[30.97804,31.5843],[31.09742,31.6079],[31.34991,31.52966],[31.24598,31.46389],[31.29952,31.13097],[31.0708,31.12123],[31.0401,31.02568],[30.84905,30.9825],[30.76363,30.98361],[30.69935,31.09216],[30.5254,31.19649],[30.51822,31.32814]]]}},{"type":"Feature","properties":{"id":"eg-kn","lat":25.70416,"lng":32.71839},"geometry":{"type":"Polygon","coordinates":[[[32.13714,26.2368],[32.27,26.1312],[32.5398,26.25165],[32.68444,26.25894],[32.89441,26.11401],[32.91502,25.85853],[32.623,25.49901],[32.70475,25.26988],[32.65385,25.1457],[32.51934,25.26029],[32.44301,25.59712],[32.6584,25.79264],[32.74232,26.06598],[32.61866,26.10412],[32.16293,25.97873],[31.95235,26.13985],[32.13714,26.2368]],[[32.62491,25.68721],[32.66937,25.72111],[32.64968,25.72994],[32.62491,25.68721]]]}},{"type":"Feature","properties":{"id":"eg-lx","lat":25.70857,"lng":32.64388},"geometry":{"type":"Polygon","coordinates":[[[32.64968,25.72994],[32.65139,25.68312],[32.62491,25.68721],[32.64968,25.72994]]]}},{"type":"Feature","properties":{"id":"eg-mn","lat":28.05461,"lng":29.99647},"geometry":{"type":"Polygon","coordinates":[[[28.65322,27.6679],[28.77486,27.87316],[29.45994,28.23606],[29.58706,28.38444],[29.74922,28.7593],[30.7687,28.78096],[30.94419,28.71566],[30.90724,28.45095],[30.81541,28.25871],[30.95473,27.78572],[30.94124,27.62015],[30.69842,27.62361],[30.68782,27.66764],[28.65322,27.6679]]]}},{"type":"Feature","properties":{"id":"eg-mnf","lat":30.46345,"lng":31.01122},"geometry":{"type":"Polygon","coordinates":[[[31.02935,30.20958],[30.91701,30.33619],[30.82657,30.34797],[30.87949,30.3729],[30.82208,30.69438],[31.06056,30.68813],[31.26215,30.55222],[31.05607,30.37468],[31.14542,30.17544],[31.02935,30.20958]]]}},{"type":"Feature","properties":{"id":"eg-mt","lat":29.69051,"lng":27.38862},"geometry":{"type":"Polygon","coordinates":[[[24.98125,27.6665],[24.97432,29.23894],[24.68865,30.18276],[24.90766,30.49866],[24.99489,30.7851],[24.88265,31.03909],[24.84895,31.34863],[25.15089,31.65648],[25.19093,31.53148],[25.30209,31.50654],[25.96681,31.6166],[27.32065,31.38101],[27.4463,31.22321],[27.66033,31.18024],[27.85288,31.2403],[27.92693,31.09903],[28.42433,31.08344],[29.02809,30.82705],[29.21892,30.83804],[29.59807,31.00951],[29.62489,30.33709],[29.67176,30.25198],[30.32862,29.8982],[29.55058,29.48283],[28.69916,28.77509],[27.83187,28.56647],[27.32477,27.6679],[24.98125,27.6665]]]}},{"type":"Feature","properties":{"id":"eg-pts","lat":31.2013,"lng":32.331},"geometry":{"type":"Polygon","coordinates":[[[32.2566,31.2888],[32.59968,31.06152],[32.60207,30.97374],[32.29,31.11379],[32.2566,31.2888]]]}},{"type":"Feature","properties":{"id":"eg-shg","lat":26.58375,"lng":31.70504},"geometry":{"type":"Polygon","coordinates":[[[32.27,26.1312],[32.13714,26.2368],[31.95235,26.13985],[31.29998,26.83738],[31.46199,26.94011],[31.55278,26.83723],[31.78693,26.72842],[31.95886,26.43908],[32.15528,26.34684],[32.30752,26.1582],[32.27,26.1312]]]}},{"type":"Feature","properties":{"id":"eg-shr","lat":30.68673,"lng":31.72066},"geometry":{"type":"MultiPolygon","coordinates":[[[[32.05454,31.12299],[32.20044,30.98142],[32.03208,30.60178],[31.76378,30.5572],[31.8431,30.33903],[31.59387,30.19043],[31.38566,30.28045],[31.27254,30.43698],[31.37605,30.59658],[31.36732,30.77169],[31.57573,30.80538],[31.78352,31.06586],[32.05454,31.12299]]],[[[32.13836,31.09333],[32.27223,31.11888],[32.28814,31.16903],[32.29,31.11379],[32.13836,31.09333]]]]}},{"type":"Feature","properties":{"id":"eg-sin","lat":30.33183,"lng":33.66081},"geometry":{"type":"MultiPolygon","coordinates":[[[[34.20027,31.31427],[34.52692,30.40962],[34.73321,30.01259],[34.88673,29.49006],[34.46816,29.54647],[33.76831,29.82704],[32.84738,29.92303],[32.79865,30.25405],[32.64843,30.51749],[32.59968,31.06152],[32.92726,31.15542],[32.66651,31.05231],[32.92709,31.1118],[33.00994,31.0563],[33.0643,31.13491],[33.03028,31.10077],[32.95444,31.10692],[33.10939,31.19644],[33.15772,31.11786],[33.13331,31.04556],[33.40642,31.15542],[33.49952,31.12808],[33.64796,31.11726],[34.20027,31.31427]]],[[[32.97511,31.08649],[32.98308,31.08991],[32.98927,31.07343],[32.97511,31.08649]]],[[[33.30112,31.21589],[33.47592,31.14175],[33.26979,31.21678],[33.30112,31.21589]]],[[[33.26246,31.22362],[33.10255,31.22675],[32.93474,31.14794],[33.10475,31.2403],[33.26246,31.22362]]]]}},{"type":"Feature","properties":{"id":"eg-suz","lat":29.69125,"lng":32.16122},"geometry":{"type":"Polygon","coordinates":[[[32.65178,29.79002],[32.57154,30.01142],[32.57154,29.94257],[32.4769,29.9322],[32.50953,29.86685],[32.33766,29.59248],[32.58123,29.36913],[32.65617,29.12065],[32.14505,28.9679],[31.86915,28.96821],[31.93638,29.87252],[31.88734,30.23237],[32.45914,30.20376],[32.57737,30.26327],[32.79865,30.25405],[32.85482,29.91376],[32.65178,29.79002]]]}},{"type":"Feature","properties":{"id":"eg-wad","lat":24.86923,"lng":28.92234},"geometry":{"type":"Polygon","coordinates":[[[24.98125,21.99535],[24.98125,27.6665],[30.68782,27.66764],[30.6703,27.56808],[30.79087,27.33745],[31.16206,27.07979],[31.29998,26.83738],[32.11078,26.00542],[32.27264,25.97725],[32.6646,26.1089],[32.74232,26.06598],[32.6584,25.79264],[32.44193,25.57635],[32.51934,25.26029],[32.80842,25.03299],[32.91844,24.70547],[32.8864,24.12633],[32.8311,24.03776],[32.65525,23.99913],[32.64564,23.89578],[32.76294,23.79418],[32.52771,23.71403],[32.42637,23.44888],[32.50104,23.40575],[32.74775,23.41947],[32.75581,23.34837],[32.6337,23.21551],[32.43598,22.77269],[32.19331,22.87207],[31.83395,22.72259],[31.63686,22.71916],[31.59733,22.43253],[31.4918,22.32373],[31.23575,22.22559],[31.31439,22.10227],[31.24841,21.99437],[24.98125,21.99535]]]}}]}
