{"type":"FeatureCollection","features":[{"type":"Feature","properties":{"id":"er-an","lat":15.45351,"lng":38.90871},"geometry":{"type":"Polygon","coordinates":[[[38.78816,15.15561],[38.78629,15.5568],[38.95869,15.57569],[39.0915,15.35023],[39.32626,15.17602],[38.78816,15.15561]]]}},{"type":"Feature","properties":{"id":"er-dk","lat":13.6555,"lng":41.63077},"geometry":{"type":"Polygon","coordinates":[[[43.11769,12.70791],[42.86883,12.62616],[42.78522,12.51722],[42.79225,12.42916],[42.67825,12.36002],[42.47568,12.51634],[42.37946,12.46591],[42.18495,12.73305],[41.94662,12.87617],[41.7118,13.24793],[41.19204,13.61586],[40.8332,14.10596],[40.35369,14.33524],[40.59109,14.73879],[40.57233,14.95121],[40.69451,14.89623],[40.76645,14.6953],[40.88445,14.71454],[41.16749,14.63695],[41.67652,13.94025],[41.96974,13.84565],[42.10662,13.64354],[42.22389,13.55394],[42.18482,13.66747],[42.28842,13.57461],[42.3794,13.22264],[42.53395,13.23257],[42.72975,13.03315],[42.78126,12.85187],[42.92799,12.78974],[43.00099,12.90029],[43.11769,12.70791]]]}},{"type":"Feature","properties":{"id":"er-du","lat":16.10654,"lng":38.88302},"geometry":{"type":"MultiPolygon","coordinates":[[[[40.40113,15.64077],[40.39389,15.57233],[39.97885,15.60651],[39.93735,15.70209],[40.08131,15.66112],[39.93043,15.73957],[40.03745,15.83845],[39.95094,15.89395],[40.09156,15.84984],[40.09571,15.78461],[40.13649,15.80622],[40.16383,15.64435],[40.23211,15.62702],[40.26157,15.66324],[40.21909,15.68537],[40.26694,15.70352],[40.40113,15.64077]]],[[[40.0774,16.01903],[40.11451,15.98591],[39.99,16.01773],[40.05047,16.10724],[40.11883,16.062],[40.0774,16.01903]]],[[[38.2502,17.54182],[38.45929,17.89074],[38.60157,18.00483],[39.01246,17.16535],[39.29412,15.92878],[39.43702,15.81196],[39.44459,15.63524],[39.48487,15.63386],[39.43019,15.60309],[39.45753,15.5246],[39.61134,15.49999],[39.71827,15.2639],[39.71559,15.09406],[39.81129,15.07892],[39.85467,15.17349],[39.77345,15.39053],[39.87526,15.5041],[40.07993,15.34073],[40.02662,15.23721],[40.15943,14.98225],[40.28679,14.91348],[40.38982,15.00324],[40.40138,14.96613],[40.55421,14.99018],[40.59109,14.73879],[40.35369,14.33524],[40.19437,14.44465],[39.91119,14.42341],[39.72299,14.50172],[39.32626,15.17602],[39.14999,15.28801],[39.00044,15.48616],[38.8218,15.85968],[38.50931,15.97706],[38.51551,16.23601],[38.32462,16.5778],[38.03833,16.66134],[38.04892,16.81081],[37.98593,16.91352],[38.01442,17.53934],[38.06179,17.54808],[38.09145,17.48002],[38.11946,17.5456],[38.2502,17.54182]]]]}},{"type":"Feature","properties":{"id":"er-gb","lat":15.30062,"lng":37.66058},"geometry":{"type":"Polygon","coordinates":[[[36.52638,14.26352],[36.42509,15.13344],[36.62787,15.44562],[36.67097,15.72312],[36.95426,16.27828],[36.92731,16.43539],[37.06991,16.1749],[37.31352,16.08385],[37.53603,15.8512],[37.75034,15.84841],[38.12494,15.68832],[38.31175,15.72188],[38.50078,15.55011],[38.78629,15.5568],[38.78816,15.15561],[38.45841,15.11145],[38.25914,14.94353],[38.21289,14.83597],[38.24584,14.65247],[38.0067,14.7244],[37.89146,14.87953],[37.55371,14.1055],[37.29377,14.45744],[37.12107,14.42083],[37.0602,14.27683],[36.74807,14.33207],[36.52638,14.26352]]]}},{"type":"Feature","properties":{"id":"er-ma","lat":14.75255,"lng":38.90376},"geometry":{"type":"Polygon","coordinates":[[[38.4352,14.4163],[38.25268,14.62022],[38.21636,14.85387],[38.42533,15.09443],[38.72144,15.16303],[39.32626,15.17602],[39.72299,14.50172],[39.51503,14.56782],[39.20818,14.44018],[39.12746,14.60221],[39.00974,14.65123],[38.86608,14.49366],[38.4352,14.4163]]]}},{"type":"Feature","properties":{"id":"er-sk","lat":16.54568,"lng":37.61557},"geometry":{"type":"Polygon","coordinates":[[[37.87203,17.43728],[38.01442,17.53934],[37.98593,16.91352],[38.04892,16.81081],[38.03833,16.66134],[38.32462,16.5778],[38.51551,16.23601],[38.50931,15.97706],[38.8218,15.85968],[38.95869,15.57569],[38.50078,15.55011],[38.31175,15.72188],[38.12494,15.68832],[37.75034,15.84841],[37.53603,15.8512],[37.31352,16.08385],[37.08371,16.16687],[37.00909,16.25927],[36.97483,16.40298],[36.87654,16.51357],[36.99974,16.84213],[36.97348,17.06253],[37.40343,17.02992],[37.49469,17.17461],[37.49604,17.31217],[37.72042,17.38385],[37.79886,17.47713],[37.87203,17.43728]]]}}]}
