{"type":"FeatureCollection","features":[{"type":"Feature","properties":{"id":"es-and","lat":37.33813,"lng":-4.57149},"geometry":{"type":"Polygon","coordinates":[[[-5.33877,36.14112],[-5.4379,36.16148],[-5.4455,36.05744],[-5.61177,36.00646],[-5.91718,36.18407],[-6.03677,36.18952],[-6.31001,36.53413],[-6.23147,36.47268],[-6.17935,36.51354],[-6.39468,36.63691],[-6.4379,36.7333],[-6.34561,36.79499],[-6.33821,36.88373],[-6.22326,36.90233],[-6.19481,36.93212],[-6.34472,36.90127],[-6.38801,36.80817],[-6.49958,36.95966],[-6.89289,37.16657],[-6.91763,37.21507],[-6.85269,37.29523],[-6.96255,37.23383],[-6.92846,37.17235],[-7.10104,37.22425],[-7.41442,37.19282],[-7.52969,37.56717],[-7.30686,37.85077],[-7.2727,37.97701],[-7.12326,38.04001],[-7.02398,38.02256],[-6.93381,38.2093],[-6.7979,38.17294],[-6.8019,38.10868],[-6.61734,38.08677],[-6.57171,38.02385],[-6.42397,38.0568],[-6.18326,37.93898],[-5.95211,38.00799],[-5.83708,38.17426],[-5.72753,38.18832],[-5.69358,38.09127],[-5.5334,38.16765],[-5.56937,38.42533],[-5.15945,38.71795],[-4.88303,38.68524],[-4.84929,38.61485],[-4.29004,38.34887],[-4.25607,38.40277],[-3.89374,38.38161],[-3.77837,38.42735],[-3.60706,38.40169],[-3.5536,38.45016],[-3.44521,38.40649],[-3.32281,38.48241],[-3.06061,38.48261],[-3.00087,38.43006],[-2.75603,38.53313],[-2.57384,38.50204],[-2.57152,38.42763],[-2.48873,38.39874],[-2.43026,38.2588],[-2.54738,38.08065],[-2.33853,38.02649],[-2.1718,37.89645],[-1.97569,37.86585],[-2.00073,37.65383],[-1.82645,37.44536],[-1.64162,37.38104],[-1.81273,37.20706],[-1.90034,36.94119],[-2.14672,36.72993],[-2.36168,36.83678],[-2.56078,36.81879],[-2.71825,36.68203],[-2.93326,36.75165],[-3.32958,36.7449],[-3.41515,36.69552],[-3.83854,36.75197],[-4.40319,36.72386],[-4.65925,36.50764],[-4.90266,36.50654],[-5.18655,36.4112],[-5.33877,36.14112]]]}},{"type":"Feature","properties":{"id":"es:aragón","lat":41.3878,"lng":-0.84874},"geometry":{"type":"Polygon","coordinates":[[[-1.16271,40.01146],[-1.07995,40.06577],[-1.29459,40.20163],[-1.32454,40.14928],[-1.44854,40.1498],[-1.44438,40.19672],[-1.71904,40.28976],[-1.80826,40.40203],[-1.69976,40.49334],[-1.6778,40.58528],[-1.55119,40.59509],[-1.54455,40.81738],[-1.81691,41.09698],[-2.14914,41.19395],[-2.17188,41.32776],[-2.11627,41.43137],[-2.03062,41.38543],[-1.94595,41.41553],[-1.98827,41.5955],[-1.78818,41.70575],[-1.84585,41.79073],[-1.85241,42.00121],[-1.41466,41.91083],[-1.31596,42.03715],[-1.41642,42.22058],[-1.27816,42.53203],[-0.86702,42.76995],[-0.77145,42.91836],[-0.56903,42.77264],[-0.32279,42.8425],[-0.16141,42.79535],[-0.03893,42.68515],[0.16917,42.72646],[0.27539,42.66869],[0.35417,42.7175],[0.67565,42.68869],[0.76892,42.60559],[0.70144,42.48433],[0.74345,42.27065],[0.65162,42.00188],[0.5661,41.93889],[0.59359,41.86755],[0.32854,41.67741],[0.44119,41.54615],[0.3242,41.39016],[0.37401,41.33892],[0.36037,41.23283],[0.20658,41.11178],[0.28973,40.98246],[0.26725,40.81428],[0.04504,40.69617],[-0.18388,40.77942],[-0.23409,40.6948],[-0.37731,40.66015],[-0.29437,40.60576],[-0.27217,40.47572],[-0.3399,40.4427],[-0.28649,40.37175],[-0.40586,40.25113],[-0.54996,40.23506],[-0.61435,40.07174],[-0.82444,39.98149],[-0.79129,39.87754],[-0.88821,39.85524],[-0.92307,39.95598],[-1.12938,39.96405],[-1.16271,40.01146]],[[-1.19039,42.40284],[-1.16393,42.44087],[-1.19452,42.42434],[-1.19039,42.40284]],[[-1.06719,42.44583],[-1.09861,42.48221],[-1.13334,42.45658],[-1.10853,42.43674],[-1.06719,42.44583]]]}},{"type":"Feature","properties":{"id":"es:asturias","lat":43.33078,"lng":-5.82254},"geometry":{"type":"Polygon","coordinates":[[[-7.17012,43.39084],[-6.94396,43.56598],[-6.06916,43.56969],[-5.90738,43.58845],[-5.8522,43.66295],[-5.67748,43.56114],[-5.42422,43.56114],[-5.41393,43.50654],[-5.29988,43.53766],[-4.51326,43.38435],[-4.53716,43.2772],[-4.71568,43.2647],[-4.74268,43.19214],[-4.90848,43.23731],[-5.11813,43.10858],[-5.541,43.02179],[-5.70518,43.04879],[-5.80483,42.97061],[-5.98779,43.06233],[-6.23445,43.01435],[-6.36485,43.05143],[-6.50156,42.92971],[-6.76348,42.89283],[-6.98846,43.01934],[-6.83154,43.12016],[-6.84759,43.15923],[-6.95929,43.13884],[-7.17012,43.39084]]]}},{"type":"Feature","properties":{"id":"es:canary is.","lat":28.25232,"lng":-16.62359},"geometry":{"type":"MultiPolygon","coordinates":[[[[-17.88402,27.82758],[-17.97948,27.64252],[-18.16039,27.72236],[-17.93395,27.85204],[-17.88402,27.82758]]],[[[-15.40526,28.17792],[-15.37784,27.85228],[-15.57795,27.73436],[-15.73965,27.80435],[-15.8212,27.92178],[-15.70621,28.16738],[-15.45873,28.13422],[-15.40526,28.17792]]],[[[-17.1704,28.1811],[-17.09842,28.10076],[-17.18498,28.03162],[-17.34322,28.09766],[-17.30967,28.20712],[-17.1704,28.1811]]],[[[-16.42769,28.14967],[-16.69268,27.99985],[-16.91606,28.35497],[-16.50714,28.42413],[-16.3164,28.57209],[-16.11775,28.57209],[-16.35551,28.38115],[-16.42769,28.14967]]],[[[-13.86457,28.74421],[-13.82116,28.63666],[-13.84293,28.40693],[-13.9337,28.24421],[-14.19164,28.17084],[-14.34317,28.05069],[-14.50707,28.07119],[-14.24014,28.20156],[-13.99991,28.71674],[-13.86457,28.74421]]],[[[-17.74144,28.75791],[-17.7456,28.62189],[-17.83707,28.45539],[-17.99682,28.7801],[-17.91115,28.85562],[-17.80138,28.84931],[-17.74144,28.75791]]],[[[-13.41779,29.20893],[-13.51049,28.97748],[-13.7093,28.9147],[-13.77465,28.83959],[-13.8673,28.8649],[-13.78087,29.06489],[-13.53722,29.13825],[-13.48298,29.23994],[-13.41779,29.20893]]],[[[-13.4779,29.26626],[-13.54125,29.2368],[-13.48668,29.28461],[-13.4779,29.26626]]]]}},{"type":"Feature","properties":{"id":"es:cantabria","lat":43.12434,"lng":-4.29219},"geometry":{"type":"MultiPolygon","coordinates":[[[[-4.51232,43.40274],[-3.76915,43.47919],[-3.82022,43.42426],[-3.55435,43.51691],[-3.42829,43.46174],[-3.5017,43.43077],[-3.21052,43.38984],[-3.14954,43.32444],[-3.4309,43.24346],[-3.42379,43.14062],[-3.64781,43.17618],[-3.83829,43.08466],[-3.98479,42.92583],[-3.84852,42.941],[-3.90464,42.86154],[-3.83139,42.87232],[-3.81576,42.81005],[-3.96521,42.76251],[-4.00277,42.82359],[-4.08577,42.76313],[-4.18524,42.81196],[-4.14116,42.85883],[-4.22139,42.8502],[-4.23992,42.95025],[-4.40965,43.03833],[-4.72686,43.01593],[-4.82789,43.10807],[-4.83187,43.18868],[-4.73454,43.1969],[-4.71568,43.2647],[-4.52982,43.2817],[-4.51232,43.40274]]],[[[-3.3042,43.26068],[-3.26736,43.22739],[-3.2992,43.21687],[-3.3042,43.26068]]]]}},{"type":"Feature","properties":{"id":"es:castilla y león","lat":41.68468,"lng":-4.1897},"geometry":{"type":"MultiPolygon","coordinates":[[[[-4.67898,40.21134],[-4.70004,40.2756],[-4.80076,40.26566],[-4.95166,40.12277],[-5.03232,40.15481],[-5.19058,40.08944],[-5.32796,40.1159],[-5.3546,40.25517],[-5.53981,40.19744],[-5.78365,40.28615],[-5.80416,40.34296],[-5.92555,40.28149],[-6.22411,40.48032],[-6.58515,40.27199],[-6.87451,40.27919],[-6.79444,40.3564],[-6.85712,40.44213],[-6.81252,40.51463],[-6.85046,40.58223],[-6.81619,40.85683],[-6.92787,41.04794],[-6.818,41.05414],[-6.64664,41.26761],[-6.49585,41.29495],[-6.32113,41.41101],[-6.20595,41.57028],[-6.36594,41.66361],[-6.54153,41.6589],[-6.5774,41.73973],[-6.52422,41.86742],[-6.58515,41.95465],[-6.98346,41.963],[-6.966,42.03296],[-7.02466,42.07573],[-6.73832,42.30496],[-6.83911,42.41013],[-6.82105,42.48506],[-7.07104,42.50345],[-7.03765,42.69817],[-6.86335,42.80845],[-6.82829,42.9148],[-6.50156,42.92971],[-6.36485,43.05143],[-6.23445,43.01435],[-5.98779,43.06233],[-5.78928,42.97236],[-5.70518,43.04879],[-5.541,43.02179],[-5.11813,43.10858],[-4.89838,43.23855],[-4.72686,43.01593],[-4.43396,43.04802],[-4.23992,42.95025],[-4.21596,42.84529],[-4.13445,42.85351],[-4.18767,42.81767],[-4.15858,42.79351],[-4.04716,42.7701],[-4.00277,42.82359],[-3.96521,42.76251],[-3.81576,42.81005],[-3.83139,42.87232],[-3.90464,42.86154],[-3.84852,42.941],[-3.98479,42.92583],[-3.83172,43.08838],[-3.64781,43.17618],[-3.45201,43.13887],[-3.15151,43.18145],[-3.16512,43.02668],[-3.02862,43.04735],[-2.98741,43.00892],[-3.03963,42.97805],[-2.97906,42.93361],[-3.22411,42.94379],[-3.28008,42.88036],[-3.21739,42.82974],[-3.11422,42.88692],[-3.13632,42.7699],[-3.03144,42.77274],[-2.83731,42.64412],[-3.07211,42.63208],[-3.11389,42.54841],[-3.04921,42.45234],[-3.12045,42.19629],[-3.02632,42.08797],[-2.87093,42.01475],[-2.73536,42.12012],[-2.7436,42.02253],[-2.57294,42.00015],[-2.50839,42.11035],[-2.29613,42.13779],[-2.25629,42.08942],[-2.1278,42.09666],[-2.09522,41.95274],[-1.96789,41.91845],[-1.85774,41.9548],[-1.78818,41.70575],[-1.98827,41.5955],[-1.94595,41.41553],[-2.03062,41.38543],[-2.09971,41.44261],[-2.17188,41.32776],[-2.05938,41.07946],[-2.1371,41.11832],[-2.42248,41.06543],[-2.58632,41.14958],[-2.59193,41.22198],[-2.89716,41.32141],[-3.41689,41.2641],[-3.41131,41.21361],[-3.90208,40.95853],[-3.98409,40.78872],[-4.09011,40.76914],[-4.17395,40.62287],[-4.2903,40.62163],[-4.32482,40.41327],[-4.4188,40.4025],[-4.46946,40.3201],[-4.53762,40.33408],[-4.57189,40.21202],[-4.67898,40.21134]],[[-4.25844,40.66165],[-4.29935,40.69623],[-4.32193,40.65788],[-4.25844,40.66165]]],[[[-2.81659,42.79398],[-2.55607,42.75638],[-2.60079,42.70437],[-2.51527,42.64931],[-2.87016,42.74468],[-2.81659,42.79398]]]]}},{"type":"Feature","properties":{"id":"es:castilla-la mancha","lat":39.66908,"lng":-3.25429},"geometry":{"type":"Polygon","coordinates":[[[-1.02213,38.65454],[-1.17419,38.75409],[-1.38578,38.69691],[-1.502,38.53491],[-1.49471,38.37311],[-1.62674,38.31141],[-1.75053,38.38034],[-1.92618,38.29105],[-2.04289,38.29836],[-2.21193,38.19594],[-2.35094,38.02362],[-2.54738,38.08065],[-2.43062,38.26562],[-2.59875,38.50995],[-2.75603,38.53313],[-3.00087,38.43006],[-3.06061,38.48261],[-3.32281,38.48241],[-3.45733,38.40484],[-3.5536,38.45016],[-3.60706,38.40169],[-4.40569,38.37957],[-4.84929,38.61485],[-4.8735,38.68069],[-5.03659,38.72841],[-4.91975,38.87716],[-4.84572,38.89205],[-4.95414,39.04558],[-4.83471,39.04759],[-4.8674,39.10614],[-4.80678,39.1988],[-4.65839,39.17394],[-4.75619,39.30615],[-4.67787,39.41759],[-4.88014,39.36687],[-5.19645,39.58766],[-5.14172,39.72031],[-5.17572,39.79649],[-5.30812,39.7583],[-5.28931,39.8617],[-5.38615,39.88103],[-5.36504,40.09326],[-5.15066,40.09161],[-5.03232,40.15481],[-4.96618,40.11786],[-4.80076,40.26566],[-4.52057,40.19884],[-4.36585,40.30948],[-4.29604,40.2208],[-4.17467,40.28366],[-3.61411,40.10649],[-3.63367,40.04345],[-3.87387,39.92674],[-3.8257,39.89545],[-3.50205,40.04867],[-3.09376,40.07265],[-3.08311,40.22767],[-3.11539,40.27609],[-3.18592,40.24946],[-3.13867,40.39474],[-3.20453,40.51303],[-3.293,40.53551],[-3.31816,40.64625],[-3.4588,40.69496],[-3.44637,40.76144],[-3.49844,40.79622],[-3.40979,41.0122],[-3.54577,41.16175],[-3.41131,41.21361],[-3.41689,41.2641],[-2.90971,41.32213],[-2.59193,41.22198],[-2.58632,41.14958],[-2.42248,41.06543],[-2.1371,41.11832],[-2.06527,41.07687],[-2.05323,41.15036],[-1.94486,41.16441],[-1.62189,40.94675],[-1.53962,40.80071],[-1.55119,40.59509],[-1.6778,40.58528],[-1.69976,40.49334],[-1.80826,40.40203],[-1.71904,40.28976],[-1.43939,40.19238],[-1.36955,40.01634],[-1.16271,40.01146],[-1.14548,39.97229],[-1.20661,39.93857],[-1.26994,39.68678],[-1.42148,39.65138],[-1.51827,39.44602],[-1.44575,39.3669],[-1.17773,39.30411],[-1.25581,39.04728],[-1.1344,38.93798],[-0.9813,38.94953],[-0.92095,38.88615],[-0.95368,38.76265],[-0.90348,38.68508],[-1.02213,38.65454]]]}},{"type":"Feature","properties":{"id":"es:cataluña","lat":41.69493,"lng":1.62042},"geometry":{"type":"MultiPolygon","coordinates":[[[[2.06031,41.2746],[0.99041,41.0397],[0.7142,40.81521],[0.69483,40.786],[0.87241,40.7071],[0.67709,40.56517],[0.59246,40.5821],[0.73268,40.63373],[0.58017,40.60366],[0.52376,40.52616],[0.16746,40.7432],[0.27128,40.82138],[0.28973,40.98246],[0.20891,41.11961],[0.36037,41.23283],[0.37401,41.33892],[0.3242,41.39016],[0.44119,41.54615],[0.32854,41.67741],[0.59359,41.86755],[0.5661,41.93889],[0.65162,42.00188],[0.74345,42.27065],[0.70144,42.48433],[0.76892,42.60559],[0.63348,42.74478],[0.65632,42.83842],[1.08906,42.77132],[1.15149,42.70672],[1.34258,42.70866],[1.4293,42.59539],[1.4479,42.43465],[1.70701,42.50278],[1.92746,42.43689],[1.99567,42.34868],[2.27741,42.42863],[2.51481,42.32566],[3.023,42.46705],[3.18097,42.43148],[3.18735,42.34951],[3.31772,42.32298],[3.26303,42.23985],[3.11883,42.21833],[3.23219,41.94603],[2.93299,41.71246],[2.29672,41.46532],[2.06031,41.2746]]],[[[1.9995,42.4439],[1.96063,42.44371],[1.94565,42.46382],[1.96797,42.4857],[1.9995,42.4439]]]]}},{"type":"Feature","properties":{"id":"es:ceuta","lat":35.89669,"lng":-5.34104},"geometry":{"type":"Polygon","coordinates":[[[-5.34073,35.84736],[-5.3784,35.88169],[-5.39886,35.9245],[-5.28307,35.91169],[-5.34073,35.84736]]]}},{"type":"Feature","properties":{"id":"es:extremadura","lat":39.25248,"lng":-5.9964},"geometry":{"type":"Polygon","coordinates":[[[-7.35921,38.44636],[-7.27043,38.73751],[-7.05608,38.85515],[-6.97939,39.04718],[-7.03882,39.10914],[-7.15721,39.10544],[-7.16806,39.17063],[-7.24413,39.19564],[-7.32665,39.34132],[-7.31353,39.45744],[-7.51584,39.59376],[-7.55729,39.6798],[-7.02114,39.69401],[-6.87971,40.00919],[-7.02765,40.13264],[-7.01577,40.2255],[-6.87451,40.27919],[-6.57102,40.27653],[-6.54688,40.33364],[-6.23669,40.47944],[-5.92555,40.28149],[-5.80416,40.34296],[-5.78365,40.28615],[-5.53981,40.19744],[-5.3546,40.25517],[-5.32796,40.1159],[-5.3906,39.89359],[-5.28931,39.8617],[-5.30812,39.7583],[-5.16813,39.79289],[-5.14058,39.71236],[-5.19645,39.58766],[-4.88014,39.36687],[-4.67787,39.41759],[-4.75619,39.30615],[-4.65839,39.17394],[-4.80678,39.1988],[-4.8674,39.10614],[-4.83471,39.04759],[-4.95414,39.04558],[-4.84572,38.89205],[-4.92734,38.87031],[-4.99078,38.73931],[-5.17045,38.71381],[-5.56937,38.42533],[-5.53821,38.16237],[-5.71089,38.08868],[-5.71378,38.17999],[-5.83708,38.17426],[-5.97599,37.99864],[-6.18326,37.93898],[-6.42397,38.0568],[-6.57171,38.02385],[-6.61734,38.08677],[-6.8019,38.10868],[-6.7979,38.17294],[-6.93381,38.2093],[-7.10351,38.17359],[-7.35921,38.44636]]]}},{"type":"Feature","properties":{"id":"es:foral de navarra","lat":42.62642,"lng":-1.78311},"geometry":{"type":"MultiPolygon","coordinates":[[[[-1.19452,42.42434],[-1.16558,42.41193],[-1.19039,42.40284],[-1.19452,42.42434]]],[[[-1.11267,42.48221],[-1.06719,42.43674],[-1.13416,42.44666],[-1.11267,42.48221]]],[[[-1.73656,43.29232],[-1.4035,43.24333],[-1.48784,43.08182],[-1.43502,43.03572],[-1.36614,43.03332],[-1.30862,43.11357],[-1.27488,43.04683],[-0.74503,42.91873],[-0.80622,42.90436],[-0.90436,42.74256],[-1.27816,42.53203],[-1.41642,42.22058],[-1.31596,42.03715],[-1.41929,41.90886],[-1.8906,42.02532],[-1.82342,42.14562],[-1.68819,42.14306],[-1.69707,42.21582],[-2.07651,42.44258],[-2.40607,42.4971],[-2.40068,42.59073],[-2.49328,42.59531],[-2.41801,42.65753],[-2.29846,42.65776],[-2.32037,42.72899],[-2.23169,42.93516],[-2.0494,42.98823],[-1.91249,43.13515],[-1.90853,43.21834],[-1.73656,43.29232]]]]}},{"type":"Feature","properties":{"id":"es:galicia","lat":42.78298,"lng":-7.92343},"geometry":{"type":"Polygon","coordinates":[[[-8.20738,42.08578],[-8.22236,42.15363],[-8.62688,42.05103],[-8.88126,41.8933],[-8.8955,42.11909],[-8.82653,42.13052],[-8.84699,42.16083],[-8.62515,42.30195],[-8.62271,42.34748],[-8.8675,42.25641],[-8.83072,42.34162],[-8.65526,42.44135],[-8.84358,42.40371],[-8.94262,42.46931],[-8.82653,42.46186],[-8.82299,42.56952],[-8.7755,42.60472],[-8.73095,42.68842],[-8.78498,42.64057],[-8.83951,42.68244],[-9.02636,42.54312],[-9.07087,42.59614],[-9.03014,42.70771],[-8.88768,42.83112],[-9.10025,42.75751],[-9.13451,42.91755],[-9.19587,42.94933],[-9.27306,42.89334],[-9.27953,43.055],[-9.10774,43.14114],[-9.2176,43.15534],[-8.93253,43.2353],[-8.98803,43.28303],[-8.82999,43.34121],[-8.6931,43.2934],[-8.38829,43.38589],[-8.35359,43.34862],[-8.33072,43.40567],[-8.21019,43.31322],[-8.1754,43.41633],[-8.30517,43.45108],[-8.16857,43.49201],[-8.33312,43.4715],[-8.31265,43.56712],[-8.05187,43.64281],[-8.05932,43.70942],[-7.90856,43.76634],[-7.84651,43.71796],[-7.90856,43.67015],[-7.68554,43.79344],[-7.69156,43.72724],[-7.36705,43.68008],[-7.27107,43.56114],[-7.03234,43.553],[-7.04889,43.47789],[-7.17012,43.39084],[-6.95929,43.13884],[-6.86629,43.1753],[-6.83216,43.1399],[-6.98846,43.01934],[-6.86885,42.98867],[-6.82829,42.9148],[-6.86335,42.80845],[-7.03765,42.69817],[-7.07104,42.50345],[-6.82105,42.48506],[-6.83911,42.41013],[-6.73571,42.34114],[-6.80547,42.21794],[-6.89841,42.20016],[-7.02466,42.07573],[-6.966,42.03296],[-6.98346,41.963],[-7.15974,41.98573],[-7.21865,41.87905],[-7.44272,41.80595],[-7.46938,41.85254],[-7.60607,41.82554],[-7.60736,41.87318],[-7.72203,41.89925],[-7.89659,41.85794],[-7.9061,41.91385],[-8.04857,41.81639],[-8.17957,41.8107],[-8.23022,41.90468],[-8.09508,42.04092],[-8.20738,42.08578]]]}},{"type":"Feature","properties":{"id":"es-bal","lat":39.66309,"lng":2.95499},"geometry":{"type":"MultiPolygon","coordinates":[[[[1.58237,38.67491],[1.39698,38.63865],[1.38282,38.71158],[1.43539,38.75536],[1.58237,38.67491]]],[[[1.60694,39.06236],[1.40311,38.83228],[1.21664,38.88508],[1.21843,38.95409],[1.30096,38.96776],[1.29282,39.03327],[1.35678,39.07762],[1.53712,39.11803],[1.60694,39.06236]]],[[[2.98231,39.13918],[2.91361,39.15196],[2.98058,39.18556],[2.98231,39.13918]]],[[[3.47438,39.7497],[3.28248,39.42011],[3.0608,39.26907],[2.95883,39.36323],[2.78663,39.37592],[2.7435,39.52338],[2.68165,39.55866],[2.49269,39.47024],[2.35076,39.57648],[2.81324,39.87259],[3.17945,39.96878],[3.2142,39.95511],[3.09693,39.91352],[3.2068,39.89301],[3.12631,39.83185],[3.16261,39.76911],[3.47438,39.7497]]],[[[4.33709,39.86717],[4.24814,39.81647],[3.98137,39.93606],[3.83066,39.93606],[3.80315,40.01813],[4.10507,40.07941],[4.14226,40.02481],[4.1705,40.0646],[4.33709,39.86717]]]]}},{"type":"Feature","properties":{"id":"es:la rioja","lat":42.28239,"lng":-2.46091},"geometry":{"type":"Polygon","coordinates":[[[-2.63208,42.51252],[-2.07651,42.44258],[-1.69707,42.21582],[-1.68819,42.14306],[-1.82342,42.14562],[-1.90148,42.06193],[-1.85774,41.9548],[-1.96789,41.91845],[-2.10537,41.95708],[-2.13787,42.10157],[-2.41047,42.13856],[-2.50839,42.11035],[-2.57294,42.00015],[-2.66415,41.99956],[-2.7436,42.02253],[-2.71257,42.10126],[-2.76223,42.1181],[-2.87093,42.01475],[-3.12045,42.19629],[-3.10787,42.34897],[-3.05604,42.38028],[-3.07001,42.52914],[-3.11515,42.54076],[-3.07211,42.63208],[-2.83731,42.64412],[-2.82104,42.58427],[-2.73399,42.61572],[-2.63208,42.51252]]]}},{"type":"Feature","properties":{"id":"es:madrid","lat":40.52427,"lng":-3.77669},"geometry":{"type":"MultiPolygon","coordinates":[[[[-3.10376,40.26989],[-3.09376,40.07265],[-3.50205,40.04867],[-3.80971,39.89353],[-3.87387,39.92674],[-3.63367,40.04345],[-3.61411,40.10649],[-4.17467,40.28366],[-4.29604,40.2208],[-4.36585,40.30948],[-4.57189,40.21202],[-4.53762,40.33408],[-4.46946,40.3201],[-4.4188,40.4025],[-4.32482,40.41327],[-4.28596,40.62677],[-4.17395,40.62287],[-4.09011,40.76914],[-3.98409,40.78872],[-3.90208,40.95853],[-3.54577,41.16175],[-3.40979,41.0122],[-3.49844,40.79622],[-3.44637,40.76144],[-3.4588,40.69496],[-3.31816,40.64625],[-3.293,40.53551],[-3.20453,40.51303],[-3.13867,40.39474],[-3.18592,40.24946],[-3.10376,40.26989]]],[[[-4.25844,40.66165],[-4.32193,40.65788],[-4.29935,40.69623],[-4.25844,40.66165]]]]}},{"type":"Feature","properties":{"id":"es:melilla","lat":35.29539,"lng":-2.93252},"geometry":{"type":"Polygon","coordinates":[[[-2.91291,35.27692],[-2.96692,35.31387],[-2.94782,35.32978],[-2.91291,35.27692]]]}},{"type":"Feature","properties":{"id":"es:murcia","lat":38.05268,"lng":-1.65946},"geometry":{"type":"MultiPolygon","coordinates":[[[[-0.75451,37.7744],[-0.74014,37.70246],[-0.72647,37.66519],[-0.7469,37.68378],[-0.75451,37.7744]]],[[[-0.75609,37.80606],[-0.85611,37.7425],[-0.80993,37.6669],[-0.708,37.64301],[-0.72789,37.60342],[-0.92516,37.55589],[-1.08776,37.58088],[-1.10577,37.53213],[-1.32374,37.56199],[-1.64162,37.38104],[-1.82645,37.44536],[-2.00073,37.65383],[-1.97569,37.86585],[-2.1718,37.89645],[-2.33853,38.02649],[-2.21193,38.19594],[-2.04289,38.29836],[-1.92618,38.29105],[-1.75053,38.38034],[-1.6546,38.31466],[-1.56732,38.32621],[-1.48101,38.38828],[-1.502,38.53491],[-1.43363,38.65583],[-1.17419,38.75409],[-1.00544,38.59031],[-1.08445,38.41569],[-1.07667,38.3497],[-0.96916,38.27084],[-1.02585,38.07887],[-0.75609,37.80606]]]]}},{"type":"Feature","properties":{"id":"es-pv","lat":42.96092,"lng":-2.57975},"geometry":{"type":"Polygon","coordinates":[[[-2.813,42.58081],[-3.03144,42.77274],[-3.13632,42.7699],[-3.11422,42.88692],[-3.21739,42.82974],[-3.28008,42.88036],[-3.22411,42.94379],[-2.97906,42.93361],[-3.03963,42.97805],[-2.98741,43.00892],[-3.02862,43.04735],[-3.16512,43.02668],[-3.14215,43.17478],[-3.25946,43.20119],[-3.42379,43.14062],[-3.44164,43.23331],[-3.16024,43.3078],[-3.1506,43.36015],[-3.00817,43.32091],[-3.02929,43.37617],[-2.93008,43.43793],[-2.75585,43.45026],[-2.69103,43.36754],[-2.6612,43.41193],[-2.1278,43.28742],[-1.79408,43.38602],[-1.74973,43.29479],[-1.90853,43.21834],[-1.91249,43.13515],[-2.0494,42.98823],[-2.23169,42.93516],[-2.32037,42.72899],[-2.2927,42.66308],[-2.49274,42.60934],[-2.40068,42.59073],[-2.40607,42.4971],[-2.50152,42.53766],[-2.58345,42.49668],[-2.73399,42.61572],[-2.813,42.58081]],[[-2.55607,42.75638],[-2.81659,42.79398],[-2.87016,42.74468],[-2.51527,42.64931],[-2.60079,42.70437],[-2.55607,42.75638]],[[-3.2992,43.21687],[-3.28615,43.25637],[-3.3042,43.26068],[-3.2992,43.21687]]]}},{"type":"Feature","properties":{"id":"es-val","lat":39.33551,"lng":-0.79414},"geometry":{"type":"MultiPolygon","coordinates":[[[[0.01743,38.86433],[0.15398,38.831],[0.23455,38.74226],[-0.50984,38.33837],[-0.50402,38.20722],[-0.62369,38.16242],[-0.65453,37.98933],[-0.7871,37.84428],[-1.02585,38.07887],[-0.96916,38.27084],[-1.08396,38.37461],[-1.01655,38.49843],[-1.02213,38.65454],[-0.90348,38.68508],[-0.95368,38.76265],[-0.92095,38.88615],[-0.9813,38.94953],[-1.1344,38.93798],[-1.25581,39.04728],[-1.17773,39.30411],[-1.44575,39.3669],[-1.51827,39.44602],[-1.42148,39.65138],[-1.26994,39.68678],[-1.19623,39.95064],[-0.97247,39.97405],[-0.847,39.85534],[-0.79129,39.87754],[-0.83121,39.97482],[-0.61435,40.07174],[-0.54996,40.23506],[-0.39793,40.25687],[-0.28649,40.37175],[-0.3399,40.4427],[-0.27217,40.47572],[-0.29437,40.60576],[-0.37731,40.66015],[-0.23409,40.6948],[-0.18388,40.77942],[0.03621,40.69669],[0.21929,40.73054],[0.29314,40.63215],[0.52376,40.52616],[-0.0913,39.84793],[-0.32335,39.51622],[-0.21003,39.07869],[0.01743,38.86433]]],[[[-1.29141,40.19677],[-1.23467,40.12295],[-1.07877,40.04513],[-1.24297,39.99738],[-1.37831,40.02213],[-1.44854,40.1498],[-1.34356,40.14313],[-1.29141,40.19677]]]]}}]}
