{"type":"FeatureCollection","features":[{"type":"Feature","properties":{"id":"et-aa","lat":8.90855,"lng":38.802},"geometry":{"type":"Polygon","coordinates":[[[38.81833,9.09689],[38.90794,8.98452],[38.81658,8.83259],[38.65504,8.99658],[38.71012,9.08154],[38.81833,9.09689]]]}},{"type":"Feature","properties":{"id":"et-af","lat":11.69491,"lng":40.87401},"geometry":{"type":"Polygon","coordinates":[[[41.97468,11.88091],[41.80823,11.73624],[41.74911,11.53795],[41.76652,10.98947],[41.25043,10.9398],[41.08331,10.6793],[40.94317,10.04704],[41.02182,9.95112],[40.73708,9.6236],[40.69512,9.44439],[40.46361,9.34289],[40.23685,9.00632],[40.02643,8.84646],[40.0442,8.97852],[39.94994,9.00588],[39.91129,9.13407],[39.81073,9.13898],[39.89527,9.31535],[39.79471,9.37679],[39.88835,9.50464],[39.85238,9.74106],[40.01537,9.72809],[40.08523,9.91934],[40.00059,10.09086],[40.13174,10.10406],[40.17794,10.48921],[40.11489,10.76198],[40.19665,11.07568],[39.98767,11.65358],[39.88318,11.77507],[39.88349,11.91932],[39.76215,12.24315],[39.79264,12.52451],[39.89186,12.76106],[39.7545,12.89418],[39.80783,13.08775],[39.72319,13.2526],[39.72412,13.4815],[39.75616,13.57145],[39.82303,13.57165],[39.81962,13.93023],[39.78489,14.0802],[39.7236,14.10123],[39.76143,14.14529],[39.69042,14.16511],[39.76835,14.29546],[39.67554,14.33383],[39.80442,14.38672],[39.96359,14.36837],[39.99201,14.45183],[40.10456,14.46597],[40.47983,14.2444],[40.77232,14.14836],[41.04362,13.87249],[41.22222,13.58661],[41.75076,13.20832],[41.94662,12.87617],[42.18495,12.73305],[42.37946,12.46591],[41.97468,11.88091]]]}},{"type":"Feature","properties":{"id":"et-am","lat":11.2881,"lng":38.29581},"geometry":{"type":"Polygon","coordinates":[[[36.09943,12.69566],[36.23358,13.36164],[36.3821,13.57103],[36.43994,13.77618],[36.53847,13.59912],[36.70622,13.55798],[36.89628,13.39665],[37.03198,13.3734],[37.19311,13.43176],[37.29905,13.36991],[37.51588,13.3674],[37.67029,13.44399],[37.74233,13.56563],[38.05848,13.46882],[38.13652,13.52486],[38.37991,13.52584],[38.46383,13.58718],[38.45495,13.46778],[38.67509,13.49174],[38.70496,13.39363],[38.99579,13.12711],[39.01439,13.01497],[39.2243,13.01585],[39.26368,12.7978],[39.18472,12.63241],[39.2582,12.337],[39.29892,12.2963],[39.53374,12.32775],[39.53912,12.25106],[39.77972,12.32501],[39.88318,11.77507],[39.98426,11.66056],[40.06735,11.35233],[40.18859,11.15795],[40.11489,10.76198],[40.17794,10.48921],[40.13174,10.10406],[39.99015,10.06579],[40.08647,9.95712],[40.01537,9.72809],[39.85238,9.74106],[39.88835,9.50464],[39.79471,9.37679],[39.89424,9.26825],[39.76618,9.10348],[39.75885,8.87137],[39.52175,8.75611],[39.43008,8.83509],[39.36342,8.77928],[39.3043,8.80163],[39.27619,8.94881],[39.37158,9.14978],[39.27743,9.19275],[39.25159,9.29062],[39.50842,9.33889],[39.44682,9.43219],[39.33634,9.4556],[39.22027,9.63094],[38.85802,9.74902],[38.79684,9.93999],[38.66558,10.03127],[38.82102,10.11124],[38.84717,10.36267],[38.49794,10.37094],[38.41877,10.14207],[38.24628,10.11646],[37.70285,9.84276],[37.53138,10.00668],[37.36767,10.06249],[37.31465,10.02182],[37.28923,10.09455],[37.18608,10.13447],[37.19631,10.25426],[36.75675,10.37663],[36.55429,10.37929],[36.5117,10.4728],[36.39202,10.46916],[36.32774,10.62426],[36.39285,10.77097],[36.31161,10.74642],[36.31203,10.82283],[36.48886,11.07777],[36.46117,11.2303],[36.50726,11.3459],[36.40587,11.43718],[36.44597,11.494],[36.34076,11.64208],[36.33404,11.80843],[36.15162,11.68112],[35.95918,11.98743],[35.83764,12.03433],[35.75919,12.03327],[35.54432,11.80693],[35.4112,11.78404],[35.24838,11.95786],[35.68767,12.65923],[36.09943,12.69566]]]}},{"type":"Feature","properties":{"id":"et-be","lat":10.59488,"lng":35.31798},"geometry":{"type":"MultiPolygon","coordinates":[[[[36.04899,9.03428],[36.22914,8.96609],[36.24567,8.78711],[36.16103,8.87801],[36.0122,8.8645],[36.04899,9.03428]]],[[[36.3203,8.96826],[36.27751,8.9324],[36.23761,8.96214],[36.28981,8.99702],[36.3203,8.96826]]],[[[36.49258,9.49371],[36.43936,9.42899],[36.46478,9.36067],[36.41114,9.33925],[36.39182,9.491],[36.49258,9.49371]]],[[[34.7544,10.68413],[34.95831,10.90342],[34.91356,10.95298],[34.98415,11.1864],[34.94425,11.25324],[35.07314,11.54896],[35.07272,11.81887],[35.24838,11.95786],[35.36635,11.79569],[35.54432,11.80693],[35.75919,12.03327],[35.84746,12.03286],[36.03545,11.90108],[36.15162,11.68112],[36.33404,11.80843],[36.34076,11.64208],[36.44597,11.494],[36.40587,11.43718],[36.50726,11.3459],[36.46117,11.2303],[36.48886,11.07777],[36.31203,10.82283],[36.31161,10.74642],[36.39285,10.77097],[36.32774,10.62426],[36.37001,10.49419],[36.5117,10.4728],[36.55429,10.37929],[37.04614,10.30268],[36.99343,10.20951],[36.73484,10.30831],[36.59036,10.20561],[36.53351,10.22883],[36.57051,10.33792],[36.5024,10.33531],[36.32546,10.13271],[36.12806,10.05148],[36.11845,9.68026],[36.27007,9.47994],[36.22976,9.3277],[36.08393,9.13875],[35.92673,9.33475],[35.80425,9.3461],[35.75878,9.48764],[35.70369,9.48157],[35.27922,9.92226],[35.03541,9.93479],[35.01929,10.0112],[34.87511,10.02559],[34.84369,9.78196],[34.6928,9.59143],[34.56609,9.65709],[34.46408,9.63908],[34.36362,9.2038],[34.0831,9.20512],[34.09821,9.67972],[34.32589,10.22356],[34.27949,10.56551],[34.42005,10.78082],[34.57477,10.88414],[34.75067,10.74395],[34.7544,10.68413]]]]}},{"type":"Feature","properties":{"id":"et-dd","lat":9.62317,"lng":41.95286},"geometry":{"type":"Polygon","coordinates":[[[42.34101,9.72036],[42.13369,9.61735],[42.14733,9.54192],[42.07674,9.4749],[41.73692,9.47376],[41.76296,9.64014],[41.89205,9.68388],[42.04036,9.629],[42.20314,9.77439],[42.34101,9.72036]]]}},{"type":"Feature","properties":{"id":"et-ga","lat":7.74374,"lng":34.15369},"geometry":{"type":"Polygon","coordinates":[[[33.74102,8.36709],[33.97077,8.44538],[34.10725,8.60153],[34.16136,8.5624],[34.27081,8.60516],[34.81837,8.1919],[35.0904,8.1655],[34.89247,8.05754],[34.95573,8.02073],[34.87139,7.83032],[35.01805,7.60736],[35.14693,7.54765],[35.10393,7.48324],[35.19675,7.46355],[35.26351,7.53959],[35.35839,7.42601],[35.32986,7.13248],[35.15716,7.11533],[35.06497,7.16427],[34.66231,7.01267],[34.47576,7.08058],[34.29975,7.04898],[34.03361,7.25026],[34.00653,7.40994],[33.71606,7.65716],[33.02349,7.83508],[32.9898,7.91724],[33.18514,8.14108],[33.16188,8.36151],[33.23516,8.45563],[33.62041,8.4607],[33.74102,8.36709]]]}},{"type":"Feature","properties":{"id":"et-ha","lat":9.30674,"lng":42.17835},"geometry":{"type":"Polygon","coordinates":[[[42.25657,9.38483],[42.26588,9.19877],[42.06372,9.22982],[42.12873,9.38367],[42.25657,9.38483]]]}},{"type":"Feature","properties":{"id":"et-or","lat":6.87489,"lng":40.3759},"geometry":{"type":"Polygon","coordinates":[[[34.10725,8.60153],[34.0831,9.20512],[34.36362,9.2038],[34.46408,9.63908],[34.56609,9.65709],[34.6928,9.59143],[34.84369,9.78196],[34.87511,10.02559],[35.01929,10.0112],[35.03541,9.93479],[35.27922,9.92226],[35.70369,9.48157],[35.75878,9.48764],[35.80425,9.3461],[35.92673,9.33475],[36.08393,9.13875],[36.22976,9.3277],[36.27007,9.47994],[36.11845,9.68026],[36.12806,10.05148],[36.32546,10.13271],[36.48246,10.32689],[36.57051,10.33792],[36.53351,10.22883],[36.59036,10.20561],[36.73484,10.30831],[36.99343,10.20951],[37.04614,10.30268],[37.18102,10.26149],[37.18608,10.13447],[37.28923,10.09455],[37.31465,10.02182],[37.36767,10.06249],[37.53138,10.00668],[37.70285,9.84276],[38.24628,10.11646],[38.41877,10.14207],[38.49794,10.37094],[38.73152,10.38223],[38.86484,10.34836],[38.82102,10.11124],[38.66341,10.06135],[38.79684,9.93999],[38.82526,9.78883],[39.22027,9.63094],[39.33634,9.4556],[39.44682,9.43219],[39.50842,9.33889],[39.25159,9.29062],[39.27743,9.19275],[39.37158,9.14978],[39.27619,8.94881],[39.32414,8.78174],[39.43008,8.83509],[39.52175,8.75611],[39.75885,8.87137],[39.76618,9.10348],[39.86385,9.14544],[39.94994,9.00588],[40.0442,8.97852],[40.03903,8.84292],[40.23685,9.00632],[40.46361,9.34289],[40.70442,9.44854],[40.91454,9.42922],[40.79775,9.39462],[40.84643,9.30708],[41.26986,9.50588],[41.49321,9.45971],[41.61517,9.51759],[41.68627,9.46997],[42.07674,9.4749],[42.14733,9.54192],[42.13369,9.61735],[42.34101,9.72036],[42.64404,9.08022],[42.85695,8.84037],[42.83328,8.70732],[42.91431,8.53819],[42.89695,8.41238],[42.77044,8.36546],[42.66844,8.14077],[42.58038,8.23082],[42.50359,8.49253],[42.32675,8.5387],[42.27414,8.62278],[42.07116,8.48282],[41.94093,8.17131],[41.95344,7.75144],[41.8751,7.51076],[41.90145,7.41234],[42.20748,7.29304],[42.22712,7.22266],[41.99313,6.60644],[41.90879,6.54345],[41.76368,6.54125],[41.62199,6.364],[41.41611,6.55686],[41.12197,6.69274],[41.02843,6.65631],[40.85852,6.41992],[40.92249,5.6995],[40.52882,5.41554],[40.18745,5.35456],[40.01454,5.38319],[39.82044,5.01507],[39.4986,3.97965],[39.33303,3.68401],[39.09044,3.51833],[38.89523,3.51358],[38.509,3.65081],[38.44595,3.60167],[38.10189,3.61265],[37.01565,4.37059],[36.64886,4.43118],[36.90269,4.77818],[36.87437,4.95903],[36.97152,5.18612],[37.40354,5.16516],[37.68569,5.31296],[37.90056,5.24932],[37.94397,5.63671],[38.09166,5.73076],[37.97167,5.94209],[37.78749,6.0226],[37.85726,6.34804],[37.80248,6.46661],[37.88444,6.59009],[38.02148,6.57453],[38.29433,6.42894],[38.19481,6.31212],[38.17662,6.16929],[38.08877,6.15368],[38.23429,5.86478],[38.39221,5.91822],[38.29371,6.01162],[38.43644,6.21425],[38.43252,6.37842],[38.48802,6.43222],[38.7649,6.41196],[38.99341,6.15187],[39.13501,6.16159],[39.09294,6.5234],[38.9374,6.66099],[38.64791,6.77641],[38.66558,6.97337],[38.61235,7.07835],[38.33113,7.16145],[38.24535,7.05652],[38.15378,7.03642],[38.06965,7.09603],[38.09466,7.19889],[38.25961,7.30857],[38.3427,7.47518],[38.42983,7.52721],[38.4259,7.69147],[38.61855,8.02034],[38.54517,8.23394],[38.60388,8.25304],[38.68573,8.11387],[38.64625,8.41042],[38.50414,8.4468],[38.36141,8.26363],[38.23976,8.4145],[37.83369,8.33678],[37.51723,8.41874],[37.4672,8.31107],[37.60445,8.22958],[37.61944,7.97541],[37.39455,7.99667],[37.43733,7.58189],[37.38183,7.3733],[37.13937,7.24062],[36.9186,7.22416],[36.04703,7.57091],[36.00001,7.74418],[35.85893,7.83872],[35.90533,7.95812],[35.83464,8.0831],[35.72901,8.02718],[35.80281,7.93605],[35.74224,7.86949],[35.60923,7.81345],[35.53326,7.88283],[35.35674,7.8419],[35.24253,7.67677],[35.26537,7.51817],[35.19034,7.46161],[35.10393,7.48324],[35.14693,7.54765],[35.01805,7.60736],[34.87139,7.83032],[34.95573,8.02073],[34.89247,8.05754],[35.0904,8.1655],[34.81837,8.1919],[34.30161,8.59224],[34.16136,8.5624],[34.10725,8.60153]],[[38.87652,9.07771],[38.71012,9.08154],[38.65504,8.99658],[38.81658,8.83259],[38.90794,8.98452],[38.87652,9.07771]],[[36.23761,8.96214],[36.33549,8.96038],[36.28981,8.99702],[36.23761,8.96214]],[[36.46478,9.36067],[36.43936,9.42899],[36.49765,9.48549],[36.44194,9.52216],[36.37569,9.43761],[36.41114,9.33925],[36.46478,9.36067]],[[36.22914,8.96609],[36.04899,9.03428],[36.0122,8.8645],[36.16103,8.87801],[36.24567,8.78711],[36.22914,8.96609]],[[42.24872,9.18866],[42.27187,9.36294],[42.12873,9.38367],[42.06372,9.22982],[42.24872,9.18866]]]}},{"type":"Feature","properties":{"id":"et-sn","lat":6.44941,"lng":36.29509},"geometry":{"type":"Polygon","coordinates":[[[35.32077,5.34872],[35.2507,5.43515],[35.26196,5.51189],[35.09866,5.62247],[34.98436,5.84101],[34.95945,6.06172],[34.84472,6.24869],[34.70354,6.68492],[34.53632,6.74308],[34.50366,6.89002],[34.29758,6.96857],[34.19577,7.09774],[34.66231,7.01267],[35.06497,7.16427],[35.15716,7.11533],[35.32986,7.13248],[35.36563,7.40547],[35.26299,7.49161],[35.24253,7.67677],[35.43807,7.87846],[35.53326,7.88283],[35.58732,7.8126],[35.75785,7.88016],[35.80281,7.93605],[35.72901,8.02718],[35.78761,8.08457],[35.87009,8.06772],[35.90585,7.93419],[35.85893,7.83872],[36.00001,7.74418],[36.0646,7.55975],[36.61216,7.3735],[36.82724,7.24106],[37.13937,7.24062],[37.39496,7.40407],[37.43754,7.90151],[37.39455,7.99667],[37.61665,7.96445],[37.60445,8.22958],[37.4672,8.31107],[37.51723,8.41874],[37.83369,8.33678],[38.23976,8.4145],[38.36141,8.26363],[38.50414,8.4468],[38.64625,8.41042],[38.68573,8.11387],[38.60388,8.25304],[38.54517,8.23394],[38.61855,8.02034],[38.4259,7.69147],[38.42983,7.52721],[38.3427,7.47518],[38.25961,7.30857],[38.09466,7.19889],[38.06965,7.09603],[38.15378,7.03642],[38.24535,7.05652],[38.33113,7.16145],[38.61235,7.07835],[38.66558,6.97337],[38.64791,6.77641],[38.9374,6.66099],[39.09294,6.5234],[39.13501,6.16159],[38.99341,6.15187],[38.7649,6.41196],[38.48802,6.43222],[38.43252,6.37842],[38.43644,6.21425],[38.29371,6.01162],[38.39221,5.91822],[38.23429,5.86478],[38.08877,6.15368],[38.17662,6.16929],[38.19481,6.31212],[38.29433,6.42894],[38.02148,6.57453],[37.88444,6.59009],[37.80248,6.46661],[37.85726,6.34804],[37.78749,6.0226],[37.97167,5.94209],[38.09166,5.73076],[37.94397,5.63671],[37.90056,5.24932],[37.68569,5.31296],[37.40354,5.16516],[36.97152,5.18612],[36.87437,4.95903],[36.90269,4.77818],[36.64886,4.43118],[35.99711,4.46296],[35.76002,4.80573],[35.80415,5.31802],[35.46929,5.43076],[35.32077,5.34872]]]}},{"type":"Feature","properties":{"id":"et-so","lat":7.25785,"lng":44.71523},"geometry":{"type":"Polygon","coordinates":[[[47.97917,7.99657],[46.42392,6.49674],[44.94152,4.91148],[43.96898,4.95396],[43.52849,4.84157],[43.11926,4.6477],[42.96041,4.51737],[42.83163,4.30232],[42.10289,4.19189],[41.83593,3.94945],[41.69981,3.99691],[41.163,3.94268],[40.76374,4.28493],[39.84845,3.86728],[39.53632,3.40501],[39.09044,3.51833],[39.30068,3.64257],[39.46977,3.91754],[39.82044,5.01507],[40.01454,5.38319],[40.18745,5.35456],[40.52882,5.41554],[40.92249,5.6995],[40.85852,6.41992],[41.02843,6.65631],[41.12197,6.69274],[41.41611,6.55686],[41.62199,6.364],[41.76368,6.54125],[41.90879,6.54345],[41.99313,6.60644],[42.22712,7.22266],[42.20748,7.29304],[41.90145,7.41234],[41.8751,7.51076],[41.95344,7.75144],[41.93132,8.11558],[42.0323,8.43372],[42.27414,8.62278],[42.32675,8.5387],[42.50359,8.49253],[42.58038,8.23082],[42.66844,8.14077],[42.77044,8.36546],[42.89695,8.41238],[42.91162,8.5654],[42.83328,8.70732],[42.85695,8.84037],[42.64404,9.08022],[42.48736,9.47927],[42.38711,9.56774],[42.38091,9.70832],[42.30267,9.76258],[42.20314,9.77439],[42.04036,9.629],[41.89205,9.68388],[41.76296,9.64014],[41.7117,9.46821],[41.61517,9.51759],[41.49321,9.45971],[41.26986,9.50588],[40.84643,9.30708],[40.79775,9.39462],[40.91454,9.42922],[40.69512,9.44439],[40.73708,9.6236],[41.02182,9.95112],[40.94317,10.04704],[41.08331,10.6793],[41.27048,10.96013],[41.76652,10.98947],[41.93752,10.92982],[42.61562,11.08966],[42.72962,11.06501],[42.77179,10.99646],[42.92372,10.99879],[42.64725,10.63222],[42.83628,10.20809],[42.9819,10.09163],[43.06769,9.92252],[43.18721,9.88333],[43.24881,9.65233],[43.37067,9.54423],[43.41903,9.41302],[43.6215,9.3369],[43.98479,9.00831],[46.97923,7.99657],[47.97917,7.99657]]]}},{"type":"Feature","properties":{"id":"et-ti","lat":13.56181,"lng":39.10733},"geometry":{"type":"Polygon","coordinates":[[[36.43994,13.77618],[36.43657,13.99121],[36.56565,14.29293],[36.81639,14.33207],[37.00563,14.26316],[37.08345,14.29773],[37.1497,14.44194],[37.29377,14.45744],[37.55371,14.1055],[37.89146,14.87953],[38.0067,14.7244],[38.22933,14.67972],[38.42683,14.41718],[38.86608,14.49366],[39.00974,14.65123],[39.12746,14.60221],[39.20818,14.44018],[39.51503,14.56782],[39.89227,14.42656],[39.99984,14.45524],[39.96359,14.36837],[39.80442,14.38672],[39.6682,14.32453],[39.76835,14.29546],[39.69042,14.16511],[39.76143,14.14529],[39.7236,14.10123],[39.78489,14.0802],[39.81962,13.93023],[39.82303,13.57165],[39.75616,13.57145],[39.72412,13.4815],[39.72319,13.2526],[39.80783,13.08775],[39.7545,12.89418],[39.89186,12.76106],[39.79264,12.52451],[39.7974,12.34018],[39.53912,12.25106],[39.53374,12.32775],[39.27267,12.31258],[39.18472,12.63241],[39.26368,12.7978],[39.2243,13.01585],[39.01439,13.01497],[38.99579,13.12711],[38.70496,13.39363],[38.67509,13.49174],[38.45495,13.46778],[38.46383,13.58718],[38.37991,13.52584],[38.13652,13.52486],[38.05848,13.46882],[37.74233,13.56563],[37.67029,13.44399],[37.51588,13.3674],[37.29905,13.36991],[37.19311,13.43176],[37.03198,13.3734],[36.89628,13.39665],[36.70622,13.55798],[36.53847,13.59912],[36.43994,13.77618]]]}}]}
