{"type":"FeatureCollection","features":[{"type":"Feature","properties":{"id":"fi-02","lat":61.28514,"lng":28.28185},"geometry":{"type":"Polygon","coordinates":[[[30.14565,61.85047],[29.20316,61.2459],[28.7976,61.09684],[28.00378,60.66423],[27.8529,60.75567],[27.51081,60.79779],[27.14297,60.94687],[27.2393,60.96214],[27.14473,61.01372],[27.22927,61.09687],[27.18762,61.11343],[27.21315,61.1618],[27.38988,61.20376],[27.25573,61.32437],[26.96851,61.35982],[27.25025,61.40375],[28.18146,61.37331],[28.46889,61.50922],[28.65317,61.46958],[28.8207,61.538],[29.2461,61.55991],[29.56402,61.72414],[30.14565,61.85047]]]}},{"type":"Feature","properties":{"id":"fi-03","lat":62.72892,"lng":23.12163},"geometry":{"type":"Polygon","coordinates":[[[23.39437,63.48977],[23.79941,63.30156],[24.22491,63.17454],[24.1783,63.1516],[24.36278,63.1192],[24.26615,63.06034],[24.34656,62.9342],[24.45094,62.88309],[24.36516,62.84348],[24.57114,62.66057],[24.51171,62.62822],[24.58251,62.61721],[24.51357,62.50394],[24.19814,62.4688],[24.02027,62.364],[23.83403,62.48802],[23.50506,62.37345],[23.31613,62.41939],[23.06074,62.29],[22.58697,62.30183],[22.50781,62.21127],[22.01822,61.99317],[21.63241,62.03764],[21.6753,62.19543],[21.76625,62.2308],[21.68088,62.26953],[21.68491,62.35196],[21.53236,62.37909],[21.61236,62.54409],[21.59096,62.60083],[21.77059,62.68336],[21.72759,62.77449],[21.7678,62.85172],[21.99125,62.78229],[22.2888,62.79358],[22.39401,62.85802],[22.49799,63.02825],[22.63224,63.08124],[22.6773,63.1717],[22.5817,63.18348],[22.56837,63.26079],[22.73611,63.35572],[23.15696,63.36735],[23.39437,63.48977]]]}},{"type":"Feature","properties":{"id":"fi-04","lat":61.90368,"lng":27.98837},"geometry":{"type":"Polygon","coordinates":[[[28.52036,62.55551],[28.47891,62.58101],[28.61596,62.59639],[28.65823,62.65333],[28.80985,62.6308],[29.10709,62.49112],[29.10192,62.39673],[29.24951,62.4096],[29.41312,62.24475],[29.49384,62.06148],[29.65641,61.97314],[29.61662,61.92351],[29.69383,61.82486],[29.53239,61.68479],[29.2461,61.55991],[28.8207,61.538],[28.65317,61.46958],[28.46889,61.50922],[28.18146,61.37331],[27.25025,61.40375],[26.96851,61.35982],[27.25573,61.32437],[27.38575,61.21301],[27.33035,61.16831],[27.00159,61.15154],[26.87188,61.28329],[26.64915,61.21198],[26.63469,61.28256],[26.5151,61.27368],[26.29362,61.3708],[26.25693,61.43907],[26.28205,61.57691],[26.37279,61.65195],[26.515,61.63846],[26.52916,61.70166],[26.37796,61.81245],[26.33413,61.88385],[26.39025,61.9903],[26.24484,62.13667],[26.52027,62.25576],[26.6568,62.23047],[26.62693,62.29584],[26.76646,62.36209],[26.6936,62.39343],[26.71179,62.45128],[27.2025,62.46415],[27.38089,62.51729],[27.96721,62.26013],[28.31035,62.3579],[28.25484,62.4296],[28.28285,62.46508],[28.38693,62.46138],[28.41266,62.57685],[28.52036,62.55551]]]}},{"type":"Feature","properties":{"id":"fi-05","lat":64.60588,"lng":28.3136},"geometry":{"type":"Polygon","coordinates":[[[29.73153,65.49692],[29.72013,65.32909],[29.58009,65.2354],[29.8332,65.20501],[29.80819,65.1353],[29.8502,65.1215],[29.59838,65.03438],[29.63362,64.90715],[29.78028,64.79558],[30.11886,64.76793],[30.18082,64.64277],[29.95484,64.56898],[30.07039,64.47188],[30.03246,64.39695],[30.55848,64.2197],[30.58049,64.05108],[30.20155,63.79265],[29.76659,63.71415],[29.65621,63.87336],[28.9347,63.84199],[28.5186,63.88202],[28.26084,63.67865],[27.74469,63.9083],[26.80346,64.05873],[26.76005,64.2644],[26.47469,64.3509],[26.296,64.48043],[26.64626,64.64727],[26.80873,64.659],[26.9927,64.79369],[27.36022,64.8178],[27.40508,64.93167],[27.28095,65.01567],[27.36343,65.08567],[27.8835,65.09215],[28.02344,65.23147],[28.61379,65.29651],[28.57389,65.31883],[28.64851,65.38469],[29.11588,65.45518],[29.24662,65.52189],[29.73153,65.49692]]]}},{"type":"Feature","properties":{"id":"fi-06","lat":60.94131,"lng":24.24914},"geometry":{"type":"Polygon","coordinates":[[[24.8042,61.26747],[24.9183,61.3223],[25.26071,61.18097],[25.28665,61.0757],[25.20914,61.01062],[25.2543,60.97659],[25.08419,60.83784],[25.15622,60.77198],[25.06341,60.71645],[25.18237,60.72358],[25.10765,60.6665],[24.61238,60.66051],[24.52494,60.55853],[24.34056,60.60183],[24.28392,60.5654],[23.47705,60.74652],[23.26734,60.72821],[23.1765,60.76373],[23.21205,60.82931],[23.14198,60.84621],[23.29494,60.93628],[23.19738,60.99995],[23.4693,60.96421],[23.70701,61.007],[23.85232,60.94633],[23.82524,60.99969],[23.87806,61.02718],[23.77853,61.06831],[24.14016,61.12542],[24.28217,61.18402],[24.27948,61.23714],[24.5175,61.29073],[24.73651,61.31039],[24.8042,61.26747]]]}},{"type":"Feature","properties":{"id":"fi-07","lat":63.65015,"lng":24.15246},"geometry":{"type":"Polygon","coordinates":[[[22.99073,63.78762],[23.15504,63.88369],[23.39422,63.91108],[23.3816,64.04816],[23.6045,64.02765],[23.57358,64.10725],[23.70647,64.16808],[24.09396,64.04772],[24.2431,63.8838],[24.40826,63.83414],[25.02868,63.45804],[24.78343,63.35221],[24.7364,63.13708],[24.36278,63.1192],[24.1783,63.1516],[24.22491,63.17454],[24.04322,63.26306],[23.76954,63.31696],[23.63993,63.53214],[23.44356,63.60749],[23.48335,63.66511],[23.54567,63.63519],[23.71538,63.68867],[23.50309,63.76701],[23.24585,63.71983],[22.99073,63.78762]]]}},{"type":"Feature","properties":{"id":"fi-08","lat":62.55287,"lng":25.54305},"geometry":{"type":"Polygon","coordinates":[[[25.97106,63.43029],[26.16329,63.4298],[26.08723,63.36802],[26.18438,63.22813],[26.16091,63.15144],[26.31357,63.0385],[26.23388,63.03222],[26.32432,62.96882],[26.05219,62.92102],[26.36049,62.75751],[26.50653,62.74868],[26.595,62.59401],[26.48813,62.51174],[26.71179,62.45128],[26.6936,62.39343],[26.76646,62.36209],[26.62693,62.29584],[26.6476,62.22618],[26.52027,62.25576],[26.24484,62.13667],[26.39025,61.9903],[26.33413,61.88385],[26.5211,61.71546],[26.515,61.63846],[26.14614,61.62632],[26.05756,61.66564],[26.0524,61.7275],[25.86202,61.79804],[25.76404,61.69303],[25.5162,61.67804],[25.42649,61.49036],[24.96688,61.45113],[24.90662,61.58022],[24.78994,61.61503],[24.95789,61.63776],[24.92275,61.70941],[24.99572,61.73156],[24.88781,62.03885],[24.68524,62.04947],[24.56494,62.18086],[24.37643,62.15876],[24.02348,62.33069],[24.1692,62.45869],[24.51357,62.50394],[24.58168,62.61158],[24.51502,62.61856],[24.57114,62.66057],[24.36516,62.84348],[24.4436,62.8958],[24.34656,62.9342],[24.26615,63.06034],[24.52825,63.15914],[24.7364,63.13708],[24.78343,63.35221],[25.08067,63.47104],[25.15054,63.57545],[25.73634,63.51767],[25.97106,63.43029]]]}},{"type":"Feature","properties":{"id":"fi-09","lat":60.87532,"lng":26.72288},"geometry":{"type":"MultiPolygon","coordinates":[[[[26.64405,60.43187],[26.54859,60.37836],[26.50717,60.40347],[26.59343,60.44595],[26.64405,60.43187]]],[[[27.98101,60.64948],[27.80787,60.55305],[27.73951,60.57416],[27.71843,60.48847],[27.63217,60.52167],[27.62965,60.47114],[27.23243,60.51211],[27.30812,60.52578],[27.21461,60.58495],[27.17775,60.51211],[27.05437,60.54682],[26.93141,60.48542],[26.96241,60.44721],[26.79705,60.48591],[26.70143,60.41991],[26.61704,60.45295],[26.57716,60.44733],[26.5534,60.43301],[26.47486,60.48725],[26.57984,60.59138],[26.75318,60.57416],[26.73178,60.61286],[26.65919,60.6518],[26.50105,60.5994],[26.09312,60.83065],[26.15937,60.91998],[26.04278,60.95509],[26.13663,61.02491],[26.05209,61.10761],[26.30065,61.15492],[26.46539,61.26608],[26.63469,61.28256],[26.66445,61.2098],[26.87188,61.28329],[26.94361,61.1713],[27.21315,61.1618],[27.18762,61.11343],[27.22927,61.09687],[27.14473,61.01372],[27.2393,60.96214],[27.14297,60.94687],[27.51081,60.79779],[27.8529,60.75567],[27.98101,60.64948]]]]}},{"type":"Feature","properties":{"id":"fi-10","lat":67.8441,"lng":26.55571},"geometry":{"type":"Polygon","coordinates":[[[27.86691,70.07531],[28.16736,69.89434],[28.38119,69.8562],[28.40455,69.80225],[29.13122,69.6742],[29.34454,69.46439],[28.85217,69.20353],[28.82757,69.09077],[28.95408,69.02726],[28.41023,68.89853],[28.80148,68.83549],[28.44744,68.51489],[28.69032,68.18318],[29.33085,68.07269],[29.65119,67.82356],[30.00941,67.68584],[29.91624,67.50813],[29.51983,67.29817],[29.05154,66.9078],[29.54619,66.43197],[28.68934,66.473],[28.54816,66.31063],[28.76406,66.2389],[28.71104,66.137],[28.60852,66.11808],[28.75642,66.02057],[28.38941,66.00326],[28.51457,65.87464],[28.423,65.82885],[27.76495,65.82931],[27.63772,65.95365],[27.43071,65.95174],[27.10215,65.75084],[26.8418,65.70521],[26.18799,65.71894],[26.12836,65.81394],[25.38825,65.73614],[25.09318,65.59192],[24.85914,65.65913],[24.67579,65.63544],[24.55047,65.7635],[24.71062,65.91209],[24.51881,65.79605],[24.4048,65.76923],[24.23829,65.8227],[24.20623,65.77875],[24.01965,66.04894],[23.88932,66.16111],[23.72416,66.20663],[23.66277,66.31652],[23.65244,66.45884],[23.88188,66.56354],[23.89242,66.75091],[24.00404,66.8052],[23.58133,67.15314],[23.60272,67.26026],[23.78566,67.33752],[23.76519,67.42007],[23.43126,67.48552],[23.55353,67.58704],[23.48128,67.86464],[23.66215,67.95043],[23.383,68.05125],[23.30652,68.14561],[23.16565,68.12204],[23.15521,68.21744],[23.06694,68.29025],[22.80825,68.3949],[22.07217,68.47701],[20.90573,68.89461],[20.91121,68.9807],[20.62317,69.03636],[20.7444,69.10436],[21.07151,69.03667],[21.15636,69.08762],[21.03358,69.18121],[21.09838,69.2395],[21.31356,69.29143],[21.63881,69.27138],[22.37138,68.82262],[22.40921,68.71291],[23.07149,68.68087],[23.19758,68.61804],[23.73481,68.71545],[23.78721,68.79978],[23.92901,68.81621],[24.66343,68.66609],[24.90518,68.55695],[25.13245,68.64765],[25.20128,68.81265],[25.43393,68.88386],[25.62777,68.87414],[25.79582,68.99331],[25.73722,69.2182],[25.87737,69.37081],[25.8414,69.41778],[25.88667,69.52087],[26.00397,69.58718],[25.9617,69.65255],[26.00511,69.68934],[26.19828,69.71544],[26.53386,69.92524],[27.10034,69.90175],[27.3118,69.92948],[27.61256,70.06206],[27.86691,70.07531]]]}},{"type":"Feature","properties":{"id":"fi-11","lat":61.72044,"lng":23.82259},"geometry":{"type":"Polygon","coordinates":[[[23.83403,62.48802],[24.05386,62.29591],[24.24579,62.25475],[24.3326,62.17497],[24.53032,62.19295],[24.68524,62.04947],[24.88781,62.03885],[24.99572,61.73156],[24.92275,61.70941],[24.95789,61.63776],[24.78994,61.61503],[24.90662,61.58022],[24.9582,61.45594],[24.86001,61.4654],[24.9183,61.3223],[24.8812,61.28411],[24.55078,61.29595],[24.27948,61.23714],[24.28217,61.18402],[24.14016,61.12542],[23.77853,61.06831],[23.87806,61.02718],[23.82524,60.99969],[23.85232,60.94633],[23.70701,61.007],[23.4693,60.96421],[22.99542,61.03204],[23.0009,61.07886],[22.92328,61.08855],[22.96897,61.11358],[22.9238,61.21089],[22.66149,61.2452],[22.57271,61.32447],[22.57188,61.39545],[22.72877,61.43677],[22.60155,61.55265],[22.72185,61.64774],[22.65395,61.67536],[22.69394,61.73148],[22.82293,61.82282],[22.54925,62.0033],[22.7728,62.06768],[22.76939,62.15119],[22.85528,62.17313],[22.83833,62.27119],[23.16678,62.31842],[23.31613,62.41939],[23.50506,62.37345],[23.83403,62.48802]]]}},{"type":"Feature","properties":{"id":"fi-12","lat":62.91043,"lng":21.91165},"geometry":{"type":"MultiPolygon","coordinates":[[[[21.27752,61.95148],[21.23658,61.98501],[21.28907,62.12157],[21.38396,62.19449],[21.37428,62.26679],[21.31227,62.232],[21.33904,62.35554],[21.27068,62.34931],[21.27068,62.41079],[21.21608,62.33503],[21.2024,62.41763],[21.13356,62.40396],[21.12672,62.55414],[21.20924,62.5821],[21.06788,62.6201],[21.16082,62.71931],[21.11354,62.78119],[21.18336,62.78238],[21.24342,62.86945],[21.3567,62.85952],[21.46315,62.9514],[21.4441,63.04092],[21.68849,63.02709],[21.52084,63.12678],[21.55193,63.17792],[21.50489,63.21743],[21.74236,63.19965],[21.70265,63.22577],[21.89454,63.26048],[21.88087,63.17792],[21.9839,63.14321],[21.9559,63.18476],[22.02475,63.23941],[22.17506,63.23261],[22.33009,63.28384],[22.37371,63.32136],[22.19093,63.45844],[22.40162,63.41816],[22.27125,63.51374],[22.4074,63.45694],[22.49724,63.58576],[22.54566,63.57518],[22.49724,63.62299],[22.58904,63.70332],[22.77345,63.62751],[22.90187,63.70551],[22.83302,63.72602],[22.92579,63.74339],[22.92237,63.8017],[23.24585,63.71983],[23.50309,63.76701],[23.73398,63.66823],[23.49545,63.6679],[23.44356,63.60749],[23.63993,63.53214],[23.70742,63.38161],[23.50609,63.47861],[23.35054,63.48801],[23.15696,63.36735],[22.73611,63.35572],[22.57819,63.27081],[22.5817,63.18348],[22.6649,63.18865],[22.6742,63.13718],[22.24787,62.77454],[21.7678,62.85172],[21.72759,62.77449],[21.77059,62.68336],[21.59096,62.60083],[21.61236,62.54409],[21.53236,62.37909],[21.68491,62.35196],[21.68088,62.26953],[21.76118,62.21951],[21.6753,62.19543],[21.64656,62.0205],[21.27752,61.95148]]],[[[21.21599,62.97516],[21.136,62.96296],[21.13624,63.00658],[21.21599,62.97516]]],[[[21.41961,63.20869],[21.24342,63.1507],[21.14723,63.1822],[21.07895,63.28779],[21.24342,63.28099],[21.19508,63.22577],[21.28679,63.21137],[21.39633,63.26069],[21.41961,63.20869]]],[[[22.07936,63.2663],[22.07862,63.3216],[22.24627,63.30707],[22.11443,63.28417],[22.14422,63.25141],[22.07936,63.2663]]],[[[22.01271,63.32612],[22.0298,63.27741],[21.97438,63.28681],[22.01271,63.32612]]],[[[21.31853,63.28779],[21.22918,63.3288],[21.37428,63.34927],[21.31853,63.28779]]],[[[21.94899,63.34003],[21.99643,63.38471],[22.09604,63.38349],[22.07618,63.36005],[21.94899,63.34003]]],[[[22.82553,63.77285],[22.73959,63.72053],[22.68149,63.76341],[22.76384,63.79145],[22.82553,63.77285]]]]}},{"type":"Feature","properties":{"id":"fi-13","lat":62.80376,"lng":30.23634},"geometry":{"type":"Polygon","coordinates":[[[29.99843,63.7471],[30.46107,63.47287],[31.20397,63.21268],[31.26277,63.10059],[31.56952,62.90593],[31.24376,62.50334],[30.92564,62.30212],[30.64772,62.19277],[30.14565,61.85047],[29.56402,61.72414],[29.69383,61.82486],[29.61662,61.92351],[29.65641,61.97314],[29.45911,62.09874],[29.41312,62.24475],[29.28145,62.38296],[29.11164,62.3919],[29.10709,62.49112],[28.65823,62.65333],[28.70205,62.6923],[28.64645,62.74434],[28.76985,62.82557],[28.92405,62.78196],[29.08146,62.83753],[28.93346,62.92774],[29.05728,62.98163],[28.61823,63.2088],[28.76138,63.3766],[28.61699,63.51369],[28.67518,63.54904],[28.60738,63.67348],[28.3584,63.75342],[28.46548,63.87135],[28.57203,63.88336],[28.9347,63.84199],[29.65621,63.87336],[29.75873,63.71559],[29.99843,63.7471]]]}},{"type":"Feature","properties":{"id":"fi-14","lat":64.94923,"lng":26.31162},"geometry":{"type":"MultiPolygon","coordinates":[[[[29.55166,66.4128],[29.90017,66.10806],[30.1139,65.6655],[29.70287,65.62938],[29.83857,65.56489],[29.73153,65.49692],[29.24662,65.52189],[29.11588,65.45518],[28.64851,65.38469],[28.57389,65.31883],[28.61379,65.29651],[28.02344,65.23147],[27.8835,65.09215],[27.3072,65.06853],[27.28095,65.01567],[27.40508,64.93167],[27.36022,64.8178],[26.9927,64.79369],[26.80873,64.659],[26.64626,64.64727],[26.296,64.48043],[26.47469,64.3509],[26.76005,64.2644],[26.78847,64.07733],[26.87209,64.0334],[26.23802,63.80685],[26.28566,63.58875],[26.13776,63.45628],[25.91214,63.43853],[25.73634,63.51767],[25.23157,63.60092],[25.02868,63.45804],[24.40826,63.83414],[24.2431,63.8838],[24.09396,64.04772],[23.70647,64.16808],[23.86109,64.26789],[23.94337,64.24677],[24.0044,64.38911],[24.34409,64.53075],[24.42286,64.67561],[24.58766,64.78119],[24.53842,64.80532],[24.66831,64.78913],[24.73634,64.85537],[25.09474,64.91836],[25.25929,64.83584],[25.22511,64.82274],[25.36215,64.83307],[25.35955,64.91112],[25.19093,64.96678],[25.44353,64.96678],[25.35548,65.0965],[25.21144,65.12377],[25.32748,65.22687],[25.2798,65.26097],[25.33497,65.34349],[25.26612,65.37763],[25.35548,65.41181],[25.35865,65.46552],[25.09318,65.59192],[25.38825,65.73614],[26.12836,65.81394],[26.18799,65.71894],[26.8418,65.70521],[27.10215,65.75084],[27.43071,65.95174],[27.63772,65.95365],[27.76495,65.82931],[28.423,65.82885],[28.51457,65.87464],[28.38941,66.00326],[28.75642,66.02057],[28.60852,66.11808],[28.71104,66.137],[28.76406,66.2389],[28.54816,66.31063],[28.68934,66.473],[29.55166,66.4128]]],[[[25.03359,65.05751],[24.81966,65.04328],[24.72237,65.00347],[24.82732,64.97297],[24.73471,64.95091],[24.56275,65.03718],[24.83451,65.0948],[25.03359,65.05751]]]]}},{"type":"Feature","properties":{"id":"fi-15","lat":63.09497,"lng":27.54541},"geometry":{"type":"Polygon","coordinates":[[[26.87209,64.0334],[27.74469,63.9083],[28.26084,63.67865],[28.3584,63.75342],[28.5956,63.68206],[28.67518,63.54904],[28.61699,63.51369],[28.76138,63.3766],[28.61823,63.2088],[29.0519,62.99905],[28.93346,62.92774],[29.08828,62.84996],[28.92405,62.78196],[28.76985,62.82557],[28.64645,62.74434],[28.70205,62.6923],[28.63064,62.60543],[28.47891,62.58101],[28.52036,62.55551],[28.41266,62.57685],[28.38693,62.46138],[28.28285,62.46508],[28.25764,62.42273],[28.3245,62.3657],[27.96721,62.26013],[27.38089,62.51729],[26.80129,62.43226],[26.48813,62.51174],[26.595,62.59401],[26.52079,62.73635],[26.36049,62.75751],[26.05219,62.92102],[26.32432,62.96882],[26.23678,63.01512],[26.31357,63.0385],[26.16091,63.15144],[26.18438,63.22813],[26.08723,63.36802],[26.19905,63.55297],[26.28566,63.58875],[26.23802,63.80685],[26.87209,64.0334]]]}},{"type":"Feature","properties":{"id":"fi-16","lat":61.22732,"lng":25.77502},"geometry":{"type":"Polygon","coordinates":[[[26.30396,61.64993],[26.26024,61.50209],[26.29362,61.3708],[26.5151,61.27368],[26.30065,61.15492],[26.05209,61.10761],[26.13663,61.02491],[26.04278,60.95509],[26.15937,60.91998],[26.0834,60.8381],[26.18034,60.81562],[26.22489,60.7334],[26.17332,60.69723],[25.88827,60.73402],[25.5718,60.68932],[25.47383,60.79205],[25.32954,60.75727],[25.20707,60.82709],[25.09338,60.82138],[25.2543,60.97659],[25.20914,61.01062],[25.28665,61.0757],[25.26071,61.18097],[24.9213,61.29171],[24.86001,61.4654],[25.42649,61.49036],[25.5162,61.67804],[25.76404,61.69303],[25.86202,61.79804],[26.06542,61.71918],[26.07782,61.65153],[26.30396,61.64993]]]}},{"type":"Feature","properties":{"id":"fi-17","lat":61.60507,"lng":22.13529},"geometry":{"type":"MultiPolygon","coordinates":[[[[21.42937,61.173],[21.35239,61.17601],[21.34295,61.19062],[21.38006,61.21402],[21.42937,61.173]]],[[[21.39137,61.05793],[21.48227,61.06013],[21.44264,61.16999],[21.55812,61.20417],[21.47609,61.24575],[21.54444,61.27985],[21.52426,61.37531],[21.4489,61.40278],[21.57244,61.41641],[21.42213,61.48534],[21.59213,61.48534],[21.46013,61.5624],[21.71632,61.52692],[21.53761,61.64985],[21.51775,61.71125],[21.58595,61.69766],[21.46998,61.75971],[21.41407,61.90689],[21.31669,61.93919],[21.47552,62.02231],[22.01822,61.99317],[22.50781,62.21127],[22.58697,62.30183],[22.83833,62.27119],[22.85528,62.17313],[22.76939,62.15119],[22.7728,62.06768],[22.54925,62.0033],[22.82293,61.82282],[22.69394,61.73148],[22.65395,61.67536],[22.72185,61.64774],[22.60155,61.55265],[22.72877,61.43677],[22.57188,61.39545],[22.56992,61.33326],[22.66149,61.2452],[22.9238,61.21089],[22.96897,61.11358],[22.92897,61.07865],[23.0009,61.07886],[22.96979,61.04552],[22.82603,61.09002],[22.80112,60.99656],[22.15113,60.88569],[22.00561,60.89866],[21.81431,61.03581],[21.4934,61.00369],[21.39137,61.05793]]],[[[21.48455,61.64045],[21.50099,61.61774],[21.45997,61.62934],[21.48455,61.64045]]]]}},{"type":"Feature","properties":{"id":"fi-18","lat":60.32392,"lng":24.59993},"geometry":{"type":"MultiPolygon","coordinates":[[[[23.92009,59.96776],[23.88608,59.94798],[23.84742,59.95466],[23.87029,59.97281],[23.92009,59.96776]]],[[[25.84059,60.21882],[25.87623,60.21723],[25.82065,60.19721],[25.84059,60.21882]]],[[[25.636,60.20425],[25.58172,60.29637],[25.68442,60.24518],[25.636,60.20425]]],[[[26.5533,60.59177],[26.46941,60.42748],[26.34205,60.37556],[26.24562,60.45087],[26.27345,60.40217],[26.14243,60.39598],[25.98097,60.47577],[25.91725,60.48542],[26.02898,60.43334],[26.01222,60.38858],[26.09986,60.31208],[25.84205,60.40217],[25.91725,60.36127],[25.88307,60.30663],[25.93019,60.24518],[25.75375,60.32075],[25.84889,60.26569],[25.73552,60.24726],[25.64967,60.29979],[25.70436,60.34138],[25.66863,60.36465],[25.52613,60.32709],[25.50278,60.24616],[25.31381,60.27253],[25.02931,60.14785],[24.99879,60.21284],[24.95094,60.14346],[24.80681,60.19062],[24.67026,60.10122],[24.55405,60.15595],[24.59685,60.12727],[24.54038,60.08755],[24.60816,60.10122],[24.59449,60.06025],[24.44565,59.99226],[24.46412,60.04658],[24.31267,59.9975],[24.36793,60.07392],[24.31967,60.07583],[23.79949,59.95661],[23.42945,59.95661],[23.54086,60.02912],[23.50961,60.06745],[23.22234,59.88622],[23.25131,59.84113],[22.88819,59.81318],[23.24708,59.92243],[23.33286,60.02985],[23.2234,59.92988],[23.11069,59.92328],[23.11134,59.97427],[23.25758,60.03974],[23.03549,60.04458],[22.99073,60.07734],[23.02125,60.1068],[23.11418,60.09473],[23.31055,60.1864],[23.64169,60.19803],[23.59239,60.25852],[23.79362,60.41853],[23.69967,60.45192],[23.86503,60.5121],[23.89666,60.64875],[24.52494,60.55853],[24.61238,60.66051],[25.10765,60.6665],[25.18237,60.72358],[25.0599,60.72089],[25.15622,60.77198],[25.10889,60.81985],[25.19374,60.83014],[25.32954,60.75727],[25.47383,60.79205],[25.5718,60.68932],[25.88827,60.73402],[26.17332,60.69723],[26.28866,60.752],[26.34829,60.6711],[26.5533,60.59177]]]]}},{"type":"Feature","properties":{"id":"fi-19","lat":60.59435,"lng":22.856},"geometry":{"type":"MultiPolygon","coordinates":[[[[22.01238,60.12275],[21.94386,60.11347],[21.92994,60.12458],[22.01238,60.12275]]],[[[21.64747,60.14509],[21.61313,60.10212],[21.48227,60.11481],[21.57106,60.17036],[21.64747,60.14509]]],[[[21.87647,60.17695],[21.78321,60.12324],[21.69581,60.12165],[21.74366,60.19062],[21.87647,60.17695]]],[[[21.4489,60.19062],[21.38054,60.16266],[21.27068,60.19062],[21.4489,60.19062]]],[[[21.60467,60.26879],[21.57789,60.22163],[21.56227,60.23994],[21.60467,60.26879]]],[[[21.94459,60.27709],[21.87973,60.31053],[21.97535,60.30256],[21.94459,60.27709]]],[[[21.33806,60.38337],[21.30388,60.36424],[21.29615,60.37759],[21.33806,60.38337]]],[[[21.99757,60.35505],[21.79412,60.37397],[21.84604,60.40965],[21.80812,60.4667],[21.99757,60.35505]]],[[[21.688,60.45531],[21.74187,60.52643],[21.76417,60.52578],[21.688,60.45531]]],[[[21.47478,60.52408],[21.44264,60.47114],[21.32594,60.54316],[21.39422,60.55988],[21.47478,60.52408]]],[[[21.25025,60.49844],[21.22918,60.55988],[21.32488,60.48208],[21.25025,60.49844]]],[[[21.29868,60.56733],[21.21388,60.61636],[21.25929,60.64753],[21.29868,60.56733]]],[[[21.26319,60.83027],[21.18629,60.85651],[21.26759,60.83779],[21.26319,60.83027]]],[[[21.2024,60.88947],[21.31227,60.923],[21.27003,60.96796],[21.37428,60.93041],[21.31813,60.88019],[21.2024,60.88947]]],[[[22.50506,59.86872],[22.41383,59.86123],[22.51287,59.87373],[22.50506,59.86872]]],[[[22.91098,60.04157],[22.87224,60.00605],[22.85109,60.0279],[22.86329,60.06257],[22.91098,60.04157]]],[[[22.44972,60.02953],[22.38282,59.99258],[22.34889,60.06322],[22.43043,60.08185],[22.44972,60.02953]]],[[[22.917,60.12507],[22.92791,60.08991],[22.84506,60.08576],[22.917,60.12507]]],[[[22.94947,60.27045],[22.83985,60.20112],[22.84685,60.11103],[22.72983,60.00495],[22.65496,60.03229],[22.60027,59.98452],[22.59343,60.04658],[22.4699,59.9975],[22.47364,60.09097],[22.42213,60.11481],[22.60027,60.14216],[22.41521,60.1496],[22.44809,60.22138],[22.56658,60.19331],[22.94947,60.27045]]],[[[22.05893,60.21109],[21.97771,60.13548],[21.93539,60.17634],[22.05893,60.21109]]],[[[22.36793,60.17739],[22.28834,60.14985],[22.38559,60.19526],[22.36793,60.17739]]],[[[22.29176,60.24518],[22.2693,60.19587],[22.20924,60.20425],[22.24586,60.24307],[22.29176,60.24518]]],[[[22.33717,60.27448],[22.21551,60.25312],[22.07667,60.28352],[22.13201,60.31566],[22.33717,60.27448]]],[[[21.99635,60.29613],[21.99578,60.2873],[21.97291,60.28535],[21.99635,60.29613]]],[[[22.31284,60.32095],[22.3982,60.35505],[22.47731,60.32095],[22.36744,60.29295],[22.31284,60.32095]]],[[[22.15724,60.35187],[22.25571,60.37417],[22.29965,60.36758],[22.19109,60.34174],[22.15724,60.35187]]],[[[22.10426,60.35415],[22.20623,60.38255],[22.20753,60.37556],[22.10426,60.35415]]],[[[23.11418,60.09473],[22.8672,60.18374],[23.08058,60.35505],[22.52508,60.20425],[22.64812,60.27871],[22.45916,60.26496],[22.62428,60.39908],[22.29152,60.38264],[21.90317,60.52888],[21.84392,60.51553],[21.87403,60.47797],[21.78533,60.47797],[21.84051,60.62873],[21.55812,60.49226],[21.51775,60.56733],[21.57862,60.56733],[21.40854,60.58039],[21.46998,60.6083],[21.35328,60.67658],[21.46998,60.73115],[21.32887,60.82754],[21.31853,60.86469],[21.4284,60.8758],[21.35328,60.90253],[21.4284,60.90253],[21.29868,61.06013],[21.4934,61.00369],[21.81431,61.03581],[22.00561,60.89866],[22.15113,60.88569],[22.80112,60.99656],[22.8407,61.0911],[23.29577,60.94672],[23.26714,60.89334],[23.13826,60.87091],[23.21205,60.82931],[23.16244,60.77988],[23.232,60.73983],[23.47705,60.74652],[23.89666,60.64875],[23.86503,60.5121],[23.69967,60.45192],[23.79362,60.41853],[23.59239,60.25852],[23.64169,60.19803],[23.31055,60.1864],[23.11418,60.09473]]]]}}]}
