{"type":"FeatureCollection","features":[{"type":"Feature","properties":{"id":"fj-c","lat":-17.89487,"lng":178.29835},"geometry":{"type":"MultiPolygon","coordinates":[[[[178.12761,-18.35166],[178.15602,-18.37615],[178.12696,-18.41546],[178.10873,-18.4035],[178.12761,-18.35166]]],[[[178.45558,-17.5512],[178.60231,-17.65],[178.56772,-17.75498],[178.636,-17.8637],[178.5949,-17.92604],[178.71144,-17.99196],[178.68458,-18.07041],[178.58863,-18.136],[178.52711,-18.09002],[178.43776,-18.14658],[178.3899,-18.10182],[178.13551,-18.25945],[177.89405,-18.27313],[177.78338,-18.22316],[177.80561,-17.9926],[177.99738,-17.98298],[177.97284,-17.84883],[178.09965,-17.70166],[178.00622,-17.74021],[178.02565,-17.57273],[178.13924,-17.66822],[178.28259,-17.62218],[178.4185,-17.66574],[178.45558,-17.5512]]]]}},{"type":"Feature","properties":{"id":"fj-e","lat":-19.02231,"lng":178.20331},"geometry":{"type":"MultiPolygon","coordinates":[[[[-178.72724,-20.66473],[-178.72081,-20.65928],[-178.70812,-20.67132],[-178.72724,-20.66473]]],[[[-178.39196,-19.16578],[-178.4217,-19.1762],[-178.39293,-19.12754],[-178.39196,-19.16578]]],[[[-178.53698,-19.17718],[-178.60033,-19.14772],[-178.59712,-19.12851],[-178.58165,-19.11151],[-178.53698,-19.17718]]],[[[-179.78718,-18.95534],[-179.83776,-18.94883],[-179.87194,-18.99375],[-179.84968,-18.92344],[-179.78718,-18.95534]]],[[[-178.93122,-18.94411],[-178.96154,-18.98675],[-178.95788,-18.92791],[-178.93122,-18.94411]]],[[[-178.93061,-18.88209],[-178.89399,-18.8576],[-178.87987,-18.85426],[-178.93061,-18.88209]]],[[[-178.5111,-18.63795],[-178.49031,-18.66074],[-178.50715,-18.66522],[-178.5111,-18.63795]]],[[[-178.74568,-18.22161],[-178.84541,-18.21738],[-178.78978,-18.17213],[-178.74568,-18.22161]]],[[[-179.02786,-18.00301],[-179.0787,-17.96664],[-179.05951,-17.95252],[-179.02786,-18.00301]]],[[[-179.33422,-17.74],[-179.28075,-17.76019],[-179.32258,-17.7702],[-179.33422,-17.74]]],[[[-179.16601,-17.42555],[-179.13707,-17.46893],[-179.1728,-17.45794],[-179.16601,-17.42555]]],[[[-179.13439,-17.25213],[-179.14948,-17.28216],[-179.15669,-17.25408],[-179.13439,-17.25213]]],[[[-178.91735,-17.20127],[-179.00068,-17.3025],[-178.95832,-17.21136],[-179.01997,-17.1491],[-178.91735,-17.20127]]],[[[-178.22895,-19.82903],[-178.22004,-19.8279],[-178.2268,-19.84002],[-178.22895,-19.82903]]],[[[179.80201,-19.18426],[179.74,-19.17742],[179.77752,-19.12282],[179.80201,-19.18426]]],[[[178.49318,-18.9782],[178.41668,-19.04778],[178.3073,-18.99717],[178.19508,-19.04746],[178.17897,-19.15749],[178.16285,-19.11598],[178.09164,-19.157],[177.95118,-19.12965],[178.33676,-18.92702],[178.49318,-18.9782]]],[[[178.53159,-18.86045],[178.47193,-18.90716],[178.49586,-18.86297],[178.53159,-18.86045]]],[[[179.94343,-18.55635],[179.88275,-18.66252],[179.83067,-18.5893],[179.94343,-18.55635]]],[[[179.32097,-18.10182],[179.26694,-17.99879],[179.24952,-18.03216],[179.23276,-17.94476],[179.31251,-17.94744],[179.36085,-18.02597],[179.32097,-18.10182]]],[[[-178.24865,-17.95257],[-178.32103,-17.95843],[-178.35778,-17.91432],[-178.29316,-17.88274],[-178.24865,-17.95257]]],[[[179.43084,-17.79404],[179.42262,-17.85052],[179.39674,-17.78037],[179.43084,-17.79404]]],[[[178.77955,-17.76605],[178.73469,-17.76757],[178.71319,-17.71098],[178.77955,-17.76605]]],[[[178.79789,-17.6186],[178.82291,-17.72913],[178.76808,-17.74717],[178.75109,-17.64336],[178.79789,-17.6186]]],[[[178.99855,-17.5971],[179.0381,-17.64202],[179.04078,-17.65618],[178.99855,-17.5971]]],[[[179.39088,-17.39625],[179.37135,-17.25986],[179.43784,-17.24179],[179.44337,-17.33864],[179.39088,-17.39625]]]]}},{"type":"Feature","properties":{"id":"fj-n","lat":-16.53012,"lng":179.26198},"geometry":{"type":"MultiPolygon","coordinates":[[[[180.0,-16.96278],[179.89015,-16.95387],[180.0,-16.78535],[180.0,-16.96278]]],[[[-179.89765,-16.68353],[-179.81566,-16.77223],[-180.0,-16.96414],[-180.0,-16.78673],[-179.89765,-16.68353]]],[[[178.33399,-16.79339],[178.29021,-16.83441],[178.28004,-16.78672],[178.33399,-16.79339]]],[[[179.88331,-16.65553],[179.91017,-16.63209],[179.95167,-16.60784],[179.9358,-16.65407],[179.88331,-16.65553]]],[[[178.58823,-16.57301],[178.59246,-16.59564],[178.56039,-16.58733],[178.58823,-16.57301]]],[[[180.0,-16.14911],[179.47869,-16.6972],[179.47869,-16.75872],[179.54811,-16.76605],[179.93946,-16.46331],[179.84864,-16.66237],[179.94972,-16.73008],[179.91065,-16.76605],[179.72633,-16.71771],[179.58229,-16.80706],[179.29689,-16.80682],[179.35141,-16.73138],[179.26637,-16.68987],[179.06544,-16.79892],[179.02687,-16.92311],[178.91,-16.84808],[178.7339,-17.00701],[178.6364,-16.80706],[178.48561,-16.79339],[178.58562,-16.66513],[178.53395,-16.629],[178.69109,-16.66985],[178.78834,-16.59694],[178.80095,-16.63584],[178.94272,-16.46038],[179.40357,-16.40797],[179.37615,-16.36077],[179.52027,-16.24481],[179.63014,-16.25897],[179.76442,-16.18141],[179.78093,-16.23113],[179.85597,-16.23113],[180.0,-16.14911]]],[[[180.0,-16.54127],[179.98715,-16.51832],[180.0,-16.48952],[180.0,-16.54127]]],[[[-180.0,-16.48994],[-179.89765,-16.42978],[-180.0,-16.54112],[-180.0,-16.48994]]],[[[179.38966,-16.33359],[179.32814,-16.33359],[179.32814,-16.32659],[179.38966,-16.33359]]],[[[-179.93859,-16.12127],[-179.96178,-16.15472],[-180.0,-16.16961],[-179.93859,-16.12127]]]]}},{"type":"Feature","properties":{"id":"fj-r","lat":-12.50294,"lng":177.07725},"geometry":{"type":"Polygon","coordinates":[[[177.12477,-12.4861],[177.09107,-12.51637],[177.00587,-12.48952],[177.05974,-12.47527],[177.12477,-12.4861]]]}},{"type":"Feature","properties":{"id":"fj-w","lat":-17.79254,"lng":177.69361},"geometry":{"type":"MultiPolygon","coordinates":[[[[174.6159,-21.71111],[174.61411,-21.66823],[174.62778,-21.70257],[174.6159,-21.71111]]],[[[177.65406,-18.50408],[177.6631,-18.58847],[177.6351,-18.48602],[177.65406,-18.50408]]],[[[177.78338,-18.22316],[177.33595,-18.10556],[177.26295,-17.99383],[177.26564,-17.85955],[177.3615,-17.83489],[177.37029,-17.74969],[177.43434,-17.75018],[177.38893,-17.64056],[177.51515,-17.50506],[177.63893,-17.43711],[177.6631,-17.49847],[177.6631,-17.44394],[177.82993,-17.36403],[177.83627,-17.42132],[178.19011,-17.30055],[178.26271,-17.33563],[178.24537,-17.47129],[178.36459,-17.4529],[178.44826,-17.55026],[178.43327,-17.65711],[178.28259,-17.62218],[178.13924,-17.66822],[178.03092,-17.56756],[178.00622,-17.74021],[178.09965,-17.70166],[177.97284,-17.84883],[177.99738,-17.98298],[177.80561,-17.9926],[177.78338,-18.22316]]],[[[177.09392,-17.24529],[177.16285,-17.2658],[177.11183,-17.31032],[177.09392,-17.24529]]],[[[177.29225,-17.05853],[177.23805,-17.1491],[177.17595,-17.16334],[177.21827,-17.07383],[177.29225,-17.05853]]],[[[177.40366,-16.9026],[177.37306,-16.90293],[177.4437,-16.86785],[177.40366,-16.9026]]],[[[177.59401,-16.69996],[177.47136,-16.83441],[177.4297,-16.83441],[177.56072,-16.67685],[177.59401,-16.69996]]]]}}]}
