{"type":"FeatureCollection","features":[{"type":"Feature","properties":{"id":"fm-ksa","lat":5.33088,"lng":162.97822},"geometry":{"type":"Polygon","coordinates":[[[162.99073,5.37482],[163.01922,5.27269],[162.91619,5.28693],[162.99073,5.37482]]]}},{"type":"Feature","properties":{"id":"fm-pni","lat":6.85804,"lng":158.23486},"geometry":{"type":"MultiPolygon","coordinates":[[[[154.8143,0.92577],[154.80177,0.9182],[154.7986,0.92446],[154.8143,0.92577]]],[[[154.73292,0.96703],[154.7151,0.96137],[154.71485,0.96556],[154.73292,0.96703]]],[[[154.79233,0.96288],[154.78435,0.97549],[154.79656,0.96581],[154.79233,0.96288]]],[[[154.8943,3.76284],[154.87924,3.75194],[154.89186,3.7788],[154.8943,3.76284]]],[[[154.77369,3.76626],[154.78932,3.79182],[154.79176,3.77656],[154.77369,3.76626]]],[[[157.15895,5.7779],[157.16391,5.77871],[157.16188,5.77387],[157.15895,5.7779]]],[[[157.93922,6.72736],[157.94581,6.7226],[157.93637,6.71719],[157.93922,6.72736]]],[[[158.32496,6.93114],[158.31381,6.80866],[158.24448,6.78827],[158.18019,6.80248],[158.12582,6.90742],[158.18092,6.97895],[158.32496,6.93114]]],[[[154.30429,8.11184],[154.23845,8.14338],[154.24985,8.17316],[154.30966,8.1671],[154.30429,8.11184]]]]}},{"type":"Feature","properties":{"id":"fm-trk","lat":7.3543,"lng":151.61991},"geometry":{"type":"MultiPolygon","coordinates":[[[[153.67172,5.29767],[153.70769,5.30537],[153.66773,5.28604],[153.67172,5.29767]]],[[[149.3169,6.70991],[149.32569,6.71255],[149.31577,6.69693],[149.3169,6.70991]]],[[[151.8545,7.37006],[151.86524,7.33877],[151.85678,7.3166],[151.8545,7.37006]]],[[[151.65016,7.36937],[151.63429,7.32787],[151.56813,7.34268],[151.62273,7.36591],[151.58863,7.38361],[151.65016,7.36937]]],[[[149.18084,7.38117],[149.1867,7.37613],[149.18572,7.37165],[149.18084,7.38117]]],[[[151.86305,7.46556],[151.91765,7.45873],[151.85621,7.42463],[151.86305,7.46556]]],[[[150.40463,8.58601],[150.40846,8.57929],[150.40748,8.57551],[150.40463,8.58601]]],[[[149.66782,8.60423],[149.68881,8.60733],[149.66871,8.57469],[149.66782,8.60423]]],[[[150.12745,8.98749],[150.12713,8.97915],[150.11818,8.9763],[150.12745,8.98749]]]]}},{"type":"Feature","properties":{"id":"fm-yap","lat":9.46662,"lng":138.09732},"geometry":{"type":"MultiPolygon","coordinates":[[[[138.12623,9.56598],[138.2024,9.52119],[138.14381,9.52131],[138.06813,9.41206],[138.12623,9.56598]]],[[[140.51417,9.76781],[140.53289,9.77192],[140.51539,9.76118],[140.51417,9.76781]]]]}}]}
