{"type":"FeatureCollection","features":[{"type":"Feature","properties":{"id":"fr:auvergne-rhône-alpes","lat":45.44508,"lng":4.80312},"geometry":{"type":"Polygon","coordinates":[[[4.65784,44.28172],[4.52084,44.33683],[4.25115,44.2818],[4.04988,44.3252],[3.8722,44.75091],[3.64347,44.87431],[3.47867,44.82165],[3.3792,44.9568],[3.10707,44.88853],[2.98011,44.64428],[2.92657,44.77809],[2.72673,44.93535],[2.47162,44.66823],[2.18161,44.63123],[2.05871,44.97511],[2.13162,44.99265],[2.10745,45.05095],[2.20688,45.15949],[2.19464,45.2237],[2.34779,45.33971],[2.35183,45.40663],[2.48867,45.39697],[2.51864,45.47924],[2.4651,45.58456],[2.52469,45.69772],[2.39823,45.8218],[2.54189,45.90346],[2.59775,46.00986],[2.5146,46.22581],[2.2539,46.4198],[2.29162,46.46838],[2.61348,46.54946],[2.58087,46.65966],[2.97576,46.79322],[3.20419,46.68727],[3.43352,46.70578],[3.47046,46.64997],[3.62488,46.73926],[3.74094,46.54933],[3.97679,46.46686],[3.99973,46.32634],[3.88646,46.2762],[3.89767,46.2132],[3.99167,46.17636],[4.30001,46.17398],[4.41423,46.29346],[4.59159,46.26244],[4.63815,46.29919],[4.72022,46.18865],[4.79782,46.17175],[4.95998,46.50952],[5.31097,46.45535],[5.50987,46.26069],[5.64786,46.34404],[5.72169,46.27361],[5.87191,46.2719],[6.05901,46.41739],[6.10818,46.3965],[6.09403,46.25304],[5.95853,46.21196],[5.95884,46.13047],[6.10787,46.13863],[6.2812,46.24007],[6.21412,46.31547],[6.30156,46.39448],[6.54702,46.45737],[6.77772,46.42411],[6.75037,46.34552],[6.82768,46.26948],[6.76566,46.1516],[6.86922,46.11233],[6.85093,46.04964],[6.91511,46.04861],[7.02208,45.92526],[6.8008,45.82646],[6.79595,45.71814],[6.96338,45.64073],[6.98281,45.51112],[7.16068,45.41092],[7.09257,45.32395],[7.10838,45.2592],[6.84411,45.13012],[6.73642,45.15735],[6.46961,45.05399],[6.26637,45.12479],[6.22229,45.01725],[6.32532,44.99948],[6.35681,44.85789],[5.99637,44.82197],[5.84504,44.74967],[5.80055,44.65856],[5.65792,44.64141],[5.60811,44.55584],[5.65126,44.49594],[5.47236,44.48933],[5.49794,44.42727],[5.42813,44.42478],[5.49671,44.3482],[5.62703,44.32967],[5.68398,44.25942],[5.67095,44.1511],[5.60378,44.18103],[5.47126,44.12486],[5.37118,44.20609],[5.17749,44.23389],[5.1671,44.30817],[4.83177,44.23667],[4.74382,44.32626],[4.65753,44.32675],[4.65784,44.28172]],[[5.00125,44.32288],[5.04341,44.37774],[4.97866,44.42823],[4.88068,44.33201],[5.00125,44.32288]]]}},{"type":"Feature","properties":{"id":"fr-bfc","lat":47.29498,"lng":4.96299},"geometry":{"type":"Polygon","coordinates":[[[7.00079,47.49767],[6.86664,47.35417],[7.03655,47.32952],[6.66541,47.02129],[6.44264,46.94416],[6.4292,46.76082],[6.13185,46.59561],[6.05901,46.41739],[5.88092,46.27547],[5.72169,46.27361],[5.64786,46.34404],[5.48258,46.26617],[5.31097,46.45535],[4.95998,46.50952],[4.79782,46.17175],[4.72022,46.18865],[4.63815,46.29919],[4.59159,46.26244],[4.41423,46.29346],[4.30001,46.17398],[3.99167,46.17636],[3.89767,46.2132],[3.88646,46.2762],[3.99973,46.32634],[3.97679,46.46686],[3.74094,46.54933],[3.62488,46.73926],[3.47046,46.64997],[3.43352,46.70578],[3.20419,46.68727],[3.03287,46.76852],[3.06842,47.04551],[2.97686,47.26045],[2.87504,47.33712],[2.93184,47.44778],[2.85597,47.53637],[2.96926,47.56759],[2.83088,47.73011],[2.99235,47.79238],[2.99457,47.90726],[3.11793,48.00084],[3.02265,48.13184],[2.92564,48.15593],[3.02791,48.26204],[3.03179,48.35449],[3.39538,48.41174],[3.59987,48.26724],[3.58157,48.18097],[3.73318,48.15721],[3.91628,47.93377],[4.21823,47.97242],[4.28841,47.92426],[4.69851,48.02203],[4.96789,47.84215],[4.98945,47.8008],[4.93157,47.77344],[4.97145,47.69342],[5.17936,47.67657],[5.28379,47.58831],[5.43341,47.67414],[5.6924,47.68567],[5.70433,47.80113],[5.95506,47.97965],[5.97092,47.9409],[6.0994,48.0087],[6.24385,47.93221],[6.37344,47.95302],[6.51835,47.9008],[6.62463,47.94033],[7.05031,47.71558],[7.02344,47.60598],[7.13422,47.54971],[7.14217,47.48765],[7.00079,47.49767]]]}},{"type":"Feature","properties":{"id":"fr:bretagne","lat":48.18677,"lng":-2.69175},"geometry":{"type":"MultiPolygon","coordinates":[[[[-3.07274,47.32832],[-3.22346,47.31216],[-3.26207,47.38325],[-3.24299,47.39533],[-3.07274,47.32832]]],[[[-2.48062,47.47822],[-2.36392,47.50617],[-2.63199,47.51984],[-2.59936,47.52912],[-2.57681,47.55394],[-2.81713,47.49921],[-2.90925,47.55842],[-2.74144,47.55134],[-2.68399,47.62299],[-2.91942,47.59553],[-2.96719,47.6638],[-2.93993,47.56078],[-3.12328,47.59878],[-3.08454,47.47822],[-3.1317,47.47822],[-3.14118,47.59805],[-3.20059,47.63959],[-3.11803,47.73212],[-3.19319,47.74641],[-3.15909,47.71101],[-3.22419,47.6564],[-3.35827,47.69733],[-3.28262,47.69115],[-3.35827,47.71101],[-3.28262,47.78734],[-3.44644,47.70458],[-3.52831,47.77993],[-3.85171,47.80101],[-3.96182,47.89997],[-4.03669,47.85505],[-4.13219,47.9239],[-4.1112,47.86929],[-4.18562,47.87442],[-4.18521,47.81338],[-4.37182,47.8072],[-4.34732,47.86294],[-4.43464,47.97565],[-4.72814,48.0406],[-4.28539,48.11538],[-4.30236,48.19636],[-4.37926,48.23237],[-4.48546,48.24262],[-4.55748,48.17719],[-4.54719,48.25259],[-4.62633,48.28706],[-4.5467,48.34683],[-4.51553,48.29584],[-4.26936,48.2884],[-4.18749,48.30752],[-4.3247,48.32172],[-4.2694,48.36274],[-4.45373,48.33539],[-4.28991,48.43159],[-4.76838,48.3454],[-4.76456,48.52021],[-4.72199,48.56818],[-4.57726,48.56818],[-4.60774,48.60301],[-4.53014,48.60171],[-4.56363,48.62962],[-4.34325,48.67886],[-4.19376,48.65009],[-3.97399,48.73282],[-3.95474,48.65754],[-3.892,48.67805],[-3.85171,48.62962],[-3.81013,48.73322],[-3.58479,48.68281],[-3.52831,48.73949],[-3.58153,48.7906],[-3.51529,48.84195],[-3.39761,48.80732],[-3.21361,48.86982],[-3.22053,48.79413],[-3.10375,48.87665],[-3.07706,48.82827],[-3.12548,48.75995],[-3.00817,48.82144],[-3.04239,48.78791],[-2.93309,48.7674],[-2.68236,48.50902],[-2.48746,48.65009],[-2.31607,48.69855],[-2.28197,48.6706],[-2.33031,48.62962],[-2.25097,48.65009],[-2.21369,48.58185],[-2.05236,48.65009],[-1.98029,48.51358],[-1.93936,48.534],[-2.02554,48.65131],[-1.84374,48.71214],[-1.83821,48.62376],[-1.58967,48.64181],[-1.44826,48.46575],[-1.26573,48.53548],[-1.07908,48.49869],[-1.10166,48.26739],[-1.04063,48.00151],[-1.1677,47.9608],[-1.25101,47.78039],[-1.46171,47.82344],[-1.68532,47.71848],[-2.08103,47.64981],[-2.17926,47.48248],[-2.48062,47.47822]]],[[[-5.069,48.48505],[-5.08796,48.44721],[-5.1328,48.45832],[-5.069,48.48505]]]]}},{"type":"Feature","properties":{"id":"fr:centre-val de loire","lat":47.65084,"lng":1.70522},"geometry":{"type":"Polygon","coordinates":[[[2.85891,47.54425],[2.93215,47.44018],[2.87504,47.33712],[2.97686,47.26045],[3.06842,47.04551],[3.02977,46.79094],[2.62803,46.6893],[2.57621,46.65059],[2.61735,46.55197],[2.34005,46.50057],[2.2539,46.4198],[1.77074,46.452],[1.73688,46.39826],[1.52553,46.41443],[1.41443,46.35094],[1.34491,46.39614],[1.19407,46.37764],[1.14258,46.5122],[0.92411,46.60573],[0.90236,46.72981],[0.67178,46.96598],[0.57244,47.0039],[0.57275,46.95499],[0.32667,46.93853],[0.30699,47.04258],[0.06676,47.15369],[0.24177,47.60289],[0.38501,47.58144],[0.39743,47.63091],[0.60817,47.67076],[0.83719,47.94589],[0.79761,48.06281],[0.91288,48.14719],[0.79838,48.18595],[0.77511,48.31287],[0.97981,48.43311],[0.81642,48.66509],[1.1089,48.77822],[1.32368,48.77537],[1.49281,48.93955],[1.60638,48.74861],[1.5789,48.6929],[1.78498,48.47678],[1.91934,48.44448],[1.99868,48.32552],[1.97227,48.28424],[2.31597,48.32801],[2.51368,48.20662],[2.46681,48.12432],[3.02265,48.13184],[3.11793,48.00084],[2.99457,47.90726],[2.99235,47.79238],[2.8349,47.74912],[2.96926,47.56759],[2.85891,47.54425]]]}},{"type":"Feature","properties":{"id":"fr:corse","lat":42.20368,"lng":9.06239},"geometry":{"type":"MultiPolygon","coordinates":[[[[9.40317,41.95295],[9.40162,41.70645],[9.34669,41.61957],[9.29217,41.62641],[9.3506,41.5812],[9.2107,41.44823],[9.23015,41.38093],[9.09645,41.40351],[9.07985,41.48237],[8.79176,41.56123],[8.80177,41.63907],[8.9227,41.69465],[8.65512,41.7499],[8.78492,41.82441],[8.75082,41.84553],[8.80543,41.90693],[8.61427,41.90078],[8.58627,41.96898],[8.74497,42.05659],[8.55958,42.154],[8.59376,42.17451],[8.54526,42.23286],[8.68775,42.27293],[8.54908,42.3771],[8.65952,42.42988],[8.70916,42.57917],[8.78696,42.562],[9.11785,42.732],[9.29217,42.67475],[9.34254,42.74909],[9.30568,42.83926],[9.34669,43.00373],[9.42237,43.0174],[9.48439,42.83242],[9.44288,42.64057],[9.52809,42.56354],[9.55958,42.14655],[9.40317,41.95295]]],[[[9.48211,42.6201],[9.47682,42.61909],[9.45655,42.64741],[9.48211,42.6201]]]]}},{"type":"Feature","properties":{"id":"fr:grand est","lat":48.78383,"lng":5.73819},"geometry":{"type":"Polygon","coordinates":[[[7.57574,48.05371],[7.62112,47.97144],[7.51187,47.70732],[7.59249,47.59841],[7.37855,47.43065],[7.16833,47.44356],[7.1429,47.54025],[7.02344,47.60598],[7.05031,47.71558],[6.6372,47.93506],[6.24385,47.93221],[6.0994,48.0087],[5.97092,47.9409],[5.94855,47.97638],[5.71595,47.81294],[5.68273,47.6806],[5.43341,47.67414],[5.28379,47.58831],[5.17936,47.67657],[4.97145,47.69342],[4.93157,47.77344],[4.98945,47.8008],[4.96789,47.84215],[4.69851,48.02203],[4.28841,47.92426],[4.21823,47.97242],[3.91628,47.93377],[3.74094,48.15071],[3.58157,48.18097],[3.59987,48.26724],[3.42128,48.36981],[3.40592,48.52472],[3.5378,48.61342],[3.45929,48.6424],[3.39491,48.76015],[3.6708,49.01551],[3.58482,49.04133],[3.62549,49.1384],[3.74667,49.16969],[3.65015,49.30283],[3.87794,49.38101],[4.0466,49.36683],[4.04645,49.6257],[4.23486,49.73671],[4.21594,49.95441],[4.43511,49.93225],[4.64584,49.9845],[4.68192,50.08392],[4.81555,50.16133],[4.87188,50.13978],[4.78392,49.95829],[4.8602,49.91334],[4.84904,49.79417],[5.25924,49.69134],[5.2979,49.61325],[5.40208,49.60245],[5.45613,49.49894],[5.74635,49.54943],[5.9607,49.44132],[6.19355,49.49941],[6.40274,49.46546],[6.51167,49.42474],[6.71378,49.15886],[6.82179,49.14775],[6.83346,49.20945],[6.91439,49.20666],[7.00947,49.1817],[7.04255,49.1076],[7.27437,49.10501],[7.41048,49.16894],[7.63497,49.03778],[7.9319,49.03484],[8.20031,48.95856],[8.09034,48.80751],[7.81025,48.61502],[7.75072,48.34137],[7.57574,48.05371]]]}},{"type":"Feature","properties":{"id":"fr:guadeloupe","lat":16.14588,"lng":-61.65557},"geometry":{"type":"MultiPolygon","coordinates":[[[[-61.62466,15.87124],[-61.62755,15.84699],[-61.63834,15.85322],[-61.62466,15.87124]]],[[[-61.57388,15.88337],[-61.59264,15.85839],[-61.59569,15.86286],[-61.57388,15.88337]]],[[[-61.20425,15.90278],[-61.30508,15.87848],[-61.33202,15.93195],[-61.24389,16.00397],[-61.20425,15.90278]]],[[[-61.55541,16.25825],[-61.56599,16.03352],[-61.69494,15.94916],[-61.79735,16.3122],[-61.73786,16.3653],[-61.55541,16.25825]]],[[[-61.06859,16.30223],[-61.03913,16.34447],[-60.98925,16.34638],[-61.06859,16.30223]]],[[[-61.54833,16.25804],[-61.53429,16.44929],[-61.46251,16.51309],[-61.36571,16.34882],[-61.16356,16.253],[-61.48371,16.20588],[-61.54833,16.25804]]]]}},{"type":"Feature","properties":{"id":"fr:guyane française","lat":3.79597,"lng":-53.02145},"geometry":{"type":"Polygon","coordinates":[[[-54.21118,3.12741],[-54.01936,3.41537],[-53.98882,3.61099],[-54.35386,4.04172],[-54.48672,4.90296],[-54.31133,5.22581],[-54.06111,5.43651],[-53.94435,5.74464],[-52.89652,5.40567],[-52.40233,4.97382],[-52.38899,4.8959],[-52.27912,4.93122],[-52.34048,4.72459],[-52.23192,4.87543],[-52.02453,4.69355],[-51.95075,4.45401],[-52.0463,4.33356],[-51.93651,4.39191],[-51.90917,4.65571],[-51.79308,4.60114],[-51.69005,4.38508],[-51.67223,4.06078],[-51.78319,3.98095],[-52.22792,3.26011],[-52.35533,3.15159],[-52.40928,2.89734],[-52.57578,2.63374],[-52.5904,2.50471],[-52.91715,2.19573],[-53.2685,2.19573],[-53.23419,2.25097],[-53.3441,2.34963],[-53.53179,2.24705],[-53.74217,2.30854],[-53.7648,2.36869],[-53.96391,2.20932],[-54.07667,2.18369],[-54.1114,2.11429],[-54.49266,2.22271],[-54.61529,2.32627],[-54.37562,2.48378],[-54.1702,2.85306],[-54.21118,3.12741]]]}},{"type":"Feature","properties":{"id":"fr:hauts-de-france","lat":49.94713,"lng":2.88138},"geometry":{"type":"Polygon","coordinates":[[[3.14087,49.09315],[2.7458,49.06786],[2.31874,49.17958],[1.71858,49.20356],[1.70508,49.26562],[1.78344,49.25121],[1.71656,49.4238],[1.76949,49.49876],[1.71253,49.50989],[1.68087,49.64508],[1.73486,49.68534],[1.67916,49.69705],[1.75347,49.77681],[1.68087,49.88848],[1.37307,50.06572],[1.52101,50.21467],[1.67254,50.19253],[1.54151,50.2779],[1.61036,50.37067],[1.55519,50.40477],[1.61036,50.54816],[1.58058,50.8688],[1.9214,50.99677],[2.5218,51.08754],[2.60845,50.96113],[2.58675,50.84542],[2.78673,50.72337],[2.88688,50.69665],[3.12925,50.77907],[3.23239,50.69593],[3.27104,50.52694],[3.60829,50.47651],[3.69686,50.29822],[3.75505,50.34633],[4.0033,50.34406],[4.2037,50.25197],[4.12577,50.12816],[4.21001,50.06015],[4.12815,50.00579],[4.24664,49.8808],[4.23486,49.73671],[4.04645,49.6257],[4.0466,49.36683],[3.87794,49.38101],[3.65015,49.30283],[3.74667,49.16969],[3.62549,49.1384],[3.58482,49.04133],[3.6708,49.01551],[3.4779,48.8501],[3.17596,49.00435],[3.14087,49.09315]]]}},{"type":"Feature","properties":{"id":"fr:martinique","lat":14.6225,"lng":-60.98654},"geometry":{"type":"Polygon","coordinates":[[[-60.81041,14.46198],[-60.8706,14.40811],[-60.86852,14.47598],[-61.06957,14.4667],[-61.10587,14.51659],[-60.996,14.56501],[-61.15958,14.66694],[-61.21947,14.8465],[-61.13589,14.8769],[-60.96129,14.74995],[-60.8793,14.77729],[-60.93383,14.75031],[-60.93749,14.66641],[-60.83214,14.5786],[-60.81041,14.46198]]]}},{"type":"Feature","properties":{"id":"fr:mayotte","lat":-12.8163,"lng":45.15154},"geometry":{"type":"MultiPolygon","coordinates":[[[[45.21762,-12.73406],[45.18637,-12.96884],[45.09718,-12.98235],[45.06251,-12.89853],[45.13649,-12.9039],[45.04249,-12.69842],[45.09083,-12.64723],[45.21762,-12.73406]]],[[[45.26222,-12.76336],[45.29086,-12.77402],[45.28256,-12.80486],[45.26222,-12.76336]]]]}},{"type":"Feature","properties":{"id":"fr:normandie","lat":49.11752,"lng":0.02282},"geometry":{"type":"Polygon","coordinates":[[[-0.21947,49.2801],[0.49317,49.4936],[0.25685,49.46406],[0.07659,49.53498],[0.23585,49.72931],[0.59669,49.85724],[1.17262,49.96101],[1.37307,50.06572],[1.68087,49.88848],[1.75035,49.7837],[1.68087,49.64508],[1.71253,49.50989],[1.76949,49.49876],[1.71656,49.4238],[1.78344,49.25121],[1.69216,49.25232],[1.61987,49.08259],[1.44453,49.04269],[1.49281,48.93955],[1.33405,48.78023],[1.1089,48.77822],[0.81642,48.66509],[0.97981,48.43311],[0.78382,48.33137],[0.82741,48.20899],[0.77063,48.18083],[0.40083,48.32416],[0.35194,48.45885],[-0.05273,48.38064],[-0.2335,48.56128],[-0.33793,48.49374],[-0.75437,48.44129],[-0.86271,48.5018],[-1.24782,48.53701],[-1.44826,48.46575],[-1.58967,48.64181],[-1.35656,48.64326],[-1.50267,48.6955],[-1.60293,48.84195],[-1.50796,49.02753],[-1.57946,49.01317],[-1.60875,49.0915],[-1.56949,49.14354],[-1.61042,49.21589],[-1.54841,49.22549],[-1.62466,49.21931],[-1.69913,49.35586],[-1.81648,49.38373],[-1.88467,49.53091],[-1.83951,49.61978],[-1.94563,49.67797],[-1.90836,49.72639],[-1.60668,49.65005],[-1.40949,49.71158],[-1.26305,49.6955],[-1.22777,49.62409],[-1.30626,49.55809],[-1.17569,49.41523],[-1.182,49.35619],[-1.12287,49.34544],[-1.07225,49.3968],[-0.94042,49.39228],[-0.21947,49.2801]]]}},{"type":"Feature","properties":{"id":"fr:nouvelle-aquitaine","lat":44.96302,"lng":0.43965},"geometry":{"type":"MultiPolygon","coordinates":[[[[-1.62189,43.247],[-1.79408,43.38602],[-1.661,43.39968],[-1.47688,43.58006],[-1.25723,44.55606],[-1.18651,44.66547],[-1.04475,44.66942],[-1.17223,44.77827],[-1.26036,44.62743],[-1.13996,45.49006],[-1.08528,45.56904],[-0.76618,45.32608],[-0.71597,45.13451],[-0.53466,44.89496],[-0.59618,45.02464],[-0.49376,44.99799],[-0.65599,45.09911],[-0.79548,45.47712],[-1.2473,45.70991],[-1.23029,45.79243],[-1.16381,45.80671],[-0.98717,45.71735],[-1.15172,45.86815],[-1.07335,45.90436],[-1.11075,46.01838],[-1.04869,46.0388],[-1.20971,46.16616],[-1.09703,46.33461],[-0.96983,46.36244],[-0.95993,46.32007],[-0.75659,46.3012],[-0.55529,46.36973],[-0.62993,46.40851],[-0.62677,46.60656],[-0.71202,46.80205],[-0.94136,47.01331],[-0.63241,46.99243],[-0.53774,47.07026],[-0.2697,47.09723],[-0.11823,47.05734],[-0.00405,47.15656],[0.06676,47.15369],[0.30699,47.04258],[0.32667,46.93853],[0.57275,46.95499],[0.57244,47.0039],[0.67178,46.96598],[0.90236,46.72981],[0.92411,46.60573],[1.14258,46.5122],[1.19407,46.37764],[1.34491,46.39614],[1.41443,46.35094],[1.52553,46.41443],[1.73688,46.39826],[1.77074,46.452],[2.2539,46.4198],[2.5146,46.22581],[2.59529,45.9712],[2.39823,45.8218],[2.52469,45.69772],[2.4651,45.58456],[2.51864,45.47924],[2.48217,45.3918],[2.35183,45.40663],[2.34779,45.33971],[2.19464,45.2237],[2.20688,45.15949],[2.10745,45.05095],[2.13162,44.99265],[1.77786,44.93338],[1.60981,45.02909],[1.48723,45.02935],[1.2996,44.72564],[1.00214,44.53925],[1.06452,44.37843],[0.90423,44.37321],[0.88654,44.31265],[0.9472,44.27291],[0.88948,44.14403],[0.8079,44.14542],[0.67966,44.04046],[0.5925,44.07281],[0.21187,44.0171],[0.08974,43.97287],[0.06437,43.90854],[-0.02398,43.97111],[-0.22192,43.89867],[-0.19528,43.73885],[-0.267,43.62318],[-0.05345,43.52928],[-0.04901,43.42117],[0.007,43.42856],[0.02323,43.33917],[-0.18962,43.03942],[-0.28832,42.99469],[-0.30514,42.83081],[-0.56903,42.77264],[-0.75967,42.9465],[-1.14993,43.00572],[-1.29369,43.0552],[-1.28604,43.10918],[-1.43502,43.03572],[-1.48784,43.08182],[-1.4035,43.24333],[-1.55905,43.28408],[-1.62189,43.247]],[[-0.11228,43.33848],[-0.06448,43.37282],[-0.09929,43.38505],[-0.11228,43.33848]],[[-0.0805,43.27215],[-0.11364,43.30526],[-0.13728,43.28582],[-0.11797,43.24757],[-0.0805,43.27215]]],[[[-1.17772,45.90693],[-1.22688,45.81977],[-1.40494,46.05317],[-1.24763,46.00178],[-1.17772,45.90693]]],[[[-1.25414,46.16242],[-1.50426,46.20767],[-1.55582,46.25178],[-1.25414,46.16242]]]]}},{"type":"Feature","properties":{"id":"fr:occitanie","lat":43.65812,"lng":2.11176},"geometry":{"type":"MultiPolygon","coordinates":[[[[1.08906,42.77132],[0.67937,42.84511],[0.65673,42.68799],[0.35417,42.7175],[0.27539,42.66869],[0.16917,42.72646],[-0.03893,42.68515],[-0.16141,42.79535],[-0.30514,42.83081],[-0.28832,42.99469],[-0.18962,43.03942],[0.02323,43.33917],[0.007,43.42856],[-0.04901,43.42117],[-0.05345,43.52928],[-0.267,43.62318],[-0.19528,43.73885],[-0.22192,43.89867],[-0.02398,43.97111],[0.06437,43.90854],[0.08974,43.97287],[0.21187,44.0171],[0.5925,44.07281],[0.67966,44.04046],[0.8079,44.14542],[0.88948,44.14403],[0.9472,44.27291],[0.88654,44.31265],[0.90423,44.37321],[1.06452,44.37843],[1.00214,44.53925],[1.2996,44.72564],[1.43726,44.88344],[1.42996,45.00009],[1.52258,45.04505],[1.77786,44.93338],[2.05871,44.97511],[2.1568,44.78383],[2.13225,44.69867],[2.20532,44.62234],[2.47162,44.66823],[2.72673,44.93535],[2.92657,44.77809],[2.98011,44.64428],[3.10707,44.88853],[3.3792,44.9568],[3.47867,44.82165],[3.64347,44.87431],[3.8722,44.75091],[4.04988,44.3252],[4.25115,44.2818],[4.37309,44.33967],[4.41812,44.29048],[4.55061,44.32711],[4.65784,44.28172],[4.72595,44.08883],[4.84981,44.01266],[4.64094,43.8706],[4.60879,43.69873],[4.47707,43.69307],[4.45305,43.59099],[4.23128,43.47151],[4.13282,43.48705],[4.10532,43.55187],[3.95297,43.53994],[3.51336,43.28107],[3.31772,43.26309],[3.11402,43.10631],[3.03899,42.94278],[3.04184,42.62906],[3.18097,42.43148],[2.9337,42.47022],[2.69041,42.40617],[2.66219,42.33902],[2.51481,42.32566],[2.27741,42.42863],[1.99567,42.34868],[1.92746,42.43689],[1.71217,42.49371],[1.76509,42.56337],[1.72199,42.60986],[1.54309,42.64936],[1.4293,42.59539],[1.34258,42.70866],[1.15149,42.70672],[1.08906,42.77132]],[[1.9995,42.4439],[1.96797,42.4857],[1.94565,42.46382],[1.9995,42.4439]]],[[[-0.0805,43.27215],[-0.13862,43.27179],[-0.11364,43.30526],[-0.0805,43.27215]]],[[[-0.09929,43.38505],[-0.07993,43.3313],[-0.11228,43.33848],[-0.09929,43.38505]]]]}},{"type":"Feature","properties":{"id":"fr:pays de la loire","lat":47.40998,"lng":-1.12441},"geometry":{"type":"MultiPolygon","coordinates":[[[[-0.96983,46.36244],[-1.2401,46.28425],[-1.78917,46.53294],[-1.7954,46.49453],[-1.9099,46.6918],[-2.11876,46.81997],[-2.12877,46.89346],[-1.99072,47.03539],[-2.03002,47.09211],[-2.24112,47.14248],[-2.16519,47.16787],[-2.16055,47.27119],[-2.01456,47.30012],[-1.80394,47.21898],[-1.72704,47.21076],[-2.01012,47.31973],[-2.27839,47.24641],[-2.44839,47.26659],[-2.54198,47.30012],[-2.43619,47.30703],[-2.55639,47.38325],[-2.43904,47.39631],[-2.39183,47.42365],[-2.45289,47.46185],[-2.29236,47.50589],[-2.17926,47.48248],[-2.0307,47.67122],[-1.68532,47.71848],[-1.46171,47.82344],[-1.25101,47.78039],[-1.1677,47.9608],[-1.04063,48.00151],[-1.10166,48.26739],[-1.07908,48.49869],[-0.86271,48.5018],[-0.75437,48.44129],[-0.33793,48.49374],[-0.2335,48.56128],[-0.05273,48.38064],[0.30993,48.47156],[0.37152,48.44852],[0.41608,48.31576],[0.91288,48.14719],[0.79761,48.06281],[0.84059,47.95465],[0.7447,47.78752],[0.61326,47.7229],[0.60817,47.67076],[0.39743,47.63091],[0.38501,47.58144],[0.24177,47.60289],[0.06676,47.15369],[-0.00405,47.15656],[-0.11823,47.05734],[-0.2697,47.09723],[-0.53774,47.07026],[-0.63241,46.99243],[-0.94136,47.01331],[-0.71202,46.80205],[-0.62677,46.60656],[-0.62993,46.40851],[-0.55815,46.36234],[-0.75659,46.3012],[-0.95993,46.32007],[-0.96983,46.36244]]],[[[-2.26895,46.69741],[-2.37141,46.70429],[-2.38292,46.72264],[-2.33723,46.73159],[-2.26895,46.69741]]],[[[-2.20002,47.02436],[-2.14257,46.90986],[-2.29564,47.03319],[-2.20002,47.02436]]]]}},{"type":"Feature","properties":{"id":"fr-pac","lat":44.04345,"lng":6.22066},"geometry":{"type":"MultiPolygon","coordinates":[[[[6.24188,43.02565],[6.20249,42.98713],[6.16472,43.00507],[6.24188,43.02565]]],[[[6.89824,43.438],[6.7465,43.41791],[6.59724,43.28401],[6.69337,43.27297],[6.6604,43.19041],[6.40168,43.14694],[6.37537,43.09084],[6.2197,43.11655],[6.16293,43.0926],[6.18007,43.03592],[6.09769,43.03126],[6.10966,43.08432],[5.94093,43.13402],[5.87941,43.12043],[5.95138,43.07998],[5.85661,43.04483],[5.67392,43.17989],[5.34698,43.2159],[5.36915,43.27041],[5.29417,43.35547],[5.03402,43.33548],[5.02613,43.40933],[5.22633,43.48029],[5.02914,43.55858],[5.05112,43.42927],[4.86817,43.42145],[4.901,43.36697],[4.85578,43.34178],[4.75782,43.42235],[4.74244,43.52448],[4.69459,43.57909],[4.74252,43.42255],[4.82028,43.34636],[4.59234,43.35989],[4.51303,43.4558],[4.2059,43.45991],[4.45305,43.59099],[4.47707,43.69307],[4.60879,43.69873],[4.64094,43.8706],[4.84748,44.00225],[4.72595,44.08883],[4.65753,44.32675],[4.75917,44.32008],[4.83177,44.23667],[5.1671,44.30817],[5.17749,44.23389],[5.37118,44.20609],[5.47126,44.12486],[5.60378,44.18103],[5.67095,44.1511],[5.68398,44.25942],[5.62703,44.32967],[5.43013,44.41326],[5.50042,44.43098],[5.4674,44.48493],[5.65126,44.49594],[5.60811,44.55584],[5.65792,44.64141],[5.80055,44.65856],[5.84504,44.74967],[6.01296,44.82962],[6.35681,44.85789],[6.32532,44.99948],[6.22229,45.01725],[6.26637,45.12479],[6.45937,45.05358],[6.62939,45.12355],[6.74541,44.9078],[7.00493,44.82796],[7.05516,44.68487],[6.95986,44.68317],[6.83574,44.53403],[6.9178,44.43631],[6.86984,44.36293],[6.9734,44.24945],[7.34062,44.12366],[7.65564,44.17606],[7.69191,44.08465],[7.47787,43.86552],[7.47641,43.76463],[7.15162,43.65477],[7.13892,43.55402],[6.9756,43.54695],[6.89824,43.438]]],[[[5.03219,44.39355],[4.9918,44.3156],[4.88264,44.3232],[4.9499,44.42448],[5.03219,44.39355]]]]}},{"type":"Feature","properties":{"id":"fr:réunion","lat":-21.09336,"lng":55.53348},"geometry":{"type":"Polygon","coordinates":[[[55.69532,-20.93523],[55.8545,-21.157],[55.81202,-21.34254],[55.57504,-21.36793],[55.34962,-21.27142],[55.22543,-21.02972],[55.28745,-20.91172],[55.57838,-20.87477],[55.69532,-20.93523]]]}},{"type":"Feature","properties":{"id":"fr-idf","lat":48.65316,"lng":2.55717},"geometry":{"type":"Polygon","coordinates":[[[2.62649,49.09783],[3.14087,49.09315],[3.17596,49.00435],[3.4779,48.8501],[3.39553,48.75387],[3.5378,48.61342],[3.40592,48.52472],[3.35501,48.37431],[3.03581,48.35818],[3.02791,48.26204],[2.92564,48.15593],[2.46681,48.12432],[2.51368,48.20662],[2.39947,48.31452],[2.19771,48.33871],[1.97227,48.28424],[1.99868,48.32552],[1.91934,48.44448],[1.78498,48.47678],[1.5789,48.6929],[1.57037,48.8454],[1.44346,49.03571],[1.61987,49.08259],[1.69805,49.23066],[1.8857,49.1678],[2.07159,49.21193],[2.31874,49.17958],[2.62649,49.09783]]]}}]}
