{"type":"FeatureCollection","features":[{"type":"Feature","properties":{"id":"ga-1","lat":0.23531,"lng":10.22684},"geometry":{"type":"Polygon","coordinates":[[[10.02944,1.00351],[10.41504,1.00223],[10.36446,0.73179],[10.40415,0.6397],[10.95704,0.82088],[10.95487,0.62389],[10.83276,0.2605],[10.66858,0.21012],[10.5212,-0.07731],[10.01906,-0.41388],[9.90284,-0.30225],[9.56735,-0.41667],[9.57015,-0.578],[9.40271,-0.45765],[9.30611,-0.27165],[9.35532,0.01618],[9.30909,0.32453],[9.3659,0.35155],[9.3602,0.1811],[9.42433,0.2082],[9.48805,0.09833],[9.50424,0.18797],[9.58676,0.11229],[9.71241,0.13483],[9.81218,0.02351],[9.75856,0.12556],[10.02565,0.19546],[9.79225,0.1811],[9.56642,0.31831],[9.49806,0.29096],[9.39869,0.48872],[9.30568,0.54426],[9.30885,0.614],[9.53907,0.68146],[9.55926,0.62153],[9.47779,0.61909],[9.46404,0.59886],[9.57325,0.59886],[9.57325,0.51008],[9.60792,0.46918],[9.6421,0.59886],[9.57895,1.00438],[9.74513,1.05972],[9.79225,0.96882],[9.83411,0.99493],[9.94407,0.92485],[10.02944,1.00351]]]}},{"type":"Feature","properties":{"id":"ga-2","lat":-1.24178,"lng":13.81265},"geometry":{"type":"Polygon","coordinates":[[[13.88805,-0.09209],[13.83216,-0.17709],[13.87743,-0.2605],[14.0954,-0.27662],[14.15968,-0.45511],[14.35864,-0.46131],[14.49899,-0.63092],[14.39202,-1.00898],[14.46581,-1.22437],[14.42633,-1.33103],[14.48772,-1.40937],[14.46313,-1.54869],[14.36484,-1.61204],[14.44876,-1.68625],[14.39729,-1.90681],[14.24505,-1.97481],[14.23379,-2.13449],[14.148,-2.22482],[14.23441,-2.35495],[14.14418,-2.39019],[14.09002,-2.49861],[13.86213,-2.48093],[13.90616,-2.3598],[13.74317,-2.09708],[13.4589,-2.44104],[13.02502,-2.3382],[12.96901,-2.37241],[13.00818,-2.2765],[12.9071,-2.19537],[12.80457,-1.91911],[12.74101,-1.89067],[12.77631,-1.74987],[12.94932,-1.41816],[13.16703,-1.2592],[13.15804,-1.11626],[13.2648,-1.15657],[13.55745,-0.76962],[13.25126,-0.20149],[13.22274,-0.10619],[13.28139,0.04067],[13.72286,-0.00946],[13.88805,-0.09209]]]}},{"type":"Feature","properties":{"id":"ga-3","lat":-0.49602,"lng":10.51896},"geometry":{"type":"Polygon","coordinates":[[[11.58284,0.23011],[11.57028,0.15984],[11.35613,0.04341],[11.28012,-0.07136],[11.56253,-0.75349],[11.38409,-0.7243],[11.15925,-0.57537],[10.78201,-0.64885],[10.66036,-0.62549],[10.35733,-1.16091],[10.19564,-1.14251],[10.0665,-1.25548],[9.91028,-1.16169],[9.92346,-0.93917],[9.74843,-0.89736],[9.63562,-0.78672],[9.56735,-0.41667],[9.90284,-0.30225],[9.9773,-0.33171],[10.00149,-0.41527],[10.11011,-0.37605],[10.54817,-0.04909],[10.66858,0.21012],[11.58284,0.23011]]]}},{"type":"Feature","properties":{"id":"ga-4","lat":-1.74465,"lng":11.0303},"geometry":{"type":"Polygon","coordinates":[[[12.45001,-1.8993],[12.44005,-2.04582],[12.49978,-2.09553],[12.45927,-2.32993],[12.06229,-2.41499],[11.93837,-2.32911],[11.75606,-2.4151],[11.5662,-2.32973],[11.62439,-2.63276],[11.53557,-2.805],[11.06566,-2.26363],[10.60714,-2.30988],[10.44994,-2.05316],[10.45924,-1.96422],[9.97699,-1.82454],[9.8724,-1.67442],[9.96459,-1.58802],[9.96738,-1.41407],[10.0665,-1.25548],[10.19564,-1.14251],[10.35733,-1.16091],[10.65463,-0.63014],[11.15925,-0.57537],[11.38409,-0.7243],[11.56253,-0.75349],[11.49783,-0.89643],[11.54935,-1.1128],[11.75451,-1.06428],[11.80804,-1.20861],[12.02617,-1.39759],[12.02834,-1.63318],[12.20916,-1.81488],[12.45001,-1.8993]]]}},{"type":"Feature","properties":{"id":"ga-5","lat":-3.11045,"lng":11.04575},"geometry":{"type":"Polygon","coordinates":[[[11.53557,-2.805],[11.53075,-2.86675],[11.63679,-2.83326],[11.77838,-3.00565],[11.70645,-3.04989],[11.68753,-3.17102],[11.94437,-3.30321],[11.82778,-3.54805],[11.89765,-3.66608],[11.83833,-3.71094],[11.66593,-3.6914],[11.56982,-3.54495],[11.48259,-3.50929],[11.21252,-3.69729],[11.11402,-3.93686],[11.02129,-3.85782],[10.96378,-3.69149],[10.64643,-3.45191],[10.63543,-3.31365],[9.96172,-2.74541],[10.32565,-2.6448],[10.43009,-2.41024],[10.60714,-2.30988],[11.03993,-2.25376],[11.53557,-2.805]]]}},{"type":"Feature","properties":{"id":"ga-6","lat":0.31352,"lng":12.71287},"geometry":{"type":"Polygon","coordinates":[[[13.18488,1.22262],[13.37694,1.29444],[13.54344,1.28349],[13.79474,1.43444],[14.14449,1.39162],[14.25218,1.33082],[14.28288,1.13011],[14.46809,0.91323],[14.44762,0.81623],[14.32877,0.6212],[14.23182,0.54255],[14.07597,0.53945],[14.05912,0.43527],[13.94523,0.35042],[13.87123,0.19642],[13.93293,0.02207],[13.91071,-0.06589],[13.18315,0.05814],[13.0488,0.22257],[12.61415,0.27662],[12.45757,-0.40235],[11.56253,-0.75349],[11.28027,-0.08036],[11.31629,0.01111],[11.57617,0.17033],[11.47721,0.35218],[12.20482,0.84817],[12.22249,0.99978],[12.35483,1.2347],[13.18488,1.22262]]]}},{"type":"Feature","properties":{"id":"ga-7","lat":-0.82496,"lng":12.51837},"geometry":{"type":"Polygon","coordinates":[[[12.74101,-1.89067],[12.58319,-1.8265],[12.48655,-1.92489],[12.44175,-1.85994],[12.20916,-1.81488],[12.02834,-1.63318],[12.02013,-1.38705],[11.80804,-1.20861],[11.75451,-1.06428],[11.55633,-1.12179],[11.49783,-0.89643],[11.56253,-0.75349],[12.45757,-0.40235],[12.60887,0.27337],[12.73099,0.28143],[12.80468,0.2295],[13.05717,0.21895],[13.12373,0.088],[13.28139,0.04067],[13.22274,-0.10619],[13.25126,-0.20149],[13.559,-0.75303],[13.2648,-1.15657],[13.15804,-1.11626],[13.16703,-1.2592],[12.90958,-1.47061],[12.74101,-1.89067]]]}},{"type":"Feature","properties":{"id":"ga-8","lat":-1.50868,"lng":9.72556},"geometry":{"type":"MultiPolygon","coordinates":[[[[9.96172,-2.74541],[9.70346,-2.44305],[9.79493,-2.50091],[9.8401,-2.45672],[9.85027,-2.52842],[9.97731,-2.62868],[10.16228,-2.56032],[10.08033,-2.49147],[10.094,-2.56032],[10.00831,-2.50514],[9.98414,-2.56032],[9.99155,-2.49147],[9.87452,-2.40936],[9.75196,-2.47039],[9.72397,-2.37908],[9.70346,-2.43572],[9.59702,-2.35223],[9.56577,-2.19256],[9.27125,-1.87664],[9.4673,-1.92246],[9.54322,-2.0709],[9.51775,-1.92645],[9.37452,-1.81927],[9.34051,-1.88828],[9.25538,-1.83522],[9.22006,-1.57977],[9.01661,-1.31585],[8.98357,-1.23089],[9.01938,-1.30478],[9.15919,-1.46803],[9.26466,-1.53533],[9.28028,-1.67506],[9.29754,-1.63454],[9.40203,-1.61444],[9.41554,-1.66969],[9.41554,-1.6076],[9.55958,-1.6076],[9.45655,-1.47047],[9.37908,-1.56292],[9.28663,-1.5661],[9.24855,-1.48203],[9.33416,-1.39861],[9.33546,-1.28338],[9.32293,-1.37086],[9.18572,-1.41058],[9.14649,-1.33229],[9.03004,-1.29909],[9.03305,-1.19345],[8.99724,-1.15521],[8.99415,-1.22039],[8.86744,-0.97698],[8.90772,-1.00856],[8.93572,-0.96347],[8.83961,-0.92246],[8.69557,-0.5866],[8.77231,-0.63323],[8.84441,-0.80023],[8.86606,-0.7195],[8.91456,-0.72324],[8.88795,-0.68157],[8.92905,-0.68727],[9.01149,-0.87461],[9.05201,-0.71063],[9.11451,-0.68157],[9.10084,-0.59971],[9.29217,-0.37371],[9.30611,-0.27165],[9.40271,-0.45765],[9.57015,-0.578],[9.6766,-0.84176],[9.92346,-0.93917],[9.91028,-1.16169],[10.0665,-1.25548],[9.96738,-1.41407],[9.96459,-1.58802],[9.8724,-1.67442],[9.92516,-1.76816],[9.98614,-1.82862],[10.45924,-1.96422],[10.44994,-2.05316],[10.60714,-2.30988],[10.43009,-2.41024],[10.32565,-2.6448],[9.96172,-2.74541]]],[[[9.00465,-0.59287],[9.03875,-0.74375],[8.99293,-0.76116],[8.95167,-0.643],[9.00465,-0.59287]]]]}},{"type":"Feature","properties":{"id":"ga-9","lat":1.29713,"lng":12.27028},"geometry":{"type":"Polygon","coordinates":[[[11.65725,2.32249],[11.76815,2.28017],[12.3216,2.31407],[12.7499,2.23671],[13.25416,2.26689],[13.29136,2.06894],[13.16217,1.89983],[13.19101,1.82873],[13.12962,1.59246],[13.25126,1.33765],[13.15018,1.25662],[13.18488,1.22262],[12.35483,1.2347],[12.22249,0.99978],[12.20482,0.84817],[11.47721,0.35218],[11.58284,0.23011],[10.80702,0.23177],[10.96965,0.67484],[10.96122,0.8183],[10.40415,0.6397],[10.36446,0.73179],[10.41504,1.00223],[11.33634,0.99916],[11.35164,2.30058],[11.65725,2.32249]]]}}]}
