{"type":"FeatureCollection","features":[{"type":"Feature","properties":{"id":"gb-abd","lat":57.22294,"lng":-2.71083},"geometry":{"type":"Polygon","coordinates":[[[-2.82119,57.70283],[-1.99767,57.70283],[-1.82946,57.61347],[-1.75935,57.47358],[-2.04467,57.22651],[-2.30011,57.21938],[-2.26792,57.16393],[-2.34662,57.08788],[-2.06526,57.10053],[-2.18692,56.98469],[-2.21988,56.87263],[-2.43594,56.74038],[-2.61973,56.78496],[-2.68614,56.91689],[-2.87256,56.98464],[-3.05947,56.96412],[-3.12089,56.89048],[-3.7964,56.93022],[-3.73698,57.07719],[-3.34545,57.08933],[-3.33225,57.17589],[-3.1899,57.25661],[-3.00942,57.27568],[-2.96684,57.32707],[-2.9918,57.47675],[-2.70714,57.51344],[-2.82305,57.63374],[-2.82119,57.70283]]]}},{"type":"Feature","properties":{"id":"gb-abe","lat":57.18761,"lng":-2.16504},"geometry":{"type":"Polygon","coordinates":[[[-2.04467,57.22651],[-2.06526,57.10053],[-2.35287,57.09954],[-2.27505,57.14871],[-2.28399,57.23547],[-2.04467,57.22651]]]}},{"type":"Feature","properties":{"id":"gb-agb","lat":56.46105,"lng":-5.87587},"geometry":{"type":"MultiPolygon","coordinates":[[[[-6.02929,55.69623],[-6.28734,55.57844],[-6.31924,55.62824],[-6.24324,55.66014],[-6.32519,55.7154],[-6.24999,55.77684],[-6.34903,55.77342],[-6.46296,55.67446],[-6.5039,55.72285],[-6.44522,55.84882],[-6.33137,55.88996],[-6.3109,55.81843],[-6.14013,55.94135],[-6.02929,55.69623]]],[[[-5.69083,56.13784],[-5.96207,55.80476],[-6.06241,55.80947],[-6.07519,55.91596],[-5.88634,55.97614],[-5.9807,55.96992],[-5.95519,56.03473],[-5.69083,56.13784]]],[[[-6.26989,56.03754],[-6.13337,56.11262],[-6.17431,56.04377],[-6.26989,56.03754]]],[[[-5.67032,56.39379],[-5.74234,56.41429],[-5.78392,56.36591],[-5.70271,56.36457],[-5.8087,56.31891],[-5.87267,56.35773],[-6.26684,56.26349],[-6.36612,56.32217],[-6.24722,56.31167],[-6.02082,56.38202],[-6.20324,56.38032],[-6.01667,56.50365],[-6.12743,56.47435],[-6.33821,56.55207],[-6.2904,56.57197],[-6.32519,56.60611],[-6.15128,56.6518],[-6.05826,56.6402],[-5.96255,56.52611],[-5.71036,56.48485],[-5.64843,56.44774],[-5.67032,56.39379]]],[[[-6.23746,56.47004],[-6.21532,56.50365],[-6.16002,56.46955],[-6.23746,56.47004]]],[[[-6.74332,56.51781],[-6.88158,56.44428],[-6.9899,56.50365],[-6.7672,56.54857],[-6.74332,56.51781]]],[[[-6.45254,56.68842],[-6.67789,56.55825],[-6.70189,56.58564],[-6.45254,56.68842]]],[[[-5.0808,55.47167],[-5.16356,55.43488],[-5.34569,55.48265],[-5.39289,55.64655],[-5.29735,55.72285],[-5.18065,55.69489],[-5.0808,55.47167]]],[[[-5.01618,55.72285],[-5.11559,55.78437],[-5.19953,55.91108],[-5.08092,55.87958],[-5.01618,55.72285]]],[[[-4.59062,55.94152],[-4.83918,56.08063],[-4.77892,55.99209],[-4.85155,55.98802],[-4.86685,56.05834],[-4.75552,56.20653],[-4.85167,56.11262],[-4.92052,56.16791],[-4.89265,55.98973],[-4.9547,55.99657],[-4.91369,55.96186],[-4.98314,55.87104],[-5.12361,56.00991],[-5.07824,55.91096],[-5.18065,55.96931],[-5.24205,55.89289],[-5.20108,55.83149],[-5.33483,55.89667],[-5.33829,55.99657],[-4.92052,56.27778],[-5.36864,56.00943],[-5.44441,56.02757],[-5.45499,55.95563],[-5.31778,55.78303],[-5.4901,55.6446],[-5.45499,55.59195],[-5.58462,55.42744],[-5.52505,55.35863],[-5.61628,55.30659],[-5.78287,55.31354],[-5.6809,55.67446],[-5.45499,55.84577],[-5.59944,55.76423],[-5.66039,55.79735],[-5.67406,55.84577],[-5.57103,55.93452],[-5.6964,55.91596],[-5.57103,56.03754],[-5.70751,55.94257],[-5.57746,56.09699],[-5.53161,56.08633],[-5.5587,56.13081],[-5.50963,56.18838],[-5.60578,56.13996],[-5.49283,56.2604],[-5.59215,56.24982],[-5.57258,56.32807],[-5.44811,56.35969],[-5.53751,56.35969],[-5.45702,56.44086],[-5.20873,56.44685],[-5.11852,56.50776],[-5.06456,56.56513],[-5.20108,56.4621],[-5.46862,56.47574],[-5.42764,56.53783],[-5.35668,56.51968],[-5.24205,56.56513],[-5.41393,56.54466],[-5.35192,56.61294],[-4.62059,56.64662],[-4.5584,56.57019],[-4.69283,56.548],[-4.6394,56.4718],[-4.83696,56.36995],[-4.77895,56.31827],[-4.64925,56.3208],[-4.68054,56.19843],[-4.59809,56.07782],[-4.59062,55.94152]]],[[[-5.67366,56.17894],[-5.74913,56.16108],[-5.6809,56.19457],[-5.67366,56.17894]]],[[[-5.66666,56.22248],[-5.61059,56.24942],[-5.63744,56.18928],[-5.66666,56.22248]]],[[[-5.63313,56.31875],[-5.59899,56.28392],[-5.64029,56.28278],[-5.63313,56.31875]]],[[[-5.50276,56.42113],[-5.55797,56.38646],[-5.58462,56.38703],[-5.50276,56.42113]]]]}},{"type":"Feature","properties":{"id":"gb-agy","lat":53.22895,"lng":-4.35016},"geometry":{"type":"MultiPolygon","coordinates":[[[[-4.06892,53.31037],[-4.22203,53.18212],[-4.40661,53.1306],[-4.38512,53.18244],[-4.49535,53.17988],[-4.57103,53.27546],[-4.57103,53.39277],[-4.3247,53.4195],[-4.20324,53.29849],[-4.06892,53.31037]]],[[[-4.62629,53.32087],[-4.57189,53.23949],[-4.69396,53.30964],[-4.62629,53.32087]]]]}},{"type":"Feature","properties":{"id":"gb-ans","lat":56.73208,"lng":-2.88926},"geometry":{"type":"Polygon","coordinates":[[[-2.43594,56.74038],[-2.51456,56.5915],[-2.72765,56.46955],[-2.88297,56.51818],[-3.1119,56.47877],[-3.16879,56.53128],[-3.08422,56.60714],[-3.33504,56.72377],[-3.39508,56.88149],[-3.27473,56.93022],[-3.12089,56.89048],[-3.05947,56.96412],[-2.87256,56.98464],[-2.68614,56.91689],[-2.61973,56.78496],[-2.43594,56.74038]]]}},{"type":"Feature","properties":{"id":"gb-ant","lat":54.68434,"lng":-6.2463},"geometry":{"type":"Polygon","coordinates":[[[-6.49864,54.70622],[-6.48068,54.78273],[-6.15257,54.80715],[-6.04557,54.77438],[-6.0225,54.66245],[-6.43097,54.56747],[-6.42084,54.6547],[-6.49864,54.70622]]]}},{"type":"Feature","properties":{"id":"gb-ard","lat":54.5088,"lng":-5.73365},"geometry":{"type":"Polygon","coordinates":[[[-5.56497,54.6723],[-5.43078,54.48517],[-5.50202,54.33967],[-5.57665,54.40278],[-5.55801,54.51191],[-5.64489,54.56778],[-5.71565,54.53669],[-5.6256,54.51626],[-5.67032,54.50568],[-5.63996,54.49575],[-5.64588,54.45869],[-5.81868,54.49161],[-5.75698,54.61579],[-5.56497,54.6723]]]}},{"type":"Feature","properties":{"id":"gb-arm","lat":54.30901,"lng":-6.61821},"geometry":{"type":"Polygon","coordinates":[[[-6.73284,54.18357],[-6.88218,54.27726],[-6.79589,54.41301],[-6.55471,54.46334],[-6.37477,54.34077],[-6.37395,54.26718],[-6.73284,54.18357]]]}},{"type":"Feature","properties":{"id":"gb-bas","lat":51.34476,"lng":-2.51947},"geometry":{"type":"Polygon","coordinates":[[[-2.29014,51.3249],[-2.45811,51.273],[-2.71487,51.34263],[-2.52268,51.41883],[-2.28066,51.42027],[-2.33368,51.34689],[-2.29014,51.3249]]]}},{"type":"Feature","properties":{"id":"gb-bbd","lat":53.69367,"lng":-2.45423},"geometry":{"type":"Polygon","coordinates":[[[-2.44656,53.77258],[-2.36029,53.64939],[-2.50444,53.62701],[-2.5256,53.73796],[-2.44656,53.77258]]]}},{"type":"Feature","properties":{"id":"gb-bdf","lat":52.18558,"lng":-0.45141},"geometry":{"type":"Polygon","coordinates":[[[-0.57366,52.09661],[-0.64396,52.2519],[-0.54118,52.24578],[-0.50306,52.30301],[-0.25308,52.1919],[-0.32471,52.17925],[-0.39346,52.06649],[-0.57366,52.09661]]]}},{"type":"Feature","properties":{"id":"gb-bdg","lat":51.5705,"lng":0.13491},"geometry":{"type":"Polygon","coordinates":[[[0.1524,51.59892],[0.16604,51.50011],[0.09687,51.49774],[0.07458,51.54207],[0.1524,51.59892]]]}},{"type":"Feature","properties":{"id":"gb-ben","lat":51.57515,"lng":-0.26588},"geometry":{"type":"Polygon","coordinates":[[[-0.179,51.5283],[-0.27437,51.52631],[-0.32553,51.54931],[-0.2668,51.60099],[-0.179,51.5283]]]}},{"type":"Feature","properties":{"id":"gb-bex","lat":51.46027,"lng":0.17929},"geometry":{"type":"Polygon","coordinates":[[[0.08031,51.43154],[0.22464,51.489],[0.16625,51.39852],[0.08031,51.43154]]]}},{"type":"Feature","properties":{"id":"gb-bfs","lat":54.60786,"lng":-5.94574},"geometry":{"type":"Polygon","coordinates":[[[-5.91434,54.64684],[-5.81613,54.593],[-5.96808,54.54024],[-6.06588,54.62271],[-5.91434,54.64684]]]}},{"type":"Feature","properties":{"id":"gb-bge","lat":51.52168,"lng":-3.60083},"geometry":{"type":"Polygon","coordinates":[[[-3.57531,51.42044],[-3.74804,51.50092],[-3.64032,51.54244],[-3.68251,51.58745],[-3.65362,51.63995],[-3.46183,51.58982],[-3.57531,51.42044]]]}},{"type":"Feature","properties":{"id":"gb-bgw","lat":51.75529,"lng":-3.16476},"geometry":{"type":"Polygon","coordinates":[[[-3.10676,51.70398],[-3.29062,51.80661],[-3.15686,51.81074],[-3.10676,51.70398]]]}},{"type":"Feature","properties":{"id":"gb-bir","lat":52.46517,"lng":-1.88823},"geometry":{"type":"Polygon","coordinates":[[[-1.74113,52.49747],[-1.79022,52.49343],[-1.77126,52.41758],[-1.83535,52.38056],[-1.99584,52.37882],[-2.03057,52.4369],[-1.83169,52.58775],[-1.74113,52.49747]]]}},{"type":"Feature","properties":{"id":"gb-bkm","lat":51.75731,"lng":-0.8026},"geometry":{"type":"Polygon","coordinates":[[[-0.95001,52.07382],[-0.65721,51.94789],[-0.68807,51.90272],[-0.5342,51.82689],[-0.73003,51.82771],[-0.52668,51.73493],[-0.4972,51.47779],[-0.56864,51.52714],[-0.67874,51.49407],[-0.71897,51.56334],[-0.88707,51.54809],[-0.94449,51.61912],[-0.88449,51.71633],[-1.10866,51.77968],[-1.1253,51.8341],[-1.04724,51.83301],[-1.05308,51.99272],[-1.14176,52.0177],[-0.95001,52.07382]]]}},{"type":"Feature","properties":{"id":"gb-bla","lat":54.87438,"lng":-6.24814},"geometry":{"type":"Polygon","coordinates":[[[-6.48068,54.78273],[-6.50694,54.91603],[-6.19254,55.02827],[-5.94477,54.83273],[-6.48068,54.78273]]]}},{"type":"Feature","properties":{"id":"gb-bly","lat":55.04941,"lng":-6.40016},"geometry":{"type":"Polygon","coordinates":[[[-6.50694,54.91603],[-6.61385,55.07664],[-6.57285,55.13105],[-6.22809,55.12051],[-6.19559,55.02217],[-6.50694,54.91603]]]}},{"type":"Feature","properties":{"id":"gb-bmh","lat":50.73156,"lng":-1.86826},"geometry":{"type":"Polygon","coordinates":[[[-1.79746,50.72317],[-1.8969,50.71604],[-1.92853,50.73995],[-1.87029,50.75142],[-1.79746,50.72317]]]}},{"type":"Feature","properties":{"id":"gb-bnb","lat":54.31578,"lng":-6.1562},"geometry":{"type":"Polygon","coordinates":[[[-6.3439,54.26521],[-6.3917,54.40107],[-6.16641,54.44412],[-5.9378,54.36635],[-5.96754,54.24994],[-6.3439,54.26521]]]}},{"type":"Feature","properties":{"id":"gb-bne","lat":51.59711,"lng":-0.18381},"geometry":{"type":"Polygon","coordinates":[[[-0.23838,51.6722],[-0.11998,51.62786],[-0.1627,51.56636],[-0.29243,51.6291],[-0.23838,51.6722]]]}},{"type":"Feature","properties":{"id":"gb-bnh","lat":50.84877,"lng":-0.15223},"geometry":{"type":"Polygon","coordinates":[[[0.01755,50.78486],[-0.20891,50.8301],[-0.23058,50.86744],[-0.1528,50.89131],[0.01755,50.78486]]]}},{"type":"Feature","properties":{"id":"gb-bns","lat":53.50562,"lng":-1.49705},"geometry":{"type":"Polygon","coordinates":[[[-1.40606,53.41101],[-1.58972,53.49727],[-1.81614,53.51606],[-1.56057,53.60663],[-1.35252,53.59383],[-1.29474,53.51397],[-1.40606,53.41101]]]}},{"type":"Feature","properties":{"id":"gb-bol","lat":53.56864,"lng":-2.44229},"geometry":{"type":"Polygon","coordinates":[[[-2.33547,53.53434],[-2.51138,53.53817],[-2.55891,53.59911],[-2.37644,53.63492],[-2.33547,53.53434]]]}},{"type":"Feature","properties":{"id":"gb-bpl","lat":53.7967,"lng":-3.00801},"geometry":{"type":"Polygon","coordinates":[[[-3.02147,53.7458],[-3.05663,53.90615],[-3.01757,53.93195],[-2.94528,53.84761],[-3.02147,53.7458]]]}},{"type":"Feature","properties":{"id":"gb-brc","lat":51.39063,"lng":-0.78022},"geometry":{"type":"Polygon","coordinates":[[[-0.7653,51.33134],[-0.8529,51.35008],[-0.828,51.46969],[-0.68224,51.43118],[-0.7653,51.33134]]]}},{"type":"Feature","properties":{"id":"gb-brd","lat":53.81676,"lng":-1.78337},"geometry":{"type":"Polygon","coordinates":[[[-1.72865,53.9027],[-1.64724,53.76415],[-1.75642,53.7388],[-1.97781,53.86937],[-1.94365,53.95769],[-1.72865,53.9027]]]}},{"type":"Feature","properties":{"id":"gb-bry","lat":51.34048,"lng":0.06162},"geometry":{"type":"Polygon","coordinates":[[[0.16625,51.39852],[0.06884,51.28245],[-0.0763,51.41585],[0.03716,51.43924],[0.16625,51.39852]]]}},{"type":"Feature","properties":{"id":"gb-bst","lat":51.46174,"lng":-2.59579},"geometry":{"type":"Polygon","coordinates":[[[-2.72939,51.49622],[-2.67875,51.5313],[-2.52883,51.48048],[-2.52082,51.42291],[-2.6335,51.38213],[-2.63056,51.44301],[-2.72939,51.49622]]]}},{"type":"Feature","properties":{"id":"gb-bur","lat":53.55913,"lng":-2.30843},"geometry":{"type":"Polygon","coordinates":[[[-2.30526,53.50414],[-2.37644,53.63492],[-2.35362,53.6669],[-2.2581,53.61412],[-2.30526,53.50414]]]}},{"type":"Feature","properties":{"id":"gb-cam","lat":52.36937,"lng":-0.02251},"geometry":{"type":"Polygon","coordinates":[[[-0.10919,52.01936],[-0.132,52.13356],[-0.21667,52.13274],[-0.4856,52.34856],[-0.33561,52.45551],[-0.41436,52.55964],[-0.28677,52.50413],[-0.05446,52.58875],[-0.0495,52.65787],[0.17237,52.72433],[0.15705,52.67017],[0.24586,52.60134],[0.23389,52.50687],[0.44721,52.43218],[0.38967,52.39019],[0.51028,52.27464],[0.3497,52.25771],[0.5047,52.22828],[0.49861,52.1608],[0.43166,52.14493],[0.39107,52.03548],[0.28663,52.08494],[0.10636,52.05491],[0.08054,52.00243],[-0.01144,52.0516],[-0.10919,52.01936]]]}},{"type":"Feature","properties":{"id":"gb-cay","lat":51.64308,"lng":-3.16064},"geometry":{"type":"Polygon","coordinates":[[[-3.03188,51.60574],[-3.10916,51.58724],[-3.10239,51.54311],[-3.22752,51.54512],[-3.33385,51.78991],[-3.07056,51.68041],[-3.03188,51.60574]]]}},{"type":"Feature","properties":{"id":"gb-cbf","lat":51.96179,"lng":-0.50394},"geometry":{"type":"Polygon","coordinates":[[[-0.68807,51.90272],[-0.65838,52.03884],[-0.57366,52.09661],[-0.39346,52.06649],[-0.32471,52.17925],[-0.25308,52.1919],[-0.21667,52.13274],[-0.132,52.13356],[-0.20086,52.00995],[-0.46454,51.91363],[-0.45268,51.84743],[-0.50808,51.80162],[-0.68807,51.90272]]]}},{"type":"Feature","properties":{"id":"gb-cgn","lat":52.29905,"lng":-3.952},"geometry":{"type":"Polygon","coordinates":[[[-4.69681,52.06835],[-4.19713,52.27928],[-4.05655,52.52945],[-3.86782,52.55607],[-3.81312,52.48134],[-3.72473,52.49884],[-3.76085,52.43742],[-3.65197,52.34745],[-3.73116,52.31882],[-3.70114,52.27384],[-3.76292,52.10612],[-3.935,52.1224],[-4.4096,52.02825],[-4.69681,52.06835]]]}},{"type":"Feature","properties":{"id":"gb-cgv","lat":54.46049,"lng":-6.38459},"geometry":{"type":"Polygon","coordinates":[[[-6.43503,54.37715],[-6.58362,54.50827],[-6.26558,54.60494],[-6.29641,54.56912],[-6.21476,54.4127],[-6.43503,54.37715]]]}},{"type":"Feature","properties":{"id":"gb-che","lat":53.12973,"lng":-2.36246},"geometry":{"type":"Polygon","coordinates":[[[-2.01677,53.37044],[-1.97688,53.2073],[-2.36587,53.05216],[-2.37882,52.98956],[-2.57782,52.95356],[-2.66748,53.04834],[-2.41031,53.23204],[-2.50904,53.33085],[-2.42879,53.38033],[-2.1595,53.32135],[-2.01677,53.37044]]]}},{"type":"Feature","properties":{"id":"gb-chw","lat":53.16693,"lng":-2.72984},"geometry":{"type":"Polygon","coordinates":[[[-2.9568,53.1446],[-2.91798,53.18926],[-3.09594,53.28714],[-2.50904,53.33085],[-2.41031,53.23204],[-2.65335,53.09074],[-2.62281,52.98576],[-2.72773,52.96654],[-2.81835,52.98948],[-2.9568,53.1446]]]}},{"type":"Feature","properties":{"id":"gb-ckf","lat":54.74077,"lng":-5.8261},"geometry":{"type":"Polygon","coordinates":[[[-5.6921,54.77045],[-5.87791,54.68231],[-5.90586,54.71216],[-5.8892,54.76937],[-5.6921,54.77045]]]}},{"type":"Feature","properties":{"id":"gb-ckt","lat":54.60835,"lng":-6.69723},"geometry":{"type":"Polygon","coordinates":[[[-6.53117,54.53876],[-6.96143,54.57662],[-6.99502,54.73077],[-6.55952,54.72715],[-6.41808,54.64008],[-6.43604,54.56918],[-6.53117,54.53876]]]}},{"type":"Feature","properties":{"id":"gb-cld","lat":53.74753,"lng":-1.97164},"geometry":{"type":"Polygon","coordinates":[[[-2.15139,53.69652],[-2.12061,53.79134],[-2.00282,53.86994],[-1.73887,53.70371],[-2.0239,53.63936],[-2.15139,53.69652]]]}},{"type":"Feature","properties":{"id":"gb-clk","lat":56.15032,"lng":-3.72653},"geometry":{"type":"Polygon","coordinates":[[[-3.74649,56.07278],[-3.85728,56.11874],[-3.82441,56.19254],[-3.5542,56.18189],[-3.74649,56.07278]]]}},{"type":"Feature","properties":{"id":"gb-clr","lat":55.01088,"lng":-6.68495},"geometry":{"type":"Polygon","coordinates":[[[-6.83842,55.17542],[-6.54612,55.22519],[-6.51753,55.14328],[-6.61385,55.07664],[-6.52042,54.94512],[-6.78113,54.91107],[-6.83842,55.17542]]]}},{"type":"Feature","properties":{"id":"gb-cma","lat":54.60938,"lng":-2.91428},"geometry":{"type":"Polygon","coordinates":[[[-3.02606,55.05075],[-2.68501,55.19083],[-2.48532,55.07938],[-2.59198,54.96662],[-2.5417,54.923],[-2.59363,54.88272],[-2.56364,54.82355],[-2.39998,54.84719],[-2.30502,54.78322],[-2.35393,54.69077],[-2.16309,54.52799],[-2.15519,54.45564],[-2.2767,54.43549],[-2.34724,54.35022],[-2.30975,54.24328],[-2.67112,54.15855],[-2.83643,54.1676],[-2.79597,54.24873],[-2.9392,54.1551],[-3.03576,54.22598],[-3.14538,54.06379],[-3.24096,54.11213],[-3.20739,54.26301],[-3.30679,54.19188],[-3.63418,54.51288],[-3.38793,54.88337],[-3.25463,54.89981],[-3.31729,54.92032],[-3.27652,54.94343],[-3.02184,54.95441],[-3.09073,54.95441],[-3.02184,54.96809],[-3.02606,55.05075]]]}},{"type":"Feature","properties":{"id":"gb-cmd","lat":51.52696,"lng":-0.14502},"geometry":{"type":"Polygon","coordinates":[[[-0.1627,51.56636],[-0.11221,51.50244],[-0.20474,51.55148],[-0.1627,51.56636]]]}},{"type":"Feature","properties":{"id":"gb-cmn","lat":51.88729,"lng":-4.21287},"geometry":{"type":"Polygon","coordinates":[[[-4.07055,51.67597],[-4.3153,51.67748],[-4.37926,51.72687],[-4.31046,51.73371],[-4.3651,51.78905],[-4.63926,51.73316],[-4.64981,51.81751],[-4.76771,51.83079],[-4.69327,51.9088],[-4.49468,51.96019],[-4.55633,52.0391],[-4.23571,52.03186],[-4.07267,52.10431],[-3.70669,52.11465],[-3.64199,52.04189],[-3.72168,51.86577],[-3.8,51.78526],[-4.00975,51.75496],[-4.07055,51.67597]]]}},{"type":"Feature","properties":{"id":"gb-con","lat":50.42438,"lng":-4.66943},"geometry":{"type":"Polygon","coordinates":[[[-4.20369,50.45139],[-4.28991,50.39737],[-4.19376,50.3769],[-4.19376,50.32225],[-4.33772,50.37067],[-4.69433,50.34345],[-4.7633,50.32209],[-4.80016,50.22956],[-5.00243,50.14411],[-5.05297,50.19579],[-5.04345,50.14411],[-5.12597,50.09634],[-5.05651,50.06061],[-5.19115,49.95913],[-5.30435,50.08027],[-5.47484,50.13044],[-5.61946,50.04621],[-5.71565,50.08271],[-5.68464,50.16153],[-5.43798,50.19432],[-5.14989,50.35016],[-4.99559,50.54816],[-4.84484,50.51407],[-4.92052,50.58918],[-4.79247,50.5952],[-4.57726,50.77473],[-4.54813,50.92299],[-4.45835,50.92105],[-4.41781,50.85493],[-4.4853,50.78605],[-4.37699,50.7644],[-4.27059,50.54245],[-4.18227,50.50661],[-4.23695,50.46255],[-4.20369,50.45139]]]}},{"type":"Feature","properties":{"id":"gb-cov","lat":52.39758,"lng":-1.5401},"geometry":{"type":"Polygon","coordinates":[[[-1.64005,52.35078],[-1.61946,52.4444],[-1.4381,52.42936],[-1.4628,52.3658],[-1.64005,52.35078]]]}},{"type":"Feature","properties":{"id":"gb-crf","lat":51.50409,"lng":-3.18246},"geometry":{"type":"Polygon","coordinates":[[[-3.07651,51.50775],[-3.17272,51.45311],[-3.29137,51.50042],[-3.15642,51.553],[-3.07651,51.50775]]]}},{"type":"Feature","properties":{"id":"gb-cry","lat":51.35395,"lng":-0.07445},"geometry":{"type":"Polygon","coordinates":[[[-0.13133,51.3872],[-0.0764,51.41433],[0.01313,51.32069],[-0.1281,51.28912],[-0.13133,51.3872]]]}},{"type":"Feature","properties":{"id":"gb-csr","lat":54.51675,"lng":-5.87447},"geometry":{"type":"Polygon","coordinates":[[[-5.75698,54.61579],[-5.86811,54.4791],[-5.95475,54.5544],[-5.75698,54.61579]]]}},{"type":"Feature","properties":{"id":"gb-cwy","lat":53.1351,"lng":-3.75088},"geometry":{"type":"Polygon","coordinates":[[[-4.00043,53.24873],[-3.83129,53.28913],[-3.87841,53.33759],[-3.7163,53.28693],[-3.51346,53.30893],[-3.4749,53.16988],[-3.58567,53.08741],[-3.47746,53.0565],[-3.46154,52.9764],[-3.60112,53.00689],[-3.78795,52.93669],[-3.89482,53.00881],[-3.97993,52.99594],[-4.00825,53.10032],[-3.92709,53.20078],[-4.00043,53.24873]]]}},{"type":"Feature","properties":{"id":"gb-dal","lat":54.48773,"lng":-1.50225},"geometry":{"type":"Polygon","coordinates":[[[-1.4126,54.59998],[-1.44921,54.44438],[-1.68178,54.53109],[-1.67276,54.59155],[-1.4126,54.59998]]]}},{"type":"Feature","properties":{"id":"gb-dby","lat":53.09647,"lng":-1.55154},"geometry":{"type":"Polygon","coordinates":[[[-1.97688,53.2073],[-2.01313,53.41994],[-1.89722,53.53301],[-1.58194,53.33023],[-1.61005,53.30579],[-1.16029,53.28579],[-1.19088,53.16771],[-1.30976,53.14275],[-1.32973,53.0502],[-1.23263,52.8807],[-1.58308,52.68495],[-1.70036,52.72614],[-1.6084,52.8305],[-1.84086,52.90468],[-1.74557,52.99992],[-1.80368,53.14854],[-1.97688,53.2073]],[[-1.43164,52.84184],[-1.42192,52.92271],[-1.53843,52.89791],[-1.49422,52.84721],[-1.43164,52.84184]]]}},{"type":"Feature","properties":{"id":"gb-den","lat":53.11317,"lng":-3.36031},"geometry":{"type":"Polygon","coordinates":[[[-3.51346,53.30893],[-3.36046,53.35115],[-3.34088,53.21882],[-3.18244,53.13893],[-3.09482,52.96374],[-3.47002,52.86194],[-3.42338,52.97077],[-3.47746,53.0565],[-3.58567,53.08741],[-3.4749,53.16988],[-3.51346,53.30893]]]}},{"type":"Feature","properties":{"id":"gb-der","lat":52.89308,"lng":-1.46938},"geometry":{"type":"Polygon","coordinates":[[[-1.48667,52.9378],[-1.40146,52.90979],[-1.43164,52.84184],[-1.54602,52.87636],[-1.48667,52.9378]]]}},{"type":"Feature","properties":{"id":"gb-dev","lat":50.74384,"lng":-3.65375},"geometry":{"type":"MultiPolygon","coordinates":[[[[-2.96276,50.72329],[-3.36815,50.61709],[-3.46443,50.67853],[-3.43334,50.61026],[-3.50537,50.50816],[-3.64659,50.44754],[-3.52693,50.3498],[-3.63199,50.31232],[-3.64562,50.22602],[-3.78897,50.21239],[-3.94994,50.319],[-4.10827,50.33662],[-4.04181,50.3993],[-4.23695,50.46255],[-4.18227,50.50661],[-4.27059,50.54245],[-4.37699,50.7644],[-4.4853,50.78605],[-4.41781,50.85493],[-4.45835,50.92105],[-4.54813,50.92299],[-4.52644,51.01496],[-4.33772,50.99665],[-4.208,51.07636],[-4.22851,51.19245],[-3.76915,51.24771],[-3.71224,51.23833],[-3.72421,51.17853],[-3.82113,51.17719],[-3.81278,51.12882],[-3.59613,51.06298],[-3.59975,51.01187],[-3.42227,51.02939],[-3.15724,50.94857],[-3.14753,50.89689],[-3.04751,50.90578],[-3.0303,50.85162],[-2.88227,50.79716],[-2.96276,50.72329]]],[[[-4.67121,51.19505],[-4.67048,51.1601],[-4.67642,51.1931],[-4.67121,51.19505]]]]}},{"type":"Feature","properties":{"id":"gb-dgn","lat":54.44678,"lng":-6.94821},"geometry":{"type":"Polygon","coordinates":[[[-6.87002,54.326],[-7.01784,54.41317],[-7.2317,54.3219],[-7.36446,54.43022],[-7.11279,54.47104],[-6.96143,54.57662],[-6.52781,54.53977],[-6.58362,54.50827],[-6.55471,54.46334],[-6.79589,54.41301],[-6.87002,54.326]]]}},{"type":"Feature","properties":{"id":"gb-dgy","lat":55.04116,"lng":-3.87242},"geometry":{"type":"Polygon","coordinates":[[[-2.85029,55.11129],[-3.02606,55.05075],[-3.05029,54.98151],[-3.57055,54.99543],[-3.58169,54.88361],[-3.81697,54.88618],[-3.8579,54.84455],[-3.82384,54.82469],[-3.96418,54.77192],[-4.04288,54.76948],[-4.06404,54.83153],[-4.12296,54.77302],[-4.20055,54.86628],[-4.27074,54.83942],[-4.4029,54.90729],[-4.41723,54.84593],[-4.34447,54.7945],[-4.38239,54.68008],[-4.85912,54.86628],[-4.95482,54.80476],[-4.85912,54.63296],[-4.95368,54.65973],[-4.9547,54.7285],[-5.12824,54.84894],[-5.18065,54.95441],[-5.11514,55.03156],[-5.01309,54.90961],[-5.0325,54.99372],[-4.63056,55.05385],[-4.64751,55.11968],[-4.55114,55.15911],[-4.41864,55.14299],[-4.29699,55.30774],[-4.1353,55.28412],[-4.09419,55.39605],[-3.97642,55.46245],[-3.82588,55.44633],[-3.64225,55.28965],[-3.5003,55.40967],[-3.23998,55.42576],[-3.3039,55.34272],[-3.20752,55.37218],[-3.03449,55.27301],[-2.87866,55.27218],[-2.85029,55.11129]]]}},{"type":"Feature","properties":{"id":"gb-dnc","lat":53.49588,"lng":-1.11922},"geometry":{"type":"Polygon","coordinates":[[[-1.34446,53.58076],[-0.86002,53.63244],[-0.90449,53.57161],[-0.87196,53.53079],[-1.11807,53.37855],[-1.32536,53.47779],[-1.29474,53.51397],[-1.34446,53.58076]]]}},{"type":"Feature","properties":{"id":"gb-dnd","lat":56.49654,"lng":-2.91738},"geometry":{"type":"Polygon","coordinates":[[[-2.81934,56.4713],[-3.05565,56.45213],[-3.07934,56.4749],[-2.88297,56.51818],[-2.81934,56.4713]]]}},{"type":"Feature","properties":{"id":"gb-dor","lat":50.80982,"lng":-2.36253},"geometry":{"type":"Polygon","coordinates":[[[-1.67292,50.74006],[-1.99473,50.76993],[-2.08267,50.69896],[-1.95279,50.67658],[-1.9652,50.6022],[-2.39835,50.64558],[-2.46007,50.60651],[-2.45954,50.52766],[-2.48351,50.5904],[-2.69294,50.69282],[-2.94557,50.72581],[-2.88227,50.79716],[-2.94852,50.82248],[-2.61446,50.88547],[-2.54196,51.0019],[-2.45168,50.95131],[-2.33778,50.98299],[-2.37143,51.0066],[-2.32169,51.08329],[-2.09919,50.95575],[-1.97031,50.9927],[-1.80503,50.9294],[-1.83921,50.89131],[-1.79973,50.78243],[-1.67292,50.74006]]]}},{"type":"Feature","properties":{"id":"gb-dow","lat":54.28864,"lng":-5.77193},"geometry":{"type":"Polygon","coordinates":[[[-5.6385,54.46357],[-5.70885,54.35175],[-5.5797,54.38369],[-5.54068,54.32734],[-5.63996,54.23505],[-6.02694,54.16967],[-6.07838,54.23385],[-5.96754,54.24994],[-5.94281,54.40965],[-5.86811,54.4791],[-5.6385,54.46357]]]}},{"type":"Feature","properties":{"id":"gb-dry","lat":54.87994,"lng":-7.13094},"geometry":{"type":"Polygon","coordinates":[[[-7.41575,54.94437],[-7.35502,55.04093],[-7.14989,55.04866],[-7.01029,54.81552],[-7.41575,54.94437]]]}},{"type":"Feature","properties":{"id":"gb-dud","lat":52.49487,"lng":-2.13233},"geometry":{"type":"Polygon","coordinates":[[[-2.07821,52.55743],[-2.09006,52.48869],[-2.03057,52.4369],[-2.15387,52.42295],[-2.17754,52.50106],[-2.07821,52.55743]]]}},{"type":"Feature","properties":{"id":"gb-dur","lat":54.66909,"lng":-1.81881},"geometry":{"type":"Polygon","coordinates":[[[-1.34082,54.87268],[-1.24535,54.7254],[-1.33366,54.64741],[-1.48321,54.57248],[-1.67276,54.59155],[-1.68178,54.53109],[-1.9306,54.45466],[-2.15519,54.45564],[-2.16309,54.52799],[-2.35393,54.69077],[-2.30502,54.78322],[-1.99308,54.86466],[-1.90419,54.83412],[-1.82006,54.90466],[-1.59532,54.89262],[-1.47417,54.79697],[-1.34082,54.87268]]]}},{"type":"Feature","properties":{"id":"gb-eal","lat":51.51003,"lng":-0.35674},"geometry":{"type":"Polygon","coordinates":[[[-0.23662,51.52647],[-0.39268,51.4936],[-0.40679,51.53138],[-0.30633,51.54541],[-0.23662,51.52647]]]}},{"type":"Feature","properties":{"id":"gb-eay","lat":55.47789,"lng":-4.21423},"geometry":{"type":"Polygon","coordinates":[[[-4.48515,55.38556],[-4.42657,55.51777],[-4.58207,55.59131],[-4.50106,55.64544],[-4.62576,55.665],[-4.51794,55.75928],[-4.25098,55.68595],[-4.17263,55.60643],[-4.19669,55.55232],[-3.96081,55.5403],[-3.99918,55.43801],[-4.09419,55.39605],[-4.11336,55.29993],[-4.29699,55.30774],[-4.41864,55.14299],[-4.4675,55.15782],[-4.44461,55.2819],[-4.57829,55.38856],[-4.48515,55.38556]]]}},{"type":"Feature","properties":{"id":"gb-edh","lat":55.92995,"lng":-3.26706},"geometry":{"type":"Polygon","coordinates":[[[-3.44976,55.99677],[-3.12182,55.96931],[-3.08748,55.89059],[-3.39529,55.81732],[-3.44976,55.99677]]]}},{"type":"Feature","properties":{"id":"gb-edu","lat":55.9718,"lng":-4.192},"geometry":{"type":"Polygon","coordinates":[[[-4.14225,56.02857],[-4.10977,55.95281],[-4.03959,55.95281],[-4.05556,55.91132],[-4.35999,55.91188],[-4.36479,55.9756],[-4.26529,55.968],[-4.27725,56.02521],[-4.14225,56.02857]]]}},{"type":"Feature","properties":{"id":"gb-eln","lat":55.92153,"lng":-2.7062},"geometry":{"type":"Polygon","coordinates":[[[-3.06119,55.94784],[-2.80281,56.06485],[-2.3604,55.95268],[-2.43587,55.89522],[-2.39644,55.87217],[-2.82088,55.82166],[-3.06119,55.94784]]]}},{"type":"Feature","properties":{"id":"gb-els","lat":58.12397,"lng":-6.65584},"geometry":{"type":"MultiPolygon","coordinates":[[[[-7.38199,56.98754],[-7.4608,56.94318],[-7.55675,56.95307],[-7.44921,57.05858],[-7.38199,56.98754]]],[[[-7.21182,57.30488],[-7.25674,57.23672],[-7.35302,57.24291],[-7.25772,57.17976],[-7.34618,57.14793],[-7.23912,57.10053],[-7.35302,57.09956],[-7.45543,57.23672],[-7.38972,57.31196],[-7.40844,57.39558],[-7.26358,57.37393],[-7.29841,57.36709],[-7.22265,57.33979],[-7.39395,57.38076],[-7.21182,57.30488]]],[[[-7.36962,57.48933],[-7.20543,57.41861],[-7.40762,57.44562],[-7.36962,57.48933]]],[[[-7.06505,57.63398],[-7.21589,57.64142],[-7.10603,57.59296],[-7.31208,57.55207],[-7.1339,57.5384],[-7.23632,57.50361],[-7.54483,57.59296],[-7.47655,57.66193],[-7.39656,57.63532],[-7.31208,57.68854],[-7.06505,57.63398]]],[[[-13.69042,57.59781],[-13.68859,57.59626],[-13.69131,57.5965],[-13.69042,57.59781]]],[[[-7.18016,57.73469],[-7.19896,57.70795],[-7.22265,57.70966],[-7.18016,57.73469]]],[[[-8.55223,57.81891],[-8.59089,57.80476],[-8.621,57.8332],[-8.60529,57.8264],[-8.55223,57.81891]]],[[[-6.99706,57.89354],[-7.07934,57.89468],[-6.99739,57.91511],[-6.99706,57.89354]]],[[[-6.9735,57.73334],[-7.12507,57.8369],[-6.83226,57.90209],[-7.11278,57.99022],[-6.93464,58.05231],[-7.05822,58.03864],[-7.02404,58.07958],[-7.11278,58.10008],[-7.11278,58.18203],[-7.0172,58.18944],[-7.03087,58.2447],[-6.90734,58.21678],[-6.93708,58.21101],[-6.85961,58.10688],[-6.8695,58.18944],[-6.70938,58.18944],[-6.81859,58.2851],[-6.26741,58.51203],[-6.20539,58.48127],[-6.16686,58.4195],[-6.21532,58.36762],[-6.16747,58.3465],[-6.36612,58.23725],[-6.15071,58.25837],[-6.16002,58.21678],[-6.40026,58.20995],[-6.37296,58.14106],[-6.61937,58.08641],[-6.40709,58.10688],[-6.35245,58.03864],[-6.54491,58.01752],[-6.45547,57.96971],[-6.5598,57.91523],[-6.62987,57.95673],[-6.61937,57.91511],[-6.70938,58.00389],[-6.59203,58.05854],[-6.6883,58.05854],[-6.76403,58.00389],[-6.66096,57.88032],[-6.78702,57.89883],[-6.74193,57.83149],[-6.85269,57.8332],[-6.9735,57.73334]]],[[[-6.87328,58.20995],[-6.88004,58.25776],[-6.79125,58.20995],[-6.87328,58.20995]]]]}},{"type":"Feature","properties":{"id":"gb-enf","lat":51.6272,"lng":-0.0745},"geometry":{"type":"Polygon","coordinates":[[[-0.1481,51.68909],[-0.01126,51.67721],[-0.0026,51.64661],[-0.02997,51.60106],[-0.13053,51.60778],[-0.1481,51.68909]]]}},{"type":"Feature","properties":{"id":"gb-erw","lat":55.73137,"lng":-4.32684},"geometry":{"type":"Polygon","coordinates":[[[-4.51794,55.75928],[-4.25684,55.80347],[-4.22103,55.70345],[-4.28423,55.69081],[-4.51794,55.75928]]]}},{"type":"Feature","properties":{"id":"gb-ery","lat":53.89849,"lng":-0.512},"geometry":{"type":"Polygon","coordinates":[[[-0.39808,54.16992],[-0.07551,54.11213],[-0.21947,54.02277],[0.13347,53.64265],[0.14926,53.60961],[0.1312,53.57343],[0.05616,53.64126],[-0.11262,53.63752],[-0.36033,53.78984],[-0.4497,53.7143],[-0.65836,53.72797],[-0.84405,53.61383],[-1.10975,53.67548],[-0.92557,53.72272],[-0.96368,53.74297],[-0.88935,54.00714],[-0.66838,54.00714],[-0.39808,54.16992]]]}},{"type":"Feature","properties":{"id":"gb-ess","lat":51.79596,"lng":0.52576},"geometry":{"type":"Polygon","coordinates":[[[0.78779,51.95466],[1.28199,51.9466],[1.19955,51.87767],[1.28826,51.86058],[1.06544,51.77529],[0.97983,51.84357],[0.87371,51.7473],[0.69858,51.72004],[0.94557,51.73371],[0.91147,51.62385],[0.95183,51.61701],[0.82828,51.54185],[0.68578,51.57721],[0.56886,51.50837],[0.31988,51.55794],[0.24808,51.62744],[0.08388,51.60104],[-0.01284,51.64992],[0.03556,51.76826],[0.19028,51.81663],[0.18994,51.89022],[0.14165,51.88386],[0.08246,51.98329],[0.10636,52.05491],[0.67834,52.07718],[0.78779,51.95466]]]}},{"type":"Feature","properties":{"id":"gb-esx","lat":50.94767,"lng":0.36247},"geometry":{"type":"Polygon","coordinates":[[[0.86977,50.92512],[0.36524,50.819],[0.27101,50.74738],[0.01755,50.78486],[-0.12862,50.88255],[-0.10557,50.97022],[-0.01588,50.9819],[0.01913,51.05048],[-0.02893,51.07745],[0.02135,51.13585],[0.1325,51.14411],[0.33136,51.11993],[0.56971,50.99994],[0.76329,50.99715],[0.86977,50.92512]]]}},{"type":"Feature","properties":{"id":"gb-fal","lat":55.95041,"lng":-3.78074},"geometry":{"type":"Polygon","coordinates":[[[-3.7391,56.05071],[-3.50533,56.00559],[-3.80888,55.89522],[-4.01127,56.01219],[-3.7391,56.05071]]]}},{"type":"Feature","properties":{"id":"gb-fer","lat":54.383,"lng":-7.6772},"geometry":{"type":"Polygon","coordinates":[[[-8.00219,54.54344],[-7.70795,54.60476],[-7.54891,54.56522],[-7.55922,54.42911],[-7.36446,54.43022],[-7.25309,54.32826],[-7.19031,54.33689],[-7.15333,54.22424],[-7.24909,54.19742],[-7.28004,54.12615],[-7.32598,54.15458],[-7.31032,54.11468],[-7.60901,54.1399],[-7.85644,54.21142],[-7.88026,54.28702],[-8.17384,54.46174],[-8.00219,54.54344]]]}},{"type":"Feature","properties":{"id":"gb-fif","lat":56.24189,"lng":-2.98839},"geometry":{"type":"Polygon","coordinates":[[[-3.26241,56.35283],[-2.885,56.45799],[-2.80281,56.42797],[-2.80281,56.3454],[-2.57681,56.27778],[-2.7836,56.19196],[-2.96434,56.20563],[-3.16356,56.06387],[-3.34268,56.02717],[-3.74649,56.07278],[-3.56892,56.14939],[-3.27473,56.16577],[-3.26419,56.2191],[-3.36279,56.26468],[-3.24336,56.30607],[-3.26241,56.35283]]]}},{"type":"Feature","properties":{"id":"gb-fln","lat":53.19677,"lng":-3.14289},"geometry":{"type":"Polygon","coordinates":[[[-3.37568,53.3322],[-2.91145,53.17471],[-3.12275,53.06637],[-3.34088,53.21882],[-3.37568,53.3322]]]}},{"type":"Feature","properties":{"id":"gb-gat","lat":54.97128,"lng":-1.71106},"geometry":{"type":"Polygon","coordinates":[[[-1.57732,54.88598],[-1.85058,54.91967],[-1.74947,55.00274],[-1.51922,54.93981],[-1.57732,54.88598]]]}},{"type":"Feature","properties":{"id":"gb-glg","lat":55.82473,"lng":-4.24437},"geometry":{"type":"Polygon","coordinates":[[[-4.35578,55.86403],[-4.26947,55.91607],[-4.0699,55.85551],[-4.2263,55.7845],[-4.34735,55.79396],[-4.35578,55.86403]]]}},{"type":"Feature","properties":{"id":"gb-gls","lat":51.82009,"lng":-2.17389},"geometry":{"type":"Polygon","coordinates":[[[-2.66535,51.61726],[-2.67577,51.78666],[-2.63614,51.85353],[-2.43447,51.89663],[-2.46088,52.01967],[-2.25172,51.96272],[-2.15997,51.99491],[-2.16477,52.04049],[-2.11493,52.04215],[-2.13002,51.99522],[-1.83198,52.00799],[-1.86334,52.06271],[-1.75782,52.10576],[-1.61227,52.02659],[-1.70922,51.77493],[-1.64927,51.67374],[-2.05726,51.66411],[-2.27164,51.57716],[-2.28616,51.62271],[-2.37726,51.59385],[-2.3792,51.63576],[-2.53549,51.67295],[-2.38854,51.75043],[-2.39806,51.78213],[-2.66535,51.61726]]]}},{"type":"Feature","properties":{"id":"gb-gre","lat":51.46156,"lng":0.06548},"geometry":{"type":"Polygon","coordinates":[[[0.06744,51.4226],[0.00801,51.50053],[0.12051,51.5028],[0.06744,51.4226]]]}},{"type":"Feature","properties":{"id":"gb-gwn","lat":52.90959,"lng":-3.76885},"geometry":{"type":"Polygon","coordinates":[[[-3.94734,52.55088],[-4.05313,52.54243],[-4.12548,52.60391],[-3.98827,52.73428],[-4.04882,52.72158],[-4.14904,52.81208],[-4.07763,52.92666],[-4.40661,52.89252],[-4.51647,52.7895],[-4.76285,52.7895],[-4.12222,53.23347],[-4.00043,53.24873],[-3.92709,53.20078],[-4.00825,53.10032],[-3.97993,52.99594],[-3.89482,53.00881],[-3.78795,52.93669],[-3.60112,53.00689],[-3.42338,52.97077],[-3.47697,52.84494],[-3.58724,52.81161],[-3.60145,52.69549],[-3.79697,52.67467],[-3.94734,52.55088]]]}},{"type":"Feature","properties":{"id":"gb-hal","lat":53.33676,"lng":-2.67321},"geometry":{"type":"Polygon","coordinates":[[[-2.7755,53.29987],[-2.69978,53.35179],[-2.81033,53.32172],[-2.74112,53.38827],[-2.56945,53.3123],[-2.7755,53.29987]]]}},{"type":"Feature","properties":{"id":"gb-ham","lat":51.05701,"lng":-1.22914},"geometry":{"type":"Polygon","coordinates":[[[-0.9298,50.83999],[-1.1647,50.84365],[-1.15111,50.7814],[-1.31859,50.85692],[-1.30867,50.92128],[-1.4257,50.94103],[-1.46642,50.91193],[-1.31729,50.80024],[-1.56119,50.71898],[-1.7865,50.76868],[-1.83921,50.89131],[-1.80503,50.9294],[-1.95006,50.98826],[-1.61057,50.95968],[-1.69645,51.23661],[-1.53835,51.24493],[-1.52672,51.32968],[-1.39947,51.37051],[-0.81974,51.34883],[-0.72974,51.2916],[-0.73114,51.24385],[-0.84002,51.20385],[-0.74419,51.10412],[-0.89087,51.00991],[-0.9298,50.83999]]]}},{"type":"Feature","properties":{"id":"gb-hav","lat":51.56944,"lng":0.23428},"geometry":{"type":"Polygon","coordinates":[[[0.1524,51.59892],[0.24808,51.62744],[0.33611,51.53995],[0.19072,51.48267],[0.1524,51.59892]]]}},{"type":"Feature","properties":{"id":"gb-hck","lat":51.53419,"lng":-0.05971},"geometry":{"type":"Polygon","coordinates":[[[-0.07203,51.51598],[-0.0903,51.57099],[-0.01064,51.55241],[-0.07203,51.51598]]]}},{"type":"Feature","properties":{"id":"gb-hef","lat":52.06031,"lng":-2.72035},"geometry":{"type":"Polygon","coordinates":[[[-3.05125,51.9835],[-3.12466,52.12896],[-2.95638,52.2641],[-2.99948,52.29621],[-2.90225,52.38078],[-2.69502,52.30355],[-2.64089,52.33221],[-2.60697,52.24175],[-2.44752,52.25846],[-2.34977,52.10669],[-2.35158,52.01393],[-2.47225,51.99716],[-2.43447,51.89663],[-2.65888,51.81766],[-3.05125,51.9835]]]}},{"type":"Feature","properties":{"id":"gb-hil","lat":51.51308,"lng":-0.44072},"geometry":{"type":"Polygon","coordinates":[[[-0.3678,51.54838],[-0.42273,51.45366],[-0.4972,51.47779],[-0.48141,51.61605],[-0.39979,51.61478],[-0.3678,51.54838]]]}},{"type":"Feature","properties":{"id":"gb-hld","lat":57.60623,"lng":-5.07148},"geometry":{"type":"MultiPolygon","coordinates":[[[[-6.25097,57.02656],[-6.30362,56.944],[-6.45547,57.00397],[-6.36425,57.05565],[-6.25097,57.02656]]],[[[-6.5563,57.07014],[-6.48965,57.05858],[-6.60635,57.05174],[-6.5563,57.07014]]],[[[-6.01391,57.31745],[-5.95572,57.3216],[-5.92544,57.29169],[-5.98485,57.29043],[-6.01391,57.31745]]],[[[-6.69595,57.36441],[-6.78384,57.45645],[-6.7224,57.45645],[-6.71593,57.51423],[-6.6068,57.44391],[-6.63061,57.50178],[-6.56412,57.50361],[-6.65477,57.55207],[-6.64045,57.60733],[-6.3109,57.46263],[-6.41568,57.64582],[-6.3109,57.70283],[-6.15388,57.58955],[-6.13337,57.47626],[-6.18798,57.39435],[-6.12654,57.40803],[-6.09923,57.33234],[-6.15388,57.30561],[-5.90062,57.24291],[-5.64737,57.26463],[-5.69091,57.18952],[-6.00674,57.02839],[-5.98693,57.11823],[-5.84537,57.1883],[-5.98624,57.17463],[-6.04402,57.22993],[-6.08861,57.12743],[-6.16446,57.20136],[-6.31835,57.16104],[-6.27672,57.20197],[-6.34561,57.1883],[-6.34561,57.24291],[-6.48217,57.31184],[-6.3109,57.29816],[-6.46296,57.34658],[-6.47594,57.40119],[-6.53063,57.41547],[-6.58056,57.33881],[-6.69595,57.36441]]],[[[-6.06908,57.4361],[-5.98721,57.50288],[-5.98949,57.34732],[-6.07193,57.33234],[-6.06908,57.4361]]],[[[-5.96825,57.51789],[-5.9757,57.57233],[-5.95519,57.5725],[-5.96825,57.51789]]],[[[-5.31778,56.66132],[-4.99559,56.71597],[-5.23827,56.71662],[-5.11974,56.81843],[-5.67406,56.49689],[-5.77025,56.53783],[-5.74913,56.57197],[-5.85436,56.55048],[-6.00817,56.64228],[-5.54369,56.69546],[-6.16173,56.67821],[-6.2364,56.71906],[-5.75666,56.78486],[-5.85119,56.82892],[-5.73388,56.84479],[-5.66039,56.87299],[-5.92113,56.89411],[-5.8522,56.90034],[-5.83169,56.99714],[-5.75524,57.02656],[-5.65856,56.97948],[-5.52326,56.99714],[-5.79113,57.05927],[-5.71565,57.12006],[-5.55826,57.10041],[-5.40038,57.10639],[-5.6809,57.1579],[-5.57824,57.26675],[-5.40722,57.22993],[-5.50194,57.27766],[-5.44066,57.31928],[-5.72932,57.29816],[-5.50129,57.371],[-5.44811,57.4217],[-5.56347,57.3631],[-5.63996,57.37393],[-5.61962,57.41669],[-5.80777,57.35493],[-5.87267,57.49372],[-5.83918,57.57929],[-5.63996,57.51105],[-5.51269,57.54149],[-5.66039,57.54458],[-5.8059,57.64265],[-5.79076,57.69599],[-5.67406,57.70966],[-5.80382,57.74384],[-5.81119,57.8332],[-5.69864,57.86909],[-5.66039,57.79222],[-5.60578,57.77049],[-5.58528,57.83145],[-5.65355,57.89468],[-5.61262,57.92878],[-5.48705,57.85586],[-5.41491,57.90815],[-5.22159,57.84687],[-5.39289,57.9182],[-5.3662,57.94306],[-5.07079,57.8332],[-5.44701,58.08438],[-5.30077,58.07014],[-5.29735,58.13483],[-5.24205,58.14789],[-5.39208,58.26138],[-4.93358,58.22305],[-4.982,58.25092],[-4.92675,58.26459],[-5.05012,58.25991],[-5.17321,58.35395],[-5.14306,58.41478],[-5.01618,58.38813],[-5.09805,58.41478],[-4.99559,58.43651],[-5.10562,58.50556],[-5.00495,58.61774],[-4.83593,58.60505],[-4.81811,58.52464],[-4.77652,58.60716],[-4.66002,58.55585],[-4.76098,58.44798],[-4.58495,58.57416],[-4.4265,58.54637],[-4.49535,58.44953],[-4.34386,58.53889],[-4.02904,58.59516],[-3.36408,58.60082],[-3.41291,58.65559],[-3.37487,58.67707],[-3.01911,58.64033],[-3.12926,58.51264],[-3.05333,58.46577],[-3.12979,58.36929],[-4.00194,57.93561],[-4.08438,57.96418],[-3.98827,57.90827],[-4.00935,57.86791],[-4.2989,57.86278],[-4.39241,57.90827],[-4.30773,57.85147],[-3.91478,57.80768],[-3.78604,57.86542],[-3.98827,57.69599],[-4.04296,57.73729],[-4.29479,57.68016],[-4.42846,57.57754],[-4.20189,57.67499],[-4.00935,57.68854],[-4.10497,57.57929],[-4.2626,57.55207],[-4.19481,57.4916],[-4.03498,57.55687],[-4.08385,57.58613],[-3.75461,57.62633],[-3.68142,57.50827],[-3.7184,57.40549],[-3.49808,57.45745],[-3.39785,57.42135],[-3.39085,57.37024],[-3.48671,57.30524],[-3.43668,57.18855],[-3.73698,57.07719],[-3.7964,56.93022],[-4.17783,56.90743],[-4.43657,56.7784],[-4.51419,56.80356],[-4.58643,56.69246],[-4.70865,56.64145],[-4.9244,56.65944],[-5.07521,56.60724],[-5.31778,56.66132]]]]}},{"type":"Feature","properties":{"id":"gb-hmf","lat":51.51042,"lng":-0.22884},"geometry":{"type":"Polygon","coordinates":[[[-0.17117,51.47265],[-0.24453,51.49438],[-0.23662,51.52647],[-0.17117,51.47265]]]}},{"type":"Feature","properties":{"id":"gb-hns","lat":51.4626,"lng":-0.35267},"geometry":{"type":"Polygon","coordinates":[[[-0.39268,51.4936],[-0.2367,51.48719],[-0.38442,51.41366],[-0.4403,51.438],[-0.39268,51.4936]]]}},{"type":"Feature","properties":{"id":"gb-hpl","lat":54.66397,"lng":-1.26064},"geometry":{"type":"Polygon","coordinates":[[[-1.24535,54.7254],[-1.17223,54.70124],[-1.20935,54.60662],[-1.38849,54.62669],[-1.24535,54.7254]]]}},{"type":"Feature","properties":{"id":"gb-hrt","lat":51.84674,"lng":-0.08857},"geometry":{"type":"Polygon","coordinates":[[[-0.01126,51.67721],[-0.1481,51.68909],[-0.49345,51.59093],[-0.52668,51.73493],[-0.73003,51.82771],[-0.36447,51.82604],[-0.37501,51.97802],[-0.25476,51.97859],[-0.14613,52.06966],[-0.10919,52.01936],[0.05137,52.04328],[0.19917,51.86577],[0.15803,51.79048],[0.03556,51.76826],[-0.01126,51.67721]]]}},{"type":"Feature","properties":{"id":"gb-hrw","lat":51.57468,"lng":-0.34889},"geometry":{"type":"Polygon","coordinates":[[[-0.2668,51.60099],[-0.3678,51.54838],[-0.39979,51.61478],[-0.29362,51.63835],[-0.2668,51.60099]]]}},{"type":"Feature","properties":{"id":"gb-hry","lat":51.58733,"lng":-0.06192},"geometry":{"type":"Polygon","coordinates":[[[-0.05273,51.5736],[-0.1627,51.56636],[-0.02997,51.60106],[-0.05273,51.5736]]]}},{"type":"Feature","properties":{"id":"gb-ios","lat":49.92072,"lng":-6.30288},"geometry":{"type":"MultiPolygon","coordinates":[[[[-6.30744,49.92744],[-6.28751,49.91401],[-6.30915,49.91364],[-6.30744,49.92744]]],[[[-6.34179,49.96361],[-6.34122,49.94477],[-6.34895,49.96434],[-6.34179,49.96361]]]]}},{"type":"Feature","properties":{"id":"gb-iow","lat":50.68568,"lng":-1.3065},"geometry":{"type":"Polygon","coordinates":[[[-1.08275,50.71332],[-1.16845,50.60346],[-1.2792,50.58251],[-1.56949,50.65803],[-1.31851,50.77216],[-1.08275,50.71332]]]}},{"type":"Feature","properties":{"id":"gb-isl","lat":51.55982,"lng":-0.11912},"geometry":{"type":"Polygon","coordinates":[[[-0.07027,51.546],[-0.12691,51.55365],[-0.12851,51.566],[-0.07027,51.546]]]}},{"type":"Feature","properties":{"id":"gb-ivc","lat":55.89753,"lng":-4.74373},"geometry":{"type":"Polygon","coordinates":[[[-4.88882,55.8653],[-4.87214,55.9372],[-4.79939,55.95791],[-4.62683,55.92975],[-4.58421,55.86346],[-4.88882,55.8653]]]}},{"type":"Feature","properties":{"id":"gb-kec","lat":51.50187,"lng":-0.17786},"geometry":{"type":"Polygon","coordinates":[[[-0.17117,51.47265],[-0.19582,51.52001],[-0.14285,51.48373],[-0.17117,51.47265]]]}},{"type":"Feature","properties":{"id":"gb-ken","lat":51.22081,"lng":0.71995},"geometry":{"type":"MultiPolygon","coordinates":[[[[0.18108,51.43769],[0.51162,51.48768],[0.4469,51.33847],[0.59266,51.31211],[0.70533,51.4195],[0.76441,51.36441],[0.97722,51.34919],[1.44825,51.38288],[1.37762,51.32624],[1.38445,51.15168],[1.0669,51.0644],[0.94516,50.90937],[0.76329,50.99715],[0.47969,51.03022],[0.33136,51.11993],[0.06274,51.13585],[0.05442,51.28995],[0.18108,51.43769]]],[[[0.93246,51.39769],[0.79477,51.37055],[0.7339,51.41218],[0.76694,51.44794],[0.93246,51.39769]]]]}},{"type":"Feature","properties":{"id":"gb-khl","lat":53.76376,"lng":-0.37435},"geometry":{"type":"Polygon","coordinates":[[[-0.29564,53.7388],[-0.43114,53.7143],[-0.4497,53.7143],[-0.38643,53.78873],[-0.29564,53.7388]]]}},{"type":"Feature","properties":{"id":"gb-kir","lat":53.67056,"lng":-1.75771},"geometry":{"type":"Polygon","coordinates":[[[-1.81614,53.51606],[-2.0239,53.63936],[-1.64724,53.76415],[-1.58096,53.70176],[-1.60034,53.57409],[-1.81614,53.51606]]]}},{"type":"Feature","properties":{"id":"gb-ktt","lat":51.35472,"lng":-0.28897},"geometry":{"type":"Polygon","coordinates":[[[-0.30261,51.42823],[-0.22479,51.38534],[-0.31225,51.3241],[-0.30261,51.42823]]]}},{"type":"Feature","properties":{"id":"gb-kwl","lat":53.43457,"lng":-2.84867},"geometry":{"type":"Polygon","coordinates":[[[-2.7547,53.37809],[-2.8759,53.33118],[-2.9328,53.49326],[-2.89612,53.52244],[-2.81559,53.49105],[-2.7547,53.37809]]]}},{"type":"Feature","properties":{"id":"gb-lan","lat":53.88979,"lng":-2.54762},"geometry":{"type":"Polygon","coordinates":[[[-2.93279,53.6605],[-2.89904,53.73542],[-3.02147,53.7458],[-2.94528,53.84761],[-3.01757,53.93195],[-2.85798,53.9676],[-2.83007,54.01602],[-2.9182,54.03433],[-2.81517,54.09878],[-2.83643,54.1676],[-2.79228,54.19078],[-2.67112,54.15855],[-2.4578,54.23829],[-2.54503,54.11355],[-2.03256,53.84762],[-2.2581,53.61412],[-2.46878,53.76902],[-2.5256,53.73796],[-2.50444,53.62701],[-2.6867,53.59967],[-2.71303,53.52996],[-2.81559,53.49105],[-3.0317,53.5419],[-2.93279,53.6605]]]}},{"type":"Feature","properties":{"id":"gb-lbh","lat":51.4388,"lng":-0.10937},"geometry":{"type":"Polygon","coordinates":[[[-0.12694,51.40803],[-0.14272,51.45841],[-0.1079,51.50528],[-0.07456,51.41919],[-0.12694,51.40803]]]}},{"type":"Feature","properties":{"id":"gb-lce","lat":52.61687,"lng":-1.12974},"geometry":{"type":"Polygon","coordinates":[[[-1.11956,52.65586],[-1.06422,52.5955],[-1.16739,52.57534],[-1.17992,52.63823],[-1.11956,52.65586]]]}},{"type":"Feature","properties":{"id":"gb-lds","lat":53.80868,"lng":-1.48771},"geometry":{"type":"Polygon","coordinates":[[[-1.58096,53.70176],[-1.72865,53.9027],[-1.29418,53.92549],[-1.34446,53.85883],[-1.28728,53.75853],[-1.33142,53.71736],[-1.58096,53.70176]]]}},{"type":"Feature","properties":{"id":"gb-lec","lat":52.6704,"lng":-1.18488},"geometry":{"type":"Polygon","coordinates":[[[-0.76672,52.96116],[-0.65107,52.74753],[-0.80511,52.70867],[-0.73447,52.50439],[-0.86224,52.50884],[-0.88449,52.44688],[-0.9628,52.46357],[-1.15669,52.37825],[-1.54584,52.58077],[-1.58308,52.68495],[-1.5414,52.74577],[-1.33919,52.84913],[-1.26281,52.86158],[-1.25976,52.7991],[-1.18819,52.77226],[-0.9795,52.80773],[-0.76672,52.96116]],[[-1.16739,52.57534],[-1.05667,52.62315],[-1.15982,52.65586],[-1.16739,52.57534]]]}},{"type":"Feature","properties":{"id":"gb-lew","lat":51.44297,"lng":-0.01249},"geometry":{"type":"Polygon","coordinates":[[[-0.02723,51.48957],[0.01515,51.46492],[0.04323,51.42069],[-0.06671,51.42102],[-0.02723,51.48957]]]}},{"type":"Feature","properties":{"id":"gb-lin","lat":53.12863,"lng":-0.19233},"geometry":{"type":"Polygon","coordinates":[[[0.02179,53.52471],[0.21949,53.4195],[0.35621,53.18854],[0.32984,53.08649],[0.00856,52.89863],[0.27879,52.80496],[0.27635,52.75634],[0.06026,52.70552],[0.0322,52.648],[-0.5089,52.64242],[-0.41532,52.6866],[-0.65029,52.74634],[-0.7631,52.89465],[-0.78144,53.00607],[-0.68863,53.04968],[-0.74501,53.17076],[-0.6367,53.23468],[-0.77654,53.23419],[-0.74496,53.32272],[-0.79715,53.45229],[-0.73972,53.51384],[-0.61587,53.50521],[-0.60337,53.45271],[-0.46699,53.47245],[-0.38834,53.52464],[-0.47697,53.53828],[-0.28669,53.60799],[-0.17081,53.56466],[-0.19058,53.47743],[-0.11363,53.42687],[-0.05808,53.51022],[0.02179,53.52471]]]}},{"type":"Feature","properties":{"id":"gb-liv","lat":53.4181,"lng":-2.9434},"geometry":{"type":"Polygon","coordinates":[[[-2.8759,53.33118],[-2.95694,53.37055],[-3.04823,53.48102],[-2.89861,53.46565],[-2.8759,53.33118]]]}},{"type":"Feature","properties":{"id":"gb-lmv","lat":54.95694,"lng":-6.94506},"geometry":{"type":"Polygon","coordinates":[[[-7.14989,55.04866],[-7.0172,55.07111],[-6.96255,55.19465],[-6.83842,55.17542],[-6.77697,54.86523],[-7.01029,54.81552],[-7.14989,55.04866]]]}},{"type":"Feature","properties":{"id":"gb-lnd","lat":51.5166,"lng":-0.09664},"geometry":{"type":"Polygon","coordinates":[[[-0.0874,51.52693],[-0.0973,51.50972],[-0.10255,51.52347],[-0.0874,51.52693]]]}},{"type":"Feature","properties":{"id":"gb-lrn","lat":54.89688,"lng":-5.94812},"geometry":{"type":"Polygon","coordinates":[[[-5.98098,55.05565],[-5.98624,54.98176],[-5.71565,54.78376],[-5.7976,54.84455],[-5.72061,54.84101],[-5.6921,54.77045],[-6.00808,54.78689],[-5.94477,54.83273],[-6.02836,54.85908],[-6.02363,54.93468],[-6.10192,54.98688],[-5.98098,55.05565]]]}},{"type":"Feature","properties":{"id":"gb-lsb","lat":54.52411,"lng":-6.09903},"geometry":{"type":"Polygon","coordinates":[[[-5.86811,54.4791],[-6.00919,54.37632],[-6.21049,54.43316],[-6.29641,54.56912],[-6.06588,54.62271],[-5.86811,54.4791]]]}},{"type":"Feature","properties":{"id":"gb-lut","lat":51.89017,"lng":-0.4233},"geometry":{"type":"Polygon","coordinates":[[[-0.38519,51.92107],[-0.36447,51.82604],[-0.47175,51.86671],[-0.46454,51.91363],[-0.38519,51.92107]]]}},{"type":"Feature","properties":{"id":"gb-man","lat":53.43204,"lng":-2.26685},"geometry":{"type":"Polygon","coordinates":[[[-2.3167,53.35995],[-2.30526,53.50414],[-2.25132,53.54944],[-2.18228,53.52571],[-2.26032,53.34493],[-2.3167,53.35995]]]}},{"type":"Feature","properties":{"id":"gb-mdb","lat":54.52933,"lng":-1.24327},"geometry":{"type":"Polygon","coordinates":[[[-1.23204,54.5775],[-1.17954,54.5038],[-1.29235,54.5021],[-1.28552,54.55486],[-1.23204,54.5775]]]}},{"type":"Feature","properties":{"id":"gb-mdw","lat":51.40162,"lng":0.54375},"geometry":{"type":"Polygon","coordinates":[[[0.51162,51.48768],[0.69483,51.47704],[0.72315,51.44672],[0.55454,51.41218],[0.67189,51.39106],[0.59266,51.31211],[0.4469,51.33847],[0.51162,51.48768]]]}},{"type":"Feature","properties":{"id":"gb-mft","lat":54.78454,"lng":-6.70975},"geometry":{"type":"Polygon","coordinates":[[[-6.96975,54.74162],[-6.89001,54.85159],[-6.81141,54.84663],[-6.73692,54.92884],[-6.52042,54.94512],[-6.47112,54.82746],[-6.49864,54.70622],[-6.96975,54.74162]]]}},{"type":"Feature","properties":{"id":"gb-mik","lat":52.053,"lng":-0.72716},"geometry":{"type":"Polygon","coordinates":[[[-0.68641,51.94789],[-0.86741,52.03383],[-0.8278,52.07217],[-0.87836,52.11604],[-0.62122,52.17485],[-0.57366,52.09661],[-0.68641,51.94789]]]}},{"type":"Feature","properties":{"id":"gb-mln","lat":55.85613,"lng":-3.04917},"geometry":{"type":"Polygon","coordinates":[[[-3.07824,55.94685],[-2.82088,55.82166],[-2.94281,55.8152],[-3.12089,55.7119],[-3.18419,55.80161],[-3.36018,55.81168],[-3.08748,55.89059],[-3.07824,55.94685]]]}},{"type":"Feature","properties":{"id":"gb-mon","lat":51.71392,"lng":-2.83323},"geometry":{"type":"Polygon","coordinates":[[[-3.05125,51.9835],[-2.64704,51.82193],[-2.66535,51.61726],[-2.83323,51.57355],[-2.8006,51.64419],[-2.96131,51.62744],[-3.0488,51.78366],[-3.15686,51.81074],[-3.03498,51.88603],[-3.05125,51.9835]]]}},{"type":"Feature","properties":{"id":"gb-mrt","lat":51.4056,"lng":-0.17838},"geometry":{"type":"Polygon","coordinates":[[[-0.24432,51.43247],[-0.13172,51.41769],[-0.11908,51.3935],[-0.21962,51.38126],[-0.24432,51.43247]]]}},{"type":"Feature","properties":{"id":"gb-mry","lat":57.39342,"lng":-3.19578},"geometry":{"type":"Polygon","coordinates":[[[-3.75461,57.62633],[-3.40917,57.72333],[-3.07868,57.66942],[-2.82119,57.70283],[-2.82305,57.63374],[-2.70714,57.51344],[-2.9918,57.47675],[-2.98594,57.29769],[-3.33225,57.17589],[-3.34545,57.08933],[-3.65654,57.08494],[-3.43668,57.18855],[-3.48671,57.30524],[-3.38447,57.38136],[-3.49808,57.45745],[-3.7184,57.40549],[-3.68142,57.50827],[-3.75461,57.62633]]]}},{"type":"Feature","properties":{"id":"gb-mty","lat":51.71573,"lng":-3.34995},"geometry":{"type":"Polygon","coordinates":[[[-3.41449,51.82549],[-3.27527,51.67679],[-3.30173,51.64858],[-3.43829,51.75467],[-3.41449,51.82549]]]}},{"type":"Feature","properties":{"id":"gb-myl","lat":55.09732,"lng":-6.13441},"geometry":{"type":"MultiPolygon","coordinates":[[[[-6.53917,55.23066],[-6.10098,55.21239],[-6.0371,55.16791],[-6.06208,55.07412],[-5.98098,55.05565],[-6.14029,54.98633],[-6.22809,55.12051],[-6.51531,55.14909],[-6.53917,55.23066]]],[[[-6.28356,55.29707],[-6.17186,55.2932],[-6.19481,55.26293],[-6.28356,55.29707]]]]}},{"type":"Feature","properties":{"id":"gb-nay","lat":55.73265,"lng":-4.72045},"geometry":{"type":"Polygon","coordinates":[[[-4.66625,55.5622],[-4.92052,55.70856],[-4.86107,55.75674],[-4.88882,55.8653],[-4.51636,55.76282],[-4.62576,55.665],[-4.51003,55.62141],[-4.66625,55.5622]]]}},{"type":"Feature","properties":{"id":"gb-nbl","lat":55.29698,"lng":-2.07105},"geometry":{"type":"Polygon","coordinates":[[[-2.68501,55.19083],[-2.55154,55.31435],[-2.18867,55.44902],[-2.32804,55.63821],[-2.02286,55.80549],[-1.81648,55.63288],[-1.63085,55.58511],[-1.56823,55.27961],[-1.45558,55.06971],[-1.68891,55.07214],[-1.90419,54.83412],[-1.99308,54.86466],[-2.30502,54.78322],[-2.39998,54.84719],[-2.56364,54.82355],[-2.59363,54.88272],[-2.5417,54.923],[-2.59198,54.96662],[-2.48532,55.07938],[-2.68501,55.19083]]]}},{"type":"Feature","properties":{"id":"gb-ndn","lat":54.64755,"lng":-5.71109},"geometry":{"type":"Polygon","coordinates":[[[-5.87047,54.6228],[-5.74796,54.68041],[-5.56497,54.6723],[-5.65004,54.61884],[-5.87047,54.6228]]]}},{"type":"Feature","properties":{"id":"gb-nel","lat":53.54469,"lng":-0.09173},"geometry":{"type":"Polygon","coordinates":[[[-0.19847,53.62956],[-0.04662,53.57038],[0.02179,53.52471],[-0.05808,53.51022],[-0.11363,53.42687],[-0.19058,53.47743],[-0.17081,53.56466],[-0.2821,53.60629],[-0.19847,53.62956]]]}},{"type":"Feature","properties":{"id":"gb-net","lat":55.0352,"lng":-1.64377},"geometry":{"type":"Polygon","coordinates":[[[-1.74947,55.00274],[-1.64934,55.06766],[-1.48997,54.98315],[-1.74947,55.00274]]]}},{"type":"Feature","properties":{"id":"gb-nfk","lat":52.63575,"lng":0.95737},"geometry":{"type":"Polygon","coordinates":[[[0.27879,52.80496],[0.38453,52.76838],[0.48569,52.9335],[0.68474,52.9864],[1.27467,52.92918],[1.67335,52.75568],[1.74757,52.53278],[1.66329,52.53188],[1.70246,52.47716],[1.6605,52.45912],[1.43002,52.46135],[1.20244,52.35383],[0.69332,52.3891],[0.67637,52.44688],[0.44721,52.43218],[0.22304,52.5216],[0.24586,52.60134],[0.15705,52.67017],[0.27879,52.80496]]]}},{"type":"Feature","properties":{"id":"gb-ngm","lat":52.93163,"lng":-1.16567},"geometry":{"type":"Polygon","coordinates":[[[-1.16085,52.99501],[-1.10406,52.91894],[-1.17098,52.87228],[-1.22783,52.94431],[-1.16085,52.99501]]]}},{"type":"Feature","properties":{"id":"gb-nlk","lat":55.88853,"lng":-3.98446},"geometry":{"type":"Polygon","coordinates":[[[-4.01778,56.02578],[-3.79336,55.87189],[-3.70641,55.8769],[-3.73341,55.78352],[-3.89766,55.73432],[-4.17041,55.90015],[-4.05556,55.91132],[-4.03959,55.95281],[-4.10977,55.95281],[-4.12574,56.00552],[-4.01778,56.02578]]]}},{"type":"Feature","properties":{"id":"gb-nln","lat":53.60059,"lng":-0.57083},"geometry":{"type":"Polygon","coordinates":[[[-0.69925,53.69126],[-0.30724,53.71426],[-0.19847,53.62956],[-0.47697,53.53828],[-0.38726,53.5166],[-0.50782,53.46191],[-0.73972,53.51384],[-0.79715,53.45229],[-0.91002,53.46051],[-0.94335,53.518],[-0.87196,53.53079],[-0.90449,53.57161],[-0.69925,53.69126]]]}},{"type":"Feature","properties":{"id":"gb-nsm","lat":51.41362,"lng":-2.77797},"geometry":{"type":"Polygon","coordinates":[[[-2.99218,51.32193],[-2.97468,51.38422],[-2.78087,51.48908],[-2.63056,51.44301],[-2.6466,51.34932],[-2.7127,51.31981],[-2.99218,51.32193]]]}},{"type":"Feature","properties":{"id":"gb-nta","lat":54.72987,"lng":-5.97783},"geometry":{"type":"Polygon","coordinates":[[[-5.87791,54.68231],[-6.04474,54.66524],[-6.08422,54.7919],[-5.90364,54.77743],[-5.87791,54.68231]]]}},{"type":"Feature","properties":{"id":"gb-nth","lat":52.28393,"lng":-0.85891},"geometry":{"type":"Polygon","coordinates":[[[-0.6545,52.19247],[-0.87836,52.11604],[-0.82754,52.06439],[-0.89012,52.02003],[-1.02334,52.06468],[-1.18367,51.97827],[-1.26503,51.97967],[-1.30671,52.07744],[-1.23723,52.09604],[-1.32123,52.16152],[-1.20809,52.24994],[-1.24948,52.31965],[-1.16527,52.34799],[-1.18661,52.3813],[-0.88449,52.44688],[-0.87085,52.50496],[-0.73447,52.50439],[-0.49071,52.63648],[-0.33561,52.45551],[-0.48446,52.36549],[-0.45878,52.30877],[-0.53198,52.24968],[-0.6414,52.25908],[-0.6545,52.19247]]]}},{"type":"Feature","properties":{"id":"gb-ntl","lat":51.66504,"lng":-3.70179},"geometry":{"type":"Polygon","coordinates":[[[-3.75191,51.53308],[-3.88679,51.62141],[-3.82992,51.68765],[-3.93314,51.76221],[-3.86725,51.8002],[-3.59169,51.76245],[-3.54557,51.64243],[-3.65362,51.63995],[-3.68251,51.58745],[-3.64032,51.54244],[-3.75191,51.53308]]]}},{"type":"Feature","properties":{"id":"gb-ntt","lat":53.09622,"lng":-1.01212},"geometry":{"type":"Polygon","coordinates":[[[-0.91937,53.48743],[-0.79715,53.45229],[-0.74496,53.32272],[-0.77654,53.23419],[-0.63895,53.24161],[-0.74501,53.17076],[-0.68863,53.04968],[-0.9795,52.80773],[-1.2256,52.77799],[-1.32141,53.01299],[-1.30976,53.14275],[-1.19088,53.16771],[-1.11807,53.37855],[-0.91937,53.48743]],[[-1.17098,52.87228],[-1.10406,52.91894],[-1.16085,52.99501],[-1.22783,52.94431],[-1.17098,52.87228]]]}},{"type":"Feature","properties":{"id":"gb-nty","lat":55.03399,"lng":-1.50973},"geometry":{"type":"Polygon","coordinates":[[[-1.45558,55.06971],[-1.41291,55.00031],[-1.48997,54.98315],[-1.64934,55.06766],[-1.45558,55.06971]]]}},{"type":"Feature","properties":{"id":"gb-nwm","lat":51.53499,"lng":0.02886},"geometry":{"type":"Polygon","coordinates":[[[0.07194,51.49241],[-0.01064,51.55241],[0.09943,51.51758],[0.07194,51.49241]]]}},{"type":"Feature","properties":{"id":"gb-nwp","lat":51.57395,"lng":-2.96519},"geometry":{"type":"Polygon","coordinates":[[[-2.7981,51.5635],[-3.07651,51.50775],[-3.11004,51.58631],[-2.81509,51.64961],[-2.85315,51.5844],[-2.7981,51.5635]]]}},{"type":"Feature","properties":{"id":"gb-nyk","lat":54.0836,"lng":-1.50514},"geometry":{"type":"Polygon","coordinates":[[[-0.77884,54.55741],[-0.53466,54.46101],[-0.39757,54.26919],[-0.19989,54.15245],[-0.39808,54.16992],[-0.66838,54.00714],[-0.92797,53.97185],[-1.0266,54.03892],[-1.14677,54.02776],[-1.23201,53.96906],[-1.21803,53.91459],[-1.14119,53.86007],[-0.94051,53.86798],[-0.9203,53.80772],[-0.96368,53.74297],[-0.92557,53.72272],[-1.09388,53.71357],[-1.07393,53.64768],[-1.12644,53.63383],[-1.24697,53.63549],[-1.21114,53.71021],[-1.30692,53.73796],[-1.34446,53.85883],[-1.29141,53.91495],[-1.33366,53.94492],[-1.69586,53.90131],[-1.94365,53.95769],[-2.03256,53.84762],[-2.55144,54.12827],[-2.44752,54.23023],[-2.30391,54.24855],[-2.34724,54.35022],[-2.24474,54.44799],[-1.9306,54.45466],[-1.71358,54.53161],[-1.46032,54.44159],[-1.45947,54.49853],[-0.83834,54.48716],[-0.77884,54.55741]]]}},{"type":"Feature","properties":{"id":"gb-nym","lat":54.14086,"lng":-6.26905},"geometry":{"type":"Polygon","coordinates":[[[-6.37751,54.06326],[-6.67253,54.06843],[-6.64688,54.18765],[-6.44503,54.26826],[-6.07365,54.25245],[-6.03224,54.17106],[-5.86604,54.18415],[-5.89379,54.10468],[-6.04052,54.03644],[-6.35483,54.11065],[-6.37751,54.06326]]]}},{"type":"Feature","properties":{"id":"gb-old","lat":53.57384,"lng":-1.99716},"geometry":{"type":"Polygon","coordinates":[[[-2.20386,53.47609],[-1.98809,53.61466],[-1.89722,53.53301],[-1.97781,53.46883],[-2.10462,53.50845],[-2.20386,53.47609]]]}},{"type":"Feature","properties":{"id":"gb-omh","lat":54.60203,"lng":-7.32087},"geometry":{"type":"Polygon","coordinates":[[[-7.67002,54.57856],[-7.65309,54.6255],[-7.442,54.64354],[-7.30808,54.73162],[-6.92975,54.76772],[-6.99502,54.73077],[-6.9728,54.53802],[-7.11279,54.47104],[-7.50806,54.40495],[-7.57612,54.48355],[-7.5339,54.553],[-7.67002,54.57856]]]}},{"type":"Feature","properties":{"id":"gb-ork","lat":58.85564,"lng":-3.30801},"geometry":{"type":"MultiPolygon","coordinates":[[[[-2.88537,58.82005],[-2.93993,58.7307],[-3.0157,58.81265],[-2.96719,58.82005],[-3.03555,58.82632],[-2.88537,58.82005]]],[[[-3.1317,58.80646],[-3.29931,58.77912],[-3.43334,58.88495],[-3.33715,58.9287],[-3.17272,58.82632],[-3.2484,58.79218],[-3.1317,58.80646]]],[[[-2.70621,58.94745],[-2.82384,58.88154],[-2.98119,58.96011],[-3.20279,58.91592],[-3.2279,59.03856],[-3.28942,58.95038],[-3.36669,59.0161],[-3.3238,59.12743],[-3.18273,59.14716],[-2.9945,59.07331],[-3.11669,58.9982],[-2.93309,59.0113],[-2.78063,58.9903],[-2.81192,58.92914],[-2.70621,58.94745]]],[[[-2.51476,59.09382],[-2.59732,59.07331],[-2.68611,59.08918],[-2.62564,59.16242],[-2.51476,59.09382]]],[[[-3.09179,59.14281],[-3.10241,59.19025],[-2.95295,59.18317],[-2.97525,59.13377],[-3.09179,59.14281]]],[[[-2.83007,59.17577],[-2.78791,59.24722],[-2.7342,59.23334],[-2.73449,59.14842],[-2.83007,59.17577]]],[[[-2.4049,59.31635],[-2.50451,59.23338],[-2.69262,59.19229],[-2.61156,59.29304],[-2.4049,59.31635]]],[[[-3.07335,59.32453],[-2.9652,59.36091],[-2.98778,59.31977],[-2.83007,59.2521],[-2.88537,59.23041],[-3.07335,59.32453]]]]}},{"type":"Feature","properties":{"id":"gb-oxf","lat":51.80118,"lng":-1.39993},"geometry":{"type":"Polygon","coordinates":[[[-1.64927,51.67374],[-1.70922,51.77493],[-1.61279,51.93161],[-1.65253,51.98393],[-1.54977,51.9691],[-1.47029,52.08855],[-1.35779,52.09522],[-1.32123,52.16152],[-1.23723,52.09604],[-1.30671,52.07744],[-1.26503,51.97967],[-1.05308,51.99272],[-1.04724,51.83301],[-1.12835,51.82743],[-1.0659,51.75134],[-0.88449,51.71633],[-0.94449,51.61912],[-0.87325,51.50748],[-0.98722,51.45309],[-1.30725,51.55329],[-1.60279,51.52022],[-1.67529,51.57272],[-1.68669,51.66909],[-1.64927,51.67374]]]}},{"type":"Feature","properties":{"id":"gb-pem","lat":51.84341,"lng":-4.93951},"geometry":{"type":"Polygon","coordinates":[[[-4.63926,51.73316],[-4.71231,51.65009],[-4.94103,51.5965],[-5.11974,51.67841],[-4.84484,51.71381],[-4.87902,51.76203],[-4.82433,51.79572],[-4.93358,51.77529],[-4.91055,51.71821],[-5.18285,51.68928],[-5.2495,51.73371],[-5.11026,51.77851],[-5.12589,51.85602],[-5.31094,51.864],[-5.07022,52.02635],[-4.84142,52.01484],[-4.70653,52.11347],[-4.49468,51.96908],[-4.69327,51.9088],[-4.76771,51.83079],[-4.64981,51.81751],[-4.63926,51.73316]]]}},{"type":"Feature","properties":{"id":"gb-pkn","lat":56.52875,"lng":-3.74847},"geometry":{"type":"Polygon","coordinates":[[[-3.05565,56.45213],[-3.32348,56.36591],[-3.24197,56.31357],[-3.36279,56.26468],[-3.26419,56.2191],[-3.27473,56.16577],[-3.6306,56.1282],[-3.5542,56.18189],[-3.82782,56.1913],[-4.21948,56.32912],[-4.18697,56.45717],[-4.0953,56.46829],[-4.14478,56.51216],[-4.28472,56.48131],[-4.35169,56.54079],[-4.6639,56.47635],[-4.69283,56.548],[-4.5584,56.57019],[-4.70891,56.663],[-4.58643,56.69246],[-4.51419,56.80356],[-4.43657,56.7784],[-4.17783,56.90743],[-3.5881,56.92991],[-3.39508,56.88149],[-3.33504,56.72377],[-3.08422,56.60714],[-3.17027,56.51671],[-3.05565,56.45213]]]}},{"type":"Feature","properties":{"id":"gb-ply","lat":50.38499,"lng":-4.0998},"geometry":{"type":"Polygon","coordinates":[[[-4.04181,50.3993],[-4.10497,50.37067],[-4.18699,50.42597],[-4.04181,50.3993]]]}},{"type":"Feature","properties":{"id":"gb-pol","lat":50.74751,"lng":-1.9636},"geometry":{"type":"Polygon","coordinates":[[[-1.8969,50.71604],[-1.94001,50.69082],[-2.02622,50.7251],[-1.96031,50.76993],[-1.8969,50.71604]]]}},{"type":"Feature","properties":{"id":"gb-por","lat":50.8213,"lng":-1.05752},"geometry":{"type":"MultiPolygon","coordinates":[[[[-0.97256,50.82978],[-0.93883,50.78095],[-1.02074,50.7884],[-0.97256,50.82978]]],[[[-1.00186,50.84711],[-1.05622,50.78303],[-1.10302,50.79548],[-1.07468,50.85783],[-1.00186,50.84711]]]]}},{"type":"Feature","properties":{"id":"gb-pow","lat":52.30752,"lng":-3.35616},"geometry":{"type":"Polygon","coordinates":[[[-3.14043,52.79634],[-2.95994,52.7311],[-3.12466,52.57669],[-3.11068,52.52695],[-2.97638,52.53806],[-3.21512,52.44223],[-3.07056,52.34657],[-2.95666,52.34115],[-2.99948,52.29621],[-2.95638,52.2641],[-3.12466,52.12896],[-3.03498,51.88603],[-3.16223,51.80965],[-3.40501,51.82771],[-3.58373,51.75126],[-3.76338,51.75772],[-3.8,51.78526],[-3.64199,52.04189],[-3.75579,52.12462],[-3.70114,52.27384],[-3.73116,52.31882],[-3.65197,52.34745],[-3.76085,52.43742],[-3.72473,52.49884],[-3.81312,52.48134],[-3.83948,52.54858],[-3.92746,52.55318],[-3.79697,52.67467],[-3.60145,52.69549],[-3.58724,52.81161],[-3.47002,52.86194],[-3.37865,52.87021],[-3.26171,52.7805],[-3.14043,52.79634]]]}},{"type":"Feature","properties":{"id":"gb-pte","lat":52.57838,"lng":-0.2797},"geometry":{"type":"Polygon","coordinates":[[[-0.0495,52.65787],[-0.05446,52.58875],[-0.28677,52.50413],[-0.47392,52.56801],[-0.49071,52.63648],[-0.0495,52.65787]]]}},{"type":"Feature","properties":{"id":"gb-rcc","lat":54.58865,"lng":-1.04702},"geometry":{"type":"Polygon","coordinates":[[[-1.1926,54.61998],[-1.13805,54.64655],[-0.77884,54.55732],[-0.83834,54.48716],[-1.17954,54.5038],[-1.1926,54.61998]]]}},{"type":"Feature","properties":{"id":"gb-rch","lat":53.58205,"lng":-2.15451},"geometry":{"type":"Polygon","coordinates":[[[-1.98809,53.61466],[-2.18228,53.52571],[-2.25132,53.54944],[-2.24588,53.66132],[-2.15139,53.69652],[-2.04643,53.68411],[-1.98809,53.61466]]]}},{"type":"Feature","properties":{"id":"gb-rct","lat":51.66612,"lng":-3.43813},"geometry":{"type":"Polygon","coordinates":[[[-3.43829,51.75467],[-3.22752,51.54512],[-3.29336,51.49967],[-3.47524,51.5104],[-3.46183,51.58982],[-3.59223,51.74242],[-3.43516,51.81663],[-3.43829,51.75467]]]}},{"type":"Feature","properties":{"id":"gb-rdb","lat":51.58586,"lng":0.07962},"geometry":{"type":"Polygon","coordinates":[[[0.14847,51.61744],[0.12527,51.5522],[0.02388,51.55427],[0.0198,51.62284],[0.14847,51.61744]]]}},{"type":"Feature","properties":{"id":"gb-rdg","lat":51.43251,"lng":-1.03578},"geometry":{"type":"Polygon","coordinates":[[[-1.08112,51.48911],[-0.98722,51.45309],[-0.96454,51.45469],[-1.05352,51.41193],[-1.08112,51.48911]]]}},{"type":"Feature","properties":{"id":"gb-rfw","lat":55.83496,"lng":-4.5397},"geometry":{"type":"Polygon","coordinates":[[[-4.62683,55.92975],[-4.48863,55.92566],[-4.35578,55.86403],[-4.35683,55.81912],[-4.63475,55.76662],[-4.75169,55.85724],[-4.5884,55.8508],[-4.62683,55.92975]]]}},{"type":"Feature","properties":{"id":"gb-ric","lat":51.44314,"lng":-0.29578},"geometry":{"type":"Polygon","coordinates":[[[-0.21267,51.47288],[-0.30669,51.38436],[-0.38442,51.41366],[-0.31021,51.47262],[-0.21267,51.47288]]]}},{"type":"Feature","properties":{"id":"gb-rot","lat":53.424,"lng":-1.28284},"geometry":{"type":"Polygon","coordinates":[[[-1.17602,53.29292],[-1.39366,53.32522],[-1.36988,53.46945],[-1.25857,53.46945],[-1.11807,53.37855],[-1.17602,53.29292]]]}},{"type":"Feature","properties":{"id":"gb-rut","lat":52.59664,"lng":-0.668},"geometry":{"type":"Polygon","coordinates":[[[-0.65107,52.74753],[-0.41532,52.6866],[-0.7299,52.50667],[-0.80511,52.70867],[-0.65107,52.74753]]]}},{"type":"Feature","properties":{"id":"gb-saw","lat":52.51239,"lng":-1.99782},"geometry":{"type":"Polygon","coordinates":[[[-2.07584,52.47802],[-2.05569,52.56809],[-1.90281,52.54676],[-1.96325,52.46262],[-2.07584,52.47802]]]}},{"type":"Feature","properties":{"id":"gb-say","lat":55.33373,"lng":-4.6541},"geometry":{"type":"Polygon","coordinates":[[[-5.0325,54.99372],[-5.0078,55.14118],[-4.86726,55.22248],[-4.74926,55.41376],[-4.62633,55.46841],[-4.68716,55.54413],[-4.58207,55.59131],[-4.44306,55.54483],[-4.46561,55.38556],[-4.57829,55.38856],[-4.44461,55.2819],[-4.4675,55.15782],[-4.64751,55.11968],[-4.63056,55.05385],[-5.0325,54.99372]]]}},{"type":"Feature","properties":{"id":"gb-scb","lat":55.55759,"lng":-2.88733},"geometry":{"type":"Polygon","coordinates":[[[-2.02286,55.80549],[-2.32804,55.63821],[-2.18867,55.44902],[-2.46277,55.36039],[-2.85029,55.11129],[-2.87866,55.27218],[-3.03449,55.27301],[-3.20752,55.37218],[-3.3039,55.34272],[-3.23998,55.42576],[-3.53477,55.43801],[-3.48503,55.51496],[-3.52699,55.60022],[-3.39446,55.70771],[-3.45865,55.76104],[-3.38674,55.82047],[-3.26974,55.77386],[-3.18419,55.80161],[-3.12089,55.7119],[-2.94281,55.8152],[-2.907,55.78218],[-2.39644,55.87217],[-2.43587,55.89522],[-2.3604,55.95268],[-2.13801,55.91462],[-2.02286,55.80549]]]}},{"type":"Feature","properties":{"id":"gb-sfk","lat":52.23786,"lng":1.0279},"geometry":{"type":"Polygon","coordinates":[[[1.66329,52.53188],[1.77117,52.48591],[1.63054,52.27045],[1.58758,52.08698],[1.33229,51.94009],[1.26442,51.99437],[1.18523,52.02509],[1.27442,51.96088],[0.78779,51.95466],[0.67834,52.07718],[0.40892,52.0593],[0.51607,52.218],[0.3497,52.25771],[0.51028,52.27464],[0.38967,52.39019],[0.44721,52.43218],[0.67637,52.44688],[0.69332,52.3891],[1.20244,52.35383],[1.43002,52.46135],[1.6605,52.45912],[1.70246,52.47716],[1.66329,52.53188]]]}},{"type":"Feature","properties":{"id":"gb-sft","lat":53.61625,"lng":-3.01028},"geometry":{"type":"Polygon","coordinates":[[[-3.04823,53.48102],[-3.09948,53.57201],[-2.94848,53.70945],[-2.93279,53.6605],[-3.0317,53.5419],[-2.89612,53.52244],[-3.04823,53.48102]]]}},{"type":"Feature","properties":{"id":"gb-sgc","lat":51.56258,"lng":-2.45484},"geometry":{"type":"Polygon","coordinates":[[[-2.67875,51.5313],[-2.53549,51.67295],[-2.3792,51.63576],[-2.37726,51.59385],[-2.28616,51.62271],[-2.24528,51.51856],[-2.32055,51.48383],[-2.28066,51.42027],[-2.47395,51.4042],[-2.52883,51.48048],[-2.67875,51.5313]]]}},{"type":"Feature","properties":{"id":"gb-shf","lat":53.39984,"lng":-1.54998},"geometry":{"type":"Polygon","coordinates":[[[-1.39366,53.32522],[-1.61005,53.30579],[-1.58194,53.33023],[-1.81614,53.51606],[-1.46449,53.46945],[-1.39366,53.32522]]]}},{"type":"Feature","properties":{"id":"gb-shn","lat":53.47896,"lng":-2.74542},"geometry":{"type":"Polygon","coordinates":[[[-2.68058,53.37881],[-2.79341,53.40253],[-2.80168,53.51689],[-2.56643,53.4356],[-2.66616,53.44103],[-2.68058,53.37881]]]}},{"type":"Feature","properties":{"id":"gb-shr","lat":52.63292,"lng":-2.76739},"geometry":{"type":"Polygon","coordinates":[[[-3.14043,52.79634],[-3.12686,52.8846],[-2.99281,52.95297],[-2.77949,52.90057],[-2.71768,52.9216],[-2.72773,52.96654],[-2.37086,52.98912],[-2.45031,52.89662],[-2.36587,52.88411],[-2.39659,52.82158],[-2.66316,52.74272],[-2.42457,52.60702],[-2.32396,52.74774],[-2.22836,52.65883],[-2.31143,52.59911],[-2.25502,52.51829],[-2.35052,52.42372],[-2.31952,52.38461],[-2.5556,52.30854],[-2.69502,52.30355],[-2.83892,52.39132],[-3.07056,52.34657],[-3.21466,52.44615],[-2.97638,52.53806],[-3.11068,52.52695],[-3.12466,52.57669],[-2.95994,52.7311],[-3.14043,52.79634]]]}},{"type":"Feature","properties":{"id":"gb-skp","lat":53.40568,"lng":-2.17987},"geometry":{"type":"Polygon","coordinates":[[[-2.22543,53.43726],[-2.00447,53.37411],[-2.1595,53.32135],[-2.26643,53.37037],[-2.22543,53.43726]]]}},{"type":"Feature","properties":{"id":"gb-slf","lat":53.50306,"lng":-2.40474},"geometry":{"type":"Polygon","coordinates":[[[-2.44669,53.41881],[-2.51138,53.53817],[-2.44118,53.55376],[-2.33547,53.53434],[-2.29879,53.47177],[-2.44669,53.41881]]]}},{"type":"Feature","properties":{"id":"gb-slg","lat":51.46655,"lng":-0.54888},"geometry":{"type":"Polygon","coordinates":[[[-0.63618,51.4937],[-0.52361,51.50631],[-0.51836,51.43939],[-0.63618,51.4937]]]}},{"type":"Feature","properties":{"id":"gb-slk","lat":55.56508,"lng":-3.74276},"geometry":{"type":"Polygon","coordinates":[[[-3.9567,55.45439],[-3.99236,55.57035],[-4.2117,55.55981],[-4.17263,55.60643],[-4.25098,55.68595],[-4.24036,55.79339],[-4.08427,55.82724],[-3.88172,55.73272],[-3.61117,55.80383],[-3.39446,55.70771],[-3.52699,55.60022],[-3.48368,55.55299],[-3.53477,55.43801],[-3.5003,55.40967],[-3.6167,55.2927],[-3.82588,55.44633],[-3.9567,55.45439]]]}},{"type":"Feature","properties":{"id":"gb-snd","lat":54.83482,"lng":-1.44465},"geometry":{"type":"Polygon","coordinates":[[[-1.36034,54.91706],[-1.34082,54.87268],[-1.44045,54.79697],[-1.57732,54.88598],[-1.36034,54.91706]]]}},{"type":"Feature","properties":{"id":"gb-sol","lat":52.43099,"lng":-1.69851},"geometry":{"type":"Polygon","coordinates":[[[-1.61946,52.4444],[-1.64005,52.35078],[-1.83535,52.38056],[-1.77126,52.41758],[-1.79022,52.49343],[-1.61946,52.4444]]]}},{"type":"Feature","properties":{"id":"gb-som","lat":51.09034,"lng":-3.01123},"geometry":{"type":"Polygon","coordinates":[[[-3.71224,51.23833],[-3.02184,51.19245],[-3.02184,51.32282],[-2.88946,51.28633],[-2.78892,51.29718],[-2.81197,51.32746],[-2.45811,51.273],[-2.28032,51.32661],[-2.23616,51.26411],[-2.34892,51.11771],[-2.33778,50.98299],[-2.45168,50.95131],[-2.54196,51.0019],[-2.61446,50.88547],[-2.94852,50.82248],[-3.04751,50.90578],[-3.17812,50.91467],[-3.15724,50.94857],[-3.42227,51.02939],[-3.59975,51.01187],[-3.59613,51.06298],[-3.82588,51.14189],[-3.72421,51.17853],[-3.71224,51.23833]]]}},{"type":"Feature","properties":{"id":"gb-sos","lat":51.56016,"lng":0.70735},"geometry":{"type":"Polygon","coordinates":[[[0.82828,51.54185],[0.77125,51.52827],[0.63462,51.54311],[0.68578,51.57721],[0.82828,51.54185]]]}},{"type":"Feature","properties":{"id":"gb-sry","lat":51.26648,"lng":-0.34214},"geometry":{"type":"Polygon","coordinates":[[[-0.51281,51.47577],[-0.31171,51.39245],[-0.31225,51.3241],[-0.24311,51.37356],[-0.1281,51.28912],[1e-05,51.32945],[0.05442,51.28995],[0.06274,51.13585],[-0.18197,51.16132],[-0.68807,51.07079],[-0.82364,51.15161],[-0.8292,51.22602],[-0.73114,51.24385],[-0.7653,51.33134],[-0.51281,51.47577]]]}},{"type":"Feature","properties":{"id":"gb-stb","lat":54.76041,"lng":-7.30804},"geometry":{"type":"Polygon","coordinates":[[[-7.55615,54.73837],[-7.41575,54.94437],[-6.89645,54.78245],[-7.30808,54.73162],[-7.442,54.64354],[-7.69337,54.60075],[-7.92967,54.69671],[-7.55615,54.73837]]]}},{"type":"Feature","properties":{"id":"gb-ste","lat":53.0248,"lng":-2.18415},"geometry":{"type":"Polygon","coordinates":[[[-2.24366,53.08586],[-2.20492,53.11361],[-2.09524,52.94912],[-2.20154,52.96374],[-2.24366,53.08586]]]}},{"type":"Feature","properties":{"id":"gb-stg","lat":56.26703,"lng":-4.33676},"geometry":{"type":"Polygon","coordinates":[[[-3.83747,56.10738],[-3.7391,56.05071],[-4.40859,55.97578],[-4.47308,56.01715],[-4.42835,56.04552],[-4.61132,56.08831],[-4.68054,56.19843],[-4.64925,56.3208],[-4.77895,56.31827],[-4.83696,56.36995],[-4.51279,56.51913],[-4.14478,56.51216],[-4.0953,56.46829],[-4.18697,56.45717],[-4.21948,56.32912],[-3.83808,56.21579],[-3.83747,56.10738]]]}},{"type":"Feature","properties":{"id":"gb-sth","lat":50.88449,"lng":-1.34914},"geometry":{"type":"Polygon","coordinates":[[[-1.31859,50.85692],[-1.4493,50.91206],[-1.44686,50.92552],[-1.30867,50.92128],[-1.31859,50.85692]]]}},{"type":"Feature","properties":{"id":"gb-stn","lat":51.33738,"lng":-0.15012},"geometry":{"type":"Polygon","coordinates":[[[-0.24311,51.37356],[-0.11004,51.35433],[-0.14197,51.32043],[-0.24311,51.37356]]]}},{"type":"Feature","properties":{"id":"gb-sts","lat":52.77498,"lng":-2.00355},"geometry":{"type":"Polygon","coordinates":[[[-2.22836,52.65883],[-2.40086,52.82383],[-2.36587,52.88411],[-2.44946,52.88551],[-2.36393,52.96772],[-2.36587,53.05216],[-2.24366,53.08586],[-2.20154,52.96374],[-2.11185,52.94033],[-2.09816,52.98912],[-2.20492,53.11361],[-1.95254,53.21381],[-1.7717,53.09022],[-1.74557,52.99992],[-1.84032,52.92439],[-1.82394,52.87548],[-1.6084,52.8305],[-1.70036,52.72614],[-1.58003,52.67689],[-1.66558,52.57576],[-1.86143,52.57689],[-1.93448,52.66521],[-2.13113,52.6294],[-2.20058,52.57937],[-2.12614,52.54439],[-2.17113,52.42161],[-2.28616,52.44458],[-2.25115,52.56242],[-2.31143,52.59911],[-2.22836,52.65883]]]}},{"type":"Feature","properties":{"id":"gb-stt","lat":54.56876,"lng":-1.33028},"geometry":{"type":"Polygon","coordinates":[[[-1.43197,54.48112],[-1.38849,54.62669],[-1.2117,54.60664],[-1.29785,54.53088],[-1.25085,54.48665],[-1.43197,54.48112]]]}},{"type":"Feature","properties":{"id":"gb-sty","lat":54.94469,"lng":-1.44986},"geometry":{"type":"Polygon","coordinates":[[[-1.41291,55.00031],[-1.36034,54.91706],[-1.52572,54.9214],[-1.51814,54.96798],[-1.41291,55.00031]]]}},{"type":"Feature","properties":{"id":"gb-swa","lat":51.66631,"lng":-3.9645},"geometry":{"type":"Polygon","coordinates":[[[-3.82992,51.68765],[-4.02652,51.55402],[-4.29735,51.56924],[-4.23473,51.64496],[-4.0913,51.63988],[-3.9781,51.76661],[-3.82992,51.68765]]]}},{"type":"Feature","properties":{"id":"gb-swd","lat":51.62687,"lng":-1.72527},"geometry":{"type":"Polygon","coordinates":[[[-1.70113,51.68103],[-1.67529,51.57272],[-1.58044,51.50301],[-1.81043,51.48001],[-1.83123,51.5659],[-1.70113,51.68103]]]}},{"type":"Feature","properties":{"id":"gb-swk","lat":51.45756,"lng":-0.06924},"geometry":{"type":"Polygon","coordinates":[[[-0.1079,51.50528],[-0.02356,51.49593],[-0.07456,51.41919],[-0.1079,51.50528]]]}},{"type":"Feature","properties":{"id":"gb-tam","lat":53.45995,"lng":-2.11291},"geometry":{"type":"Polygon","coordinates":[[[-2.10462,53.50845],[-1.98251,53.44382],[-2.22543,53.43726],[-2.20386,53.47609],[-2.10462,53.50845]]]}},{"type":"Feature","properties":{"id":"gb-tfw","lat":52.67487,"lng":-2.45997},"geometry":{"type":"Polygon","coordinates":[[[-2.39659,52.82158],[-2.32396,52.74774],[-2.42457,52.60702],[-2.66316,52.74272],[-2.39659,52.82158]]]}},{"type":"Feature","properties":{"id":"gb-thr","lat":51.49773,"lng":0.36804},"geometry":{"type":"Polygon","coordinates":[[[0.54717,51.51772],[0.35637,51.44637],[0.21663,51.47774],[0.31988,51.55794],[0.54717,51.51772]]]}},{"type":"Feature","properties":{"id":"gb-tob","lat":50.44631,"lng":-3.58068},"geometry":{"type":"Polygon","coordinates":[[[-3.50537,50.50816],[-3.48746,50.45942],[-3.55626,50.43212],[-3.49828,50.38369],[-3.64866,50.4332],[-3.6097,50.49878],[-3.50537,50.50816]]]}},{"type":"Feature","properties":{"id":"gb-tof","lat":51.66411,"lng":-3.0254},"geometry":{"type":"Polygon","coordinates":[[[-3.03188,51.60574],[-3.11474,51.70077],[-3.12849,51.79454],[-2.97632,51.7094],[-2.96131,51.62744],[-3.03188,51.60574]]]}},{"type":"Feature","properties":{"id":"gb-trf","lat":53.40737,"lng":-2.37124},"geometry":{"type":"Polygon","coordinates":[[[-2.36783,53.45883],[-2.3031,53.42647],[-2.3167,53.35995],[-2.46057,53.38827],[-2.36783,53.45883]]]}},{"type":"Feature","properties":{"id":"gb-twh","lat":51.52567,"lng":-0.01835},"geometry":{"type":"Polygon","coordinates":[[[-0.06686,51.50786],[-0.01103,51.54347],[0.01944,51.50259],[-0.00475,51.4796],[-0.06686,51.50786]]]}},{"type":"Feature","properties":{"id":"gb-vgl","lat":51.43678,"lng":-3.36541},"geometry":{"type":"Polygon","coordinates":[[[-3.17272,51.45311],[-3.1848,51.39761],[-3.28942,51.38422],[-3.57531,51.42044],[-3.45446,51.51551],[-3.17272,51.45311]]]}},{"type":"Feature","properties":{"id":"gb-war","lat":52.31049,"lng":-1.55194},"geometry":{"type":"Polygon","coordinates":[[[-1.61227,52.02659],[-1.78725,52.12938],[-1.94447,52.16467],[-1.84448,52.38357],[-1.75921,52.33717],[-1.43169,52.38357],[-1.4428,52.4352],[-1.6617,52.42466],[-1.74113,52.49747],[-1.77771,52.57534],[-1.64336,52.57994],[-1.58003,52.67689],[-1.54584,52.58077],[-1.29338,52.47938],[-1.16527,52.34799],[-1.24948,52.31965],[-1.20256,52.30133],[-1.24865,52.19521],[-1.35779,52.09522],[-1.47029,52.08855],[-1.51809,51.98827],[-1.60395,51.95492],[-1.65253,51.98393],[-1.61227,52.02659]]]}},{"type":"Feature","properties":{"id":"gb-wbk","lat":51.43603,"lng":-1.31331},"geometry":{"type":"Polygon","coordinates":[[[-1.03197,51.35469],[-1.48701,51.33245],[-1.58452,51.51737],[-1.14657,51.53052],[-1.03197,51.35469]]]}},{"type":"Feature","properties":{"id":"gb-wdu","lat":55.95856,"lng":-4.47754},"geometry":{"type":"Polygon","coordinates":[[[-4.35578,55.86403],[-4.59062,55.94152],[-4.59904,56.07782],[-4.42835,56.04552],[-4.47308,56.01715],[-4.36479,55.9756],[-4.35578,55.86403]]]}},{"type":"Feature","properties":{"id":"gb-wft","lat":51.60114,"lng":0.00447},"geometry":{"type":"Polygon","coordinates":[[[-0.04834,51.56538],[0.02135,51.6369],[0.02388,51.55427],[-0.04834,51.56538]]]}},{"type":"Feature","properties":{"id":"gb-wgn","lat":53.55539,"lng":-2.63464},"geometry":{"type":"Polygon","coordinates":[[[-2.48504,53.46216],[-2.75202,53.5111],[-2.6867,53.59967],[-2.59002,53.61301],[-2.48504,53.46216]]]}},{"type":"Feature","properties":{"id":"gb-wil","lat":51.30397,"lng":-1.89507},"geometry":{"type":"Polygon","coordinates":[[[-1.80614,51.69798],[-1.74971,51.65879],[-1.83906,51.54683],[-1.81043,51.48001],[-1.58044,51.50301],[-1.48585,51.34384],[-1.53835,51.24493],[-1.69645,51.23661],[-1.61057,50.95968],[-1.83756,51.00911],[-2.09919,50.95575],[-2.34753,51.09492],[-2.23616,51.26411],[-2.33368,51.34689],[-2.28001,51.37242],[-2.32055,51.48383],[-2.24528,51.51856],[-2.27164,51.57716],[-2.05726,51.66411],[-1.87476,51.64078],[-1.80614,51.69798]]]}},{"type":"Feature","properties":{"id":"gb-wkf","lat":53.64932,"lng":-1.40868},"geometry":{"type":"Polygon","coordinates":[[[-1.60034,53.57409],[-1.58096,53.70176],[-1.21114,53.71021],[-1.24335,53.59688],[-1.60034,53.57409]]]}},{"type":"Feature","properties":{"id":"gb-wll","lat":52.62035,"lng":-1.94622},"geometry":{"type":"Polygon","coordinates":[[[-2.05569,52.56809],[-1.94117,52.66521],[-1.85559,52.5755],[-1.90281,52.54676],[-2.05569,52.56809]]]}},{"type":"Feature","properties":{"id":"gb-wln","lat":55.88667,"lng":-3.59534},"geometry":{"type":"Polygon","coordinates":[[[-3.50533,56.00559],[-3.39051,55.88424],[-3.45787,55.76962],[-3.73116,55.77856],[-3.70641,55.8769],[-3.82061,55.88909],[-3.50533,56.00559]]]}},{"type":"Feature","properties":{"id":"gb-wlv","lat":52.5984,"lng":-2.12232},"geometry":{"type":"Polygon","coordinates":[[[-2.05088,52.61744],[-2.12614,52.54439],[-2.20058,52.57937],[-2.13113,52.6294],[-2.05088,52.61744]]]}},{"type":"Feature","properties":{"id":"gb-wnd","lat":51.44407,"lng":-0.18769},"geometry":{"type":"Polygon","coordinates":[[[-0.13172,51.41769],[-0.24432,51.43247],[-0.24572,51.45567],[-0.12792,51.4921],[-0.13172,51.41769]]]}},{"type":"Feature","properties":{"id":"gb-wnm","lat":51.45043,"lng":-0.67291},"geometry":{"type":"Polygon","coordinates":[[[-0.71897,51.56334],[-0.70132,51.50714],[-0.57909,51.47553],[-0.61975,51.38772],[-0.69866,51.36689],[-0.68224,51.43118],[-0.828,51.46969],[-0.84632,51.54249],[-0.71897,51.56334]]]}},{"type":"Feature","properties":{"id":"gb-wok","lat":51.47721,"lng":-0.89087},"geometry":{"type":"Polygon","coordinates":[[[-0.8529,51.35008],[-1.03197,51.35469],[-1.05352,51.41193],[-0.84632,51.54249],[-0.81425,51.39818],[-0.8529,51.35008]]]}},{"type":"Feature","properties":{"id":"gb-wor","lat":52.20321,"lng":-2.17365},"geometry":{"type":"Polygon","coordinates":[[[-1.75782,52.10576],[-1.86334,52.06271],[-1.83198,52.00799],[-2.13002,51.99522],[-2.11493,52.04215],[-2.16477,52.04049],[-2.17475,51.98773],[-2.30781,51.97357],[-2.44752,52.25846],[-2.60697,52.24175],[-2.64089,52.33221],[-2.47447,52.32714],[-2.28616,52.44458],[-2.03057,52.4369],[-1.99584,52.37882],[-1.84448,52.38357],[-1.94447,52.16467],[-1.75782,52.10576]]]}},{"type":"Feature","properties":{"id":"gb-wrl","lat":53.34879,"lng":-3.05987},"geometry":{"type":"Polygon","coordinates":[[[-3.09594,53.28714],[-3.18635,53.39277],[-3.05826,53.43476],[-2.92641,53.30481],[-3.09594,53.28714]]]}},{"type":"Feature","properties":{"id":"gb-wrt","lat":53.41068,"lng":-2.56142},"geometry":{"type":"Polygon","coordinates":[[[-2.66616,53.44103],[-2.48504,53.46216],[-2.42879,53.38033],[-2.56945,53.3123],[-2.68058,53.37881],[-2.66616,53.44103]]]}},{"type":"Feature","properties":{"id":"gb-wrx","lat":52.95836,"lng":-2.94482},"geometry":{"type":"Polygon","coordinates":[[[-2.9568,53.1446],[-2.71768,52.9216],[-2.99281,52.95297],[-3.12686,52.8846],[-3.14043,52.79634],[-3.2422,52.7791],[-3.39074,52.86737],[-3.31127,52.93284],[-3.09482,52.96374],[-3.13218,53.05909],[-2.9568,53.1446]]]}},{"type":"Feature","properties":{"id":"gb-wsm","lat":51.50705,"lng":-0.17382},"geometry":{"type":"Polygon","coordinates":[[[-0.14714,51.53045],[-0.16642,51.49205],[-0.21109,51.52205],[-0.14714,51.53045]]]}},{"type":"Feature","properties":{"id":"gb-wsx","lat":50.93105,"lng":-0.52244},"geometry":{"type":"Polygon","coordinates":[[[-0.20891,50.8301],[-0.75821,50.77709],[-0.78995,50.73005],[-0.91149,50.77782],[-0.86364,50.80825],[-0.95252,50.89188],[-0.86255,51.04355],[-0.7537,51.08866],[-0.54141,51.0791],[-0.18197,51.16132],[0.02135,51.13585],[-0.02893,51.07745],[0.01913,51.05048],[-0.01588,50.9819],[-0.10557,50.97022],[-0.1289,50.87912],[-0.23058,50.86744],[-0.20891,50.8301]]]}},{"type":"Feature","properties":{"id":"gb-yor","lat":53.94182,"lng":-1.07831},"geometry":{"type":"Polygon","coordinates":[[[-1.04897,54.04035],[-0.92797,53.97185],[-0.94051,53.86798],[-1.14119,53.86007],[-1.21803,53.91459],[-1.23201,53.96906],[-1.04897,54.04035]]]}},{"type":"Feature","properties":{"id":"gb-zet","lat":60.25202,"lng":-1.53028},"geometry":{"type":"MultiPolygon","coordinates":[[[[-1.64367,59.54564],[-1.59675,59.53205],[-1.6455,59.51411],[-1.64367,59.54564]]],[[[-1.34569,60.10895],[-1.33357,60.04361],[-1.36791,60.04483],[-1.34569,60.10895]]],[[[-2.05321,60.1555],[-2.10538,60.13207],[-2.11034,60.14533],[-2.05321,60.1555]]],[[[-1.07946,60.1883],[-1.08389,60.10517],[-1.13492,60.1787],[-1.07946,60.1883]]],[[[-1.05394,60.45051],[-1.12507,60.38373],[-1.07042,60.35952],[-1.17223,60.3476],[-1.07531,60.32095],[-1.13793,60.29072],[-1.08975,60.27253],[-1.21939,60.23835],[-1.12377,60.1496],[-1.21321,60.10737],[-1.1647,60.06025],[-1.21939,60.03974],[-1.20124,59.9864],[-1.2473,59.9975],[-1.27457,59.85419],[-1.37597,59.90864],[-1.2626,60.11506],[-1.26936,60.18545],[-1.31241,60.18065],[-1.26773,60.24518],[-1.32925,60.20425],[-1.35766,60.24433],[-1.41112,60.25886],[-1.34972,60.21109],[-1.45543,60.15619],[-1.52725,60.19294],[-1.46642,60.21723],[-1.50365,60.24335],[-1.62466,60.21723],[-1.69017,60.28514],[-1.48144,60.31647],[-1.46642,60.27871],[-1.42276,60.32612],[-1.364,60.2862],[-1.3435,60.3476],[-1.26036,60.35505],[-1.39501,60.38996],[-1.44595,60.49226],[-1.60936,60.48334],[-1.52697,60.55683],[-1.45507,60.50886],[-1.38443,60.51211],[-1.48009,60.53937],[-1.41869,60.6083],[-1.31554,60.59406],[-1.30142,60.64305],[-1.33609,60.48542],[-1.29503,60.49226],[-1.37023,60.40217],[-1.23363,60.44379],[-1.29503,60.47114],[-1.21752,60.49799],[-1.15172,60.43081],[-1.19945,60.40217],[-1.05394,60.45051]]],[[[-0.91771,60.37665],[-0.97598,60.34032],[-1.03409,60.34016],[-1.00642,60.36896],[-0.91771,60.37665]]],[[[-0.75479,60.59894],[-0.88353,60.57054],[-0.93883,60.62873],[-0.82213,60.62873],[-0.75479,60.59894]]],[[[-0.98571,60.6459],[-1.06233,60.66291],[-1.01391,60.61514],[-1.06916,60.61514],[-1.01106,60.5777],[-1.02379,60.503],[-1.15388,60.50837],[-1.18004,60.62466],[-1.10342,60.61514],[-1.10399,60.72577],[-0.99348,60.73115],[-0.98571,60.6459]]],[[[-0.96133,60.70002],[-0.8815,60.84504],[-0.88834,60.78974],[-0.82213,60.84789],[-0.7639,60.82543],[-0.85001,60.71817],[-0.82189,60.685],[-0.96133,60.70002]]]]}}]}
