{"type":"FeatureCollection","features":[{"type":"Feature","properties":{"id":"gd-01","lat":12.13063,"lng":-61.6374},"geometry":{"type":"Polygon","coordinates":[[[-61.60322,12.17669],[-61.61384,12.08039],[-61.67651,12.08457],[-61.65595,12.17916],[-61.60322,12.17669]]]}},{"type":"Feature","properties":{"id":"gd-02","lat":12.05501,"lng":-61.66666},"geometry":{"type":"Polygon","coordinates":[[[-61.6245,12.06904],[-61.67443,12.02204],[-61.69625,12.04098],[-61.68967,12.08046],[-61.6245,12.06904]]]}},{"type":"Feature","properties":{"id":"gd-03","lat":12.05923,"lng":-61.73063},"geometry":{"type":"Polygon","coordinates":[[[-61.68638,12.1109],[-61.69494,12.00283],[-61.79052,12.00837],[-61.75105,12.11009],[-61.68638,12.1109]]]}},{"type":"Feature","properties":{"id":"gd-04","lat":12.13475,"lng":-61.70676},"geometry":{"type":"Polygon","coordinates":[[[-61.75105,12.11009],[-61.71515,12.18395],[-61.66253,12.1586],[-61.68638,12.1109],[-61.75105,12.11009]]]}},{"type":"Feature","properties":{"id":"gd-05","lat":12.20364,"lng":-61.68455},"geometry":{"type":"Polygon","coordinates":[[[-61.71515,12.18395],[-61.68213,12.22333],[-61.65595,12.17916],[-61.66253,12.1586],[-61.71515,12.18395]]]}},{"type":"Feature","properties":{"id":"gd-06","lat":12.20125,"lng":-61.64113},"geometry":{"type":"Polygon","coordinates":[[[-61.68213,12.22333],[-61.62768,12.23672],[-61.60322,12.17669],[-61.65595,12.17916],[-61.68213,12.22333]]]}},{"type":"Feature","properties":{"id":"gd-10","lat":12.48401,"lng":-61.44389},"geometry":{"type":"Polygon","coordinates":[[[-61.42805,12.45466],[-61.49625,12.44037],[-61.42805,12.52973],[-61.42162,12.51337],[-61.42805,12.45466]]]}}]}
