{"type":"FeatureCollection","features":[{"type":"Feature","properties":{"id":"ge-ab","lat":42.97369,"lng":41.4741},"geometry":{"type":"Polygon","coordinates":[[[40.07283,43.55106],[40.51962,43.50518],[40.65192,43.53897],[41.01179,43.37542],[41.38066,43.33477],[41.57754,43.2153],[42.04336,43.18057],[42.15433,43.2175],[42.13348,43.11143],[42.05731,43.01688],[41.8845,42.96464],[41.93835,42.61799],[41.55119,42.40646],[41.50017,42.64057],[41.42433,42.73989],[41.15024,42.79564],[41.02312,42.98998],[40.93377,42.98273],[40.85597,43.06306],[40.33513,43.14086],[40.21909,43.31904],[39.98598,43.38899],[40.07283,43.55106]]]}},{"type":"Feature","properties":{"id":"ge-aj","lat":41.63292,"lng":42.08416},"geometry":{"type":"Polygon","coordinates":[[[42.45103,41.43137],[41.94796,41.50558],[41.81298,41.42181],[41.52076,41.51423],[41.73976,41.7499],[41.77394,41.90261],[41.90466,41.89775],[42.06299,41.81143],[42.38308,41.83863],[42.48168,41.79866],[42.48788,41.68673],[42.58665,41.57911],[42.45103,41.43137]]]}},{"type":"Feature","properties":{"id":"ge-gu","lat":41.98595,"lng":42.12557},"geometry":{"type":"Polygon","coordinates":[[[42.48168,41.79866],[42.38308,41.83863],[42.06299,41.81143],[41.77394,41.90261],[41.71525,42.05934],[41.81805,42.14141],[42.17606,42.11704],[42.23032,42.04449],[42.38091,42.04622],[42.63226,41.92742],[42.64962,41.83344],[42.48168,41.79866]]]}},{"type":"Feature","properties":{"id":"ge-im","lat":42.12053,"lng":42.90715},"geometry":{"type":"Polygon","coordinates":[[[43.75013,42.394],[43.76015,42.30899],[43.61587,42.25783],[43.60822,42.17019],[43.42622,41.91662],[43.12743,41.82543],[42.71143,41.80587],[42.64962,41.83344],[42.63226,41.92742],[42.20603,42.07087],[42.52674,42.51715],[42.61438,42.5241],[42.63205,42.43545],[42.83742,42.46976],[43.05001,42.33959],[43.29393,42.42038],[43.75013,42.394]]]}},{"type":"Feature","properties":{"id":"ge-ka","lat":41.81887,"lng":45.73488},"geometry":{"type":"Polygon","coordinates":[[[45.30157,42.55984],[45.69869,42.50759],[45.73641,42.44754],[45.63141,42.20117],[45.88136,42.10203],[45.94756,42.02291],[46.22434,41.99348],[46.43089,41.89044],[46.31374,41.75665],[46.18899,41.74014],[46.18,41.65516],[46.31395,41.49375],[46.6885,41.28435],[46.60179,41.09403],[46.47492,41.04411],[46.21059,41.20017],[46.01743,41.16379],[45.82075,41.2088],[45.68587,41.29624],[45.74406,41.33536],[45.3331,41.44435],[45.28957,41.53121],[45.20833,41.54857],[45.20306,41.74009],[45.02137,41.88109],[45.21288,41.89832],[45.08172,41.94788],[45.05496,42.10446],[45.12369,42.25814],[45.21464,42.30628],[45.30157,42.55984]]]}},{"type":"Feature","properties":{"id":"ge-kk","lat":41.50971,"lng":44.53673},"geometry":{"type":"Polygon","coordinates":[[[45.0024,41.29045],[44.82071,41.27335],[44.84778,41.20891],[44.61286,41.22312],[44.55152,41.17702],[44.18033,41.22994],[43.97819,41.16462],[43.87353,41.50093],[43.67271,41.5185],[43.73307,41.69872],[43.88624,41.7342],[44.53457,41.74247],[44.94323,41.62503],[44.99976,41.69032],[44.90654,41.67325],[44.86282,41.74887],[44.94458,41.83789],[45.06622,41.8375],[45.18549,41.76699],[45.20833,41.54857],[45.28957,41.53121],[45.3331,41.44435],[45.24962,41.4445],[45.0024,41.29045]]]}},{"type":"Feature","properties":{"id":"ge-mm","lat":42.2052,"lng":44.71174},"geometry":{"type":"Polygon","coordinates":[[[44.85936,42.75951],[45.15536,42.69326],[45.30157,42.55984],[45.21464,42.30628],[45.12369,42.25814],[45.05496,42.10446],[45.08172,41.94788],[45.21288,41.89832],[45.0778,41.91651],[45.02137,41.88109],[45.06622,41.8375],[44.94458,41.83789],[44.89218,41.76975],[44.80526,41.79533],[44.62832,41.68562],[44.47918,41.74797],[44.57323,41.87889],[44.49303,42.00632],[44.26193,42.03397],[44.28436,42.17076],[44.36259,42.23964],[44.28694,42.42937],[44.33438,42.49472],[44.1858,42.62651],[44.27201,42.70238],[44.55829,42.7531],[44.69503,42.71422],[44.77347,42.60965],[44.85936,42.75951]]]}},{"type":"Feature","properties":{"id":"ge-rl","lat":42.65701,"lng":43.1474},"geometry":{"type":"Polygon","coordinates":[[[43.17523,42.93447],[43.80061,42.74646],[43.72258,42.62487],[43.90815,42.56621],[43.90216,42.51565],[43.58745,42.39473],[43.29393,42.42038],[43.05001,42.33959],[42.83742,42.46976],[42.63205,42.43545],[42.53831,42.63613],[42.56488,42.67789],[42.35259,42.7938],[42.49191,42.88715],[43.06562,42.82206],[43.17523,42.93447]]]}},{"type":"Feature","properties":{"id":"ge-sj","lat":41.51142,"lng":43.26285},"geometry":{"type":"Polygon","coordinates":[[[42.86801,41.50021],[42.76652,41.50434],[42.81995,41.57235],[42.58665,41.57911],[42.48788,41.68673],[42.48168,41.79866],[43.12743,41.82543],[43.51903,41.90613],[43.6722,41.79143],[43.88624,41.7342],[43.73307,41.69872],[43.67271,41.5185],[43.87353,41.50093],[43.97819,41.16462],[43.44043,41.10659],[43.38327,41.1872],[43.2162,41.18054],[43.10314,41.2488],[43.18401,41.29898],[42.86801,41.50021]]]}},{"type":"Feature","properties":{"id":"ge-sk","lat":42.20492,"lng":43.97729},"geometry":{"type":"Polygon","coordinates":[[[43.90815,42.56621],[44.1858,42.62651],[44.33438,42.49472],[44.28694,42.42937],[44.36259,42.23964],[44.25769,42.05066],[44.29449,41.99718],[44.49303,42.00632],[44.57323,41.87889],[44.49509,41.82928],[44.46305,41.72159],[43.88624,41.7342],[43.42622,41.91662],[43.60822,42.17019],[43.61587,42.25783],[43.76015,42.30899],[43.75013,42.394],[43.58745,42.39473],[43.82712,42.45824],[43.90815,42.56621]]]}},{"type":"Feature","properties":{"id":"ge-sz","lat":42.65701,"lng":42.24194},"geometry":{"type":"Polygon","coordinates":[[[42.36256,43.23519],[42.61521,43.13698],[42.82977,43.16876],[43.00009,43.09866],[42.99885,43.04221],[43.17523,42.93447],[43.06562,42.82206],[42.49191,42.88715],[42.37729,42.82842],[42.35259,42.7938],[42.56488,42.67789],[42.53831,42.63613],[42.61438,42.5241],[42.49635,42.49418],[42.29802,42.2259],[42.26867,42.10061],[42.00615,42.15862],[41.75511,42.13255],[41.71525,42.05934],[41.55119,42.40646],[41.93835,42.61799],[41.8845,42.96464],[42.05731,43.01688],[42.15433,43.2175],[42.36256,43.23519]]]}},{"type":"Feature","properties":{"id":"ge-tb","lat":41.71858,"lng":44.78485},"geometry":{"type":"Polygon","coordinates":[[[44.80526,41.79533],[44.89218,41.76975],[44.86055,41.73166],[44.90654,41.67325],[45.00927,41.66573],[44.90489,41.62679],[44.68071,41.70549],[44.80526,41.79533]]]}}]}
