{"type":"FeatureCollection","features":[{"type":"Feature","properties":{"id":"gh-aa","lat":5.75571,"lng":0.00284},"geometry":{"type":"Polygon","coordinates":[[[0.71895,5.79575],[0.29811,5.77367],[-0.06859,5.5812],[-0.35931,5.49867],[-0.51004,5.74337],[-0.43612,5.79133],[-0.35566,5.73949],[-0.18404,5.76805],[-0.0378,5.97558],[0.1054,5.99242],[0.23464,5.87029],[0.40161,6.00025],[0.58305,5.96597],[0.71895,5.79575]]]}},{"type":"Feature","properties":{"id":"gh-ah","lat":6.72064,"lng":-1.61764},"geometry":{"type":"Polygon","coordinates":[[[-0.21378,7.19284],[-0.44366,7.06513],[-0.60195,7.05668],[-0.79294,6.79698],[-0.94766,6.74111],[-0.89077,6.61373],[-1.19005,6.20608],[-1.2548,5.88837],[-1.36994,5.91747],[-1.47771,5.85417],[-1.52158,5.91623],[-1.68103,5.91538],[-1.82366,6.02648],[-1.91184,6.01384],[-2.01289,6.12821],[-2.01204,6.2884],[-2.22795,6.38207],[-2.22169,6.49108],[-2.32975,6.50759],[-2.36765,6.37723],[-2.42886,6.36282],[-2.44106,6.45149],[-2.37734,6.54513],[-2.41284,6.68355],[-2.30665,6.70016],[-2.24076,6.83648],[-2.39186,6.85245],[-2.31254,6.98916],[-2.23068,7.0683],[-2.0361,7.04719],[-1.86327,7.17917],[-1.85637,7.23411],[-2.14147,7.35436],[-2.10503,7.46174],[-1.84652,7.46841],[-1.82296,7.38828],[-1.65178,7.3411],[-1.5238,7.40658],[-1.5321,7.482],[-1.37753,7.62258],[-1.24677,7.46073],[-1.0859,7.48347],[-1.03231,7.54143],[-0.7948,7.49378],[-0.69848,7.54073],[-0.57968,7.39014],[-0.28331,7.29958],[-0.21378,7.19284]]]}},{"type":"Feature","properties":{"id":"gh-ba","lat":7.59987,"lng":-2.16733},"geometry":{"type":"Polygon","coordinates":[[[-2.61764,8.15149],[-2.50633,8.20927],[-2.59712,8.7883],[-2.38964,8.58113],[-2.27559,8.29929],[-2.09478,8.14888],[-1.95597,8.16906],[-1.87091,8.26012],[-1.75642,8.25234],[-1.77033,8.32544],[-1.90249,8.37582],[-1.85727,8.62382],[-1.54101,8.67092],[-1.46851,8.7568],[-1.36655,8.75859],[-1.1662,8.64914],[-1.14315,8.56175],[-1.26994,8.35678],[-1.09075,7.9815],[-1.00993,8.01812],[-1.02166,8.14294],[-0.81209,8.31931],[-0.69507,8.31877],[-0.48289,8.14731],[-0.31819,8.11478],[-0.16701,7.98949],[-0.07511,7.76991],[0.00995,7.72694],[0.12741,7.41146],[0.23681,7.34258],[0.22364,7.16732],[-0.21378,7.19284],[-0.28331,7.29958],[-0.57968,7.39014],[-0.69848,7.54073],[-0.7948,7.49378],[-1.03231,7.54143],[-1.0859,7.48347],[-1.24677,7.46073],[-1.37753,7.62258],[-1.5321,7.482],[-1.5238,7.40658],[-1.65178,7.3411],[-1.82296,7.38828],[-1.84652,7.46841],[-2.10503,7.46174],[-2.14147,7.35436],[-1.8535,7.23209],[-1.8704,7.15907],[-2.0361,7.04719],[-2.23068,7.0683],[-2.31254,6.98916],[-2.39186,6.85245],[-2.24174,6.83206],[-2.30665,6.70016],[-2.41284,6.68355],[-2.3753,6.5889],[-2.42576,6.38672],[-2.51085,6.41232],[-2.6458,6.59099],[-2.82739,6.65003],[-2.88651,6.90529],[-3.05301,6.9441],[-3.09727,7.05405],[-2.97281,7.21496],[-2.94152,7.57716],[-2.79063,7.94329],[-2.61056,8.04],[-2.61764,8.15149]]]}},{"type":"Feature","properties":{"id":"gh-cp","lat":5.67319,"lng":-1.14463},"geometry":{"type":"Polygon","coordinates":[[[-0.35931,5.49867],[-0.79955,5.21483],[-0.99706,5.21678],[-1.5688,5.01927],[-1.54582,5.17715],[-1.42422,5.26498],[-1.60721,5.44977],[-1.60729,5.58059],[-1.81528,5.62048],[-1.82273,5.86967],[-2.15472,6.1434],[-2.16785,6.21696],[-2.02403,6.29548],[-2.00832,6.11624],[-1.91184,6.01384],[-1.82366,6.02648],[-1.68103,5.91538],[-1.52158,5.91623],[-1.47771,5.85417],[-1.23948,5.9153],[-1.11639,5.77836],[-0.50655,5.7259],[-0.35931,5.49867]]]}},{"type":"Feature","properties":{"id":"gh-ep","lat":6.46534,"lng":-0.41291},"geometry":{"type":"Polygon","coordinates":[[[-1.23754,5.96976],[-1.11416,6.35165],[-0.89077,6.61373],[-0.94766,6.74111],[-0.79294,6.79698],[-0.60195,7.05668],[-0.44366,7.06513],[-0.21378,7.19284],[0.22364,7.16732],[0.21247,6.95224],[0.14297,6.83338],[0.21557,6.70915],[0.11083,6.53412],[0.16638,6.5225],[0.2165,6.40819],[0.17986,6.30781],[0.09134,6.25626],[0.09005,6.16536],[0.31707,6.051],[0.32001,5.94424],[0.26136,5.88086],[0.07863,5.99367],[-0.0378,5.97558],[-0.18404,5.76805],[-0.35566,5.73949],[-0.43612,5.79133],[-0.50299,5.78014],[-0.50655,5.7259],[-0.7685,5.73428],[-1.11639,5.77836],[-1.23754,5.96976]]]}},{"type":"Feature","properties":{"id":"gh-np","lat":9.34435,"lng":-1.08969},"geometry":{"type":"Polygon","coordinates":[[[-0.09156,10.70025],[-0.08813,10.63349],[0.02943,10.58253],[0.17986,10.39417],[0.27324,10.4066],[0.3088,10.2971],[0.3966,10.28322],[0.34709,9.66316],[0.26097,9.65716],[0.27764,9.60699],[0.37773,9.58942],[0.2302,9.57575],[0.30192,9.50746],[0.22681,9.43234],[0.43044,9.48919],[0.53757,9.37765],[0.43127,9.02759],[0.50563,8.86633],[0.47349,8.79355],[0.19263,8.76567],[0.17382,8.59312],[0.09517,8.5239],[0.09703,8.39075],[0.24539,8.36228],[0.19759,8.25404],[0.10307,8.2404],[-0.07159,8.3352],[-0.20347,8.21146],[-0.34129,8.21317],[-0.42351,8.13472],[-0.69507,8.31877],[-0.81659,8.31854],[-1.02166,8.14294],[-1.00836,8.02393],[-1.05905,7.96551],[-1.26994,8.35678],[-1.14315,8.56175],[-1.17163,8.66433],[-1.44404,8.76022],[-1.54101,8.67092],[-1.87029,8.60681],[-1.90249,8.37582],[-1.77033,8.32544],[-1.76645,8.2388],[-1.87091,8.26012],[-1.95597,8.16906],[-2.13095,8.15769],[-2.28502,8.31262],[-2.38964,8.58113],[-2.61238,8.78132],[-2.66079,9.0149],[-2.77484,9.05498],[-2.65981,9.2729],[-2.715,9.31106],[-2.67567,9.47172],[-2.76626,9.57652],[-2.7434,9.65333],[-2.3297,9.81198],[-1.75748,9.83713],[-1.64948,10.05561],[-1.5577,10.07228],[-1.64909,10.17416],[-1.49011,10.42624],[-1.23237,10.2986],[-1.13251,10.4845],[-1.00024,10.53145],[-0.92195,10.47923],[-0.78555,10.63982],[-0.70086,10.63424],[-0.70602,10.52445],[-0.66745,10.51887],[-0.51275,10.55362],[-0.48281,10.61741],[-0.09156,10.70025]]]}},{"type":"Feature","properties":{"id":"gh-tv","lat":7.16657,"lng":0.42354},"geometry":{"type":"Polygon","coordinates":[[[0.57385,8.20394],[0.61229,7.69943],[0.49561,7.5043],[0.54821,7.38327],[0.62966,7.38916],[0.64444,7.30193],[0.59803,7.0312],[0.49457,6.97312],[0.54625,6.91477],[0.51607,6.84181],[0.62583,6.72776],[0.63224,6.62399],[0.72743,6.57144],[0.74572,6.4409],[0.8868,6.33039],[0.98354,6.3246],[1.07966,6.16792],[1.18797,6.13565],[1.04802,5.99266],[0.95485,5.79108],[0.72348,5.75544],[0.67357,5.75906],[0.71895,5.79575],[0.57478,5.97225],[0.39401,5.99971],[0.32001,5.94424],[0.31707,6.051],[0.09114,6.14849],[0.09134,6.25626],[0.17986,6.30781],[0.2165,6.40819],[0.16638,6.5225],[0.11083,6.53412],[0.21557,6.70915],[0.14297,6.83338],[0.21247,6.95224],[0.23681,7.34258],[0.12741,7.41146],[0.00995,7.72694],[-0.07511,7.76991],[-0.16701,7.98949],[-0.39491,8.1393],[-0.34129,8.21317],[-0.20347,8.21146],[-0.07159,8.3352],[0.10307,8.2404],[0.19759,8.25404],[0.24539,8.36228],[0.09703,8.39075],[0.09517,8.5239],[0.17382,8.59312],[0.18906,8.76303],[0.36808,8.76148],[0.44352,8.60687],[0.61632,8.48876],[0.70883,8.32257],[0.57385,8.20394]]]}},{"type":"Feature","properties":{"id":"gh-ue","lat":10.7649,"lng":-0.80329},"geometry":{"type":"Polygon","coordinates":[[[-0.30168,11.16294],[0.00112,11.08599],[0.01941,11.03163],[-0.03206,10.81316],[-0.17458,10.66333],[-0.48281,10.61741],[-0.51275,10.55362],[-0.67336,10.51856],[-0.70086,10.63424],[-0.78555,10.63982],[-0.92195,10.47923],[-1.00024,10.53145],[-1.13251,10.4845],[-1.23237,10.2986],[-1.33239,10.33857],[-1.37275,10.47083],[-1.41722,10.45874],[-1.56383,10.60778],[-1.57049,10.71663],[-1.45306,10.85195],[-1.42358,11.01791],[-0.696,10.99403],[-0.63476,10.90797],[-0.42522,11.10147],[-0.36894,11.06522],[-0.31881,11.10136],[-0.30168,11.16294]]]}},{"type":"Feature","properties":{"id":"gh-uw","lat":10.36247,"lng":-2.17961},"geometry":{"type":"Polygon","coordinates":[[[-2.83734,10.99801],[-1.42358,11.01791],[-1.45306,10.85195],[-1.57049,10.71663],[-1.56383,10.60778],[-1.41722,10.45874],[-1.37275,10.47083],[-1.35764,10.40265],[-1.49011,10.42624],[-1.61403,10.28945],[-1.64932,10.16765],[-1.55514,10.07809],[-1.68896,10.00905],[-1.69599,9.88493],[-1.76361,9.83379],[-2.49904,9.7784],[-2.62312,9.67148],[-2.75102,9.65918],[-2.7953,9.72],[-2.73391,9.82279],[-2.79892,10.16961],[-2.75494,10.2608],[-2.8413,10.32229],[-2.76755,10.4212],[-2.85956,10.46562],[-2.9325,10.63431],[-2.8214,10.90626],[-2.83734,10.99801]]]}},{"type":"Feature","properties":{"id":"gh-wp","lat":6.0179,"lng":-2.53501},"geometry":{"type":"Polygon","coordinates":[[[-3.02252,5.8545],[-3.26111,6.63394],[-3.21042,6.716],[-3.24168,6.8109],[-3.09727,7.05405],[-3.05301,6.9441],[-2.88651,6.90529],[-2.82739,6.65003],[-2.6458,6.59099],[-2.51651,6.41465],[-2.39868,6.3563],[-2.32975,6.50759],[-2.22169,6.49108],[-2.22795,6.38207],[-2.07023,6.29765],[-2.16785,6.21696],[-2.1586,6.14743],[-1.83634,5.88837],[-1.79177,5.77262],[-1.81528,5.62048],[-1.60729,5.58059],[-1.60721,5.44977],[-1.42115,5.25735],[-1.54582,5.17715],[-1.5688,5.01927],[-1.96728,4.75812],[-2.09057,4.73713],[-2.3566,4.91962],[-3.11962,5.09133],[-2.95775,5.08267],[-2.76662,5.16103],[-2.78957,5.34686],[-2.73014,5.37316],[-2.79344,5.60813],[-2.94586,5.60829],[-2.9648,5.70978],[-3.02976,5.70425],[-3.02252,5.8545]]]}}]}
