{"type":"FeatureCollection","features":[{"type":"Feature","properties":{"id":"gm-b","lat":13.42416,"lng":-16.67217},"geometry":{"type":"Polygon","coordinates":[[[-16.76293,13.40498],[-16.67882,13.49616],[-16.58532,13.44335],[-16.66344,13.33464],[-16.76293,13.40498]]]}},{"type":"Feature","properties":{"id":"gm-l","lat":13.4045,"lng":-15.72108},"geometry":{"type":"Polygon","coordinates":[[[-15.18133,13.55984],[-15.27707,13.3803],[-15.80712,13.33978],[-15.82437,13.24851],[-16.19929,13.2591],[-16.22712,13.33369],[-16.1612,13.4287],[-15.62084,13.45482],[-15.55541,13.50922],[-15.34057,13.44082],[-15.18133,13.55984]]]}},{"type":"Feature","properties":{"id":"gm-m","lat":13.55331,"lng":-14.77886},"geometry":{"type":"Polygon","coordinates":[[[-15.0977,13.81998],[-14.87927,13.78058],[-14.74093,13.61545],[-14.5426,13.64082],[-14.46213,13.51666],[-14.51882,13.45344],[-14.48862,13.39864],[-14.55211,13.32309],[-14.69814,13.34518],[-15.13765,13.58997],[-15.30191,13.49616],[-15.36787,13.62635],[-15.49803,13.64152],[-15.39407,13.77151],[-15.26726,13.7418],[-15.0977,13.81998]]]}},{"type":"Feature","properties":{"id":"gm-n","lat":13.50473,"lng":-16.09149},"geometry":{"type":"Polygon","coordinates":[[[-15.5182,13.5831],[-15.49803,13.64152],[-15.37931,13.6326],[-15.30407,13.48115],[-15.55614,13.52831],[-15.76989,13.46507],[-16.14159,13.45458],[-16.39053,13.33686],[-16.52184,13.35904],[-16.5614,13.58691],[-15.5182,13.5831]]]}},{"type":"Feature","properties":{"id":"gm-u","lat":13.41528,"lng":-14.1697},"geometry":{"type":"Polygon","coordinates":[[[-14.46213,13.51666],[-14.34728,13.45236],[-13.96749,13.57558],[-13.84269,13.47665],[-13.82256,13.3782],[-14.20169,13.22955],[-14.36883,13.2357],[-14.55211,13.32309],[-14.46213,13.51666]]]}},{"type":"Feature","properties":{"id":"gm-w","lat":13.23177,"lng":-16.11037},"geometry":{"type":"Polygon","coordinates":[[[-15.82437,13.24851],[-15.83332,13.15685],[-16.67353,13.16431],[-16.75365,13.06501],[-16.8297,13.33853],[-16.76293,13.40498],[-16.70439,13.33779],[-16.59553,13.38508],[-16.41942,13.2082],[-16.3778,13.21503],[-16.43993,13.27643],[-16.25796,13.3249],[-16.20971,13.25117],[-16.1373,13.29071],[-15.82437,13.24851]]]}}]}
