{"type":"FeatureCollection","features":[{"type":"Feature","properties":{"id":"gn-be","lat":8.68529,"lng":-8.34626},"geometry":{"type":"Polygon","coordinates":[[[-8.31955,9.33517],[-7.86538,9.40992],[-7.92956,9.18389],[-7.74678,9.07645],[-7.93184,8.99656],[-7.96894,8.81285],[-7.80368,8.74905],[-7.69681,8.62485],[-7.66245,8.37486],[-7.77102,8.38652],[-7.82383,8.47786],[-7.86559,8.42088],[-7.97054,8.49695],[-8.24887,8.45357],[-8.26598,8.24598],[-8.08552,8.16203],[-8.0033,8.18405],[-8.02129,8.10266],[-7.96264,8.01517],[-8.06723,8.02075],[-8.27949,8.19593],[-8.53787,8.27104],[-8.58895,8.34915],[-8.91042,8.29808],[-8.85634,8.46332],[-8.9675,8.74574],[-8.96915,8.96194],[-8.72796,9.07211],[-8.52183,9.36651],[-8.31955,9.33517]]]}},{"type":"Feature","properties":{"id":"gn-bf","lat":10.30487,"lng":-14.16323},"geometry":{"type":"Polygon","coordinates":[[[-13.69036,9.95076],[-13.74975,9.86347],[-13.82771,9.85537],[-14.05834,10.02529],[-14.04613,10.07949],[-13.99376,10.07616],[-14.06835,10.11811],[-13.99991,10.19969],[-14.13028,10.0489],[-14.1798,10.09028],[-14.12365,10.16258],[-14.13777,10.17919],[-14.2224,10.10611],[-14.24389,10.18232],[-14.45255,10.21459],[-14.54552,10.49502],[-14.14453,10.66907],[-13.98649,10.64694],[-13.80001,10.74084],[-13.61244,10.71478],[-13.62433,10.55439],[-13.81061,10.39516],[-13.91343,10.1169],[-13.69036,9.95076]]]}},{"type":"Feature","properties":{"id":"gn-bk","lat":11.07054,"lng":-14.36978},"geometry":{"type":"Polygon","coordinates":[[[-14.28969,11.66885],[-14.01514,11.63712],[-14.04795,11.53383],[-13.93379,11.48576],[-13.90975,11.3776],[-13.8066,11.29196],[-13.84408,11.27177],[-13.76016,11.16454],[-13.77003,11.07741],[-13.86014,10.88992],[-13.98965,10.86188],[-14.20719,10.62049],[-14.40548,10.59345],[-14.65119,10.47508],[-14.61522,10.69131],[-14.56851,10.73102],[-14.50023,10.8911],[-14.69982,10.64313],[-14.65136,10.80996],[-14.76032,10.69937],[-14.79507,10.76826],[-14.74047,10.87189],[-14.8087,10.82347],[-14.81973,10.91201],[-14.6647,11.03579],[-14.68517,11.06367],[-14.8435,10.96748],[-14.91857,11.02896],[-14.91112,10.96003],[-14.95958,10.98054],[-14.91112,10.92593],[-14.98005,10.87499],[-14.95958,10.76826],[-15.08113,10.87824],[-14.71106,11.49757],[-14.52094,11.51289],[-14.28969,11.66885]]]}},{"type":"Feature","properties":{"id":"gn-c","lat":9.5268,"lng":-13.69414},"geometry":{"type":"Polygon","coordinates":[[[-13.64327,9.54254],[-13.71434,9.50764],[-13.72623,9.51105],[-13.67333,9.5738],[-13.64327,9.54254]]]}},{"type":"Feature","properties":{"id":"gn-co","lat":9.82282,"lng":-13.35518},"geometry":{"type":"Polygon","coordinates":[[[-13.31788,9.63804],[-13.51561,9.52448],[-13.47411,9.89943],[-13.393,9.99257],[-13.28183,9.99857],[-13.21874,9.93849],[-13.23376,9.7462],[-13.10758,9.65006],[-13.08955,9.56293],[-13.20672,9.56293],[-13.31788,9.63804]]]}},{"type":"Feature","properties":{"id":"gn-db","lat":10.49881,"lng":-11.3761},"geometry":{"type":"Polygon","coordinates":[[[-11.44917,9.99504],[-11.58752,9.99428],[-11.60641,10.06852],[-11.55267,10.73545],[-11.60288,10.9653],[-11.42308,11.06417],[-11.19377,11.02608],[-11.0826,10.94496],[-10.70309,11.11255],[-10.89628,10.84412],[-10.59811,10.66209],[-10.72809,10.60246],[-10.88131,10.65654],[-11.37704,10.39516],[-11.44917,9.99504]]]}},{"type":"Feature","properties":{"id":"gn-di","lat":11.5927,"lng":-10.62856},"geometry":{"type":"Polygon","coordinates":[[[-10.95212,12.21946],[-10.80494,12.09596],[-10.71136,11.89039],[-10.55948,11.99519],[-10.51163,12.11807],[-10.26694,12.21781],[-9.88877,12.06056],[-10.20772,11.81486],[-10.06508,11.64104],[-10.02947,11.37752],[-10.13986,11.37395],[-10.32148,11.46654],[-10.38558,11.44162],[-10.34344,11.26947],[-10.37489,11.17809],[-10.69539,11.22795],[-10.70309,11.11255],[-11.0826,10.94496],[-11.19377,11.02608],[-11.42308,11.06417],[-11.24924,11.18428],[-11.30615,11.32618],[-11.13242,11.48299],[-11.21825,11.54436],[-11.11931,11.78748],[-11.18462,12.02107],[-11.05232,12.20251],[-10.95212,12.21946]]]}},{"type":"Feature","properties":{"id":"gn-dl","lat":10.9029,"lng":-12.09785},"geometry":{"type":"Polygon","coordinates":[[[-12.00549,11.2866],[-11.90482,11.15857],[-11.89676,11.0176],[-11.78564,10.969],[-11.82169,10.80376],[-12.02899,10.76169],[-12.19724,10.59345],[-12.41513,10.49125],[-12.50014,10.61904],[-12.64953,10.52871],[-12.61786,10.73165],[-12.4406,10.8368],[-12.33845,10.98702],[-12.13415,11.03209],[-12.18222,11.13424],[-12.12184,11.29303],[-12.00549,11.2866]]]}},{"type":"Feature","properties":{"id":"gn-du","lat":10.02811,"lng":-13.53691},"geometry":{"type":"Polygon","coordinates":[[[-13.67333,9.5738],[-13.56111,9.78824],[-13.65119,9.84284],[-13.66128,9.75454],[-13.74718,9.76777],[-13.68529,9.94648],[-13.91343,10.1169],[-13.81897,10.29609],[-13.48392,10.2392],[-13.29462,10.3765],[-13.13462,10.40417],[-13.15565,10.10974],[-13.47411,9.89943],[-13.51561,9.52448],[-13.67333,9.5738]]]}},{"type":"Feature","properties":{"id":"gn-fa","lat":9.81094,"lng":-10.72537},"geometry":{"type":"Polygon","coordinates":[[[-10.80169,9.38728],[-11.18854,9.9726],[-11.44917,9.99504],[-11.37704,10.39516],[-10.88131,10.65654],[-10.72809,10.60246],[-10.59811,10.66209],[-10.44171,10.50595],[-10.30469,10.53223],[-10.22415,10.50825],[-10.19994,10.43934],[-10.13811,10.52677],[-10.13744,10.39893],[-10.23027,10.31947],[-10.21079,10.184],[-10.35375,9.99905],[-10.32267,9.88857],[-10.4154,9.73331],[-10.39159,9.29254],[-10.50176,9.10968],[-10.5931,9.04762],[-10.74634,9.08381],[-10.67513,9.30646],[-10.80169,9.38728]]]}},{"type":"Feature","properties":{"id":"gn-fo","lat":9.37446,"lng":-13.0712},"geometry":{"type":"Polygon","coordinates":[[[-12.60155,9.65171],[-12.72294,9.39209],[-12.83583,9.28197],[-12.95791,9.27243],[-12.95915,9.17784],[-13.11591,9.04395],[-13.3216,9.05663],[-13.24307,9.16975],[-13.1577,9.18549],[-13.25951,9.19636],[-13.23282,9.2674],[-13.28063,9.16502],[-13.3153,9.18207],[-13.3011,9.35684],[-13.40779,9.28701],[-13.39664,9.43936],[-13.49918,9.42878],[-13.52086,9.47948],[-13.48668,9.56908],[-13.31788,9.63804],[-13.13161,9.55693],[-12.86722,9.69813],[-12.60155,9.65171]]]}},{"type":"Feature","properties":{"id":"gn-fr","lat":10.47581,"lng":-13.46355},"geometry":{"type":"Polygon","coordinates":[[[-13.61244,10.71478],[-13.4049,10.70068],[-13.20893,10.59637],[-13.21209,10.39724],[-13.48392,10.2392],[-13.81897,10.29609],[-13.81061,10.39516],[-13.62433,10.55439],[-13.61244,10.71478]]]}},{"type":"Feature","properties":{"id":"gn-ga","lat":11.70975,"lng":-13.2818},"geometry":{"type":"Polygon","coordinates":[[[-13.94393,12.21864],[-13.69532,12.29249],[-13.66698,12.23212],[-13.39802,12.31086],[-13.33438,12.09077],[-13.21107,12.01543],[-13.01806,12.01691],[-12.82771,12.15425],[-12.86296,11.90891],[-12.78167,11.89979],[-12.80699,11.69639],[-12.70415,11.56622],[-12.93027,11.38535],[-12.98972,11.25616],[-12.96871,11.16848],[-13.23371,11.13025],[-13.2642,11.33104],[-13.39542,11.36129],[-13.8066,11.29196],[-13.90975,11.3776],[-13.93379,11.48576],[-14.04795,11.53383],[-14.01514,11.63712],[-13.88641,11.67557],[-13.87005,11.74368],[-13.81577,11.68683],[-13.72476,11.72311],[-13.72394,12.00278],[-13.97253,12.15156],[-13.94393,12.21864]]]}},{"type":"Feature","properties":{"id":"gn-gu","lat":8.71361,"lng":-10.20899},"geometry":{"type":"Polygon","coordinates":[[[-10.59218,9.04166],[-10.47824,9.18518],[-10.43639,9.0743],[-10.20219,8.87233],[-9.97998,8.94302],[-9.76999,8.90026],[-9.90788,8.75475],[-9.8728,8.50036],[-10.06168,8.42217],[-10.0761,8.5015],[-10.14798,8.52429],[-10.23242,8.47706],[-10.37474,8.49478],[-10.51928,8.33479],[-10.68815,8.32407],[-10.71518,8.2696],[-10.63188,8.53201],[-10.48186,8.67247],[-10.59968,8.81538],[-10.59218,9.04166]]]}},{"type":"Feature","properties":{"id":"gn-k","lat":10.09171,"lng":-9.04829},"geometry":{"type":"Polygon","coordinates":[[[-8.15239,9.94999],[-8.16102,9.5536],[-8.07043,9.39754],[-8.27111,9.34087],[-8.4791,9.38076],[-8.52285,9.58397],[-8.88338,9.74019],[-9.02459,9.73118],[-9.17781,9.63804],[-9.2212,9.42621],[-9.54948,9.45904],[-9.62925,9.53663],[-9.83341,9.55312],[-9.9552,9.669],[-9.8508,9.70114],[-9.70058,9.90243],[-9.7186,10.20287],[-9.66753,10.43722],[-9.3731,10.74968],[-8.9645,10.66555],[-8.94647,10.50332],[-8.74818,10.39215],[-8.67307,10.23292],[-8.42971,10.17884],[-8.33958,10.00458],[-8.15239,9.94999]]]}},{"type":"Feature","properties":{"id":"gn-kb","lat":11.6969,"lng":-11.55944},"geometry":{"type":"Polygon","coordinates":[[[-11.47079,12.13461],[-11.35132,12.0404],[-11.353,11.66602],[-11.52425,11.62396],[-11.6234,11.50979],[-12.05549,11.29102],[-12.31747,11.72777],[-11.95649,11.65294],[-11.6264,11.72911],[-11.47079,12.13461]]]}},{"type":"Feature","properties":{"id":"gn-kd","lat":10.0492,"lng":-12.6731},"geometry":{"type":"Polygon","coordinates":[[[-12.10981,9.88168],[-12.25359,9.92841],[-12.42699,9.89761],[-12.50833,9.86038],[-12.52246,9.73447],[-12.60155,9.65171],[-12.86722,9.69813],[-13.08955,9.56293],[-13.10758,9.65006],[-13.23376,9.7462],[-13.21874,9.93849],[-13.28183,9.99857],[-13.15565,10.10974],[-13.13462,10.40417],[-12.81278,10.52406],[-12.71397,10.47145],[-12.50014,10.61904],[-12.38275,10.46541],[-12.40704,10.27183],[-12.23638,10.26857],[-12.12548,10.09982],[-12.10981,9.88168]]]}},{"type":"Feature","properties":{"id":"gn-ke","lat":9.31321,"lng":-8.88044},"geometry":{"type":"Polygon","coordinates":[[[-9.3361,9.08972],[-9.31969,9.19642],[-9.23762,9.24566],[-9.17781,9.63804],[-9.02459,9.73118],[-8.67307,9.66809],[-8.47478,9.52087],[-8.4791,9.38076],[-8.72796,9.07211],[-9.14864,8.91065],[-9.23982,8.9192],[-9.28825,9.0816],[-9.3361,9.08972]]]}},{"type":"Feature","properties":{"id":"gn-kn","lat":12.33145,"lng":-13.16081},"geometry":{"type":"Polygon","coordinates":[[[-13.72828,12.67339],[-13.07646,12.63592],[-13.06674,12.48012],[-12.98104,12.46699],[-12.91314,12.53634],[-12.57813,12.36153],[-12.79014,12.24822],[-12.86663,12.10451],[-13.01806,12.01691],[-13.26415,12.03014],[-13.34179,12.10493],[-13.37759,12.30138],[-13.66698,12.23212],[-13.69532,12.29249],[-13.66071,12.45867],[-13.72828,12.67339]]]}},{"type":"Feature","properties":{"id":"gn-ko","lat":10.62706,"lng":-10.02298},"geometry":{"type":"Polygon","coordinates":[[[-9.9552,9.669],[-10.13408,9.71383],[-10.27087,9.59807],[-10.41773,9.61174],[-10.41404,9.74005],[-10.32267,9.88857],[-10.35375,9.99905],[-10.21079,10.184],[-10.23027,10.31947],[-10.13744,10.39893],[-10.13416,10.52375],[-10.19994,10.43934],[-10.22415,10.50825],[-10.30469,10.53223],[-10.44171,10.50595],[-10.64787,10.7219],[-10.89628,10.84412],[-10.71154,11.05584],[-10.69539,11.22795],[-10.54939,11.17453],[-10.34284,11.20658],[-10.39982,11.39888],[-10.32148,11.46654],[-9.87483,11.30249],[-9.83277,11.0381],[-9.68856,10.87286],[-9.34305,10.86685],[-9.3731,10.74968],[-9.66753,10.43722],[-9.7186,10.20287],[-9.70058,9.90243],[-9.8508,9.70114],[-9.9552,9.669]]]}},{"type":"Feature","properties":{"id":"gn-ks","lat":9.31567,"lng":-9.82264},"geometry":{"type":"Polygon","coordinates":[[[-9.9552,9.669],[-9.83341,9.55312],[-9.62925,9.53663],[-9.54948,9.45904],[-9.2212,9.42621],[-9.23762,9.24566],[-9.31969,9.19642],[-9.42174,8.92873],[-9.57432,8.86031],[-9.97998,8.94302],[-10.20219,8.87233],[-10.4398,9.07849],[-10.47824,9.18518],[-10.37957,9.38568],[-10.41773,9.61174],[-10.27087,9.59807],[-10.13408,9.71383],[-9.9552,9.669]]]}},{"type":"Feature","properties":{"id":"gn-la","lat":11.406,"lng":-12.31173},"geometry":{"type":"Polygon","coordinates":[[[-12.06244,11.29047],[-12.23541,11.26646],[-12.25439,11.19642],[-12.36565,11.15989],[-12.48156,11.17306],[-12.52567,11.29921],[-12.46163,11.5128],[-12.50058,11.72568],[-12.31747,11.72777],[-12.06244,11.29047]]]}},{"type":"Feature","properties":{"id":"gn-le","lat":11.34944,"lng":-12.7287},"geometry":{"type":"Polygon","coordinates":[[[-12.87487,10.9861],[-12.98972,11.25616],[-12.93027,11.38535],[-12.70415,11.56622],[-12.8087,11.72215],[-12.50058,11.72568],[-12.46163,11.5128],[-12.52567,11.29921],[-12.64832,11.31352],[-12.81265,11.00013],[-12.87487,10.9861]]]}},{"type":"Feature","properties":{"id":"gn-lo","lat":7.83722,"lng":-8.32063},"geometry":{"type":"Polygon","coordinates":[[[-8.06723,8.02075],[-8.12888,7.88257],[-8.09826,7.79188],[-8.22898,7.54429],[-8.4148,7.61292],[-8.48545,7.55799],[-8.54782,7.60078],[-8.56741,7.68821],[-8.51083,7.7633],[-8.54989,7.93455],[-8.42971,8.21696],[-8.27949,8.19593],[-8.06723,8.02075]]]}},{"type":"Feature","properties":{"id":"gn-mc","lat":8.42326,"lng":-9.26817},"geometry":{"type":"Polygon","coordinates":[[[-9.72212,8.43564],[-9.77359,8.56302],[-9.8728,8.50036],[-9.9199,8.69166],[-9.76999,8.90026],[-9.52316,8.87209],[-9.36233,8.99328],[-9.3361,9.08972],[-9.28825,9.0816],[-9.23982,8.9192],[-8.96915,8.96194],[-8.87437,8.39723],[-9.00956,8.11181],[-9.32893,7.75458],[-9.43867,7.86624],[-9.42415,8.02618],[-9.47422,8.02881],[-9.48141,8.1647],[-9.53014,8.1855],[-9.49913,8.34347],[-9.60016,8.41088],[-9.67726,8.39153],[-9.64512,8.44341],[-9.68351,8.48705],[-9.72212,8.43564]]]}},{"type":"Feature","properties":{"id":"gn-md","lat":10.82479,"lng":-8.82847},"geometry":{"type":"Polygon","coordinates":[[[-7.98966,10.16199],[-8.15239,9.94999],[-8.33958,10.00458],[-8.42971,10.17884],[-8.67307,10.23292],[-8.74818,10.39215],[-8.8984,10.44923],[-8.9645,10.66555],[-9.3731,10.74968],[-9.31301,10.8999],[-8.92244,11.13124],[-8.85333,11.42867],[-8.72652,11.64947],[-8.65675,11.49643],[-8.54958,11.49013],[-8.37103,11.32055],[-8.49258,11.27779],[-8.69623,10.96274],[-8.55955,10.97161],[-8.50576,11.05279],[-8.32659,11.02385],[-8.29553,10.53745],[-8.22887,10.42342],[-8.13544,10.42732],[-8.11549,10.36025],[-7.99628,10.32826],[-7.98966,10.16199]]]}},{"type":"Feature","properties":{"id":"gn-ml","lat":11.98598,"lng":-12.17554},"geometry":{"type":"Polygon","coordinates":[[[-11.51539,12.43164],[-11.38863,12.38447],[-11.44723,12.37454],[-11.50779,12.19161],[-11.47318,12.05659],[-11.6264,11.72911],[-11.95649,11.65294],[-12.20025,11.72911],[-12.8087,11.72215],[-12.78167,11.89979],[-12.8627,11.91537],[-12.77642,12.2568],[-12.50507,12.39025],[-12.36092,12.30561],[-12.10398,12.40736],[-11.7578,12.38333],[-11.51539,12.43164]]]}},{"type":"Feature","properties":{"id":"gn-mm","lat":10.67757,"lng":-11.83572},"geometry":{"type":"Polygon","coordinates":[[[-11.58752,9.99428],[-11.9101,9.99252],[-11.92177,9.92221],[-12.10981,9.88168],[-12.12548,10.09982],[-12.23638,10.26857],[-12.40968,10.27705],[-12.41513,10.49125],[-12.19724,10.59345],[-12.02899,10.76169],[-11.82169,10.80376],[-11.77963,10.89689],[-11.81315,11.00245],[-11.6636,11.03077],[-11.47273,11.2451],[-11.30615,11.32618],[-11.24924,11.18428],[-11.60288,10.9653],[-11.55327,10.7957],[-11.58752,9.99428]]]}},{"type":"Feature","properties":{"id":"gn-nz","lat":7.99389,"lng":-8.78285},"geometry":{"type":"Polygon","coordinates":[[[-8.56741,7.68821],[-8.68657,7.69436],[-8.72758,7.62202],[-8.88452,7.66602],[-9.0694,8.05323],[-8.91042,8.29808],[-8.65204,8.36418],[-8.42971,8.21696],[-8.54989,7.93455],[-8.51083,7.7633],[-8.56741,7.68821]]]}},{"type":"Feature","properties":{"id":"gn-pi","lat":10.93593,"lng":-12.63215},"geometry":{"type":"Polygon","coordinates":[[[-12.25439,11.19642],[-12.23541,11.26646],[-12.12184,11.29303],[-12.18222,11.13424],[-12.13415,11.03209],[-12.33845,10.98702],[-12.4406,10.8368],[-12.61786,10.73165],[-12.70286,10.47551],[-12.81278,10.52406],[-12.89601,10.46994],[-12.96404,10.59026],[-12.9212,10.72379],[-12.95355,10.88484],[-12.81265,11.00013],[-12.72668,11.23546],[-12.63005,11.32166],[-12.5391,11.31538],[-12.46138,11.15942],[-12.25439,11.19642]]]}},{"type":"Feature","properties":{"id":"gn-si","lat":11.7364,"lng":-9.48803},"geometry":{"type":"Polygon","coordinates":[[[-9.32731,12.49753],[-8.97591,12.3687],[-8.99428,12.22484],[-8.9139,12.16985],[-8.92211,12.04536],[-8.81979,12.01265],[-8.79783,11.92511],[-8.84723,11.65795],[-8.72652,11.64947],[-8.97652,11.08016],[-9.34305,10.86685],[-9.68856,10.87286],[-9.83277,11.0381],[-9.87483,11.30249],[-10.02947,11.37752],[-10.06508,11.64104],[-10.20772,11.81486],[-9.88877,12.06056],[-9.72299,12.02542],[-9.62817,12.17016],[-9.36017,12.24664],[-9.30917,12.35775],[-9.41257,12.45537],[-9.32731,12.49753]]]}},{"type":"Feature","properties":{"id":"gn-te","lat":10.8759,"lng":-13.42736},"geometry":{"type":"Polygon","coordinates":[[[-12.96871,11.16848],[-12.87487,10.9861],[-12.96119,10.81301],[-12.9212,10.72379],[-12.96305,10.58468],[-12.89601,10.46994],[-13.21209,10.39724],[-13.20893,10.59637],[-13.4049,10.70068],[-13.80001,10.74084],[-13.98649,10.64694],[-14.14453,10.66907],[-13.98965,10.86188],[-13.86014,10.88992],[-13.76001,11.11855],[-13.84408,11.27177],[-13.79148,11.30605],[-13.39542,11.36129],[-13.2642,11.33104],[-13.23371,11.13025],[-12.96871,11.16848]]]}},{"type":"Feature","properties":{"id":"gn-to","lat":11.53063,"lng":-11.40197},"geometry":{"type":"Polygon","coordinates":[[[-11.35132,12.0404],[-11.27499,11.99627],[-11.18462,12.02107],[-11.11931,11.89106],[-11.13914,11.65756],[-11.21825,11.55147],[-11.13918,11.46744],[-11.35504,11.26921],[-11.47273,11.2451],[-11.6636,11.03077],[-11.88813,11.0061],[-11.99595,11.32051],[-11.6234,11.50979],[-11.52425,11.62396],[-11.353,11.66602],[-11.35132,12.0404]]]}},{"type":"Feature","properties":{"id":"gn-yo","lat":7.56535,"lng":-9.05627},"geometry":{"type":"Polygon","coordinates":[[[-9.48663,7.37283],[-9.35351,7.62243],[-9.36775,7.75755],[-9.0694,8.05323],[-8.88452,7.66602],[-8.72758,7.62202],[-8.72962,7.50869],[-8.91219,7.25015],[-8.9572,7.28648],[-9.12541,7.19021],[-9.23434,7.38131],[-9.34922,7.42156],[-9.40735,7.37805],[-9.4381,7.42156],[-9.48663,7.37283]]]}}]}
