{"type":"FeatureCollection","features":[{"type":"Feature","properties":{"id":"gq-an","lat":-1.45436,"lng":5.62709},"geometry":{"type":"Polygon","coordinates":[[[5.62892,-1.47568],[5.61866,-1.43304],[5.63307,-1.41579],[5.62892,-1.47568]]]}},{"type":"Feature","properties":{"id":"gq-bn","lat":3.65639,"lng":8.79768},"geometry":{"type":"Polygon","coordinates":[[[8.62681,3.63311],[8.74342,3.77241],[8.90846,3.7582],[8.96315,3.67967],[8.86354,3.51512],[8.62681,3.63311]]]}},{"type":"Feature","properties":{"id":"gq-bs","lat":3.34713,"lng":8.60799},"geometry":{"type":"Polygon","coordinates":[[[8.86354,3.51512],[8.68621,3.19733],[8.45021,3.27293],[8.44215,3.42133],[8.5796,3.46332],[8.62681,3.63311],[8.86354,3.51512]]]}},{"type":"Feature","properties":{"id":"gq-cs","lat":1.58215,"lng":10.32118},"geometry":{"type":"Polygon","coordinates":[[[10.18998,2.16562],[10.40969,2.16565],[10.42746,1.93458],[10.61577,1.81379],[10.57489,1.58724],[10.98096,1.57303],[10.7755,1.31129],[10.91549,1.16846],[10.96383,1.00042],[10.00038,0.99974],[10.0558,1.07358],[10.2763,1.13962],[10.14939,1.27486],[10.11135,1.49156],[9.91788,1.57706],[10.09755,1.79749],[10.18998,2.16562]]]}},{"type":"Feature","properties":{"id":"gq-kn","lat":1.95231,"lng":11.13607},"geometry":{"type":"Polygon","coordinates":[[[10.40969,2.16565],[11.32208,2.16576],[11.332,1.73261],[11.00189,1.74147],[10.93921,1.97445],[10.86009,1.93017],[10.66517,1.99556],[10.44048,1.92358],[10.40969,2.16565]]]}},{"type":"Feature","properties":{"id":"gq-li","lat":1.62224,"lng":9.79041},"geometry":{"type":"Polygon","coordinates":[[[9.79957,2.34174],[9.87214,2.21124],[10.18998,2.16562],[10.19765,2.11031],[10.09755,1.79749],[9.91788,1.57706],[10.11135,1.49156],[10.14939,1.27486],[10.2763,1.13962],[10.03255,1.06081],[9.94407,0.92485],[9.80437,0.99835],[9.8475,1.07245],[9.70346,1.0998],[9.71778,1.13329],[9.58432,1.04296],[9.54078,1.12507],[9.40528,1.10594],[9.34669,1.18171],[9.59425,1.57217],[9.68588,1.56883],[9.74448,1.60004],[9.6657,1.57559],[9.60727,1.64444],[9.80974,1.93496],[9.76441,2.09634],[9.79957,2.34174]]]}},{"type":"Feature","properties":{"id":"gq-wn","lat":1.44216,"lng":11.10598},"geometry":{"type":"Polygon","coordinates":[[[11.332,1.73261],[11.33634,0.99916],[10.96383,1.00042],[10.91549,1.16846],[10.7755,1.31129],[10.98096,1.57303],[10.57489,1.58724],[10.61577,1.81379],[10.51737,1.91495],[10.66517,1.99556],[10.86009,1.93017],[10.93921,1.97445],[11.00189,1.74147],[11.332,1.73261]]]}}]}
