{"type":"FeatureCollection","features":[{"type":"Feature","properties":{"id":"gr-69","lat":40.29753,"lng":24.14608},"geometry":{"type":"Polygon","coordinates":[[[24.00167,40.31977],[24.0114,40.44916],[24.39381,40.15249],[24.29998,40.12808],[24.16896,40.27529],[24.00167,40.31977]]]}},{"type":"Feature","properties":{"id":"gr-a","lat":41.18369,"lng":25.04789},"geometry":{"type":"MultiPolygon","coordinates":[[[[25.69532,40.43268],[25.56715,40.39989],[25.44353,40.48188],[25.57586,40.51472],[25.69532,40.43268]]],[[[24.75929,40.72337],[24.78012,40.61221],[24.64226,40.57062],[24.51677,40.63911],[24.64226,40.80394],[24.75929,40.72337]]],[[[26.23445,41.74583],[26.59546,41.61245],[26.6366,41.37846],[26.32054,41.24622],[26.35909,40.96468],[26.08159,40.73555],[26.00587,40.80394],[26.05397,40.83096],[25.53777,40.87043],[25.18068,40.94269],[25.13844,41.01008],[25.03907,41.00605],[24.80201,40.85346],[24.62867,40.85859],[24.56666,40.95173],[24.41554,40.94554],[24.31267,40.87971],[24.34067,40.83129],[24.11012,40.72785],[23.98634,40.73216],[23.85439,40.78229],[24.09365,40.90285],[24.11784,40.99582],[23.81604,41.12648],[23.61916,41.35466],[23.8948,41.46434],[24.0459,41.45546],[24.0766,41.53602],[24.51016,41.56165],[24.58044,41.44052],[24.77444,41.34807],[24.88637,41.40063],[25.23911,41.2409],[25.55149,41.31567],[25.95963,41.315],[26.12086,41.35779],[26.17564,41.43189],[26.05369,41.70151],[26.23445,41.74583]]]]}},{"type":"Feature","properties":{"id":"gr-att","lat":38.00955,"lng":23.79501},"geometry":{"type":"MultiPolygon","coordinates":[[[[23.31577,35.87954],[23.32643,35.82917],[23.27174,35.90424],[23.31577,35.87954]]],[[[23.10385,36.23721],[22.99073,36.13703],[22.9087,36.20596],[22.90162,36.33832],[22.94459,36.38939],[23.10385,36.23721]]],[[[23.4642,36.91706],[23.45777,36.90644],[23.44972,36.92914],[23.4642,36.91706]]],[[[23.12843,37.2884],[23.15203,37.23998],[23.09441,37.27473],[23.12843,37.2884]]],[[[23.58717,37.37092],[23.49684,37.32001],[23.37428,37.30268],[23.46363,37.35733],[23.58717,37.37092]]],[[[23.18695,37.60833],[23.33668,37.53547],[23.31218,37.61738],[23.39869,37.63788],[23.39527,37.51496],[23.52565,37.43919],[23.4418,37.41441],[23.17898,37.50714],[23.18695,37.60833]]],[[[23.88429,36.83234],[23.88429,36.84357],[23.88901,36.8343],[23.88429,36.83234]]],[[[23.47731,37.55589],[23.52565,37.5218],[23.43629,37.5218],[23.47731,37.55589]]],[[[23.56316,37.76826],[23.48414,37.67886],[23.42449,37.76179],[23.56316,37.76826]]],[[[23.42286,37.93301],[23.4817,37.94172],[23.42205,37.96003],[23.48634,38.00121],[23.5735,37.95254],[23.46705,37.88422],[23.42286,37.93301]]],[[[23.78199,38.34357],[24.08058,38.166],[23.98902,38.12263],[24.0464,37.90599],[24.01173,37.89175],[24.08741,37.78522],[24.03272,37.65152],[23.94972,37.67744],[23.86557,37.80768],[23.77898,37.80231],[23.69703,37.93952],[23.5608,37.97281],[23.58131,38.04629],[23.15943,37.94054],[23.07632,38.05974],[23.21664,38.10334],[23.17174,38.17966],[23.26228,38.17431],[23.31582,38.25172],[23.55229,38.1223],[23.67931,38.31242],[23.78199,38.34357]]]]}},{"type":"Feature","properties":{"id":"gr-b","lat":40.6624,"lng":22.77571},"geometry":{"type":"Polygon","coordinates":[[[22.7513,41.3152],[23.11521,41.31267],[23.26993,41.39727],[23.62485,41.37709],[23.81604,41.12648],[24.11784,40.99582],[24.10771,40.91461],[24.01614,40.84505],[23.75408,40.76301],[23.69174,40.69538],[23.91489,40.53889],[23.82301,40.50699],[23.86818,40.41352],[24.0057,40.38482],[24.00167,40.31977],[23.84832,40.37271],[23.69361,40.30923],[23.77858,40.2027],[23.99122,40.11872],[23.99122,39.9536],[23.82667,40.00886],[23.67547,40.21792],[23.43849,40.2792],[23.3401,40.22797],[23.36362,40.15046],[23.74789,39.93049],[23.36061,39.96109],[23.29908,40.23542],[22.88819,40.3863],[22.82163,40.50214],[22.98316,40.55268],[22.91049,40.6446],[22.57911,40.46821],[22.66114,40.36904],[22.5525,40.16657],[22.5713,40.05427],[22.70981,39.93505],[22.49685,39.93265],[22.34626,40.04794],[22.32993,40.13502],[22.19651,40.08884],[22.18462,40.16434],[22.10235,40.15272],[22.17108,40.28116],[22.06628,40.41208],[21.87063,40.51288],[21.87952,40.65155],[21.74578,40.67325],[21.76935,40.73069],[21.69266,40.81387],[21.81017,40.84908],[21.75709,40.92251],[21.90908,41.09749],[22.04819,41.15186],[22.45148,41.11367],[22.64454,41.18023],[22.7049,41.13966],[22.7513,41.3152]]]}},{"type":"Feature","properties":{"id":"gr-c","lat":40.36936,"lng":21.42831},"geometry":{"type":"Polygon","coordinates":[[[20.91193,40.45955],[21.03668,40.63974],[20.94366,40.76526],[20.96526,40.84939],[21.40493,40.90861],[21.58156,40.86629],[21.75709,40.92251],[21.81017,40.84908],[21.69266,40.81387],[21.76935,40.73069],[21.74578,40.67325],[21.87952,40.65155],[21.87063,40.51288],[22.06628,40.41208],[22.17108,40.28116],[21.95414,39.99032],[21.84645,39.92692],[21.87621,39.83289],[21.46549,39.86354],[21.30364,39.79519],[21.22489,39.84816],[21.07792,39.83245],[21.01394,39.94097],[21.04288,40.01146],[20.93229,40.08698],[20.92082,40.22499],[20.84393,40.32663],[20.73955,40.30917],[20.77065,40.42198],[20.91193,40.45955]]]}},{"type":"Feature","properties":{"id":"gr-d","lat":39.64183,"lng":20.62567},"geometry":{"type":"Polygon","coordinates":[[[20.29791,39.98691],[20.64756,40.09404],[20.70698,40.28809],[20.85891,40.31129],[20.9479,40.18091],[20.96113,40.03448],[21.04288,40.01146],[21.01394,39.94097],[21.07792,39.83245],[21.29062,39.81858],[21.20473,39.76848],[21.2162,39.66874],[21.11037,39.65921],[21.17869,39.41889],[21.38508,39.2797],[21.3331,39.20117],[21.36235,39.15394],[21.08577,39.08826],[21.05836,39.00898],[20.90138,39.07722],[20.88649,39.03644],[20.8449,39.03693],[20.80519,39.1114],[20.74391,39.01927],[20.8318,38.96369],[20.73512,38.9501],[20.68653,39.07245],[20.47885,39.22516],[20.48243,39.28266],[20.29282,39.33344],[20.21559,39.44033],[20.26734,39.44693],[20.21559,39.48871],[20.26393,39.50861],[20.13356,39.52973],[20.18181,39.62446],[19.99985,39.69351],[20.24603,39.6629],[20.29946,39.72822],[20.28003,39.80398],[20.39703,39.81809],[20.29791,39.98691]]]}},{"type":"Feature","properties":{"id":"gr-e","lat":39.54121,"lng":22.08118},"geometry":{"type":"MultiPolygon","coordinates":[[[[23.71681,39.07722],[23.58717,39.20759],[23.79265,39.11815],[23.71681,39.07722]]],[[[23.41456,39.14981],[23.47047,39.21381],[23.51287,39.17853],[23.46046,39.13182],[23.41456,39.14981]]],[[[23.96697,39.25117],[23.83351,39.14614],[23.95704,39.2895],[23.96697,39.25117]]],[[[24.06715,39.36302],[24.06316,39.29702],[24.04152,39.33051],[24.06715,39.36302]]],[[[22.70981,39.93505],[22.85027,39.79051],[22.93946,39.58063],[23.09742,39.50178],[23.3423,39.19261],[23.20362,39.10456],[23.05201,39.09772],[23.21713,39.17963],[23.13461,39.29694],[22.93588,39.36058],[22.94288,39.30317],[22.84254,39.28848],[22.82423,39.23347],[22.99806,39.06977],[22.96388,39.00898],[23.07309,39.04247],[22.99666,38.9634],[22.51597,39.02865],[22.49385,39.11919],[22.23588,39.24016],[22.11672,39.1048],[21.93296,39.02945],[21.83095,39.13244],[21.70444,39.10702],[21.63768,39.24373],[21.36235,39.15394],[21.3331,39.20117],[21.38508,39.2797],[21.17869,39.41889],[21.11037,39.65921],[21.2162,39.66874],[21.19843,39.75556],[21.24463,39.80486],[21.46549,39.86354],[21.87621,39.83289],[21.84645,39.92692],[22.13243,40.17362],[22.18462,40.16434],[22.19651,40.08884],[22.32993,40.13502],[22.34626,40.04794],[22.49685,39.93265],[22.70981,39.93505]]]]}},{"type":"Feature","properties":{"id":"gr-f","lat":37.79894,"lng":20.77463},"geometry":{"type":"MultiPolygon","coordinates":[[[[20.99635,37.69929],[20.89389,37.73347],[20.81511,37.65152],[20.61948,37.86441],[20.709,37.92524],[20.99635,37.69929]]],[[[20.73357,38.0624],[20.50978,38.11078],[20.43507,38.2788],[20.4253,38.17528],[20.34539,38.18212],[20.39991,38.36408],[20.47902,38.30947],[20.5298,38.33747],[20.53777,38.47394],[20.63054,38.25796],[20.68165,38.28213],[20.80779,38.09956],[20.73357,38.0624]]],[[[20.7575,38.37153],[20.76368,38.32306],[20.70582,38.31826],[20.61948,38.48139],[20.709,38.4466],[20.67481,38.37767],[20.7575,38.37153]]],[[[20.90935,38.56293],[20.89389,38.55646],[20.94109,38.60423],[20.90935,38.56293]]],[[[20.94166,38.62739],[20.89812,38.60602],[20.87062,38.58251],[20.90382,38.64277],[20.94166,38.62739]]],[[[20.80193,38.65668],[20.75961,38.62739],[20.80006,38.59544],[20.75172,38.62604],[20.73699,38.65217],[20.80193,38.65668]]],[[[20.55128,38.56952],[20.60255,38.78172],[20.68629,38.85008],[20.71599,38.62702],[20.64763,38.58381],[20.60231,38.62678],[20.55128,38.56952]]],[[[20.20191,39.17963],[20.1587,39.18915],[20.12534,39.23603],[20.14039,39.24168],[20.20191,39.17963]]],[[[20.11793,39.371],[19.87892,39.45319],[19.82887,39.57233],[19.62647,39.74824],[19.85182,39.82453],[19.94801,39.79035],[19.84498,39.65266],[19.9275,39.62531],[19.93653,39.47297],[20.08188,39.44733],[20.11793,39.371]]]]}},{"type":"Feature","properties":{"id":"gr-g","lat":37.85452,"lng":21.66907},"geometry":{"type":"MultiPolygon","coordinates":[[[[21.67481,37.39598],[21.54998,37.56147],[21.40219,37.65542],[21.31227,37.63788],[21.28492,37.7851],[21.10759,37.85545],[21.13356,37.94636],[21.32594,38.02143],[21.28435,38.01529],[21.37428,38.22065],[21.62233,38.15477],[21.76417,38.2958],[21.9559,38.33674],[22.35726,38.16295],[22.33748,38.01241],[22.22586,37.95045],[22.22865,37.83537],[22.01057,37.77888],[21.83136,37.85358],[21.77359,37.77899],[21.79074,37.58034],[21.97884,37.48546],[21.83363,37.37307],[21.67481,37.39598]]],[[[21.98267,38.50912],[21.76254,38.32836],[21.59962,38.35102],[21.51775,38.2958],[21.4284,38.33051],[21.48976,38.30947],[21.48976,38.35786],[21.37745,38.39887],[21.32252,38.49628],[21.3366,38.3957],[21.15561,38.3039],[21.08522,38.34357],[21.14039,38.39887],[21.08676,38.41047],[21.09596,38.53193],[21.03053,38.51142],[20.98813,38.66401],[20.9144,38.68623],[20.85987,38.80353],[20.77329,38.76093],[20.72934,38.80353],[20.80519,38.86774],[20.7575,38.94009],[20.97535,38.94685],[21.08522,38.86433],[21.10231,38.91083],[21.17262,38.87352],[21.15992,38.99775],[21.06924,39.07656],[21.36235,39.15394],[21.36927,39.0001],[21.6108,38.8506],[21.52998,38.7867],[21.56068,38.73105],[21.74506,38.66736],[21.80862,38.73324],[21.99838,38.74273],[21.98267,38.50912]]]]}},{"type":"Feature","properties":{"id":"gr-h","lat":38.70851,"lng":22.53007},"geometry":{"type":"MultiPolygon","coordinates":[[[[24.58766,38.15925],[24.55209,37.97818],[24.4769,37.96247],[24.4297,38.02119],[24.37176,37.97191],[24.28631,38.08625],[24.20395,38.09032],[24.18531,38.21796],[24.12623,38.21748],[24.15349,38.28132],[24.10939,38.25629],[24.12159,38.30947],[24.0254,38.33051],[24.0669,38.35102],[24.04225,38.40152],[23.64918,38.40567],[23.594,38.45344],[23.63575,38.50092],[23.61411,38.55793],[23.20232,38.8299],[22.96941,38.88911],[22.98178,38.84504],[22.83741,38.85448],[23.12745,39.00581],[23.30926,39.03824],[23.594,38.77021],[24.15561,38.65266],[24.12647,38.59858],[24.23146,38.52237],[24.18507,38.40762],[24.25245,38.22797],[24.34441,38.15925],[24.58766,38.15925]]],[[[22.98455,38.95433],[22.792,38.878],[22.61329,38.91307],[22.52508,38.85814],[23.042,38.74673],[23.1045,38.63841],[23.18678,38.68598],[23.30592,38.65266],[23.33326,38.60423],[23.29331,38.57909],[23.28541,38.55646],[23.3816,38.53535],[23.33497,38.50361],[23.56723,38.50113],[23.5735,38.45344],[23.67286,38.35643],[23.76684,38.3416],[23.645,38.2872],[23.58857,38.14176],[23.47043,38.14767],[23.35302,38.2602],[23.26228,38.17431],[23.17174,38.17966],[23.21337,38.16027],[23.12843,38.17227],[23.10963,38.21011],[22.9087,38.19278],[22.89503,38.24116],[22.76482,38.24799],[22.79884,38.28213],[22.6465,38.38996],[22.56251,38.29352],[22.40162,38.45344],[22.38234,38.34268],[22.18922,38.32306],[21.98764,38.41059],[21.85613,38.38093],[21.8757,38.45429],[21.98267,38.50912],[21.99838,38.74273],[21.80862,38.73324],[21.74506,38.66736],[21.56068,38.73105],[21.52998,38.7867],[21.6108,38.8506],[21.36927,39.0001],[21.36235,39.15394],[21.63768,39.24373],[21.70444,39.10702],[21.83095,39.13244],[21.93296,39.02945],[22.11672,39.1048],[22.23588,39.24016],[22.49385,39.11919],[22.51597,39.02865],[22.98455,38.95433]]],[[[24.681,38.80443],[24.56666,38.76252],[24.55698,38.84569],[24.43621,38.878],[24.46111,38.96768],[24.56072,38.94416],[24.681,38.80443]]]]}},{"type":"Feature","properties":{"id":"gr-j","lat":37.23815,"lng":22.25378},"geometry":{"type":"MultiPolygon","coordinates":[[[[21.7505,36.71239],[21.78159,36.7364],[21.77784,36.69937],[21.7505,36.71239]]],[[[21.69695,36.77582],[21.72934,36.79499],[21.69581,36.74038],[21.69695,36.77582]]],[[[23.15943,37.94054],[23.01515,37.92524],[22.99513,37.88215],[23.18238,37.80915],[23.12094,37.74091],[23.17555,37.71979],[23.16461,37.52009],[23.4418,37.41441],[23.26271,37.40103],[23.22999,37.37494],[23.27801,37.34984],[23.16863,37.29951],[23.07309,37.35521],[23.13201,37.44864],[23.00489,37.4597],[22.92156,37.54035],[22.85402,37.51496],[22.77833,37.59687],[22.72315,37.54165],[23.11411,36.78132],[23.03093,36.72557],[23.03565,36.64908],[23.19606,36.43252],[22.97242,36.52021],[22.88429,36.65424],[22.81495,36.67056],[22.78688,36.79344],[22.68556,36.80947],[22.5774,36.78303],[22.5525,36.65095],[22.48406,36.60663],[22.49098,36.39094],[22.3545,36.51191],[22.38795,36.7062],[22.22153,36.89753],[22.13787,36.91714],[22.15317,37.02119],[21.94313,36.99331],[21.92172,36.86323],[21.97022,36.79499],[21.88258,36.72655],[21.82277,36.80858],[21.70737,36.81802],[21.70997,36.94269],[21.57862,37.07673],[21.57439,37.19237],[21.6823,37.28392],[21.68198,37.37897],[21.83363,37.37307],[21.97884,37.48546],[21.79074,37.58034],[21.77359,37.77899],[21.83136,37.85358],[22.01057,37.77888],[22.22865,37.83537],[22.22586,37.95045],[22.33748,38.01241],[22.35726,38.16295],[22.68043,38.0666],[22.8672,37.93952],[22.97535,37.97899],[22.8755,38.0493],[23.07632,38.05974],[23.15943,37.94054]]]]}},{"type":"Feature","properties":{"id":"gr-k","lat":37.72956,"lng":26.81948},"geometry":{"type":"MultiPolygon","coordinates":[[[[26.36215,37.68626],[26.21388,37.56513],[25.97633,37.51602],[26.07423,37.63788],[26.36215,37.68626]]],[[[27.06658,37.71833],[26.79737,37.64468],[26.70826,37.71357],[26.5984,37.67719],[26.58025,37.74079],[26.80641,37.81452],[26.96608,37.74775],[26.94508,37.78872],[27.06788,37.7744],[27.03224,37.75316],[27.06658,37.71833]]],[[[26.15455,38.55598],[26.16359,38.30264],[26.11207,38.2226],[26.00978,38.15672],[25.88982,38.22065],[25.87623,38.27529],[25.96437,38.30264],[25.98902,38.3793],[25.84327,38.51533],[25.84889,38.58039],[26.06397,38.59003],[26.15455,38.55598]]],[[[25.62281,38.57909],[25.5608,38.53535],[25.5232,38.5974],[25.58888,38.61172],[25.62281,38.57909]]],[[[26.59742,39.01195],[26.5193,39.03628],[26.48927,39.11367],[26.43702,39.1035],[26.54713,38.98786],[26.15528,39.02497],[26.0879,39.08344],[26.28004,39.19644],[26.18735,39.20205],[26.06397,39.09089],[25.88893,39.14472],[25.84205,39.22801],[25.91725,39.29694],[26.16277,39.32364],[26.16359,39.37885],[26.36215,39.37885],[26.41749,39.33047],[26.38217,39.27709],[26.53972,39.16596],[26.59742,39.01195]]],[[[24.99171,39.46699],[24.97657,39.53766],[25.01222,39.56387],[25.04737,39.54536],[24.99171,39.46699]]],[[[25.43678,40.0163],[25.34799,39.90644],[25.34897,39.78766],[25.23878,39.85806],[25.25066,39.91852],[25.17726,39.84504],[25.21453,39.80341],[25.14324,39.81708],[25.16489,39.85908],[25.04705,39.83759],[25.03338,39.99527],[25.22511,40.00886],[25.28517,39.95336],[25.43678,40.0163]]]]}},{"type":"Feature","properties":{"id":"gr-l","lat":36.21619,"lng":27.93855},"geometry":{"type":"MultiPolygon","coordinates":[[[[25.48927,36.37783],[25.44663,36.33633],[25.36166,36.35676],[25.43678,36.39094],[25.3685,36.47346],[25.48927,36.37783]]],[[[24.96372,36.59634],[24.84978,36.64692],[24.84083,36.66523],[24.96372,36.59634]]],[[[25.18344,36.7062],[25.06739,36.63788],[25.1858,36.71914],[25.18344,36.7062]]],[[[24.54607,36.68879],[24.48463,36.66523],[24.32293,36.66535],[24.35426,36.75397],[24.47145,36.70425],[24.42026,36.77106],[24.53338,36.76801],[24.54607,36.68879]]],[[[25.27117,36.72582],[25.30698,36.79499],[25.40943,36.71239],[25.37322,36.65371],[25.27117,36.72582]]],[[[24.66578,36.77464],[24.60816,36.78132],[24.62184,36.79499],[24.66578,36.77464]]],[[[24.57277,36.78193],[24.53419,36.83613],[24.60816,36.83592],[24.57277,36.78193]]],[[[24.74855,36.93936],[24.71062,36.9042],[24.64226,37.04881],[24.70436,37.03514],[24.74855,36.93936]]],[[[25.03053,36.98896],[25.0879,37.04198],[25.08106,36.95262],[25.03053,36.98896]]],[[[25.2448,37.01459],[25.10304,37.02432],[25.15008,37.11054],[25.29331,37.15184],[25.2448,37.01459]]],[[[24.50514,37.19965],[24.5324,37.13011],[24.42254,37.12397],[24.43621,37.18537],[24.50514,37.19965]]],[[[24.4437,37.48701],[24.47779,37.39082],[24.36793,37.30952],[24.37485,37.43846],[24.4437,37.48701]]],[[[24.96616,37.40778],[24.88185,37.36351],[24.89536,37.51044],[24.93881,37.49974],[24.96616,37.40778]]],[[[25.30779,37.42446],[25.34799,37.50812],[25.46559,37.46337],[25.4026,37.41816],[25.30779,37.42446]]],[[[24.39576,37.62466],[24.2754,37.53168],[24.27809,37.62287],[24.37477,37.68626],[24.39576,37.62466]]],[[[24.99098,37.64598],[25.05323,37.67886],[25.25929,37.59003],[25.16993,37.53864],[24.99098,37.64598]]],[[[24.67791,37.60944],[24.71608,37.63105],[24.74106,37.62592],[24.74122,37.59569],[24.67791,37.60944]]],[[[24.96372,37.68626],[24.71616,37.8791],[24.69361,37.96577],[24.77906,38.00023],[24.84083,37.91901],[24.96372,37.8968],[24.96372,37.68626]]],[[[26.99968,35.42451],[26.88836,35.35269],[26.8484,35.37238],[26.90024,35.42451],[26.99968,35.42451]]],[[[27.23731,35.49339],[27.13624,35.404],[27.09978,35.4405],[27.06935,35.60224],[27.15675,35.80121],[27.22096,35.82925],[27.1565,35.6188],[27.23731,35.49339]]],[[[28.20509,36.32266],[28.0617,36.11652],[28.08961,36.05512],[27.99342,36.06196],[27.8274,35.91376],[27.73268,35.91511],[27.75709,36.08438],[27.68426,36.15815],[27.80787,36.27424],[28.22242,36.456],[28.20509,36.32266]]],[[[27.61647,36.24262],[27.5315,36.21174],[27.51743,36.2309],[27.61647,36.24262]]],[[[25.83546,36.36616],[25.77687,36.35383],[25.73024,36.38011],[25.76783,36.4016],[25.83546,36.36616]]],[[[27.4419,36.41511],[27.37794,36.38202],[27.29705,36.46516],[27.35581,36.47964],[27.4419,36.41511]]],[[[26.45997,36.5777],[26.31772,36.50755],[26.26149,36.58763],[26.39389,36.58568],[26.39332,36.63654],[26.45997,36.5777]]],[[[27.86988,36.62425],[27.8283,36.52802],[27.76002,36.57587],[27.78785,36.61685],[27.86101,36.64672],[27.81528,36.61001],[27.86988,36.62425]]],[[[27.14015,36.56322],[27.16676,36.61506],[27.20606,36.5871],[27.19801,36.56831],[27.14015,36.56322]]],[[[27.35581,36.86323],[26.99204,36.75361],[26.97291,36.6789],[26.91774,36.71613],[26.92628,36.76561],[27.16424,36.89118],[27.35581,36.86323]]],[[[25.47836,36.87067],[25.47779,36.83515],[25.42311,36.83251],[25.47836,36.87067]]],[[[26.07472,36.8933],[25.87965,36.79499],[25.75554,36.76996],[25.73902,36.79499],[25.84547,36.80858],[25.99838,36.93891],[26.07472,36.8933]]],[[[25.64967,36.91161],[25.674,36.87946],[25.60865,36.88373],[25.64967,36.91161]]],[[[26.94508,36.92593],[26.95191,37.03514],[26.91717,37.04165],[26.88982,37.08979],[27.04754,36.95942],[26.94508,36.92593]]],[[[25.59246,37.14252],[25.5525,36.96894],[25.44988,36.91844],[25.34181,37.08295],[25.5337,37.20067],[25.59246,37.14252]]],[[[25.80055,37.09593],[25.83465,37.1376],[25.84205,37.1103],[25.80055,37.09593]]],[[[26.87517,37.10008],[26.81723,37.11986],[26.77272,37.18268],[26.84978,37.18732],[26.87517,37.10008]]],[[[26.58497,37.34561],[26.54884,37.32657],[26.5573,37.27123],[26.53639,37.37271],[26.58497,37.34561]]]]}},{"type":"Feature","properties":{"id":"gr-m","lat":35.32172,"lng":24.46571},"geometry":{"type":"MultiPolygon","coordinates":[[[[24.09311,34.86953],[24.13527,34.81501],[24.0464,34.85529],[24.09311,34.86953]]],[[[26.31235,35.29694],[26.26596,35.26],[26.32114,35.19794],[26.27752,35.10004],[26.14723,35.00227],[25.98487,35.03913],[24.73854,34.93163],[24.71811,35.09398],[24.40211,35.19111],[23.61052,35.23493],[23.51824,35.30777],[23.58033,35.57591],[23.60475,35.61262],[23.61988,35.52408],[23.71843,35.51284],[23.74155,35.68696],[23.81715,35.53482],[24.0254,35.5207],[24.0818,35.58991],[24.18295,35.5856],[24.18295,35.51325],[24.07195,35.49836],[24.25245,35.47907],[24.26547,35.36986],[24.3401,35.34833],[24.72096,35.42723],[24.9712,35.42451],[25.077,35.34447],[25.37599,35.34317],[25.45362,35.29413],[25.76637,35.33568],[25.71274,35.18285],[25.79526,35.11514],[26.06056,35.2333],[26.15512,35.19794],[26.31235,35.29694]]]]}}]}
