{"type":"FeatureCollection","features":[{"type":"Feature","properties":{"id":"gt-av","lat":15.60765,"lng":-90.12676},"geometry":{"type":"Polygon","coordinates":[[[-90.44819,16.07926],[-89.97078,16.0138],[-89.85195,15.91146],[-89.39635,15.86128],[-89.66137,15.56089],[-89.58814,15.48123],[-89.64726,15.30571],[-89.60551,15.1799],[-89.973,15.15654],[-89.91815,15.24705],[-89.9521,15.2885],[-90.24877,15.29571],[-90.31027,15.20706],[-90.50377,15.2622],[-90.49352,15.33974],[-90.7027,15.39436],[-90.59697,15.52595],[-90.65428,15.65442],[-90.78063,15.67891],[-90.81815,15.75064],[-90.73257,15.8681],[-90.76352,15.96972],[-90.63431,16.04522],[-90.46933,16.0107],[-90.44819,16.07926]]]}},{"type":"Feature","properties":{"id":"gt-bv","lat":15.05148,"lng":-90.46044},"geometry":{"type":"Polygon","coordinates":[[[-90.3034,14.88958],[-90.65761,14.90395],[-90.87192,15.14848],[-90.86566,15.25685],[-90.57436,15.20998],[-90.40055,15.26098],[-90.31027,15.20706],[-90.24877,15.29571],[-89.92172,15.26656],[-89.973,15.15654],[-90.28257,14.95449],[-90.3034,14.88958]]]}},{"type":"Feature","properties":{"id":"gt-cm","lat":14.55069,"lng":-90.9801},"geometry":{"type":"Polygon","coordinates":[[[-90.76523,14.77791],[-90.77187,14.67094],[-90.97134,14.38625],[-91.11133,14.43044],[-91.08743,14.82628],[-91.02459,14.91656],[-90.65761,14.90395],[-90.76523,14.77791]]]}},{"type":"Feature","properties":{"id":"gt-cq","lat":14.64479,"lng":-89.42002},"geometry":{"type":"Polygon","coordinates":[[[-89.36162,14.41548],[-89.49615,14.4229],[-89.51314,14.52371],[-89.69961,14.57761],[-89.667,14.75987],[-89.73635,14.77987],[-89.67041,14.90105],[-89.52432,14.86318],[-89.20318,14.94141],[-89.23243,14.8485],[-89.1445,14.7083],[-89.16039,14.58128],[-89.24568,14.57299],[-89.36162,14.41548]]]}},{"type":"Feature","properties":{"id":"gt-es","lat":14.20748,"lng":-91.01169},"geometry":{"type":"Polygon","coordinates":[[[-90.62734,13.92067],[-91.16576,13.9267],[-91.31646,13.95568],[-91.55187,14.05728],[-91.38106,14.37819],[-91.34659,14.29427],[-91.1711,14.27205],[-91.11133,14.43044],[-90.97847,14.38284],[-90.89055,14.4893],[-90.82021,14.40491],[-90.65051,14.46873],[-90.59216,14.40181],[-90.5872,14.21241],[-90.51571,14.20254],[-90.62712,14.05589],[-90.62734,13.92067]]]}},{"type":"Feature","properties":{"id":"gt-gu","lat":14.57981,"lng":-90.4421},"geometry":{"type":"Polygon","coordinates":[[[-90.61816,14.64531],[-90.76523,14.77791],[-90.65761,14.90395],[-90.41207,14.91702],[-90.33885,14.75099],[-90.20909,14.6743],[-90.28521,14.51431],[-90.38828,14.49653],[-90.44383,14.32858],[-90.56493,14.25624],[-90.65051,14.46873],[-90.61816,14.64531]]]}},{"type":"Feature","properties":{"id":"gt-hu","lat":15.792,"lng":-91.53395},"geometry":{"type":"Polygon","coordinates":[[[-92.10593,15.45447],[-91.73985,16.06098],[-90.9948,16.06987],[-91.33114,15.52301],[-91.28238,15.41632],[-91.18438,15.38679],[-91.17908,15.29224],[-91.44578,15.22879],[-91.51883,15.15597],[-91.71574,15.35012],[-91.85622,15.36069],[-92.04407,15.28015],[-92.10593,15.45447]]]}},{"type":"Feature","properties":{"id":"gt-iz","lat":15.52106,"lng":-89.05438},"geometry":{"type":"Polygon","coordinates":[[[-88.22094,15.72565],[-88.97343,15.14039],[-89.14694,15.07128],[-89.20987,15.29762],[-89.56466,15.18455],[-89.6298,15.21925],[-89.6383,15.42291],[-89.58814,15.48123],[-89.66137,15.56089],[-89.358,15.91293],[-88.78734,15.85908],[-88.60924,15.70209],[-88.55769,15.85293],[-88.48884,15.84675],[-88.60546,15.96963],[-88.22094,15.72565]]]}},{"type":"Feature","properties":{"id":"gt-ja","lat":14.62459,"lng":-89.94961},"geometry":{"type":"Polygon","coordinates":[[[-90.28521,14.51431],[-90.17751,14.70696],[-90.07346,14.72236],[-89.87397,14.87377],[-89.79366,14.78571],[-89.67083,14.77057],[-89.6784,14.54221],[-89.81573,14.51948],[-89.88526,14.43648],[-90.28521,14.51431]]]}},{"type":"Feature","properties":{"id":"gt-ju","lat":14.13242,"lng":-89.88085},"geometry":{"type":"Polygon","coordinates":[[[-89.74801,14.0449],[-89.88012,14.04268],[-90.02298,13.93695],[-90.10698,13.84407],[-90.09831,13.7314],[-90.24056,13.78872],[-90.29025,14.01325],[-90.15669,13.97677],[-90.05047,14.09511],[-90.0583,14.16973],[-90.19105,14.25293],[-90.15547,14.33892],[-90.08201,14.35483],[-90.05189,14.43349],[-89.94259,14.47379],[-89.88526,14.43648],[-89.81573,14.51948],[-89.64519,14.57322],[-89.49631,14.50185],[-89.49615,14.4229],[-89.58406,14.40181],[-89.59835,14.32799],[-89.52451,14.23177],[-89.68984,14.17001],[-89.74801,14.0449]]]}},{"type":"Feature","properties":{"id":"gt-pe","lat":16.85672,"lng":-90.06217},"geometry":{"type":"Polygon","coordinates":[[[-89.1605,17.81431],[-89.23602,15.90649],[-89.51244,15.84211],[-89.5206,15.89929],[-89.85534,15.91262],[-89.97285,16.01435],[-90.44784,16.07969],[-90.45943,16.25906],[-90.39492,16.41921],[-90.63309,16.48334],[-90.63376,16.59217],[-90.79696,16.80543],[-91.05493,16.90801],[-91.27951,17.18009],[-91.4425,17.23797],[-90.99199,17.25192],[-90.96222,17.81602],[-89.1605,17.81431]]]}},{"type":"Feature","properties":{"id":"gt-pr","lat":14.91653,"lng":-90.04463},"geometry":{"type":"Polygon","coordinates":[[[-90.40058,14.85124],[-90.39993,14.89904],[-90.3034,14.88958],[-90.28257,14.95449],[-89.973,15.15654],[-89.878,15.15985],[-89.79655,15.04327],[-89.8518,15.02275],[-89.76457,14.93402],[-90.20909,14.6743],[-90.33885,14.75099],[-90.35014,14.85486],[-90.40058,14.85124]]]}},{"type":"Feature","properties":{"id":"gt-qc","lat":15.45822,"lng":-90.97464},"geometry":{"type":"Polygon","coordinates":[[[-90.9948,16.06987],[-90.43641,16.07328],[-90.46933,16.0107],[-90.63431,16.04522],[-90.76352,15.96972],[-90.73257,15.8681],[-90.81815,15.75064],[-90.78063,15.67891],[-90.65428,15.65442],[-90.59697,15.52595],[-90.7027,15.39436],[-90.47848,15.31064],[-90.54131,15.21251],[-90.86566,15.25685],[-90.87192,15.14848],[-90.65761,14.90395],[-90.97715,14.93862],[-91.12415,14.80711],[-91.32016,15.21708],[-91.30287,15.2769],[-91.17908,15.29224],[-91.18438,15.38679],[-91.26357,15.39929],[-91.3322,15.51714],[-90.9948,16.06987]]]}},{"type":"Feature","properties":{"id":"gt-qz","lat":14.87465,"lng":-91.61537},"geometry":{"type":"Polygon","coordinates":[[[-91.42829,14.81765],[-91.51051,14.71295],[-91.666,14.662],[-91.68393,14.739],[-91.76103,14.69652],[-91.85578,14.52346],[-92.01663,14.53095],[-92.04954,14.61642],[-92.13796,14.63595],[-92.06076,14.70753],[-91.83214,14.73848],[-91.68339,14.98017],[-91.70838,15.09246],[-91.61611,15.22088],[-91.51883,15.15597],[-91.58877,15.09143],[-91.5365,14.93165],[-91.42829,14.81765]]]}},{"type":"Feature","properties":{"id":"gt-re","lat":14.38698,"lng":-91.83037},"geometry":{"type":"Polygon","coordinates":[[[-91.6585,14.11735],[-91.90819,14.28384],[-92.1607,14.49012],[-91.85578,14.52346],[-91.69432,14.73951],[-91.67386,14.66241],[-91.51051,14.71295],[-91.60836,14.53715],[-91.6585,14.11735]]]}},{"type":"Feature","properties":{"id":"gt-sa","lat":14.5673,"lng":-90.73601},"geometry":{"type":"Polygon","coordinates":[[[-90.89055,14.4893],[-90.77187,14.67094],[-90.76523,14.77791],[-90.69159,14.74882],[-90.61816,14.64531],[-90.65051,14.46873],[-90.82021,14.40491],[-90.89055,14.4893]]]}},{"type":"Feature","properties":{"id":"gt-sm","lat":14.88669,"lng":-91.94701},"geometry":{"type":"Polygon","coordinates":[[[-92.24626,14.54628],[-92.1608,14.6835],[-92.15421,14.99593],[-92.07381,15.07371],[-92.21093,15.25336],[-92.10593,15.45447],[-92.04407,15.28015],[-91.85622,15.36069],[-91.71574,15.35012],[-91.61611,15.22088],[-91.69913,15.12238],[-91.67967,14.9904],[-91.79535,14.78297],[-92.13409,14.64205],[-92.04954,14.61642],[-92.01663,14.53095],[-92.1624,14.48733],[-92.24626,14.54628]]]}},{"type":"Feature","properties":{"id":"gt-so","lat":14.69045,"lng":-91.28624},"geometry":{"type":"Polygon","coordinates":[[[-91.08743,14.82628],[-91.11415,14.53043],[-91.25419,14.55539],[-91.30553,14.64133],[-91.47661,14.62986],[-91.46968,14.73957],[-91.37871,14.85878],[-91.24065,14.85672],[-91.18298,14.91067],[-91.12709,14.80742],[-91.08743,14.82628]]]}},{"type":"Feature","properties":{"id":"gt-sr","lat":14.13242,"lng":-90.31168},"geometry":{"type":"Polygon","coordinates":[[[-90.24056,13.78872],[-90.62734,13.92067],[-90.62712,14.05589],[-90.51571,14.20254],[-90.57966,14.24239],[-90.44383,14.32858],[-90.38828,14.49653],[-90.12801,14.51906],[-90.05189,14.43349],[-90.19105,14.25293],[-90.0583,14.16973],[-90.05047,14.09511],[-90.15669,13.97677],[-90.29025,14.01325],[-90.24056,13.78872]]]}},{"type":"Feature","properties":{"id":"gt-su","lat":14.42418,"lng":-91.3595},"geometry":{"type":"Polygon","coordinates":[[[-91.55187,14.05728],[-91.66523,14.16539],[-91.60308,14.33571],[-91.60836,14.53715],[-91.46968,14.73957],[-91.46188,14.61621],[-91.30259,14.6405],[-91.25419,14.55539],[-91.11415,14.53043],[-91.09717,14.46764],[-91.1711,14.27205],[-91.34659,14.29427],[-91.37292,14.38072],[-91.41423,14.35535],[-91.55187,14.05728]]]}},{"type":"Feature","properties":{"id":"gt-to","lat":14.97599,"lng":-91.37016},"geometry":{"type":"Polygon","coordinates":[[[-91.42829,14.81765],[-91.59187,15.12848],[-91.31535,15.26315],[-91.23456,15.09722],[-91.27442,15.0413],[-91.18298,14.91067],[-91.42829,14.81765]]]}},{"type":"Feature","properties":{"id":"gt-za","lat":15.03301,"lng":-89.50373},"geometry":{"type":"Polygon","coordinates":[[[-89.17161,15.26904],[-89.18922,14.91306],[-89.21259,14.94932],[-89.42934,14.91925],[-89.52432,14.86318],[-89.67041,14.90105],[-89.73635,14.77987],[-89.79043,14.7853],[-89.84172,14.85982],[-89.76457,14.93402],[-89.8518,15.02275],[-89.79655,15.04327],[-89.878,15.15985],[-89.56466,15.18455],[-89.21987,15.29994],[-89.17161,15.26904]]]}}]}
