{"type":"FeatureCollection","features":[{"type":"Feature","properties":{"id":"gw-ba","lat":12.13458,"lng":-14.7649},"geometry":{"type":"Polygon","coordinates":[[[-14.87216,12.67811],[-14.34311,12.6759],[-14.41395,12.62765],[-14.38726,12.50182],[-14.53272,12.53391],[-14.4571,12.4597],[-14.55836,12.38508],[-14.47219,12.31387],[-14.43358,12.17471],[-14.52875,12.09564],[-14.46844,11.93157],[-14.50709,11.64156],[-14.73387,11.59764],[-14.86144,11.69541],[-14.83795,11.74202],[-15.06574,11.84789],[-15.02306,11.95108],[-14.95001,11.96873],[-15.07091,12.17352],[-14.92461,12.1945],[-14.95939,12.42746],[-14.85084,12.47573],[-14.90469,12.54042],[-14.87216,12.67811]]]}},{"type":"Feature","properties":{"id":"gw-bl","lat":11.52237,"lng":-15.96991},"geometry":{"type":"MultiPolygon","coordinates":[[[[-16.05333,11.09154],[-16.14501,11.02896],[-16.24804,11.10468],[-16.09997,11.2082],[-16.05333,11.09154]]],[[[-16.00548,11.07583],[-16.057,11.16356],[-15.98119,11.2071],[-15.97167,11.12987],[-16.00548,11.07583]]],[[[-16.28283,11.23066],[-16.22932,11.3041],[-16.15441,11.28921],[-16.17296,11.22077],[-16.28283,11.23066]]],[[[-16.30211,11.45352],[-16.23668,11.508],[-16.16063,11.50556],[-16.21398,11.44042],[-16.30211,11.45352]]],[[[-15.99112,11.57697],[-15.90608,11.57844],[-15.89802,11.45352],[-16.03523,11.41999],[-16.08361,11.46776],[-15.99112,11.57697]]],[[[-16.30671,11.48664],[-16.41942,11.48823],[-16.42626,11.52924],[-16.24804,11.58381],[-16.30671,11.48664]]],[[[-15.9464,11.20026],[-15.88268,11.06061],[-15.97818,11.04808],[-15.92593,11.0904],[-15.96695,11.09785],[-15.9464,11.20026]]],[[[-15.66344,11.22988],[-15.69319,11.25552],[-15.7268,11.16608],[-15.78002,11.18659],[-15.72354,11.29902],[-15.65844,11.30268],[-15.66344,11.22988]]],[[[-15.83755,11.21402],[-15.89607,11.21821],[-15.85709,11.30268],[-15.82584,11.29267],[-15.83755,11.21402]]],[[[-15.69319,11.5019],[-15.67956,11.44042],[-15.74039,11.46035],[-15.69319,11.5019]]],[[[-15.4735,11.63227],[-15.56631,11.51048],[-15.63028,11.529],[-15.52872,11.62482],[-15.4735,11.63227]]],[[[-15.34172,11.68456],[-15.34313,11.60493],[-15.39159,11.65957],[-15.37108,11.59125],[-15.41885,11.61176],[-15.44913,11.56379],[-15.42445,11.68311],[-15.34172,11.68456]]]]}},{"type":"Feature","properties":{"id":"gw-bm","lat":11.92566,"lng":-15.76056},"geometry":{"type":"MultiPolygon","coordinates":[[[[-16.14806,11.87726],[-16.03698,11.89924],[-15.98559,11.88744],[-16.04141,11.75511],[-16.15478,11.80777],[-16.14806,11.87726]]],[[[-15.67956,11.80362],[-15.83039,11.74836],[-15.79149,11.86323],[-15.7342,11.85814],[-15.79556,11.88544],[-15.85017,11.77534],[-15.87755,11.82404],[-15.96695,11.74836],[-15.85709,11.98111],[-15.72053,11.96743],[-15.66576,12.03146],[-15.62413,11.96589],[-15.67956,11.80362]]]]}},{"type":"Feature","properties":{"id":"gw-bs","lat":11.87132,"lng":-15.61222},"geometry":{"type":"Polygon","coordinates":[[[-15.54556,11.89808],[-15.59325,11.84455],[-15.67679,11.80475],[-15.62413,11.96589],[-15.54556,11.89808]]]}},{"type":"Feature","properties":{"id":"gw-ca","lat":12.24856,"lng":-15.95088},"geometry":{"type":"Polygon","coordinates":[[[-15.71152,12.43221],[-15.42173,12.55712],[-15.39727,12.4674],[-15.45445,12.38219],[-15.51871,12.4041],[-15.74549,12.28287],[-15.65137,12.16541],[-15.66576,12.03146],[-15.74279,11.99494],[-15.86388,12.02949],[-15.96789,11.92699],[-16.12458,11.88544],[-16.32323,11.99531],[-16.35729,12.10114],[-16.06314,12.35102],[-16.30582,12.21442],[-16.3164,12.2827],[-16.35021,12.19721],[-16.45763,12.17194],[-16.72844,12.33253],[-16.4123,12.36173],[-16.22239,12.45505],[-15.71152,12.43221]]]}},{"type":"Feature","properties":{"id":"gw-ga","lat":12.1236,"lng":-14.21045},"geometry":{"type":"Polygon","coordinates":[[[-13.69532,12.29249],[-13.84,12.27713],[-13.97253,12.15156],[-13.72394,12.00278],[-13.72993,11.70983],[-13.81577,11.68683],[-13.87005,11.74368],[-13.88641,11.67557],[-14.01514,11.63712],[-14.28969,11.66885],[-14.43227,11.56058],[-14.50709,11.64156],[-14.46844,11.93157],[-14.52875,12.09564],[-14.43358,12.17471],[-14.47219,12.31387],[-14.55836,12.38508],[-14.4571,12.4597],[-14.5257,12.48518],[-14.53272,12.53391],[-14.37981,12.51334],[-14.41201,12.63479],[-14.34311,12.6759],[-13.72828,12.67339],[-13.66071,12.45867],[-13.69532,12.29249]]]}},{"type":"Feature","properties":{"id":"gw-oi","lat":12.34509,"lng":-15.26395},"geometry":{"type":"Polygon","coordinates":[[[-15.14623,12.67923],[-14.86087,12.65799],[-14.90469,12.54042],[-14.85084,12.47573],[-14.95939,12.42746],[-14.92461,12.1945],[-15.07091,12.17352],[-14.95001,11.96873],[-15.0797,11.98794],[-15.21508,11.90961],[-15.40441,11.96723],[-15.54556,11.89808],[-15.66576,12.03146],[-15.65137,12.16541],[-15.74549,12.28287],[-15.41613,12.4073],[-15.42173,12.55712],[-15.14623,12.67923]]]}},{"type":"Feature","properties":{"id":"gw-qu","lat":11.63754,"lng":-14.97744},"geometry":{"type":"Polygon","coordinates":[[[-15.33642,11.68439],[-15.47615,11.65436],[-15.55126,11.71638],[-15.43871,11.88544],[-15.1892,11.87124],[-15.08991,11.94013],[-15.06945,11.80362],[-14.95914,11.74893],[-14.90384,11.78884],[-14.82979,11.69861],[-14.96164,11.44395],[-15.0961,11.40731],[-15.19633,11.47299],[-15.34313,11.37836],[-15.33629,11.46776],[-15.49429,11.33389],[-15.4735,11.49445],[-15.39782,11.49445],[-15.34996,11.56338],[-15.28987,11.54279],[-15.33629,11.57697],[-15.29475,11.60493],[-15.27477,11.57811],[-15.2401,11.57697],[-15.28112,11.62482],[-15.20914,11.57396],[-15.19445,11.64281],[-15.11588,11.61774],[-15.12328,11.54548],[-15.00731,11.61176],[-15.07995,11.59797],[-15.11034,11.68684],[-15.17186,11.65957],[-15.13085,11.70795],[-15.22802,11.6586],[-15.18615,11.72162],[-15.21959,11.75511],[-15.25935,11.67682],[-15.26806,11.74836],[-15.32262,11.70795],[-15.28112,11.66983],[-15.32262,11.63227],[-15.33642,11.68439]]]}},{"type":"Feature","properties":{"id":"gw-to","lat":11.30187,"lng":-15.10632},"geometry":{"type":"Polygon","coordinates":[[[-14.43227,11.56058],[-14.71106,11.49757],[-14.95906,11.03576],[-15.08519,10.92764],[-15.04833,10.99482],[-15.114,10.97517],[-15.09935,11.05768],[-15.00056,11.14224],[-15.00089,11.21678],[-15.23013,10.99482],[-15.27111,11.03921],[-15.21451,11.08145],[-15.20661,11.23379],[-15.23351,11.12255],[-15.40953,11.1896],[-15.38858,11.36994],[-15.19633,11.47299],[-15.0961,11.40731],[-14.96164,11.44395],[-14.82979,11.69861],[-14.73387,11.59764],[-14.50709,11.64156],[-14.43227,11.56058]]]}}]}
