{"type":"FeatureCollection","features":[{"type":"Feature","properties":{"id":"gy-ba","lat":7.77584,"lng":-59.70691},"geometry":{"type":"Polygon","coordinates":[[[-60.06801,8.03176],[-59.99331,8.16852],[-59.81665,8.2672],[-60.02099,8.55801],[-59.8378,8.36929],[-59.43375,8.13032],[-59.77953,8.40713],[-59.16515,8.05874],[-58.83342,7.7383],[-58.78067,7.66508],[-58.82945,7.60457],[-59.10246,7.40952],[-59.07076,7.33506],[-59.17455,7.11091],[-59.15439,6.98428],[-59.2686,7.01841],[-59.34177,6.95061],[-59.47272,6.98769],[-59.83167,7.19238],[-60.08767,7.06807],[-60.44951,7.18835],[-60.54801,7.12551],[-60.62841,7.19114],[-60.60177,7.33015],[-60.7165,7.55158],[-60.60126,7.63385],[-60.52576,7.81337],[-60.37476,7.82361],[-60.23112,7.96411],[-60.06801,8.03176]]]}},{"type":"Feature","properties":{"id":"gy-cu","lat":7.22073,"lng":-58.79469},"geometry":{"type":"Polygon","coordinates":[[[-58.78067,7.66508],[-58.47159,7.3454],[-58.46736,7.11612],[-58.49739,6.99482],[-58.83356,6.71396],[-58.85436,6.76765],[-58.93668,6.7709],[-58.96495,6.85385],[-59.17326,6.87178],[-59.17667,7.09701],[-59.07225,7.32534],[-59.09621,7.42141],[-58.78067,7.66508]]]}},{"type":"Feature","properties":{"id":"gy-de","lat":6.53184,"lng":-58.42168},"geometry":{"type":"MultiPolygon","coordinates":[[[[-58.57722,6.59471],[-58.39843,6.88337],[-58.1737,6.81538],[-58.17766,6.67238],[-58.303,6.46896],[-58.27466,6.10586],[-58.36382,6.12976],[-58.40131,6.27189],[-58.58117,6.46345],[-58.57722,6.59471]]],[[[-58.5196,6.97765],[-58.61701,6.48815],[-58.8186,6.53846],[-58.83356,6.71396],[-58.64887,6.84191],[-58.62523,6.92097],[-58.5196,6.97765]]],[[[-58.33471,6.96101],[-58.44103,6.90477],[-58.46052,6.88337],[-58.41893,6.97211],[-58.33471,6.96101]]]]}},{"type":"Feature","properties":{"id":"gy-eb","lat":6.41883,"lng":-58.15458},"geometry":{"type":"Polygon","coordinates":[[[-58.1737,6.81538],[-58.06786,6.8217],[-57.95605,6.75291],[-57.88238,6.54312],[-58.07911,6.34442],[-58.12521,6.07986],[-58.27466,6.10586],[-58.30597,6.36266],[-58.30148,6.47501],[-58.17766,6.67238],[-58.1737,6.81538]]]}},{"type":"Feature","properties":{"id":"gy-es","lat":6.30769,"lng":-57.81532},"geometry":{"type":"Polygon","coordinates":[[[-57.91392,6.71283],[-57.59858,6.42725],[-57.51909,6.27096],[-57.5293,6.20252],[-57.62537,6.1659],[-57.62345,6.02144],[-57.70647,6.00801],[-57.68296,5.87504],[-57.836,5.83949],[-58.12606,5.98925],[-58.13482,6.19577],[-58.07911,6.34442],[-57.88284,6.53761],[-57.91392,6.71283]]]}},{"type":"Feature","properties":{"id":"gy-ma","lat":3.89996,"lng":-58.14089},"geometry":{"type":"Polygon","coordinates":[[[-57.30841,3.39491],[-57.28603,3.14239],[-57.23332,3.14167],[-57.23461,2.97036],[-57.18382,2.94468],[-57.20227,2.84624],[-57.08987,2.77389],[-57.00057,2.51416],[-56.95127,2.51546],[-56.93084,2.39329],[-56.70519,2.02964],[-56.48182,1.94161],[-56.80648,1.87358],[-57.01117,1.91857],[-57.10449,2.02145],[-57.23844,1.94854],[-57.31942,1.97714],[-57.56116,1.70897],[-57.98501,1.6577],[-58.01116,1.53619],[-58.06914,1.509],[-58.32049,1.60122],[-58.38638,1.49019],[-58.50175,1.45378],[-58.26711,1.89712],[-58.02679,2.50879],[-58.0264,2.74296],[-57.92891,2.88572],[-58.10045,3.20443],[-58.15159,3.53441],[-58.29005,3.76863],[-58.43617,4.27256],[-58.28217,4.63427],[-58.06604,4.65398],[-57.9955,4.87068],[-57.69841,5.3473],[-57.60601,5.75624],[-57.70647,6.00801],[-57.62345,6.02144],[-57.62537,6.1659],[-57.52447,6.20802],[-57.48607,6.3395],[-57.28982,6.23474],[-57.16731,6.08511],[-57.16152,5.63891],[-57.3357,5.31689],[-57.1849,5.18315],[-57.23332,5.14212],[-57.28898,5.17103],[-57.29048,5.02029],[-57.68694,5.00626],[-57.85034,4.9228],[-57.92537,4.79614],[-57.83742,4.65088],[-57.95385,4.29901],[-58.06769,4.15114],[-58.03214,3.98772],[-57.87515,3.8122],[-57.82977,3.66244],[-57.64405,3.51666],[-57.65485,3.39013],[-57.47625,3.33894],[-57.30841,3.39491]]]}},{"type":"Feature","properties":{"id":"gy-pm","lat":6.14694,"lng":-59.88982},"geometry":{"type":"Polygon","coordinates":[[[-60.13173,5.2434],[-60.21343,5.26722],[-60.44897,5.17423],[-60.73985,5.20214],[-61.37961,5.9053],[-61.26938,6.10722],[-61.12156,6.18665],[-61.13975,6.44126],[-61.21197,6.56144],[-61.17065,6.66851],[-61.12983,6.71584],[-60.93382,6.73173],[-60.90757,6.81524],[-60.72153,6.75969],[-60.37734,6.93854],[-60.29159,7.0883],[-60.3366,7.15535],[-60.08767,7.06807],[-59.83167,7.19238],[-59.47272,6.98769],[-59.34177,6.95061],[-59.2686,7.01841],[-59.15439,6.98428],[-59.17326,6.87178],[-58.99154,6.86286],[-58.93668,6.7709],[-58.85436,6.76765],[-58.8186,6.53846],[-58.61701,6.48815],[-58.68643,6.38247],[-58.60201,6.41659],[-58.57032,5.93749],[-58.67561,5.45543],[-58.84475,5.41502],[-59.00479,5.52783],[-59.09099,5.51341],[-59.23196,5.70761],[-59.36092,5.59121],[-59.55111,5.5785],[-59.58382,5.38616],[-59.91822,5.37422],[-60.0887,5.15539],[-60.13173,5.2434]]]}},{"type":"Feature","properties":{"id":"gy-pt","lat":4.86027,"lng":-59.41299},"geometry":{"type":"Polygon","coordinates":[[[-60.11201,4.50216],[-60.16154,4.5652],[-60.03847,4.70801],[-59.9815,5.05742],[-60.0887,5.15539],[-59.93879,5.36016],[-59.58382,5.38616],[-59.55111,5.5785],[-59.36092,5.59121],[-59.22212,5.70908],[-59.09871,5.51884],[-59.00479,5.52783],[-58.84475,5.41502],[-58.88493,5.32673],[-58.82056,5.22914],[-58.84397,4.97169],[-58.7807,4.74886],[-58.56776,4.62124],[-58.28217,4.63427],[-58.43994,4.25124],[-58.59786,4.27294],[-58.89146,3.99955],[-58.95485,4.0166],[-59.0553,4.18287],[-59.24917,4.15006],[-59.46218,4.19096],[-59.46631,4.50097],[-59.63845,4.36979],[-59.87293,4.48469],[-60.11201,4.50216]]]}},{"type":"Feature","properties":{"id":"gy-ud","lat":2.80013,"lng":-58.98575},"geometry":{"type":"Polygon","coordinates":[[[-59.59,3.96671],[-59.64617,4.13404],[-59.72674,4.17647],[-59.73847,4.28659],[-59.48797,4.50898],[-59.43533,4.41756],[-59.46218,4.19096],[-59.24917,4.15006],[-59.0553,4.18287],[-58.9389,4.00397],[-58.86935,4.00637],[-58.56428,4.28646],[-58.43994,4.25124],[-58.36442,4.13882],[-58.29783,3.79005],[-58.15159,3.53441],[-58.1112,3.235],[-57.92891,2.88572],[-58.0264,2.74296],[-58.02679,2.50879],[-58.26711,1.89712],[-58.48529,1.53657],[-58.51893,1.26726],[-58.69773,1.28106],[-58.77194,1.20127],[-58.87214,1.19724],[-58.9665,1.31015],[-59.25992,1.38744],[-59.53073,1.70307],[-59.68085,1.75739],[-59.64646,1.83997],[-59.75875,1.86214],[-59.7417,2.26379],[-59.91344,2.37872],[-59.99372,2.85729],[-59.96923,3.04271],[-59.82177,3.35659],[-59.86288,3.58172],[-59.59861,3.8024],[-59.52765,3.93953],[-59.59,3.96671]]]}},{"type":"Feature","properties":{"id":"gy-ut","lat":5.50937,"lng":-58.16087},"geometry":{"type":"Polygon","coordinates":[[[-58.60201,6.41659],[-58.55975,6.45141],[-58.40131,6.27189],[-58.36044,6.12743],[-58.17993,6.11508],[-58.12521,6.07986],[-58.11497,5.97155],[-57.84372,5.84104],[-57.68296,5.87504],[-57.60759,5.77378],[-57.69841,5.3473],[-58.08397,4.64414],[-58.56776,4.62124],[-58.79426,4.76586],[-58.84397,4.97169],[-58.82056,5.22914],[-58.88493,5.32673],[-58.85899,5.40866],[-58.69297,5.4376],[-58.62272,5.58113],[-58.57032,5.93749],[-58.60201,6.41659]]]}}]}
