{"type":"FeatureCollection","features":[{"type":"Feature","properties":{"id":"hn-at","lat":15.69235,"lng":-87.07238},"geometry":{"type":"Polygon","coordinates":[[[-87.72836,15.92102],[-87.62605,15.88768],[-87.6363,15.90351],[-87.5913,15.93549],[-87.6173,15.8946],[-87.4794,15.78604],[-87.34508,15.85033],[-86.91686,15.7604],[-86.47057,15.80419],[-86.36167,15.62654],[-86.42095,15.58282],[-86.99063,15.54882],[-87.18245,15.42655],[-87.38197,15.44216],[-87.45556,15.53993],[-87.62555,15.51079],[-87.6979,15.6637],[-87.78758,15.721],[-87.72836,15.92102]]]}},{"type":"Feature","properties":{"id":"hn-ch","lat":13.36316,"lng":-87.08364},"geometry":{"type":"Polygon","coordinates":[[[-86.73271,13.26847],[-86.83343,13.29335],[-86.91079,13.23958],[-86.92293,13.08639],[-87.03504,12.97978],[-87.31404,12.98155],[-87.26915,13.02945],[-87.35281,13.07254],[-87.30394,13.09833],[-87.41934,13.11135],[-87.51224,13.28669],[-87.34779,13.43298],[-87.45437,13.75689],[-87.21423,13.6711],[-87.18429,13.5663],[-87.07662,13.50579],[-86.93285,13.66056],[-86.77117,13.70789],[-86.73271,13.26847]]]}},{"type":"Feature","properties":{"id":"hn-cl","lat":15.55288,"lng":-85.323},"geometry":{"type":"Polygon","coordinates":[[[-86.43787,15.79085],[-86.35497,15.77399],[-86.1726,15.88752],[-85.97216,15.90917],[-85.90319,15.98347],[-86.00792,16.03107],[-85.7032,15.97647],[-85.48858,15.86957],[-85.25425,15.88409],[-84.99995,15.98794],[-84.99995,15.06874],[-85.24931,15.23664],[-85.39594,15.40893],[-85.6883,15.57719],[-85.87995,15.52856],[-86.03167,15.39038],[-86.17163,15.37808],[-86.2329,15.40976],[-86.24328,15.5235],[-86.42095,15.58282],[-86.36346,15.67217],[-86.43787,15.79085]]]}},{"type":"Feature","properties":{"id":"hn-cm","lat":14.56764,"lng":-87.6775},"geometry":{"type":"Polygon","coordinates":[[[-88.07495,14.66484],[-88.07477,14.74246],[-87.98581,14.83641],[-87.96297,14.80354],[-87.75722,14.94792],[-87.73588,15.01655],[-87.54359,15.0565],[-87.44427,14.91087],[-87.27901,14.92302],[-87.20834,14.85946],[-87.25449,14.83661],[-87.26609,14.70313],[-87.46592,14.52221],[-87.38275,14.3953],[-87.46207,14.33225],[-87.42546,14.22905],[-87.68963,14.05103],[-87.82872,14.22528],[-87.63948,14.2737],[-87.64658,14.36982],[-87.82913,14.40036],[-87.96915,14.61306],[-88.07495,14.66484]]]}},{"type":"Feature","properties":{"id":"hn-cp","lat":14.92408,"lng":-88.9371},"geometry":{"type":"Polygon","coordinates":[[[-89.14694,15.07128],[-88.7609,15.29996],[-88.71579,15.24527],[-88.64262,15.09148],[-88.70225,14.95237],[-88.63929,14.89578],[-88.6559,14.72386],[-88.79284,14.71352],[-88.73052,14.54878],[-88.8492,14.50268],[-89.02565,14.72081],[-89.15967,14.72512],[-89.23243,14.8485],[-89.14694,15.07128]]]}},{"type":"Feature","properties":{"id":"hn-cr","lat":15.30889,"lng":-87.99911},"geometry":{"type":"Polygon","coordinates":[[[-88.46743,15.52074],[-88.22094,15.72565],[-88.11889,15.69587],[-87.93391,15.81879],[-87.951,15.86717],[-87.72836,15.92102],[-87.79487,15.80389],[-87.75841,15.73982],[-87.82355,15.69155],[-87.76221,15.61016],[-87.85272,15.45167],[-87.82019,15.41627],[-87.93512,15.24475],[-87.9231,15.1908],[-87.73836,15.11112],[-87.7358,14.98379],[-87.96297,14.80354],[-88.05359,14.93082],[-88.01814,15.05583],[-88.11353,15.13086],[-88.06152,15.20775],[-88.13433,15.37302],[-88.262,15.50402],[-88.46743,15.52074]]]}},{"type":"Feature","properties":{"id":"hn-ep","lat":13.9803,"lng":-86.56625},"geometry":{"type":"Polygon","coordinates":[[[-85.56315,14.04201],[-85.7322,13.95954],[-85.74246,13.82371],[-85.9294,13.9121],[-86.02841,13.99607],[-86.0202,14.05516],[-86.12169,14.02721],[-86.34013,13.75666],[-86.72723,13.76826],[-86.80919,13.68185],[-86.93285,13.66056],[-87.07662,13.50579],[-87.22413,13.62863],[-87.21423,13.6711],[-87.13021,13.66005],[-87.12155,13.81032],[-87.01393,13.80045],[-86.98926,13.96452],[-86.91229,14.03894],[-86.9843,14.13263],[-86.91218,14.14084],[-86.8217,14.33778],[-86.71421,14.42382],[-86.42816,14.29076],[-86.19373,14.33845],[-86.14218,14.26895],[-86.0296,14.26342],[-85.91307,14.13278],[-85.76373,14.19789],[-85.64691,14.18342],[-85.56315,14.04201]]]}},{"type":"Feature","properties":{"id":"hn-fm","lat":14.36377,"lng":-87.10063},"geometry":{"type":"Polygon","coordinates":[[[-87.46592,14.52221],[-87.26609,14.70313],[-87.18483,15.01138],[-86.98748,15.01588],[-86.90614,14.94017],[-86.89136,14.7622],[-86.74372,14.57534],[-86.71357,14.43783],[-86.89686,14.22993],[-86.91218,14.14084],[-86.9843,14.13263],[-86.91595,13.9993],[-86.98926,13.96452],[-87.03055,13.779],[-87.12819,13.80246],[-87.13021,13.66005],[-87.36009,13.69012],[-87.42391,13.76061],[-87.46879,13.66583],[-87.6494,13.76123],[-87.61434,14.10911],[-87.42964,14.22275],[-87.46207,14.33225],[-87.38275,14.3953],[-87.46592,14.52221]]]}},{"type":"Feature","properties":{"id":"hn-gd","lat":15.30294,"lng":-84.46208},"geometry":{"type":"Polygon","coordinates":[[[-84.98437,14.75223],[-84.99995,15.98794],[-84.67655,15.8762],[-84.66005,15.77449],[-84.45281,15.79565],[-84.64183,15.86291],[-84.29464,15.81101],[-83.72997,15.40156],[-84.00402,15.53758],[-84.10363,15.55121],[-84.08934,15.48298],[-84.13036,15.55121],[-84.21288,15.55121],[-84.18554,15.48298],[-84.1278,15.53262],[-84.09952,15.37759],[-83.93175,15.31167],[-83.93838,15.25922],[-83.82189,15.2707],[-84.02652,15.40868],[-83.81408,15.32168],[-83.75984,15.20209],[-83.62336,15.29609],[-83.52766,15.28437],[-83.53287,15.21125],[-83.59252,15.23721],[-83.62145,15.17617],[-83.4818,15.21556],[-83.52961,15.30101],[-83.61022,15.30488],[-83.70299,15.402],[-83.40803,15.26642],[-83.28429,15.06835],[-83.13044,14.99701],[-83.50908,15.01154],[-83.61562,14.87269],[-83.69197,14.88697],[-83.70502,14.83853],[-83.92472,14.80377],[-83.92472,14.76344],[-84.11176,14.79341],[-84.09543,14.7361],[-84.16819,14.71497],[-84.2618,14.75853],[-84.26728,14.67774],[-84.36293,14.71561],[-84.48269,14.61947],[-84.69932,14.67469],[-84.8181,14.82866],[-84.98437,14.75223]]]}},{"type":"Feature","properties":{"id":"hn-ib","lat":16.38033,"lng":-86.38043},"geometry":{"type":"MultiPolygon","coordinates":[[[[-86.89053,16.12783],[-86.96372,16.06639],[-86.99741,16.08396],[-86.89053,16.12783]]],[[[-86.57045,16.33244],[-86.33213,16.42945],[-86.18175,16.42823],[-86.6005,16.26945],[-86.57045,16.33244]]],[[[-85.92669,16.45478],[-85.81695,16.49831],[-85.94707,16.40319],[-85.92669,16.45478]]],[[[-83.93358,17.41787],[-83.91234,17.41112],[-83.94115,17.41865],[-83.93358,17.41787]]]]}},{"type":"Feature","properties":{"id":"hn-in","lat":14.30135,"lng":-88.20692},"geometry":{"type":"Polygon","coordinates":[[[-88.4979,13.96837],[-88.32228,14.10787],[-88.32817,14.21562],[-88.4215,14.24792],[-88.42238,14.349],[-88.50147,14.44863],[-88.36049,14.491],[-88.34377,14.6543],[-88.07495,14.66484],[-87.96915,14.61306],[-87.849,14.43281],[-87.95207,14.3893],[-88.01346,14.2537],[-88.23223,14.08358],[-88.23637,13.93814],[-88.49682,13.8512],[-88.4979,13.96837]]]}},{"type":"Feature","properties":{"id":"hn-le","lat":14.46981,"lng":-88.58279},"geometry":{"type":"Polygon","coordinates":[[[-88.95718,14.18518],[-88.97389,14.30678],[-88.87563,14.40589],[-88.81065,14.38682],[-88.81946,14.42656],[-88.74375,14.44217],[-88.71533,14.52805],[-88.79284,14.71352],[-88.6559,14.72386],[-88.64461,14.92736],[-88.55511,14.9348],[-88.48731,14.81191],[-88.43364,14.85455],[-88.36052,14.8192],[-88.38884,14.77223],[-88.3168,14.71951],[-88.32251,14.57317],[-88.36049,14.491],[-88.50147,14.44863],[-88.42238,14.349],[-88.4215,14.24792],[-88.32817,14.21562],[-88.33621,14.07681],[-88.49708,13.96907],[-88.69094,14.01],[-88.74639,14.11134],[-88.83876,14.10041],[-88.88126,14.1842],[-88.95718,14.18518]]]}},{"type":"Feature","properties":{"id":"hn-lp","lat":14.15689,"lng":-87.95604},"geometry":{"type":"Polygon","coordinates":[[[-88.17753,13.98519],[-88.23223,14.08358],[-88.01346,14.2537],[-87.95207,14.3893],[-87.85311,14.42909],[-87.64658,14.36982],[-87.63948,14.2737],[-87.82872,14.22528],[-87.68963,14.05103],[-87.61524,14.08849],[-87.59832,13.93817],[-87.64705,13.83419],[-87.81789,13.91587],[-88.01532,13.86636],[-88.09904,13.98982],[-88.17753,13.98519]]]}},{"type":"Feature","properties":{"id":"hn-oc","lat":14.45434,"lng":-89.04836},"geometry":{"type":"Polygon","coordinates":[[[-89.34621,14.41308],[-89.3555,14.47545],[-89.16039,14.58128],[-89.14621,14.71086],[-89.08557,14.72892],[-89.02565,14.72081],[-88.89266,14.52325],[-88.71533,14.52805],[-88.75269,14.43323],[-88.87563,14.40589],[-88.97389,14.30678],[-88.97023,14.21018],[-89.10748,14.39597],[-89.15399,14.3513],[-89.34621,14.41308]]]}},{"type":"Feature","properties":{"id":"hn-ol","lat":14.85119,"lng":-85.94935},"geometry":{"type":"Polygon","coordinates":[[[-84.99995,14.74202],[-85.05393,14.66306],[-85.02964,14.58896],[-85.14547,14.56425],[-85.20583,14.40716],[-85.16963,14.32176],[-85.32135,14.28133],[-85.56315,14.04201],[-85.64691,14.18342],[-85.76373,14.19789],[-85.91307,14.13278],[-86.0296,14.26342],[-86.14218,14.26895],[-86.19373,14.33845],[-86.42816,14.29076],[-86.71421,14.42382],[-86.74372,14.57534],[-86.89136,14.7622],[-86.90614,14.94017],[-86.98748,15.01588],[-86.88616,15.08156],[-86.81532,15.28537],[-86.69274,15.26863],[-86.51407,15.38924],[-86.38526,15.32795],[-86.2329,15.40976],[-86.03167,15.39038],[-85.87995,15.52856],[-85.70936,15.58153],[-85.39594,15.40893],[-85.24931,15.23664],[-84.99995,15.06874],[-84.99995,14.74202]]]}},{"type":"Feature","properties":{"id":"hn-sb","lat":15.08505,"lng":-88.36313},"geometry":{"type":"Polygon","coordinates":[[[-88.7609,15.29996],[-88.46743,15.52074],[-88.24094,15.49073],[-88.06152,15.20775],[-88.10593,15.11427],[-88.01814,15.05583],[-88.05671,14.94694],[-87.99563,14.90085],[-87.98705,14.79259],[-88.07477,14.74246],[-88.07495,14.66484],[-88.34377,14.6543],[-88.36052,14.8192],[-88.43364,14.85455],[-88.48731,14.81191],[-88.55511,14.9348],[-88.69244,14.92694],[-88.65171,15.1551],[-88.7609,15.29996]]]}},{"type":"Feature","properties":{"id":"hn-va","lat":13.58868,"lng":-87.58919},"geometry":{"type":"MultiPolygon","coordinates":[[[[-87.64485,13.29084],[-87.64656,13.24917],[-87.67382,13.28388],[-87.64485,13.29084]]],[[[-87.61242,13.36603],[-87.5913,13.30439],[-87.65901,13.33169],[-87.63443,13.37348],[-87.61242,13.36603]]],[[[-87.78993,13.53282],[-87.70361,13.815],[-87.74953,13.84563],[-87.69286,13.8499],[-87.64185,13.74986],[-87.42626,13.64454],[-87.34779,13.43298],[-87.5476,13.35501],[-87.58133,13.38288],[-87.61856,13.37202],[-87.62401,13.46625],[-87.73888,13.36237],[-87.81717,13.40656],[-87.72115,13.46083],[-87.78993,13.53282]]]]}},{"type":"Feature","properties":{"id":"hn-yo","lat":15.31292,"lng":-87.26892},"geometry":{"type":"Polygon","coordinates":[[[-87.78758,15.721],[-87.6979,15.6637],[-87.62555,15.51079],[-87.45556,15.53993],[-87.38197,15.44216],[-87.18245,15.42655],[-86.99063,15.54882],[-86.63626,15.60463],[-86.24328,15.5235],[-86.2329,15.40976],[-86.37196,15.3294],[-86.51407,15.38924],[-86.69274,15.26863],[-86.81532,15.28537],[-86.92099,15.05396],[-87.16702,15.02596],[-87.24581,14.89775],[-87.44427,14.91087],[-87.53757,15.05407],[-87.73588,15.01655],[-87.76769,15.1397],[-87.9231,15.1908],[-87.92576,15.29643],[-87.82386,15.40805],[-87.85272,15.45167],[-87.76221,15.61016],[-87.81975,15.6716],[-87.78758,15.721]]]}}]}
