{"type":"FeatureCollection","features":[{"type":"Feature","properties":{"id":"hr-01","lat":45.76248,"lng":15.61533},"geometry":{"type":"Polygon","coordinates":[[[15.24892,45.71184],[15.67608,45.8417],[15.67538,45.97249],[15.91963,45.95709],[15.76584,45.8463],[15.84692,45.8094],[15.77313,45.70036],[15.92149,45.62238],[15.96662,45.71692],[16.18979,45.79116],[16.22685,45.8496],[16.13626,45.97037],[16.20468,46.00422],[16.19413,46.05998],[16.69255,45.92423],[16.69596,45.87265],[16.59323,45.77984],[16.38156,45.81204],[16.37025,45.74511],[16.29392,45.72785],[16.27821,45.61303],[16.04918,45.59748],[16.11078,45.50637],[15.97782,45.47273],[15.85989,45.54895],[15.77995,45.52255],[15.746,45.59691],[15.56802,45.60202],[15.43051,45.69411],[15.24892,45.71184]]]}},{"type":"Feature","properties":{"id":"hr-02","lat":46.09987,"lng":15.94208},"geometry":{"type":"Polygon","coordinates":[[[15.79953,46.24861],[16.03073,46.18426],[16.20065,46.21227],[16.24736,46.18762],[16.25589,46.06106],[15.96557,45.91105],[15.82248,45.98205],[15.67538,45.97249],[15.69799,46.03621],[15.58998,46.13868],[15.6398,46.20767],[15.79953,46.24861]]]}},{"type":"Feature","properties":{"id":"hr-03","lat":45.41043,"lng":16.41907},"geometry":{"type":"Polygon","coordinates":[[[17.12463,45.16906],[16.92437,45.28452],[16.78629,45.17885],[16.52894,45.22225],[16.31624,45.00123],[16.00846,45.21817],[15.63055,45.23574],[15.65752,45.41873],[15.82093,45.40214],[15.85431,45.54988],[15.93591,45.4748],[16.10907,45.50451],[16.04918,45.59748],[16.26488,45.6045],[16.29392,45.72785],[16.4337,45.8231],[16.50507,45.71545],[16.78671,45.61319],[16.86727,45.52652],[16.84324,45.48906],[17.18958,45.33082],[17.08421,45.22572],[17.12463,45.16906]]]}},{"type":"Feature","properties":{"id":"hr-04","lat":45.28341,"lng":15.30936},"geometry":{"type":"Polygon","coordinates":[[[15.80257,45.19647],[15.73411,44.93444],[15.55247,44.94914],[15.56678,44.87855],[15.19419,45.12577],[15.008,45.12407],[14.97059,45.27352],[15.02924,45.32855],[15.12236,45.29331],[15.22585,45.43645],[15.36137,45.48203],[15.26856,45.60166],[15.4209,45.6953],[15.56802,45.60202],[15.746,45.59691],[15.81287,45.52342],[15.82093,45.40214],[15.65752,45.41873],[15.63055,45.23574],[15.80257,45.19647]]]}},{"type":"Feature","properties":{"id":"hr-05","lat":46.20059,"lng":16.41488},"geometry":{"type":"Polygon","coordinates":[[[16.08865,46.37309],[16.27994,46.37866],[16.36125,46.31996],[16.7743,46.27986],[16.6955,46.2102],[16.34963,46.12251],[16.35924,46.02463],[16.29377,46.0128],[16.24565,46.19098],[15.88377,46.23832],[16.08865,46.37309]]]}},{"type":"Feature","properties":{"id":"hr-06","lat":46.11954,"lng":16.77299},"geometry":{"type":"Polygon","coordinates":[[[16.85941,46.36476],[17.05294,46.15346],[17.20859,46.11657],[17.30661,45.97991],[17.19252,45.9696],[17.14038,45.87027],[16.9962,45.92712],[16.8589,46.07957],[16.74113,46.04572],[16.69255,45.92423],[16.35924,46.02463],[16.34963,46.12251],[16.73224,46.2272],[16.74516,46.3057],[16.81187,46.28188],[16.85941,46.36476]]]}},{"type":"Feature","properties":{"id":"hr-07","lat":45.75155,"lng":16.90647},"geometry":{"type":"Polygon","coordinates":[[[16.8449,46.08163],[16.9962,45.92712],[17.38522,45.70253],[17.48982,45.69302],[17.42388,45.51732],[17.02587,45.50317],[16.94422,45.54699],[16.90701,45.46766],[16.83606,45.49448],[16.86727,45.52652],[16.78671,45.61319],[16.50166,45.71752],[16.52357,45.78558],[16.68837,45.83917],[16.71922,46.01874],[16.8449,46.08163]]]}},{"type":"Feature","properties":{"id":"hr-08","lat":45.37779,"lng":14.69856},"geometry":{"type":"MultiPolygon","coordinates":[[[[14.53435,44.48408],[14.36305,44.57343],[14.33578,44.71678],[14.39747,44.68561],[14.41,44.60098],[14.53435,44.48408]]],[[[14.24415,44.66144],[14.27117,44.61254],[14.23259,44.62604],[14.24415,44.66144]]],[[[14.85906,44.71735],[14.65789,44.79877],[14.72682,44.79877],[14.6858,44.84715],[14.75327,44.84585],[14.85906,44.71735]]],[[[14.50856,44.64533],[14.42791,44.65656],[14.2942,44.90864],[14.41139,44.95637],[14.27849,45.11335],[14.31365,45.17243],[14.47348,44.97142],[14.45191,44.79877],[14.50856,44.64533]]],[[[14.62892,44.97818],[14.62086,45.0456],[14.51051,45.03217],[14.42506,45.08735],[14.53012,45.13483],[14.54884,45.24873],[14.81495,44.97748],[14.62892,44.97818]]],[[[15.23254,45.42555],[15.12236,45.29331],[14.99405,45.31181],[14.96889,45.15311],[15.0263,45.085],[14.88134,45.0356],[14.57081,45.29365],[14.34588,45.35163],[14.21115,45.16153],[14.20356,45.40395],[14.11622,45.4642],[14.41124,45.49319],[14.58095,45.66781],[14.66849,45.53397],[14.79716,45.46518],[14.92263,45.51495],[15.23254,45.42555]]]]}},{"type":"Feature","properties":{"id":"hr-09","lat":44.73525,"lng":15.1833},"geometry":{"type":"MultiPolygon","coordinates":[[[[14.89747,44.49091],[14.73365,44.70319],[15.04119,44.52749],[15.07553,44.48408],[14.91114,44.55231],[15.04803,44.43944],[15.09669,44.41519],[15.04152,44.47663],[15.25441,44.34003],[15.16505,44.36738],[15.22022,44.31273],[15.12875,44.312],[15.1172,44.38719],[14.89747,44.49091]]],[[[15.29379,44.36481],[14.8838,44.72362],[14.92164,44.95881],[14.88615,45.05529],[15.01886,45.07389],[15.008,45.12407],[15.19032,45.12686],[15.37651,45.0263],[15.60197,44.7967],[15.47258,44.74688],[15.65349,44.49496],[15.59112,44.45723],[15.63551,44.41806],[15.59996,44.36422],[15.54596,44.33047],[15.33667,44.41372],[15.29379,44.36481]]]]}},{"type":"Feature","properties":{"id":"hr-10","lat":45.74734,"lng":17.63993},"geometry":{"type":"Polygon","coordinates":[[[17.19779,45.9727],[17.5911,45.93621],[17.66469,45.84165],[17.90623,45.79214],[18.08322,45.63029],[17.87915,45.47071],[17.43054,45.57469],[17.48982,45.69302],[17.38522,45.70253],[17.13371,45.88852],[17.19779,45.9727]]]}},{"type":"Feature","properties":{"id":"hr-12","lat":45.34069,"lng":17.62423},"geometry":{"type":"Polygon","coordinates":[[[17.12463,45.16906],[17.08421,45.22572],[17.18958,45.33082],[16.92918,45.47588],[16.94422,45.54699],[17.02587,45.50317],[17.39933,45.50921],[17.43054,45.57469],[17.5171,45.57634],[17.87915,45.47071],[18.08322,45.63029],[18.20765,45.59773],[18.22548,45.5135],[18.39431,45.52296],[18.44397,45.47521],[18.16295,45.41253],[18.07588,45.35057],[18.08161,45.2715],[18.53694,45.19352],[18.50231,45.13926],[18.54112,45.05529],[18.23788,45.15745],[18.15365,45.09756],[18.00348,45.14934],[17.83574,45.06443],[17.68474,45.16396],[17.48186,45.1144],[17.26895,45.18954],[17.12463,45.16906]]]}},{"type":"Feature","properties":{"id":"hr-13","lat":44.39651,"lng":15.88328},"geometry":{"type":"MultiPolygon","coordinates":[[[[15.26124,44.01105],[15.38404,43.97016],[15.44606,43.88752],[15.35865,43.91938],[15.26124,44.01105]]],[[[15.19549,43.89521],[15.12135,43.91258],[14.84962,44.1756],[15.00733,44.093],[15.19549,43.89521]]],[[[15.25441,44.01789],[15.16969,44.05866],[15.06251,44.16193],[15.22576,44.06623],[15.25441,44.01789]]],[[[14.82244,44.16869],[14.83522,44.14167],[14.81983,44.15302],[14.82244,44.16869]]],[[[14.75978,44.29206],[14.75994,44.25983],[14.73813,44.27212],[14.75978,44.29206]]],[[[14.64357,44.32575],[14.59889,44.33906],[14.59506,44.34711],[14.64357,44.32575]]],[[[14.80104,44.34309],[14.7562,44.364],[14.76344,44.41535],[14.80323,44.4055],[14.80104,44.34309]]],[[[15.73411,44.93444],[15.76868,44.82734],[15.71607,44.80321],[15.75369,44.73929],[15.80568,44.69665],[15.88878,44.72425],[16.0283,44.62472],[16.00608,44.541],[16.11646,44.52147],[16.21579,44.20815],[16.52745,43.96786],[16.19165,43.92047],[16.14137,44.03473],[15.90645,43.90936],[15.7817,43.94388],[15.73995,43.86921],[15.54688,43.87656],[15.14454,44.19546],[15.14064,44.28246],[15.29526,44.25068],[15.26124,44.33259],[15.52524,44.26069],[15.29379,44.36481],[15.33667,44.41372],[15.54596,44.33047],[15.61598,44.37931],[15.59112,44.45723],[15.65349,44.49496],[15.47258,44.74688],[15.59949,44.78936],[15.52549,44.83328],[15.55247,44.94914],[15.73411,44.93444]]]]}},{"type":"Feature","properties":{"id":"hr-14","lat":45.54802,"lng":18.60221},"geometry":{"type":"Polygon","coordinates":[[[18.65564,45.90759],[18.90131,45.9312],[18.84498,45.81571],[18.96849,45.66874],[18.90358,45.57308],[19.10626,45.51164],[19.00962,45.49867],[18.98678,45.43532],[18.86105,45.48131],[18.66137,45.39558],[18.62938,45.31889],[18.51193,45.29259],[18.54825,45.19052],[18.08161,45.2715],[18.07588,45.35057],[18.16295,45.41253],[18.44397,45.47743],[18.39431,45.52296],[18.22548,45.5135],[18.20765,45.59773],[18.01661,45.66972],[17.90623,45.79214],[18.40439,45.74181],[18.65564,45.90759]]]}},{"type":"Feature","properties":{"id":"hr-15","lat":43.79109,"lng":16.03816},"geometry":{"type":"MultiPolygon","coordinates":[[[[15.74041,43.62751],[15.67205,43.63744],[15.60377,43.67471],[15.65016,43.67304],[15.74041,43.62751]]],[[[16.00782,43.49714],[15.91798,43.5729],[15.95045,43.68854],[15.70631,43.76341],[15.54688,43.87656],[15.73995,43.86921],[15.7817,43.94388],[15.90645,43.90936],[16.14137,44.03473],[16.1701,43.92688],[16.34451,43.93634],[16.432,43.81877],[16.34167,43.70999],[16.06427,43.61605],[16.08272,43.54566],[16.00782,43.49714]]],[[[15.24073,43.88076],[15.39568,43.77241],[15.22779,43.87446],[15.24073,43.88076]]]]}},{"type":"Feature","properties":{"id":"hr-16","lat":45.17887,"lng":18.83567},"geometry":{"type":"Polygon","coordinates":[[[18.78896,45.00573],[18.51161,45.11373],[18.56794,45.22664],[18.51193,45.29259],[18.85485,45.48038],[19.01643,45.43356],[18.97749,45.37121],[19.10415,45.29873],[19.40784,45.20313],[19.22594,45.16195],[19.12186,45.19579],[19.13767,45.14603],[19.04486,45.13725],[19.13168,44.95318],[18.99143,44.91493],[19.00497,44.86331],[18.8178,44.88755],[18.78896,45.00573]]]}},{"type":"Feature","properties":{"id":"hr-17","lat":43.52945,"lng":16.74544},"geometry":{"type":"MultiPolygon","coordinates":[[[[16.24985,43.07941],[16.2103,43.03327],[16.12135,43.01337],[16.04884,43.06517],[16.24985,43.07941]]],[[[16.47535,43.16649],[16.37159,43.1955],[16.58326,43.18867],[16.52052,43.22899],[16.56275,43.22899],[16.72771,43.16462],[17.19337,43.12727],[16.47535,43.16649]]],[[[16.41383,43.32884],[16.44703,43.39484],[16.89234,43.3122],[16.62827,43.26374],[16.41383,43.32884]]],[[[16.39145,43.34638],[16.20704,43.38727],[16.20045,43.40705],[16.39145,43.34638]]],[[[16.37078,43.48432],[16.24643,43.48143],[16.21144,43.49006],[16.26441,43.51288],[16.37078,43.48432]]],[[[16.52745,43.96786],[17.08457,43.51324],[17.2705,43.46321],[17.28993,43.30343],[17.44946,43.14631],[17.34936,43.15623],[17.40631,43.10052],[17.36537,43.07925],[16.88063,43.40595],[16.39145,43.51081],[16.4568,43.54588],[16.0128,43.50397],[16.08272,43.54566],[16.04841,43.60251],[16.1606,43.68292],[16.35056,43.71594],[16.3504,43.77319],[16.432,43.81877],[16.35087,43.92621],[16.52745,43.96786]]]]}},{"type":"Feature","properties":{"id":"hr-18","lat":45.14592,"lng":13.91373},"geometry":{"type":"Polygon","coordinates":[[[13.50147,45.4986],[13.889,45.42364],[13.97189,45.51423],[14.20356,45.40395],[14.23468,45.15457],[14.14389,45.05939],[14.15138,44.97748],[14.06886,44.94953],[14.08383,44.9864],[14.04029,45.03897],[14.07569,44.98371],[13.97267,44.90111],[14.00001,44.81306],[13.89015,44.83348],[13.91798,44.77827],[13.90317,44.77241],[13.78712,44.87507],[13.8423,44.88813],[13.7741,44.96381],[13.62322,45.07306],[13.61256,45.11787],[13.72625,45.13451],[13.6006,45.13727],[13.60955,45.32014],[13.54127,45.34614],[13.50147,45.4986]]]}},{"type":"Feature","properties":{"id":"hr-19","lat":42.9479,"lng":16.90456},"geometry":{"type":"MultiPolygon","coordinates":[[[[18.43736,42.55921],[18.49643,42.41633],[17.89283,42.79084],[17.72096,42.82624],[17.76189,42.77871],[17.74871,42.77204],[17.21388,42.98261],[17.04615,42.99506],[17.00164,43.0515],[17.24025,43.02277],[17.74147,42.83926],[17.65333,42.89094],[17.81176,42.90986],[17.85847,42.81697],[18.43736,42.55921]]],[[[17.39234,42.8017],[17.74887,42.69457],[17.32374,42.79084],[17.39234,42.8017]]],[[[16.93393,42.77094],[16.88494,42.7294],[16.80299,42.76349],[16.85816,42.784],[16.93393,42.77094]]],[[[17.20021,42.92178],[16.85141,42.9007],[16.65545,42.92626],[16.7068,42.96955],[16.63168,42.98261],[17.03207,42.98261],[17.20021,42.92178]]],[[[17.62841,43.04657],[17.66272,42.9657],[17.53452,42.95063],[17.47462,43.00117],[17.50196,43.03099],[17.4336,43.0174],[17.36537,43.07925],[17.40558,43.10373],[17.34709,43.15375],[17.62841,43.04657]]]]}},{"type":"Feature","properties":{"id":"hr-20","lat":46.43031,"lng":16.48274},"geometry":{"type":"Polygon","coordinates":[[[16.34415,46.54698],[16.83766,46.38187],[16.8449,46.33159],[16.80862,46.28095],[16.36125,46.31996],[16.23366,46.47874],[16.34415,46.54698]]]}},{"type":"Feature","properties":{"id":"hr-21","lat":45.80028,"lng":16.01816},"geometry":{"type":"Polygon","coordinates":[[[15.82062,45.91368],[16.13626,45.97037],[16.22685,45.8496],[16.18979,45.79116],[15.96662,45.71692],[15.92149,45.62238],[15.77313,45.70036],[15.84692,45.8094],[15.76584,45.8463],[15.82062,45.91368]]]}}]}
