{"type":"FeatureCollection","features":[{"type":"Feature","properties":{"id":"ht-ar","lat":19.34119,"lng":-72.48544},"geometry":{"type":"Polygon","coordinates":[[[-72.70605,18.94424],[-72.81835,19.07856],[-72.70718,19.11864],[-72.80338,19.23192],[-72.71398,19.2934],[-72.76863,19.38898],[-72.67984,19.40949],[-73.1208,19.6291],[-73.06678,19.73327],[-72.8303,19.7296],[-72.67558,19.80675],[-72.51265,19.56609],[-72.44666,19.52899],[-72.32721,19.56516],[-72.2268,19.41344],[-72.24744,18.87714],[-72.36519,18.86701],[-72.48774,18.95889],[-72.70605,18.94424]]]}},{"type":"Feature","properties":{"id":"ht-ce","lat":19.04101,"lng":-72.00506},"geometry":{"type":"Polygon","coordinates":[[[-71.97888,19.33577],[-71.63911,19.21211],[-71.66138,19.11759],[-71.8654,18.96442],[-71.73347,18.88257],[-71.75807,18.70051],[-71.94622,18.74351],[-72.10588,18.70506],[-72.36519,18.86701],[-72.24744,18.87714],[-72.24587,19.24089],[-72.20006,19.30192],[-72.12006,19.26007],[-71.97888,19.33577]]]}},{"type":"Feature","properties":{"id":"ht-ga","lat":18.4866,"lng":-74.11493},"geometry":{"type":"MultiPolygon","coordinates":[[[[-74.45442,18.36481],[-74.48917,18.42939],[-74.42626,18.60822],[-74.3402,18.65339],[-74.19978,18.6673],[-73.73935,18.54381],[-73.78404,18.42471],[-73.90631,18.36384],[-74.08532,18.40363],[-74.45442,18.36481]]],[[[-73.79442,18.60187],[-73.71496,18.62348],[-73.71459,18.6013],[-73.79442,18.60187]]]]}},{"type":"Feature","properties":{"id":"ht-nd","lat":19.64236,"lng":-72.32472},"geometry":{"type":"Polygon","coordinates":[[[-72.56518,19.87572],[-72.38508,19.81045],[-72.33385,19.71857],[-72.21866,19.78693],[-72.05822,19.72264],[-72.11074,19.56614],[-72.08301,19.44569],[-71.97888,19.33577],[-72.13947,19.25831],[-72.32721,19.56516],[-72.44666,19.52899],[-72.51265,19.56609],[-72.67558,19.80675],[-72.56518,19.87572]]]}},{"type":"Feature","properties":{"id":"ht-ne","lat":19.5309,"lng":-71.91085},"geometry":{"type":"Polygon","coordinates":[[[-71.75744,19.71011],[-71.70386,19.41463],[-71.77652,19.3275],[-71.74952,19.27971],[-71.88762,19.28487],[-72.08301,19.44569],[-72.1105,19.61612],[-72.04792,19.71204],[-71.86473,19.71507],[-71.9016,19.67231],[-71.82144,19.65668],[-71.84439,19.71113],[-71.75744,19.71011]]]}},{"type":"Feature","properties":{"id":"ht-ni","lat":18.39312,"lng":-73.306},"geometry":{"type":"Polygon","coordinates":[[[-73.73935,18.54381],[-73.62206,18.58763],[-73.58585,18.562],[-73.71459,18.5467],[-73.65221,18.50137],[-73.05594,18.45845],[-73.01246,18.2209],[-73.14008,18.36152],[-73.51336,18.33402],[-73.5994,18.42704],[-73.78404,18.42471],[-73.73935,18.54381]]]}},{"type":"Feature","properties":{"id":"ht-no","lat":19.77341,"lng":-73.08126},"geometry":{"type":"MultiPolygon","coordinates":[[[[-73.12214,19.62922],[-73.4095,19.63597],[-73.46813,19.7248],[-73.3651,19.81354],[-73.40416,19.83251],[-73.1671,19.93769],[-72.96728,19.9029],[-72.77603,19.94392],[-72.56518,19.87572],[-72.8303,19.7296],[-73.06678,19.73327],[-73.12214,19.62922]]],[[[-72.82169,20.08979],[-72.66779,20.03229],[-72.6389,19.98485],[-72.96036,20.06123],[-72.82169,20.08979]]]]}},{"type":"Feature","properties":{"id":"ht-ou","lat":18.6084,"lng":-72.13379},"geometry":{"type":"MultiPolygon","coordinates":[[[[-71.79435,18.67917],[-71.84158,18.61799],[-72.00984,18.59881],[-71.91217,18.43074],[-71.72111,18.29397],[-72.49027,18.40151],[-72.86028,18.26297],[-72.9713,18.28261],[-73.06303,18.38337],[-73.05594,18.45845],[-72.98559,18.4704],[-72.71646,18.43773],[-72.59655,18.56086],[-72.35383,18.5301],[-72.33043,18.6833],[-72.54955,18.78563],[-72.70605,18.94424],[-72.67527,18.97285],[-72.48774,18.95889],[-72.18213,18.73002],[-71.94622,18.74351],[-71.79435,18.67917]]],[[[-73.27733,18.8911],[-73.28384,18.94969],[-73.20079,18.9687],[-72.8461,18.82709],[-72.80875,18.7204],[-73.03742,18.75959],[-73.27733,18.8911]]]]}},{"type":"Feature","properties":{"id":"ht-sd","lat":18.23424,"lng":-73.8996},"geometry":{"type":"MultiPolygon","coordinates":[[[[-73.67638,18.1081],[-73.57799,18.06696],[-73.70767,18.09422],[-73.67638,18.1081]]],[[[-73.00693,18.18597],[-73.37727,18.25812],[-73.65998,18.21035],[-73.64631,18.25873],[-73.82746,18.14203],[-73.79381,18.029],[-73.87328,18.02619],[-74.18342,18.29328],[-74.34936,18.2897],[-74.45265,18.36098],[-74.08532,18.40363],[-73.90631,18.36384],[-73.89417,18.4073],[-73.5994,18.42704],[-73.51336,18.33402],[-73.11587,18.35511],[-73.00693,18.18597]]]]}},{"type":"Feature","properties":{"id":"ht-se","lat":18.20291,"lng":-72.7823},"geometry":{"type":"Polygon","coordinates":[[[-71.72111,18.29397],[-71.77623,18.03925],[-71.89297,18.16279],[-72.07177,18.23754],[-72.55093,18.22476],[-72.55899,18.17255],[-72.88589,18.14143],[-73.00804,18.18107],[-73.01443,18.24287],[-72.99774,18.32276],[-72.76504,18.26529],[-72.49027,18.40151],[-71.72111,18.29397]]]}}]}
