{"type":"FeatureCollection","features":[{"type":"Feature","properties":{"id":"hu-ba","lat":46.0729,"lng":17.88102},"geometry":{"type":"Polygon","coordinates":[[[17.85806,45.77173],[17.65652,45.84542],[17.70841,45.88826],[17.61704,46.06225],[17.71988,46.19953],[18.18548,46.40409],[18.3338,46.40787],[18.4079,46.2272],[18.57843,46.23873],[18.84467,46.04985],[18.82245,45.90558],[18.65564,45.90759],[18.41172,45.7432],[17.85806,45.77173]],[[18.36151,46.05661],[18.31961,46.17033],[18.19692,46.16135],[18.1251,46.08354],[18.23582,45.98479],[18.36151,46.05661]]]}},{"type":"Feature","properties":{"id":"hu-bc","lat":46.71992,"lng":21.08593},"geometry":{"type":"Polygon","coordinates":[[[21.05973,46.85219],[21.20109,46.77614],[21.16772,46.67012],[21.00279,46.66567],[20.9753,46.76973],[21.05973,46.85219]]]}},{"type":"Feature","properties":{"id":"hu-be","lat":46.7286,"lng":20.78583},"geometry":{"type":"Polygon","coordinates":[[[21.50177,46.70351],[21.30095,46.60393],[21.24514,46.47688],[21.2807,46.41639],[21.17879,46.38446],[21.14448,46.28374],[21.03347,46.23134],[20.78737,46.26339],[20.73076,46.38358],[20.58492,46.40621],[20.6242,46.53881],[20.57924,46.56786],[20.58648,46.75368],[20.40788,46.83642],[20.4579,46.889],[20.70574,46.92367],[20.74471,47.078],[20.99451,47.23598],[21.27108,47.14539],[21.35366,46.94564],[21.67075,46.99439],[21.5029,46.80531],[21.50177,46.70351]],[[21.00279,46.66567],[21.20698,46.70349],[21.15593,46.82129],[21.05973,46.85219],[20.9753,46.76973],[21.00279,46.66567]]]}},{"type":"Feature","properties":{"id":"hu-bk","lat":46.52695,"lng":19.36995},"geometry":{"type":"Polygon","coordinates":[[[19.71189,46.15871],[19.52525,46.15641],[19.26345,45.98143],[19.08848,46.01885],[18.98182,45.92185],[18.80147,45.91999],[18.85242,46.0112],[18.79506,46.15119],[18.91443,46.24571],[18.92012,46.49876],[18.8581,46.61483],[19.00177,46.70847],[18.92601,46.83523],[18.98936,47.06664],[19.26532,47.15164],[19.33022,47.12436],[19.32299,47.01956],[19.46231,47.12348],[19.53062,47.11619],[19.64671,47.01207],[19.55627,46.97353],[19.68978,46.78505],[19.75064,46.90285],[19.8843,46.9806],[19.97711,46.9629],[20.07633,47.02039],[20.1464,46.9793],[20.10568,46.95372],[20.13617,46.91218],[20.00584,46.85293],[20.06134,46.80066],[19.96853,46.72859],[19.97897,46.59049],[19.81949,46.55514],[19.87965,46.44466],[19.84967,46.37929],[19.66973,46.35066],[19.6531,46.25496],[19.71189,46.15871]]]}},{"type":"Feature","properties":{"id":"hu-bu","lat":47.42767,"lng":19.09237},"geometry":{"type":"Polygon","coordinates":[[[19.08858,47.60681],[19.32671,47.48609],[19.14264,47.36016],[18.94895,47.36925],[18.92963,47.57374],[19.08858,47.60681]]]}},{"type":"Feature","properties":{"id":"hu-bz","lat":48.1324,"lng":21.15255},"geometry":{"type":"Polygon","coordinates":[[[20.80031,48.56923],[21.10934,48.48911],[21.43914,48.55833],[21.75901,48.33377],[22.15826,48.40222],[21.92862,48.2398],[21.69018,48.16745],[21.46125,48.17008],[21.40689,48.03371],[21.13776,48.00676],[21.03389,47.77982],[20.89209,47.68427],[20.7415,47.67595],[20.6089,47.70107],[20.42204,47.96911],[20.57957,48.07862],[20.87044,48.01538],[20.89826,48.06344],[20.82744,48.18738],[20.71109,48.22279],[20.47281,48.1134],[20.41842,48.1514],[20.25606,48.09283],[20.0383,48.17723],[20.32427,48.27995],[20.48167,48.52608],[20.80031,48.56923]]]}},{"type":"Feature","properties":{"id":"hu-cs","lat":46.49405,"lng":20.06755},"geometry":{"type":"MultiPolygon","coordinates":[[[[20.7785,46.26007],[20.66399,46.13775],[20.46855,46.17413],[20.24283,46.10809],[20.11477,46.15222],[20.14135,46.19998],[20.2297,46.15679],[20.19632,46.22354],[20.26896,46.25888],[20.47192,46.24591],[20.59929,46.38451],[20.73076,46.38358],[20.7785,46.26007]]],[[[19.77298,46.13155],[19.6531,46.25496],[19.66973,46.35066],[19.84967,46.37929],[19.87965,46.44466],[19.81949,46.55514],[19.97897,46.59049],[20.01163,46.77032],[20.42318,46.80335],[20.58648,46.75368],[20.57924,46.56786],[20.6242,46.53881],[20.58565,46.44807],[20.46211,46.53256],[20.29719,46.52078],[20.23829,46.41476],[20.19825,46.46731],[20.21673,46.31684],[20.14724,46.35508],[20.01373,46.31778],[20.07852,46.22747],[20.0634,46.1453],[19.77298,46.13155]]]]}},{"type":"Feature","properties":{"id":"hu-de","lat":47.54578,"lng":21.63384},"geometry":{"type":"Polygon","coordinates":[[[21.54384,47.73228],[21.53119,47.67913],[21.60965,47.70697],[21.67799,47.59054],[21.79189,47.64369],[21.82986,47.61079],[21.83998,47.46905],[21.57675,47.39058],[21.48698,47.50102],[21.41864,47.50102],[21.48056,47.69179],[21.54384,47.73228]]]}},{"type":"Feature","properties":{"id":"hu-du","lat":46.93242,"lng":18.8931},"geometry":{"type":"Polygon","coordinates":[[[18.95515,46.9947],[18.92673,46.84841],[18.84413,46.88824],[18.84217,46.97659],[18.95515,46.9947]]]}},{"type":"Feature","properties":{"id":"hu-ed","lat":47.37175,"lng":18.88948},"geometry":{"type":"Polygon","coordinates":[[[18.95546,47.4045],[18.90275,47.30375],[18.81939,47.35628],[18.86185,47.38723],[18.83829,47.45398],[18.95546,47.4045]]]}},{"type":"Feature","properties":{"id":"hu-eg","lat":47.95023,"lng":20.37009},"geometry":{"type":"Polygon","coordinates":[[[20.38519,48.03919],[20.46504,47.89925],[20.32507,47.81139],[20.2966,48.00122],[20.38519,48.03919]]]}},{"type":"Feature","properties":{"id":"hu-fe","lat":47.09979,"lng":18.70264},"geometry":{"type":"Polygon","coordinates":[[[18.17711,46.9531],[18.22745,47.13392],[18.09484,47.28104],[18.12823,47.4402],[18.35602,47.41612],[18.51601,47.55529],[18.68499,47.56185],[18.91877,47.28711],[18.87919,47.14924],[18.96673,47.02369],[18.84217,46.97659],[18.82842,46.92162],[18.92673,46.84841],[18.73956,46.73265],[18.66018,46.70206],[18.55973,46.78446],[18.4819,46.74516],[18.21804,46.79068],[18.17711,46.9531]],[[18.56269,47.25611],[18.45863,47.30716],[18.32895,47.20405],[18.42918,47.06567],[18.57643,47.14617],[18.56269,47.25611]]]}},{"type":"Feature","properties":{"id":"hu-gs","lat":47.71149,"lng":17.32651},"geometry":{"type":"Polygon","coordinates":[[[16.71678,47.69702],[17.07537,47.70848],[17.00406,47.86328],[17.18482,48.02027],[17.33789,47.99873],[17.67668,47.78918],[17.88353,47.75252],[17.92907,47.54997],[17.88245,47.45478],[17.81641,47.49317],[17.20188,47.3984],[17.15258,47.43716],[17.0577,47.40279],[17.05139,47.45421],[16.73431,47.39956],[16.62697,47.44555],[16.68914,47.53803],[16.63023,47.622],[16.55775,47.62984],[16.68417,47.63842],[16.71678,47.69702]],[[17.77165,47.73283],[17.58195,47.71449],[17.50483,47.63494],[17.58759,47.58685],[17.79633,47.6475],[17.77165,47.73283]]]}},{"type":"Feature","properties":{"id":"hu-gy","lat":47.69016,"lng":17.69157},"geometry":{"type":"Polygon","coordinates":[[[17.67927,47.73706],[17.77165,47.73283],[17.79633,47.6475],[17.58759,47.58685],[17.50483,47.63494],[17.67927,47.73706]]]}},{"type":"Feature","properties":{"id":"hu-hb","lat":47.43144,"lng":21.27615},"geometry":{"type":"Polygon","coordinates":[[[22.15418,47.58221],[22.00789,47.51741],[22.00158,47.39383],[21.86216,47.29742],[21.76377,47.10521],[21.38684,46.94075],[21.28834,47.01584],[21.27108,47.14539],[20.99451,47.23598],[21.0279,47.34951],[20.97663,47.56893],[20.81923,47.67936],[21.03389,47.77982],[21.11368,47.96054],[21.26943,47.90971],[21.51458,47.9455],[21.55613,47.91689],[21.5397,47.80747],[21.64977,47.74241],[21.84087,47.68314],[21.92986,47.74618],[22.04871,47.64151],[22.09512,47.67634],[22.15418,47.58221]],[[21.54637,47.67154],[21.54384,47.73228],[21.48056,47.69179],[21.41864,47.50102],[21.48698,47.50102],[21.57675,47.39058],[21.83998,47.46905],[21.86276,47.57029],[21.79189,47.64369],[21.67799,47.59054],[21.60965,47.70697],[21.54637,47.67154]]]}},{"type":"Feature","properties":{"id":"hu-he","lat":47.77431,"lng":20.08586},"geometry":{"type":"Polygon","coordinates":[[[20.77406,47.67234],[20.39651,47.42522],[20.1959,47.60676],[20.02392,47.58294],[19.99984,47.66159],[19.6748,47.59586],[19.58075,47.73724],[19.76296,47.87935],[19.95685,47.94627],[20.02785,48.01151],[19.98506,48.09435],[20.11818,48.14786],[20.35476,48.09505],[20.41842,48.1514],[20.4918,48.05495],[20.42204,47.96911],[20.38519,48.03919],[20.2966,48.00122],[20.32507,47.81139],[20.4484,47.88064],[20.6089,47.70107],[20.77406,47.67234]]]}},{"type":"Feature","properties":{"id":"hu-hv","lat":46.34386,"lng":20.38544},"geometry":{"type":"Polygon","coordinates":[[[20.46211,46.53256],[20.61696,46.41205],[20.47192,46.24591],[20.22185,46.27566],[20.19825,46.46731],[20.23829,46.41476],[20.29719,46.52078],[20.46211,46.53256]]]}},{"type":"Feature","properties":{"id":"hu-jn","lat":47.18549,"lng":20.59871},"geometry":{"type":"Polygon","coordinates":[[[20.77406,47.67234],[20.97663,47.56893],[21.0279,47.34951],[20.99451,47.23598],[20.74471,47.078],[20.69014,46.91667],[20.4579,46.889],[20.42318,46.80335],[20.32251,46.76436],[20.00191,46.81141],[20.20211,47.00762],[20.08346,47.05814],[20.05638,47.15195],[20.27147,47.10351],[20.28736,47.21902],[20.13226,47.34143],[20.02238,47.24913],[19.9986,47.32895],[19.68369,47.5387],[19.6748,47.59586],[19.99984,47.66159],[20.02392,47.58294],[20.1959,47.60676],[20.39651,47.42522],[20.77406,47.67234]]]}},{"type":"Feature","properties":{"id":"hu-ke","lat":47.59131,"lng":18.15426},"geometry":{"type":"Polygon","coordinates":[[[18.6637,47.7759],[18.81728,47.83186],[18.93469,47.73241],[18.85304,47.71709],[18.86369,47.66608],[18.75909,47.66484],[18.68499,47.56185],[18.51601,47.55529],[18.40036,47.62076],[18.37484,47.55597],[18.46195,47.50537],[18.35602,47.41612],[18.19251,47.46393],[18.10322,47.35918],[17.98922,47.34243],[17.87904,47.39881],[17.92907,47.54997],[17.88353,47.75252],[18.6637,47.7759]]]}},{"type":"Feature","properties":{"id":"hu-km","lat":46.86528,"lng":19.69369},"geometry":{"type":"Polygon","coordinates":[[[19.64671,47.01207],[19.81908,46.94551],[19.68978,46.78505],[19.55627,46.97353],[19.64671,47.01207]]]}},{"type":"Feature","properties":{"id":"hu-kv","lat":46.30742,"lng":17.78124},"geometry":{"type":"Polygon","coordinates":[[[17.74947,46.45406],[17.84163,46.44508],[17.87156,46.38223],[17.8147,46.25355],[17.74288,46.24757],[17.70696,46.36129],[17.74947,46.45406]]]}},{"type":"Feature","properties":{"id":"hu-mi","lat":48.11032,"lng":20.68404},"geometry":{"type":"Polygon","coordinates":[[[20.4918,48.05495],[20.5055,48.1395],[20.71109,48.22279],[20.82744,48.18738],[20.90332,48.04068],[20.77939,48.00274],[20.64027,48.08115],[20.4918,48.05495]]]}},{"type":"Feature","properties":{"id":"hu-nk","lat":46.46985,"lng":16.98197},"geometry":{"type":"Polygon","coordinates":[[[16.99496,46.56158],[17.06856,46.42321],[17.01507,46.37651],[16.9232,46.40156],[16.91812,46.51648],[16.99496,46.56158]]]}},{"type":"Feature","properties":{"id":"hu-no","lat":47.96519,"lng":19.46327},"geometry":{"type":"Polygon","coordinates":[[[19.78897,48.04009],[20.0383,48.17723],[20.09586,48.14115],[19.98506,48.09435],[20.02785,48.01151],[19.93101,47.9285],[19.45858,47.70603],[19.416,47.8222],[19.0829,47.86013],[18.93531,47.95475],[18.97014,47.97563],[18.9336,48.05435],[19.4282,48.08585],[19.51398,48.20396],[19.62323,48.22701],[19.77433,48.1859],[19.71056,48.05021],[19.78897,48.04009]]]}},{"type":"Feature","properties":{"id":"hu-ny","lat":47.93088,"lng":21.75413},"geometry":{"type":"Polygon","coordinates":[[[21.66191,48.02921],[21.89556,47.98779],[21.83738,47.84109],[21.61986,47.87397],[21.66191,48.02921]]]}},{"type":"Feature","properties":{"id":"hu-pe","lat":47.5124,"lng":19.49324},"geometry":{"type":"Polygon","coordinates":[[[18.93469,47.73241],[18.74876,47.87072],[18.74318,47.97105],[18.9336,48.05435],[18.95887,47.9194],[19.416,47.8222],[19.45858,47.70603],[19.61992,47.71559],[19.68369,47.5387],[19.9986,47.32895],[20.08294,47.19745],[20.05111,47.10364],[20.20211,47.00762],[19.76916,46.94825],[19.53062,47.11619],[19.46231,47.12348],[19.32299,47.01956],[19.33022,47.12436],[19.26532,47.15164],[18.96797,47.03315],[18.87919,47.14924],[18.94895,47.36925],[19.14264,47.36016],[19.32671,47.48609],[19.04094,47.60464],[18.92963,47.57374],[18.95546,47.4045],[18.83829,47.45398],[18.86185,47.38723],[18.81939,47.35628],[18.68499,47.56185],[18.75909,47.66484],[18.86369,47.66608],[18.85304,47.71709],[18.93469,47.73241]]]}},{"type":"Feature","properties":{"id":"hu-ps","lat":46.09903,"lng":18.24531},"geometry":{"type":"Polygon","coordinates":[[[18.31961,46.17033],[18.36151,46.05661],[18.23582,45.98479],[18.12809,46.03865],[18.15644,46.14144],[18.31961,46.17033]]]}},{"type":"Feature","properties":{"id":"hu-sd","lat":46.27655,"lng":20.13583},"geometry":{"type":"Polygon","coordinates":[[[20.14135,46.19998],[20.0634,46.1453],[20.07852,46.22747],[20.01373,46.31778],[20.14724,46.35508],[20.27093,46.23532],[20.19632,46.22354],[20.2297,46.15679],[20.14135,46.19998]]]}},{"type":"Feature","properties":{"id":"hu-sf","lat":47.17511,"lng":18.46136},"geometry":{"type":"Polygon","coordinates":[[[18.45863,47.30716],[18.56269,47.25611],[18.57643,47.14617],[18.42918,47.06567],[18.32895,47.20405],[18.45863,47.30716]]]}},{"type":"Feature","properties":{"id":"hu-sh","lat":47.1995,"lng":16.6292},"geometry":{"type":"Polygon","coordinates":[[[16.63343,47.2909],[16.6965,47.23958],[16.68047,47.15941],[16.60136,47.14765],[16.52733,47.26977],[16.63343,47.2909]]]}},{"type":"Feature","properties":{"id":"hu-sk","lat":47.22329,"lng":20.15401},"geometry":{"type":"Polygon","coordinates":[[[20.05638,47.15195],[20.08294,47.19745],[20.02238,47.24913],[20.13226,47.34143],[20.26135,47.25284],[20.24871,47.19054],[20.30438,47.1516],[20.22085,47.09844],[20.05638,47.15195]]]}},{"type":"Feature","properties":{"id":"hu-sn","lat":47.69246,"lng":16.57862},"geometry":{"type":"Polygon","coordinates":[[[16.5678,47.75419],[16.70247,47.7236],[16.68417,47.63842],[16.40781,47.66133],[16.5678,47.75419]]]}},{"type":"Feature","properties":{"id":"hu-so","lat":46.3952,"lng":17.40352},"geometry":{"type":"Polygon","coordinates":[[[17.32714,45.97203],[17.20859,46.11657],[17.05294,46.15346],[16.87931,46.31206],[17.04726,46.32498],[17.04499,46.41923],[17.18131,46.44223],[17.22038,46.66459],[17.29923,46.73338],[18.07262,46.97196],[18.17711,46.9531],[18.21804,46.79068],[18.12616,46.73958],[18.0379,46.51566],[18.09764,46.37118],[17.71988,46.19953],[17.61704,46.06225],[17.7051,45.85916],[17.55431,45.94779],[17.32714,45.97203]],[[17.84163,46.44508],[17.70696,46.36129],[17.74288,46.24757],[17.88053,46.32837],[17.84163,46.44508]]]}},{"type":"Feature","properties":{"id":"hu-ss","lat":46.38876,"lng":18.7276},"geometry":{"type":"Polygon","coordinates":[[[18.73927,46.41649],[18.7693,46.36103],[18.88748,46.33091],[18.62023,46.3304],[18.73927,46.41649]]]}},{"type":"Feature","properties":{"id":"hu-st","lat":48.08725,"lng":19.79183},"geometry":{"type":"Polygon","coordinates":[[[19.76668,48.159],[19.84626,48.15267],[19.90507,48.1243],[19.78897,48.04009],[19.71056,48.05021],[19.76668,48.159]]]}},{"type":"Feature","properties":{"id":"hu-sz","lat":48.0085,"lng":22.31672},"geometry":{"type":"Polygon","coordinates":[[[22.8776,47.94674],[22.63772,47.77155],[22.45437,47.78739],[22.27309,47.72375],[22.15418,47.58221],[22.09512,47.67634],[22.04871,47.64151],[21.92986,47.74618],[21.84087,47.68314],[21.64977,47.74241],[21.5397,47.80747],[21.54611,47.93806],[21.26943,47.90971],[21.11368,47.96054],[21.23656,48.04676],[21.40689,48.03371],[21.47614,48.17711],[21.69018,48.16745],[21.92862,48.2398],[22.20198,48.41816],[22.27185,48.40346],[22.25676,48.35728],[22.35712,48.2431],[22.48145,48.24259],[22.60547,48.09704],[22.83099,48.07244],[22.8776,47.94674]],[[21.89556,47.98779],[21.66191,48.02921],[21.61986,47.87397],[21.83738,47.84109],[21.89556,47.91444],[21.89556,47.98779]]]}},{"type":"Feature","properties":{"id":"hu-tb","lat":47.57821,"lng":18.44969},"geometry":{"type":"Polygon","coordinates":[[[18.51601,47.55529],[18.46195,47.50537],[18.37287,47.60113],[18.49067,47.60898],[18.51601,47.55529]]]}},{"type":"Feature","properties":{"id":"hu-to","lat":46.4867,"lng":18.48589},"geometry":{"type":"Polygon","coordinates":[[[18.66018,46.70206],[18.92673,46.84841],[18.99887,46.72314],[18.8581,46.61483],[18.92012,46.49876],[18.91443,46.24571],[18.8241,46.2171],[18.80891,46.10814],[18.68303,46.1299],[18.57843,46.23873],[18.4079,46.2272],[18.3338,46.40787],[18.09764,46.37118],[18.04741,46.47463],[18.16047,46.77554],[18.32945,46.80309],[18.4819,46.74516],[18.55973,46.78446],[18.66018,46.70206]],[[18.88748,46.33091],[18.71626,46.41361],[18.61461,46.34113],[18.70045,46.29872],[18.73622,46.34215],[18.88748,46.33091]]]}},{"type":"Feature","properties":{"id":"hu-va","lat":47.0744,"lng":16.84121},"geometry":{"type":"Polygon","coordinates":[[[16.43396,47.39685],[16.62697,47.44555],[16.73431,47.39956],[17.05139,47.45421],[17.0577,47.40279],[17.15258,47.43716],[17.30233,47.33422],[17.19588,47.24828],[17.22038,47.0671],[16.61328,46.92122],[16.41143,46.78629],[16.36622,46.69647],[16.29816,46.7758],[16.32534,46.83944],[16.09404,46.86277],[16.2749,47.00431],[16.48636,46.99855],[16.42466,47.02408],[16.49318,47.04915],[16.45432,47.0817],[16.50951,47.13754],[16.40926,47.20368],[16.47324,47.27681],[16.43396,47.39685]],[[16.65908,47.28662],[16.5316,47.28153],[16.60136,47.14765],[16.68047,47.15941],[16.65908,47.28662]]]}},{"type":"Feature","properties":{"id":"hu-ve","lat":47.10051,"lng":17.53547},"geometry":{"type":"Polygon","coordinates":[[[18.10322,47.35918],[18.10652,47.25425],[18.22745,47.13392],[18.17711,46.9531],[18.07262,46.97196],[17.29923,46.73338],[17.22038,46.66459],[17.13583,46.68103],[17.15309,47.00969],[17.09801,47.04684],[17.22038,47.0671],[17.19588,47.24828],[17.30233,47.33422],[17.20188,47.3984],[17.81641,47.49317],[17.96638,47.34569],[18.10322,47.35918]],[[18.00654,47.0581],[17.93232,47.22808],[17.82938,47.18738],[17.87965,47.0174],[18.00654,47.0581]]]}},{"type":"Feature","properties":{"id":"hu-vm","lat":47.13351,"lng":17.8997},"geometry":{"type":"Polygon","coordinates":[[[17.93232,47.22808],[18.00654,47.0581],[17.92514,47.01022],[17.82459,47.0964],[17.82699,47.17062],[17.93232,47.22808]]]}},{"type":"Feature","properties":{"id":"hu-za","lat":46.67281,"lng":16.77774},"geometry":{"type":"Polygon","coordinates":[[[16.57762,46.47065],[16.36844,46.64299],[16.41143,46.78629],[16.6508,46.93359],[16.95476,46.98041],[17.01398,47.03473],[17.14679,47.0194],[17.13583,46.68103],[17.22038,46.66459],[17.18131,46.44223],[17.06856,46.42321],[16.9532,46.55991],[16.9232,46.40156],[17.07103,46.3636],[16.94256,46.30177],[16.57762,46.47065]],[[16.81035,46.7813],[16.91266,46.8001],[16.84584,46.90867],[16.77078,46.89993],[16.81035,46.7813]]]}},{"type":"Feature","properties":{"id":"hu-ze","lat":46.85001,"lng":16.83469},"geometry":{"type":"Polygon","coordinates":[[[16.84584,46.90867],[16.91266,46.8001],[16.81035,46.7813],[16.77078,46.89993],[16.84584,46.90867]]]}}]}
