{"type":"FeatureCollection","features":[{"type":"Feature","properties":{"id":"id-ac","lat":3.94761,"lng":97.14311},"geometry":{"type":"MultiPolygon","coordinates":[[[[97.12013,2.03486],[97.06902,2.08714],[97.10035,2.11127],[97.14845,2.07416],[97.12013,2.03486]]],[[[96.67172,2.102],[96.64356,2.07445],[96.60963,2.08015],[96.61834,2.12686],[96.67172,2.102]]],[[[97.28126,2.22907],[97.32179,2.03144],[97.20737,2.17552],[97.10279,2.21271],[97.28126,2.22907]]],[[[96.48121,2.364],[96.33497,2.35546],[96.06568,2.57941],[95.79054,2.65461],[95.69956,2.83177],[95.78004,2.84638],[95.79152,2.94253],[95.91188,2.90624],[95.88307,2.84638],[96.12631,2.73371],[96.10279,2.65461],[96.15797,2.68041],[96.37525,2.47386],[96.42433,2.51057],[96.48121,2.364]]],[[[97.9559,2.27171],[97.74439,2.28107],[97.65821,2.41157],[97.60271,2.8662],[97.40504,2.94334],[97.27076,3.21442],[97.17164,3.25483],[96.88356,3.68244],[96.76051,3.74868],[96.4795,3.77871],[96.19777,4.12128],[96.01002,4.22565],[95.56544,4.63752],[95.19898,5.29287],[95.25359,5.41157],[95.21274,5.57315],[95.43189,5.65469],[95.51124,5.60301],[95.61158,5.62665],[95.88754,5.51215],[96.08806,5.29548],[96.40659,5.21723],[96.9734,5.27342],[97.22655,5.14622],[97.49684,5.2519],[97.90919,4.88959],[97.99684,4.54645],[98.20574,4.49803],[98.28248,4.36494],[98.26759,4.28791],[98.06573,4.2509],[98.00103,3.98007],[97.89023,3.91516],[97.89333,3.84819],[97.77758,3.73646],[97.98955,3.33039],[97.86398,3.25742],[97.94046,3.12792],[97.89307,3.07919],[97.91039,2.92416],[98.05704,2.81213],[98.02531,2.57612],[98.12763,2.32699],[98.10133,2.18862],[97.9559,2.27171]]],[[[95.19109,5.60847],[95.11158,5.61188],[95.14177,5.66413],[95.19109,5.60847]]],[[[95.13233,5.68012],[95.06072,5.65624],[95.06072,5.732],[95.01466,5.74461],[95.05828,5.75731],[95.13233,5.68012]]],[[[95.38282,5.80707],[95.28663,5.79442],[95.21461,5.9101],[95.28387,5.85741],[95.34181,5.89643],[95.38282,5.80707]]]]}},{"type":"Feature","properties":{"id":"id-ba","lat":-8.44329,"lng":115.25103},"geometry":{"type":"MultiPolygon","coordinates":[[[[115.57309,-8.67197],[115.6242,-8.76891],[115.58888,-8.80731],[115.46827,-8.73187],[115.57309,-8.67197]]],[[[115.50245,-8.17262],[115.70094,-8.41912],[115.3226,-8.62379],[115.20314,-8.747],[115.22902,-8.83025],[115.13453,-8.85076],[115.09425,-8.81846],[115.18189,-8.74635],[115.1561,-8.66204],[114.92701,-8.46746],[114.57423,-8.36248],[114.46843,-8.21852],[114.4524,-8.09515],[114.8576,-8.19313],[115.02263,-8.17262],[115.19313,-8.05511],[115.50245,-8.17262]]]]}},{"type":"Feature","properties":{"id":"id-bb","lat":-2.89841,"lng":107.91894},"geometry":{"type":"MultiPolygon","coordinates":[[[[106.90895,-2.92978],[106.86118,-3.02899],[106.72267,-2.96608],[106.81251,-2.89219],[106.90895,-2.92978]]],[[[107.34129,-2.88686],[107.50473,-2.85467],[107.41015,-2.94756],[107.34129,-2.88686]]],[[[108.27914,-2.88014],[108.20436,-3.00547],[108.21062,-3.13584],[108.09083,-3.16139],[108.07398,-3.22601],[107.98097,-3.23984],[107.87045,-3.05169],[107.8152,-3.16725],[107.60279,-3.22886],[107.64259,-3.12835],[107.58106,-3.01067],[107.61101,-2.9179],[107.54713,-2.91668],[107.60336,-2.87103],[107.67026,-2.56146],[107.83432,-2.52508],[108.00514,-2.58026],[108.0324,-2.64235],[108.09791,-2.60817],[108.26726,-2.75742],[108.27914,-2.88014]]],[[[107.08375,-2.90984],[107.01708,-2.88021],[107.0735,-2.82049],[107.09923,-2.85906],[107.08375,-2.90984]]],[[[106.83326,-2.58026],[106.72193,-2.62933],[106.60377,-2.91025],[106.73846,-3.00457],[106.75196,-3.07366],[106.53224,-3.10564],[106.43605,-2.97064],[105.9865,-2.82122],[105.90756,-2.67457],[105.94435,-2.49879],[105.82879,-2.39512],[105.78045,-2.15081],[105.56577,-2.06699],[105.30641,-2.13502],[105.22983,-2.07008],[105.14747,-2.08001],[105.13592,-1.96551],[105.40235,-1.7833],[105.34986,-1.6487],[105.56577,-1.53191],[105.70289,-1.65545],[105.6631,-1.73968],[105.81275,-1.79266],[105.69557,-1.53191],[105.91375,-1.49424],[106.04152,-1.58359],[106.03549,-1.67832],[106.17945,-1.88828],[106.20069,-2.17815],[106.31886,-2.43133],[106.83326,-2.58026]]]]}},{"type":"Feature","properties":{"id":"id-be","lat":-3.49095,"lng":102.49586},"geometry":{"type":"MultiPolygon","coordinates":[[[[102.40024,-5.41839],[102.39015,-5.47698],[102.28354,-5.49928],[102.09864,-5.33489],[102.20102,-5.28721],[102.40024,-5.41839]]],[[[103.59205,-4.91033],[103.41456,-4.86932],[103.17286,-4.61793],[102.92042,-4.49261],[102.31251,-3.99147],[102.22218,-3.64284],[101.63746,-3.25067],[101.327,-2.73919],[101.0266,-2.47995],[101.43575,-2.23625],[101.73672,-2.63627],[102.06682,-2.78236],[102.23054,-2.96452],[102.25183,-3.06632],[102.47197,-3.12265],[102.45889,-3.24363],[102.55176,-3.33628],[102.63134,-3.37302],[102.76596,-3.27897],[102.85644,-3.37111],[102.9986,-3.40801],[102.99307,-3.58407],[102.88321,-3.57389],[102.89721,-3.63084],[102.62989,-3.81367],[102.79908,-3.98244],[103.12878,-4.03314],[103.19926,-4.26522],[103.60348,-4.39048],[103.76527,-4.80467],[103.59205,-4.91033]]]]}},{"type":"Feature","properties":{"id":"id-bt","lat":-6.42637,"lng":106.11106},"geometry":{"type":"MultiPolygon","coordinates":[[[[105.26564,-6.55332],[105.20387,-6.67327],[105.17547,-6.5831],[105.12013,-6.63096],[105.18849,-6.54762],[105.26564,-6.55332]]],[[[106.40162,-6.9931],[106.28858,-6.98651],[106.00831,-6.82195],[105.53512,-6.87233],[105.35613,-6.81287],[105.27467,-6.84938],[105.21681,-6.77207],[105.36378,-6.66497],[105.49008,-6.80901],[105.62224,-6.63161],[105.64386,-6.48233],[105.71136,-6.53456],[105.78223,-6.51211],[105.8672,-6.11012],[106.02003,-5.89324],[106.08522,-5.88551],[106.17604,-6.01393],[106.25652,-5.94158],[106.47006,-6.03436],[106.66293,-6.00799],[106.72902,-6.04754],[106.68411,-6.1019],[106.76618,-6.37026],[106.42077,-6.37041],[106.42656,-6.6968],[106.50841,-6.76796],[106.40162,-6.9931]]]]}},{"type":"Feature","properties":{"id":"id-go","lat":0.63084,"lng":122.31492},"geometry":{"type":"Polygon","coordinates":[[[122.19734,1.02767],[122.62379,0.96638],[122.84889,0.81802],[122.96803,0.96259],[123.09719,0.92913],[123.24703,0.73293],[123.48102,0.55692],[123.45752,0.31173],[123.23878,0.32453],[123.07423,0.5163],[122.03777,0.48212],[121.80047,0.42646],[121.6019,0.55174],[121.33332,0.46228],[121.33376,0.57562],[121.16044,0.68606],[121.35764,0.85581],[121.50796,0.84693],[121.8559,0.97508],[122.04566,0.94377],[122.19734,1.02767]]]}},{"type":"Feature","properties":{"id":"id-ja","lat":-1.76442,"lng":102.73496},"geometry":{"type":"Polygon","coordinates":[[[103.4387,-0.74618],[103.44117,-0.81259],[103.52711,-0.81601],[103.82887,-1.07342],[103.95582,-0.97698],[104.21241,-1.07334],[104.37721,-1.03167],[104.53159,-1.73406],[104.39785,-1.68997],[104.32152,-1.80433],[104.17419,-1.83642],[103.88635,-1.79477],[103.535,-1.96794],[103.55257,-2.20348],[103.45387,-2.24617],[103.45702,-2.40228],[103.23265,-2.17945],[103.1696,-2.27123],[103.19875,-2.36983],[102.86202,-2.35391],[102.86357,-2.46176],[102.79174,-2.56785],[102.57873,-2.71673],[102.44845,-2.72846],[102.2602,-2.63953],[102.06682,-2.78236],[101.9103,-2.74505],[101.5729,-2.46466],[101.44361,-2.24126],[101.3356,-2.29697],[101.14228,-1.91999],[101.11391,-1.70491],[101.44857,-1.71674],[101.63936,-1.54316],[101.67811,-1.28896],[101.841,-1.16623],[101.76979,-1.03823],[101.98414,-0.88692],[102.18888,-0.85566],[102.43011,-1.05978],[102.54121,-1.08495],[102.80435,-0.79297],[103.4387,-0.74618]]]}},{"type":"Feature","properties":{"id":"id-jb","lat":-6.87446,"lng":107.64842},"geometry":{"type":"Polygon","coordinates":[[[106.94089,-6.37377],[107.04444,-5.91432],[107.16969,-5.97975],[107.35414,-5.976],[107.47027,-6.14543],[107.67822,-6.23802],[107.88536,-6.18692],[108.09368,-6.32685],[108.19508,-6.28706],[108.18656,-6.23119],[108.36027,-6.2464],[108.37223,-6.34035],[108.53956,-6.48691],[108.60548,-6.76165],[108.89512,-6.81416],[108.80068,-6.93477],[108.78114,-7.07264],[108.58353,-7.15114],[108.54689,-7.27878],[108.70973,-7.39805],[108.7336,-7.6046],[108.799,-7.66473],[108.70395,-7.66562],[108.67262,-7.72064],[108.53956,-7.69231],[108.45371,-7.8185],[108.32683,-7.81747],[107.86453,-7.74513],[107.41139,-7.49586],[106.39776,-7.37847],[106.38608,-7.23064],[106.542,-7.01678],[106.5108,-6.9638],[106.39731,-6.96691],[106.50841,-6.76796],[106.42656,-6.6968],[106.42077,-6.37041],[106.73915,-6.38648],[106.76292,-6.30142],[106.94089,-6.37377]]]}},{"type":"Feature","properties":{"id":"id-ji","lat":-7.74405,"lng":112.2232},"geometry":{"type":"MultiPolygon","coordinates":[[[[113.4131,-8.48056],[113.29249,-8.49481],[113.278,-8.47332],[113.28907,-8.43279],[113.4131,-8.48056]]],[[[111.74041,-6.78167],[111.97625,-6.78484],[112.10694,-6.91082],[112.43523,-6.87054],[112.54282,-6.91758],[112.58277,-6.87054],[112.58277,-6.98992],[112.66578,-7.05486],[112.61411,-7.09124],[112.68385,-7.1749],[112.60377,-7.19264],[112.70069,-7.25465],[112.76824,-7.19939],[112.82325,-7.26263],[112.76148,-7.53118],[113.13266,-7.7278],[113.32309,-7.78558],[113.52858,-7.70037],[113.7859,-7.72633],[114.04558,-7.61199],[114.14039,-7.70086],[114.25856,-7.70037],[114.44597,-7.79469],[114.37672,-8.51946],[114.40561,-8.44703],[114.44532,-8.6028],[114.58912,-8.66424],[114.62477,-8.74066],[114.55535,-8.77793],[114.36695,-8.74147],[114.38527,-8.66473],[114.30258,-8.61191],[113.97999,-8.62021],[113.96437,-8.56243],[113.8235,-8.55633],[113.80616,-8.50107],[113.72389,-8.52825],[113.24073,-8.28094],[113.0267,-8.30299],[112.90268,-8.40399],[112.83383,-8.37575],[112.6727,-8.44703],[111.97071,-8.27777],[111.792,-8.25652],[111.69581,-8.37127],[111.42506,-8.26881],[111.16196,-8.28191],[111.10304,-8.2068],[111.05828,-8.25465],[110.94435,-8.22637],[110.98034,-8.10018],[111.27329,-7.9452],[111.30791,-7.83782],[111.29107,-7.7603],[111.19061,-7.70744],[111.20332,-7.26679],[111.44429,-7.31123],[111.60831,-7.15398],[111.62934,-6.8001],[111.6727,-6.73366],[111.74041,-6.78167]]],[[[115.8943,-7.16448],[115.83774,-7.1972],[115.74301,-7.15032],[115.77817,-7.11549],[115.88022,-7.15846],[115.89088,-7.10711],[115.8943,-7.16448]]],[[[114.55006,-7.11688],[114.61883,-7.16725],[114.49537,-7.15472],[114.55006,-7.11688]]],[[[114.39466,-7.15756],[114.29282,-7.14315],[114.26976,-7.08084],[114.34295,-7.05576],[114.39466,-7.15756]]],[[[113.92368,-6.86484],[114.1248,-6.98161],[113.89187,-7.05922],[113.87281,-7.12884],[113.61005,-7.12919],[113.51342,-7.24778],[113.16554,-7.2199],[113.12233,-7.13942],[113.12794,-7.23105],[112.72641,-7.15879],[112.69264,-7.05853],[112.91529,-6.8917],[113.92368,-6.86484]]],[[[115.57065,-6.90456],[115.38233,-6.91082],[115.34816,-6.94061],[115.40064,-6.97291],[115.31739,-6.95241],[115.29331,-7.00758],[115.27589,-6.93874],[115.21437,-6.92816],[115.25506,-6.83815],[115.37924,-6.83473],[115.57065,-6.90456]]],[[[112.73618,-5.76312],[112.71876,-5.84157],[112.5962,-5.83603],[112.64536,-5.73211],[112.73618,-5.76312]]]]}},{"type":"Feature","properties":{"id":"id-jk","lat":-6.19429,"lng":106.8416},"geometry":{"type":"Polygon","coordinates":[[[106.73105,-6.05885],[106.79322,-6.1041],[106.98829,-6.07936],[106.94089,-6.37377],[106.74199,-6.28447],[106.68411,-6.1019],[106.73105,-6.05885]]]}},{"type":"Feature","properties":{"id":"id-jt","lat":-7.35464,"lng":109.92563},"geometry":{"type":"MultiPolygon","coordinates":[[[[109.02369,-7.76238],[108.80014,-7.73382],[108.79705,-7.70159],[108.82154,-7.67864],[109.02369,-7.76238]]],[[[108.90358,-6.8222],[108.96892,-6.84832],[109.02084,-6.78867],[109.3519,-6.87566],[109.49293,-6.80153],[109.94068,-6.92343],[110.1775,-6.85621],[110.38103,-6.97568],[110.57154,-6.8362],[110.67107,-6.49993],[110.92481,-6.40374],[111.05177,-6.45672],[111.14438,-6.69183],[111.36638,-6.71201],[111.49342,-6.62347],[111.6727,-6.73366],[111.59849,-6.96076],[111.60831,-7.15398],[111.44429,-7.31123],[111.20332,-7.26679],[111.19061,-7.70744],[111.29107,-7.7603],[111.30791,-7.83782],[111.27329,-7.9452],[110.98034,-8.10018],[110.94435,-8.22637],[110.80241,-8.13227],[110.78133,-7.85404],[110.5369,-7.80986],[110.43768,-7.56006],[110.25878,-7.71529],[110.24596,-7.67245],[110.13651,-7.67679],[110.04274,-7.8891],[109.42628,-7.77418],[109.36883,-7.71347],[109.09815,-7.68686],[109.01441,-7.7326],[108.90154,-7.68963],[108.87322,-7.61061],[108.799,-7.66473],[108.7336,-7.6046],[108.70973,-7.39805],[108.54689,-7.27878],[108.58353,-7.15114],[108.78114,-7.07264],[108.80068,-6.93477],[108.90358,-6.8222]]],[[[110.42066,-5.84368],[110.46363,-5.85711],[110.438,-5.88104],[110.42066,-5.84368]]]]}},{"type":"Feature","properties":{"id":"id-kb","lat":-0.49921,"lng":111.10635},"geometry":{"type":"MultiPolygon","coordinates":[[[[108.67726,-1.7138],[108.75709,-1.69541],[108.77809,-1.70273],[108.67726,-1.7138]]],[[[108.95729,-1.61956],[108.83123,-1.66229],[108.79331,-1.58034],[108.90056,-1.53289],[108.95729,-1.61956]]],[[[109.17693,-1.2785],[109.10133,-1.29241],[109.17018,-1.25758],[109.17693,-1.2785]]],[[[109.22389,-1.19134],[109.25294,-1.2125],[109.2234,-1.22715],[109.22389,-1.19134]]],[[[109.77711,-1.12176],[109.50245,-1.29217],[109.41725,-1.25449],[109.47543,-0.97698],[109.72348,-0.98707],[109.77711,-1.12176]]],[[[109.64527,2.08324],[109.53474,1.83898],[109.64181,1.781],[109.64698,1.61763],[109.77555,1.45795],[109.92025,1.39477],[110.07455,1.19864],[110.17036,1.17445],[110.26348,0.99431],[110.5539,0.85137],[110.77673,0.90325],[110.88039,1.01053],[111.19758,1.07523],[111.47209,1.02221],[111.5032,0.95844],[111.62268,1.03027],[111.82308,1.00847],[111.9101,1.11404],[112.09293,1.14314],[112.18739,1.37966],[112.16156,1.43454],[112.47048,1.56766],[112.97319,1.56985],[113.02435,1.51438],[112.9582,1.41565],[113.08904,1.43134],[113.39755,1.29393],[113.52447,1.31356],[113.62483,1.22758],[113.90967,1.44247],[114.20741,1.43944],[114.20055,1.22509],[113.87003,0.98728],[113.86259,0.90232],[113.94729,0.87891],[113.91768,0.73644],[113.70332,0.49532],[113.63098,0.32132],[113.32453,0.24521],[113.43151,0.11338],[113.48019,-0.07152],[113.42572,-0.1972],[113.25276,-0.33889],[113.30273,-0.43568],[113.25643,-0.55139],[113.15235,-0.46984],[112.57802,-0.70445],[112.36594,-0.75675],[112.10564,-0.73789],[111.65141,-1.01549],[111.59017,-1.17517],[111.13397,-1.53045],[111.0116,-1.52611],[110.92716,-1.60367],[110.95062,-1.6645],[111.0207,-1.67266],[110.9962,-2.07119],[111.13769,-2.40481],[111.1611,-2.69844],[111.00571,-2.86484],[110.79396,-2.94354],[110.66245,-3.08074],[110.58855,-2.87656],[110.30104,-2.99798],[110.24025,-2.97308],[110.20485,-2.89617],[110.24586,-2.78631],[110.15699,-2.62127],[110.28053,-2.51824],[110.22104,-2.53281],[110.15992,-2.43646],[110.09254,-1.94964],[109.90382,-1.8261],[110.03395,-1.64617],[110.06137,-1.34637],[109.92986,-1.22324],[109.93458,-1.11256],[109.83546,-1.0862],[109.74049,-0.96754],[109.76352,-0.87086],[109.67726,-0.98382],[109.52564,-0.8624],[109.42799,-0.84661],[109.3908,-0.91188],[109.2732,-0.85361],[109.26254,-0.66741],[109.4686,-0.73707],[109.50652,-0.7164],[109.35515,-0.64813],[109.40064,-0.59735],[109.13941,-0.52858],[109.1006,-0.36972],[109.136,-0.36004],[109.10133,-0.25758],[109.04623,-0.24586],[109.11866,-0.20306],[109.22478,-0.23724],[109.1565,0.02009],[109.30047,0.01048],[109.16676,0.11229],[109.10231,0.24311],[108.92091,0.34028],[108.93116,0.6162],[108.85548,0.83222],[108.98081,0.95604],[108.92433,1.16401],[109.14283,1.25064],[109.26637,1.3946],[109.13738,1.26227],[108.98585,1.21581],[109.07301,1.53392],[109.27223,1.69379],[109.34783,1.80956],[109.28679,1.77822],[109.34099,1.93553],[109.57887,1.99763],[109.64527,2.08324]]]]}},{"type":"Feature","properties":{"id":"id-ki","lat":1.017,"lng":115.92801},"geometry":{"type":"MultiPolygon","coordinates":[[[[116.59023,4.33113],[117.2027,4.35607],[117.43648,4.18561],[117.56715,4.15965],[117.51856,4.12226],[117.37306,4.16974],[117.39584,4.09894],[117.68849,3.909],[117.65089,3.89521],[117.57008,3.93317],[117.52345,3.92951],[117.71909,3.86058],[117.78289,3.77904],[117.70216,3.77871],[117.82618,3.7036],[117.74855,3.63695],[117.62867,3.63207],[117.54664,3.66401],[117.46876,3.7923],[117.50978,3.60737],[117.0905,3.64582],[117.03053,3.59439],[117.19923,3.61628],[117.19996,3.555],[117.24285,3.49067],[117.44654,3.43476],[117.35955,3.24429],[117.27003,3.23432],[117.45395,3.17121],[117.4817,3.10126],[117.6172,3.08588],[117.56495,2.98355],[117.68507,2.96308],[117.54379,2.92211],[117.73634,2.9016],[117.61964,2.82551],[117.78403,2.75825],[117.82618,2.60741],[118.08221,2.33747],[118.05779,2.21996],[117.95541,2.18228],[117.91472,2.09349],[117.82618,2.10651],[117.9004,2.04999],[117.75001,2.03144],[117.87338,1.99046],[117.85727,1.89765],[117.92408,1.81916],[118.04615,1.78311],[118.12672,1.65469],[118.42506,1.48575],[118.45631,1.3946],[118.61329,1.35122],[118.85694,1.05817],[118.9852,1.05756],[119.01173,0.97626],[118.79819,0.80492],[118.66277,0.84638],[118.38396,0.80492],[118.09669,0.90864],[117.98951,1.0786],[117.89389,1.11347],[118.03297,0.80024],[117.90252,0.83747],[117.74317,0.74055],[117.46998,0.10879],[117.53028,-0.03232],[117.43507,-0.23968],[117.49708,-0.35027],[117.44142,-0.52516],[117.63014,-0.41872],[117.55454,-0.5027],[117.59897,-0.52142],[117.53028,-0.60711],[117.57594,-0.62998],[117.55128,-0.68963],[117.48292,-0.69964],[117.61362,-0.73406],[117.62273,-0.78151],[117.48911,-0.79892],[117.44654,-0.87705],[117.37924,-0.83929],[117.33904,-0.9013],[117.2815,-0.80918],[117.25034,-0.90928],[116.95769,-1.23992],[116.81983,-1.26141],[116.74317,-1.02483],[116.7361,-1.22096],[116.79086,-1.24391],[116.76238,-1.36533],[116.56764,-1.44655],[116.54021,-1.62274],[116.22242,-1.78965],[116.44166,-1.77606],[116.45786,-2.04241],[116.28321,-2.16937],[116.37086,-2.13787],[116.41066,-2.20379],[116.59864,-2.18385],[116.57289,-2.36298],[115.99445,-2.27102],[115.87404,-2.35066],[115.82877,-2.04716],[115.73989,-1.97239],[115.68904,-1.63551],[115.6431,-1.53314],[115.56988,-1.51794],[115.72015,-1.42632],[115.80201,-1.29444],[115.80511,-1.08526],[115.73968,-1.10381],[115.46001,-0.88599],[115.27418,-0.31104],[115.34663,0.01028],[115.21284,0.02496],[114.97813,-0.16671],[115.01983,0.06956],[114.95296,0.31254],[115.07838,0.54731],[115.02707,0.68699],[114.89007,0.73727],[114.66306,0.62131],[114.37755,0.58865],[114.05245,0.64895],[113.77639,0.55857],[113.90786,0.71887],[113.94812,0.86222],[113.86259,0.90232],[113.86445,0.97643],[114.20055,1.22509],[114.20741,1.43944],[114.37486,1.50694],[114.5456,1.43495],[114.669,1.69401],[114.67954,1.84074],[114.83199,1.90252],[114.84108,2.03822],[114.78062,2.03605],[114.75303,2.13481],[114.77876,2.2472],[114.91333,2.28405],[114.92221,2.35391],[115.20613,2.50987],[115.15197,2.59705],[115.05647,2.60863],[115.10463,2.76149],[115.06691,2.8282],[115.24209,3.04162],[115.31,2.98592],[115.46409,3.03082],[115.51763,3.35716],[115.60124,3.43023],[115.5444,3.62916],[115.58863,3.85759],[115.53882,3.92062],[115.64692,4.1691],[115.77074,4.22561],[115.84412,4.38922],[116.02065,4.27085],[116.12576,4.37891],[116.31066,4.38338],[116.41132,4.28865],[116.52222,4.39679],[116.59023,4.33113]]],[[[118.57488,2.29418],[118.63209,2.18724],[118.57846,2.23688],[118.55641,2.3122],[118.62257,2.28612],[118.57488,2.29418]]],[[[117.53028,3.30565],[117.43393,3.279],[117.41391,3.30484],[117.46843,3.34528],[117.53028,3.30565]]],[[[117.67156,3.42699],[117.68198,3.37751],[117.64845,3.24604],[117.53126,3.40314],[117.67156,3.42699]]],[[[117.89129,3.45563],[117.78549,3.53848],[117.78492,3.58198],[117.86305,3.55903],[117.89129,3.45563]]],[[[117.51726,3.47704],[117.27076,3.50019],[117.21803,3.56029],[117.39373,3.56639],[117.51726,3.47704]]],[[[117.85287,3.81241],[117.74464,3.8579],[117.7295,3.86807],[117.85287,3.81241]]],[[[117.75001,4.08031],[117.66529,3.98306],[117.6128,4.10822],[117.66114,4.14924],[117.75001,4.08031]]],[[[117.90704,4.15668],[117.93483,4.05988],[117.87257,4.03156],[117.70361,4.16341],[117.90704,4.15668]]]]}},{"type":"Feature","properties":{"id":"id-kr","lat":3.93974,"lng":108.19987},"geometry":{"type":"MultiPolygon","coordinates":[[[[104.59938,-0.4638],[104.51124,-0.61395],[104.42042,-0.57496],[104.35629,-0.66172],[104.33579,-0.54266],[104.25367,-0.46006],[104.33253,-0.34645],[104.34604,-0.4284],[104.46957,-0.33213],[104.59938,-0.4638]]],[[[104.49252,-0.30877],[104.41822,-0.31854],[104.40089,-0.2973],[104.47999,-0.27125],[104.49252,-0.30877]]],[[[104.48308,0.03571],[104.41139,0.0917],[104.41391,0.17585],[104.49708,0.07128],[104.48308,0.03571]]],[[[104.41619,0.3288],[104.39186,0.3166],[104.33937,0.36546],[104.41619,0.3288]]],[[[103.52182,0.68985],[103.47202,0.62299],[103.50636,0.70189],[103.52182,0.68985]]],[[[104.28761,0.65078],[104.24985,0.66718],[104.21583,0.70816],[104.28761,0.65078]]],[[[104.21453,0.72118],[104.19581,0.77997],[104.27296,0.79654],[104.2977,0.70816],[104.21453,0.72118]]],[[[103.45948,0.65811],[103.34555,0.76337],[103.36988,0.88605],[103.50685,0.75544],[103.45948,0.65811]]],[[[103.71811,0.79808],[103.69508,0.77391],[103.66773,0.83967],[103.71811,0.79808]]],[[[103.49049,0.82127],[103.42123,0.87324],[103.52345,0.77782],[103.49049,0.82127]]],[[[103.8982,0.85334],[103.91139,0.78075],[103.81861,0.88622],[103.8982,0.85334]]],[[[103.83229,0.76537],[103.74635,0.82274],[103.74342,0.89374],[103.81707,0.8417],[103.83229,0.76537]]],[[[104.25025,0.83002],[104.16749,0.80492],[104.0923,0.88007],[104.09913,0.94892],[104.25025,0.83002]]],[[[103.46217,0.91893],[103.43295,0.88068],[103.40707,0.91144],[103.46217,0.91893]]],[[[103.95883,0.93976],[103.91139,0.93793],[103.83888,1.003],[103.88006,1.03148],[103.95883,0.93976]]],[[[103.44313,1.01276],[103.31479,1.06159],[103.36647,1.13117],[103.44313,1.01276]]],[[[104.15235,1.14004],[104.04916,0.9842],[103.9026,1.09052],[103.94898,1.0786],[103.94451,1.13524],[104.03093,1.18789],[104.08546,1.13329],[104.1032,1.18952],[104.15235,1.14004]]],[[[104.93523,-0.27809],[104.93523,-0.33213],[104.71266,-0.20924],[104.52866,-0.26995],[104.43727,-0.18108],[104.56463,0.03034],[104.76629,-0.18825],[104.84889,-0.13958],[105.01148,-0.28151],[104.93523,-0.27809]]],[[[104.70289,0.03278],[104.53419,0.1706],[104.49025,0.24262],[104.70289,0.03278]]],[[[104.74903,0.7226],[104.72486,0.74966],[104.74098,0.74893],[104.74903,0.7226]]],[[[104.6019,0.76435],[104.55397,0.7707],[104.51124,0.75031],[104.54233,0.79588],[104.6019,0.76435]]],[[[104.66326,0.82909],[104.6255,0.8107],[104.64861,0.8579],[104.66326,0.82909]]],[[[104.84352,1.01822],[104.83277,0.95515],[104.79119,1.02408],[104.84352,1.01822]]],[[[107.55958,0.97016],[107.52955,1.01805],[107.55014,1.0375],[107.60157,1.00983],[107.55958,0.97016]]],[[[104.65398,0.97687],[104.56707,0.82954],[104.42107,0.95661],[104.4852,1.03368],[104.27101,1.00361],[104.23194,1.09333],[104.39967,1.20262],[104.50815,1.17951],[104.57569,1.22541],[104.65455,1.09638],[104.65398,0.97687]]],[[[109.10865,2.53168],[109.01246,2.49755],[108.97193,2.55512],[109.10865,2.53168]]],[[[106.2378,2.73286],[106.19898,2.80952],[106.21632,2.82246],[106.2378,2.73286]]],[[[108.85572,3.00336],[108.84246,2.84638],[108.77589,2.88801],[108.85572,3.00336]]],[[[105.83961,2.96992],[105.72975,2.88117],[105.761,2.84638],[105.70485,2.85098],[105.68873,3.05996],[105.73854,2.98811],[105.83961,2.96992]]],[[[107.74513,2.98355],[107.77296,3.02529],[107.80714,3.01488],[107.81121,2.9868],[107.74513,2.98355]]],[[[106.28517,3.08723],[106.2107,3.12816],[106.20777,3.22533],[106.28517,3.1791],[106.28517,3.08723]]],[[[106.292,3.36815],[106.27906,3.23062],[106.23048,3.25796],[106.292,3.36815]]],[[[108.40626,3.87433],[108.31764,3.68378],[108.18385,3.64834],[108.09449,3.69619],[108.18702,3.7923],[108.28004,3.73151],[108.26238,3.7923],[108.06235,3.85594],[107.98463,4.01203],[108.22486,4.24482],[108.25733,4.13056],[108.39617,3.99091],[108.36207,3.88858],[108.40626,3.87433]]],[[[107.99342,4.69131],[107.93531,4.69839],[108.00514,4.77237],[108.01197,4.76093],[107.99342,4.69131]]]]}},{"type":"Feature","properties":{"id":"id-ks","lat":-2.7561,"lng":115.53107},"geometry":{"type":"MultiPolygon","coordinates":[[[[115.85182,-4.73903],[115.80681,-4.82187],[115.77345,-4.81512],[115.85182,-4.73903]]],[[[116.26783,-3.21884],[116.30649,-3.90447],[116.09148,-4.06683],[116.05738,-4.0407],[116.09148,-3.93434],[116.01303,-3.65049],[116.0464,-3.49749],[116.11939,-3.32415],[116.26783,-3.21884]]],[[[116.41586,-3.38177],[116.43141,-3.44752],[116.386,-3.63958],[116.32472,-3.53297],[116.41586,-3.38177]]],[[[116.51791,-2.55389],[116.44459,-2.49831],[116.30421,-2.52565],[116.29689,-2.60817],[116.39308,-2.57399],[116.36476,-2.86142],[116.26336,-3.00547],[116.13771,-2.82342],[116.10572,-2.99798],[116.2649,-3.13689],[116.16725,-3.15634],[116.18767,-3.23203],[116.16847,-3.2658],[116.12623,-3.27988],[116.17213,-3.22617],[116.11052,-3.24619],[115.96795,-3.60882],[114.62477,-4.17051],[114.6111,-3.68385],[114.52231,-3.5193],[114.5503,-3.34808],[114.47682,-3.50067],[114.31068,-3.43391],[114.50446,-2.88096],[114.78543,-2.68878],[114.90625,-2.42936],[114.88,-2.27464],[115.15533,-2.19599],[115.33015,-2.03708],[115.42663,-1.43449],[115.68594,-1.3685],[115.56988,-1.51794],[115.6431,-1.53314],[115.68904,-1.63551],[115.74894,-2.0007],[115.82877,-2.04716],[115.86071,-2.34332],[115.99445,-2.27102],[116.4677,-2.32725],[116.57289,-2.36298],[116.51791,-2.55389]]]]}},{"type":"Feature","properties":{"id":"id-kt","lat":-1.39353,"lng":113.43841},"geometry":{"type":"Polygon","coordinates":[[[114.31068,-3.43391],[114.26515,-3.37835],[114.36476,-3.21152],[114.18653,-3.38226],[114.10825,-3.34734],[114.11769,-3.19036],[114.042,-3.35556],[113.81471,-3.45526],[113.6325,-3.4568],[113.6115,-3.17425],[113.48618,-3.17474],[113.36573,-3.25286],[113.30275,-3.16253],[113.35108,-3.27239],[113.03517,-2.92295],[113.01735,-3.0368],[112.94109,-3.10638],[113.0215,-3.16253],[112.63803,-3.41676],[112.5451,-3.44427],[112.34897,-3.32285],[112.20289,-3.32952],[111.88722,-3.57024],[111.80877,-3.53297],[111.83253,-3.06162],[111.73357,-2.8034],[111.75408,-2.73854],[111.67254,-2.89463],[111.70346,-2.94362],[111.56983,-3.01572],[111.36305,-2.92295],[110.98618,-3.0875],[110.75424,-3.02606],[111.1611,-2.69844],[111.13769,-2.40481],[110.9962,-2.07119],[111.0207,-1.67266],[110.91879,-1.62057],[111.0116,-1.52611],[111.13397,-1.53045],[111.59017,-1.17517],[111.65141,-1.01549],[112.10564,-0.73789],[112.36594,-0.75675],[112.57802,-0.70445],[113.15235,-0.46984],[113.25643,-0.55139],[113.30273,-0.43568],[113.25276,-0.33889],[113.42572,-0.1972],[113.48019,-0.07152],[113.43151,0.11338],[113.32453,0.24521],[113.62292,0.31094],[113.77639,0.55857],[114.05245,0.64895],[114.37755,0.58865],[114.66306,0.62131],[114.96407,0.73887],[115.07838,0.54731],[114.95296,0.31254],[115.01983,0.06956],[114.97813,-0.16671],[115.21284,0.02496],[115.34663,0.01028],[115.27418,-0.31104],[115.41516,-0.77391],[115.51784,-0.93782],[115.65525,-0.99431],[115.73968,-1.10381],[115.80511,-1.08526],[115.80779,-1.27217],[115.72015,-1.42632],[115.66579,-1.36074],[115.41691,-1.44337],[115.33015,-2.03708],[115.15533,-2.19599],[114.88,-2.27464],[114.90625,-2.42936],[114.78543,-2.68878],[114.50446,-2.88096],[114.31068,-3.43391]]]}},{"type":"Feature","properties":{"id":"id-la","lat":-4.85855,"lng":105.09836},"geometry":{"type":"MultiPolygon","coordinates":[[[[104.78679,-5.74212],[104.83839,-5.82041],[104.77036,-5.75205],[104.78679,-5.74212]]],[[[105.82797,-4.15797],[105.90626,-4.46933],[105.86744,-4.82464],[105.90968,-4.94313],[105.8296,-5.65472],[105.72975,-5.89666],[105.7129,-5.83213],[105.58619,-5.79078],[105.56861,-5.68035],[105.48357,-5.65895],[105.27963,-5.44427],[105.23878,-5.56894],[105.18002,-5.5805],[105.21632,-5.69801],[105.1548,-5.72682],[105.21534,-5.75905],[105.16326,-5.78606],[104.68133,-5.50693],[104.55144,-5.50848],[104.53321,-5.55983],[104.71608,-5.92108],[104.56129,-5.92832],[104.54176,-5.84189],[103.99317,-5.31268],[103.99138,-5.24635],[103.90138,-5.21852],[103.89112,-5.10418],[103.60815,-4.91649],[103.76527,-4.80467],[103.88945,-4.9336],[104.29785,-4.89247],[104.33883,-4.82064],[104.26338,-4.70106],[104.30907,-4.44024],[105.00887,-4.1692],[105.11584,-4.0534],[105.13392,-3.94715],[105.26606,-3.88612],[105.31583,-3.75166],[105.51323,-3.86845],[105.70919,-4.14998],[105.82797,-4.15797]]]]}},{"type":"Feature","properties":{"id":"id-ma","lat":-3.49422,"lng":126.67512},"geometry":{"type":"MultiPolygon","coordinates":[[[[128.23764,-8.26409],[128.08823,-8.26385],[128.10377,-8.21185],[128.21355,-8.1994],[128.23764,-8.26409]]],[[[127.76881,-8.21258],[127.60402,-8.2068],[127.76059,-8.17392],[127.76881,-8.21258]]],[[[128.04152,-8.25506],[127.8436,-8.20574],[127.76564,-8.10809],[128.12355,-8.15032],[128.04152,-8.25506]]],[[[127.20216,-8.11126],[127.15211,-8.09694],[127.18588,-8.01873],[127.23211,-8.05429],[127.20216,-8.11126]]],[[[126.8392,-7.74822],[126.56837,-7.81414],[126.46616,-7.96657],[126.05397,-7.8847],[125.77418,-8.00758],[125.81422,-7.85027],[125.96892,-7.66009],[126.32838,-7.69573],[126.62696,-7.55999],[126.72169,-7.66806],[126.81324,-7.66863],[126.8392,-7.74822]]],[[[127.48439,-7.5324],[127.35768,-7.65569],[127.37273,-7.50612],[127.48439,-7.5324]]],[[[128.62232,-7.21014],[128.52882,-7.13055],[128.61964,-7.06316],[128.70135,-7.12282],[128.62232,-7.21014]]],[[[127.56137,-5.51727],[127.55128,-5.51238],[127.55519,-5.50661],[127.56137,-5.51727]]],[[[127.55486,-5.49049],[127.55698,-5.49977],[127.54591,-5.49529],[127.55486,-5.49049]]],[[[127.79005,-5.4096],[127.79851,-5.40016],[127.8034,-5.40765],[127.79005,-5.4096]]],[[[127.77687,-5.34881],[127.77906,-5.34287],[127.78517,-5.35296],[127.77687,-5.34881]]],[[[127.24137,-3.91082],[127.14509,-3.88498],[127.16521,-3.81414],[127.23463,-3.82106],[127.24137,-3.91082]]],[[[128.33717,-3.61159],[128.25196,-3.61492],[128.25489,-3.70957],[128.12867,-3.76963],[128.22096,-3.6491],[127.98601,-3.77158],[127.91236,-3.70306],[128.03452,-3.58904],[128.14731,-3.58847],[128.28712,-3.50457],[128.34938,-3.52947],[128.33717,-3.61159]]],[[[128.55885,-3.57049],[128.39291,-3.64284],[128.42709,-3.52272],[128.55885,-3.57049]]],[[[128.66879,-3.56927],[128.62745,-3.61761],[128.56105,-3.49375],[128.67286,-3.53981],[128.70574,-3.50254],[128.72804,-3.61492],[128.66879,-3.56927]]],[[[127.22722,-3.64284],[126.69657,-3.86379],[126.17356,-3.60253],[126.00723,-3.36101],[126.01726,-3.17116],[126.09092,-3.1121],[126.202,-3.18184],[126.4214,-3.07049],[126.84002,-3.07366],[127.10231,-3.21038],[127.11183,-3.27207],[127.04078,-3.28672],[127.09474,-3.36207],[127.26881,-3.38592],[127.22722,-3.64284]]],[[[127.64356,-3.35605],[127.51971,-3.33026],[127.48048,-3.29339],[127.56397,-3.25579],[127.64356,-3.35605]]],[[[127.77849,-3.24424],[127.67921,-3.25164],[127.64332,-3.22438],[127.75815,-3.14951],[127.77849,-3.24424]]],[[[127.99439,-2.93906],[127.93425,-3.02557],[127.827,-3.02899],[127.92604,-2.91668],[127.99439,-2.93906]]],[[[129.03614,-8.22031],[128.88771,-8.24489],[128.83448,-8.1998],[128.98536,-8.18572],[129.03614,-8.22031]]],[[[131.18165,-8.12493],[130.89373,-8.25123],[130.8794,-8.30926],[130.76336,-8.35076],[130.91342,-8.21364],[130.92644,-8.1325],[131.03761,-8.08327],[131.07944,-8.14886],[131.18165,-8.12493]]],[[[129.84791,-7.94655],[129.77638,-8.05535],[129.69386,-8.03826],[129.58522,-7.90203],[129.60125,-7.80731],[129.82985,-7.82391],[129.84791,-7.94655]]],[[[130.08033,-7.78737],[130.02564,-7.77256],[130.08375,-7.77256],[130.08033,-7.78737]]],[[[129.99724,-7.74822],[129.99195,-7.70208],[130.01539,-7.74407],[129.99724,-7.74822]]],[[[131.12647,-7.61777],[131.04379,-7.71347],[130.9712,-7.70135],[131.12647,-7.61777]]],[[[129.65854,-7.53509],[129.71217,-7.56951],[129.65528,-7.56048],[129.65854,-7.53509]]],[[[130.9734,-7.5512],[130.89772,-7.55446],[130.84099,-7.52874],[130.85865,-7.48691],[130.9734,-7.5512]]],[[[131.17481,-7.40423],[131.05738,-7.50791],[130.9852,-7.45599],[131.17481,-7.40423]]],[[[131.26498,-7.29713],[131.27711,-7.37078],[131.21583,-7.35711],[131.26498,-7.29713]]],[[[129.13429,-6.96111],[129.14259,-6.99749],[129.11622,-6.98333],[129.13429,-6.96111]]],[[[129.47877,-6.74407],[129.53077,-6.73121],[129.50131,-6.7706],[129.47877,-6.74407]]],[[[130.00375,-6.30625],[130.01368,-6.32838],[129.99781,-6.30975],[130.00375,-6.30625]]],[[[129.94565,-4.55609],[129.85906,-4.55478],[129.94109,-4.50888],[129.94565,-4.55609]]],[[[129.76271,-4.51881],[129.77027,-4.53932],[129.75782,-4.52256],[129.76271,-4.51881]]],[[[131.38543,-4.15618],[131.28834,-4.06341],[131.39186,-4.1535],[131.38543,-4.15618]]],[[[131.24537,-3.99684],[131.22609,-4.03834],[131.20916,-3.97894],[131.24537,-3.99684]]],[[[128.81056,-3.67645],[128.74635,-3.65976],[128.77687,-3.6373],[128.81056,-3.67645]]],[[[130.81658,-3.43426],[130.81788,-3.86883],[130.00172,-3.47308],[129.89047,-3.3331],[129.50961,-3.3025],[129.56324,-3.43963],[129.48561,-3.46347],[129.08432,-3.34124],[128.96078,-3.35556],[128.98194,-3.25189],[128.87745,-3.20257],[128.69256,-3.34873],[128.67758,-3.43231],[128.48414,-3.4625],[128.27215,-3.21152],[128.17872,-3.19427],[128.16578,-3.06699],[128.09067,-3.13201],[127.92604,-3.55348],[127.93019,-3.32334],[127.8423,-3.17327],[128.10369,-3.06699],[128.11793,-2.98431],[128.07,-2.97064],[128.17547,-2.85703],[128.86524,-2.86207],[129.05291,-2.80446],[129.10523,-2.94793],[129.17709,-2.9577],[129.40024,-2.7916],[129.54103,-2.78004],[129.96485,-2.97356],[130.38933,-2.99383],[130.5879,-3.12949],[130.66668,-3.40358],[130.81658,-3.43426]]],[[[131.64275,-7.25481],[131.70924,-7.4179],[131.63307,-7.62005],[131.3899,-7.8471],[131.31674,-8.018],[131.28346,-7.93613],[131.22967,-8.00351],[131.11622,-8.00075],[131.09018,-7.84881],[131.16114,-7.79957],[131.11476,-7.70696],[131.24985,-7.70664],[131.18133,-7.64959],[131.24155,-7.48773],[131.35572,-7.43532],[131.54477,-7.2199],[131.53696,-7.15423],[131.63754,-7.10906],[131.65463,-7.17213],[131.70411,-7.13152],[131.74334,-7.19606],[131.64275,-7.25481]]],[[[131.9817,-7.2457],[131.87794,-7.16448],[131.73219,-7.14121],[131.91847,-7.10361],[131.9817,-7.2457]]],[[[131.62867,-6.69394],[131.55104,-6.80153],[131.56568,-6.69647],[131.62867,-6.69394]]],[[[134.72218,-6.68279],[134.66944,-6.77288],[134.62143,-6.747],[134.69606,-6.58799],[134.72218,-6.68279]]],[[[134.50416,-6.62754],[134.4017,-6.65749],[134.43653,-6.68206],[134.3589,-6.82073],[134.20737,-6.91131],[134.07342,-6.82676],[134.11061,-6.45916],[134.20997,-6.50742],[134.12037,-6.41985],[134.10271,-6.18011],[134.29461,-6.29778],[134.32976,-6.38934],[134.45704,-6.44524],[134.50416,-6.62754]]],[[[134.69386,-6.55348],[134.62615,-6.49717],[134.66326,-6.45485],[134.73097,-6.51434],[134.69386,-6.55348]]],[[[134.54176,-6.52947],[134.46388,-6.4249],[134.35035,-6.37176],[134.42115,-6.29013],[134.60231,-6.40456],[134.54176,-6.52947]]],[[[134.87892,-6.35589],[134.83766,-6.46006],[134.82635,-6.47324],[134.79412,-6.40195],[134.84059,-6.28769],[134.87892,-6.35589]]],[[[134.39747,-6.28493],[134.33766,-6.33196],[134.20281,-6.19427],[134.16228,-6.19655],[134.18605,-6.13397],[134.14112,-6.15789],[134.12599,-6.03428],[134.27149,-6.0617],[134.23414,-6.13006],[134.39747,-6.28493]]],[[[134.75807,-6.15789],[134.70183,-6.32187],[134.60776,-6.36956],[134.33351,-6.22145],[134.27662,-6.11932],[134.29249,-6.05486],[134.36769,-6.03436],[134.30177,-6.01629],[134.2881,-5.92392],[134.37827,-5.79371],[134.202,-5.7125],[134.35182,-5.71445],[134.45704,-5.53411],[134.50473,-5.54778],[134.50831,-5.42938],[134.62827,-5.44476],[134.69654,-5.53411],[134.6351,-5.5888],[134.75807,-5.67132],[134.70289,-5.83571],[134.7649,-5.89039],[134.69654,-5.91774],[134.7361,-5.9695],[134.65431,-5.93328],[134.60109,-5.95184],[134.76515,-6.07684],[134.69109,-6.18808],[134.75807,-6.15789]]],[[[134.22828,-5.77337],[134.16969,-5.81113],[134.17774,-5.75449],[134.22828,-5.77337]]],[[[132.77556,-5.92392],[132.66969,-5.9],[132.68873,-5.76002],[132.6198,-5.60296],[132.69752,-5.59743],[132.81105,-5.79705],[132.77556,-5.92392]]],[[[133.13893,-5.52117],[132.97543,-5.72869],[132.9568,-5.86248],[132.8423,-5.99684],[133.13787,-5.28729],[133.18873,-5.3445],[133.13893,-5.52117]]],[[[132.80543,-5.68499],[132.74318,-5.6303],[132.78492,-5.52728],[132.81105,-5.5556],[132.80543,-5.68499]]],[[[132.38071,-5.53411],[132.33432,-5.57293],[132.30714,-5.52117],[132.38071,-5.53411]]],[[[131.9852,-5.37786],[131.96241,-5.34352],[132.00864,-5.31276],[132.01629,-5.33082],[131.9852,-5.37786]]],[[[131.7365,-4.76629],[131.72609,-4.70778],[131.73308,-4.69305],[131.7365,-4.76629]]],[[[131.63347,-4.43043],[131.6609,-4.53428],[131.60621,-4.43043],[131.63347,-4.43043]]],[[[131.37013,-3.98528],[131.41603,-3.95859],[131.4533,-4.05576],[131.40064,-4.04705],[131.37013,-3.98528]]]]}},{"type":"Feature","properties":{"id":"id-mu","lat":-1.82773,"lng":124.82613},"geometry":{"type":"MultiPolygon","coordinates":[[[[126.07586,-2.46299],[125.96599,-2.40211],[125.86256,-2.0866],[125.93336,-1.96453],[125.99879,-2.01523],[125.97722,-2.18035],[126.07586,-2.46299]]],[[[124.35841,-2.0333],[124.3047,-1.99603],[124.31813,-1.96396],[124.36622,-1.97129],[124.35841,-2.0333]]],[[[126.34327,-1.82985],[125.92758,-1.93141],[125.43214,-1.94964],[125.43214,-1.88144],[125.3353,-1.85068],[125.40211,-1.77467],[126.34327,-1.82985]]],[[[125.32162,-1.86435],[125.05047,-1.88795],[125.01352,-1.94427],[124.8283,-1.89512],[124.45281,-2.01247],[124.32911,-1.87078],[124.38494,-1.6679],[124.52654,-1.62566],[124.95558,-1.69647],[125.04802,-1.76531],[125.11004,-1.75848],[125.13071,-1.68499],[125.20834,-1.79111],[125.28403,-1.73105],[125.32162,-1.86435]]],[[[127.38136,-1.39707],[127.28582,-1.40032],[127.33709,-1.35377],[127.38136,-1.39707]]],[[[127.31983,-0.79363],[127.15553,-0.77239],[127.21404,-0.61541],[127.29615,-0.70273],[127.31983,-0.79363]]],[[[127.11736,-0.52516],[127.11036,-0.28769],[127.29249,-0.27809],[127.25196,-0.49717],[127.11736,-0.52516]]],[[[127.35816,0.28352],[127.33709,0.34878],[127.39869,0.37958],[127.41717,0.31293],[127.35816,0.28352]]],[[[127.38494,0.75715],[127.44907,0.685],[127.38868,0.61884],[127.35865,0.66584],[127.38494,0.75715]]],[[[127.3034,0.76488],[127.28248,0.81489],[127.32488,0.86286],[127.37696,0.80777],[127.3034,0.76488]]],[[[126.38543,1.28628],[126.34718,1.32331],[126.36964,1.34882],[126.40162,1.33202],[126.38543,1.28628]]],[[[128.09059,-1.71014],[127.49415,-1.71746],[127.37867,-1.63226],[127.4284,-1.41513],[127.4878,-1.44996],[127.62452,-1.32952],[127.74106,-1.35475],[128.12631,-1.56365],[128.15113,-1.66969],[128.09059,-1.71014]]],[[[127.66603,-1.27191],[127.5149,-1.26214],[127.4607,-1.23577],[127.54721,-1.17108],[127.68995,-1.2138],[127.66603,-1.27191]]],[[[128.40349,-0.99529],[128.33033,-1.0202],[128.30616,-0.94329],[128.40349,-0.99529]]],[[[127.87623,-0.8178],[127.75489,-0.88763],[127.62574,-0.75237],[127.45769,-0.81561],[127.47022,-0.64129],[127.29526,-0.49432],[127.31666,-0.33961],[127.37281,-0.32903],[127.4463,-0.4153],[127.51686,-0.30194],[127.57862,-0.32497],[127.688,-0.48064],[127.60402,-0.61712],[127.65268,-0.70721],[127.84864,-0.71299],[127.87623,-0.8178]]],[[[129.56821,-0.20013],[129.37289,-0.07952],[129.29347,0.04768],[129.53688,-0.13421],[129.56821,-0.20013]]],[[[127.43263,-0.02081],[127.39137,0.02603],[127.40887,0.14704],[127.45248,0.1402],[127.43263,-0.02081]]],[[[127.67237,-0.23016],[127.71559,0.31257],[127.57651,0.41551],[127.52687,0.56061],[127.62452,0.83222],[127.49464,0.90502],[127.49195,1.05492],[127.40414,1.04279],[127.39861,1.20905],[127.54078,1.47565],[127.55567,1.69253],[127.62973,1.8354],[127.93483,2.18765],[128.04737,2.20384],[127.84645,1.85147],[128.0149,1.71922],[128.0149,1.30524],[127.89064,1.15241],[127.63754,1.00072],[127.63551,0.91893],[127.74187,0.81802],[127.87241,0.82396],[127.99391,1.08299],[128.17945,1.15445],[128.17628,1.23298],[128.09205,1.25727],[128.2046,1.38996],[128.43727,1.53929],[128.71949,1.57062],[128.68637,1.44522],[128.7483,1.34406],[128.70118,1.07087],[128.30047,0.89374],[128.29835,0.82343],[128.23178,0.82608],[128.21355,0.77391],[128.36459,0.64362],[128.68084,0.55451],[128.69011,0.34699],[128.82423,0.31086],[128.90016,0.22199],[128.53761,0.32685],[128.46111,0.39484],[128.26222,0.39134],[127.96022,0.48281],[127.91049,0.43769],[127.88575,0.02351],[127.98072,-0.26385],[128.22779,-0.70957],[128.44068,-0.90879],[128.25099,-0.86679],[128.24952,-0.79648],[128.03224,-0.69931],[127.88559,-0.40602],[127.67237,-0.23016]]],[[[127.81056,2.26386],[127.78126,2.20893],[127.75172,2.26586],[127.81056,2.26386]]],[[[128.6421,2.26118],[128.50953,2.06244],[128.26905,1.99535],[128.19711,2.26618],[128.35808,2.49755],[128.56642,2.63361],[128.68637,2.48395],[128.6421,2.26118]]],[[[128.16993,2.29743],[128.12867,2.3583],[128.17319,2.4007],[128.16993,2.29743]]]]}},{"type":"Feature","properties":{"id":"id-nb","lat":-8.60817,"lng":117.27058},"geometry":{"type":"MultiPolygon","coordinates":[[[[119.16733,-8.55975],[119.18181,-8.7208],[119.11004,-8.7536],[118.97185,-8.75115],[118.89845,-8.68841],[118.702,-8.74814],[118.92693,-8.79656],[118.90805,-8.85052],[118.71404,-8.79998],[118.41424,-8.85361],[118.41472,-8.58294],[118.39356,-8.67457],[118.15772,-8.86785],[118.02418,-8.85052],[117.89047,-8.93678],[117.72511,-8.91204],[117.38887,-9.05374],[117.19241,-9.02373],[117.00974,-9.10729],[116.72845,-8.9631],[116.73518,-8.8734],[116.82447,-8.799],[116.74852,-8.66654],[116.83814,-8.50791],[116.98455,-8.49578],[117.19508,-8.3576],[117.43393,-8.48113],[117.44272,-8.41074],[117.55812,-8.40545],[117.5923,-8.51474],[117.6233,-8.43841],[117.63966,-8.54062],[117.74383,-8.56927],[117.80519,-8.71998],[117.969,-8.74814],[118.06813,-8.65594],[118.28175,-8.64153],[118.23316,-8.54852],[118.20924,-8.57676],[118.05746,-8.45062],[117.97022,-8.46136],[117.71225,-8.2409],[117.74098,-8.14788],[117.91782,-8.08587],[118.14967,-8.13445],[118.31227,-8.37127],[118.46339,-8.24944],[118.64747,-8.28875],[118.69581,-8.37127],[118.66733,-8.5473],[118.75392,-8.32643],[118.9725,-8.30202],[119.05112,-8.47047],[119.05226,-8.64569],[119.13014,-8.6334],[119.16733,-8.55975]]],[[[116.70623,-8.31707],[116.74317,-8.39178],[116.681,-8.55633],[116.50044,-8.80269],[116.50912,-8.85801],[116.58888,-8.86321],[116.56537,-8.89558],[116.44661,-8.92008],[116.47188,-8.8394],[116.42312,-8.83641],[116.40309,-8.9542],[116.06861,-8.85573],[116.0193,-8.90814],[115.83926,-8.81686],[115.84859,-8.72479],[116.08758,-8.73724],[116.02794,-8.44501],[116.28639,-8.23626],[116.39381,-8.2011],[116.70623,-8.31707]]],[[[117.68336,-8.15862],[117.55372,-8.379],[117.49252,-8.36102],[117.48683,-8.18287],[117.68336,-8.15862]]],[[[119.13152,-8.16627],[119.10035,-8.25156],[119.0228,-8.23431],[119.042,-8.14853],[119.13152,-8.16627]]]]}},{"type":"Feature","properties":{"id":"id-nt","lat":-8.50209,"lng":120.57692},"geometry":{"type":"MultiPolygon","coordinates":[[[[121.63331,-10.60418],[121.57456,-10.63983],[121.52719,-10.62957],[121.63331,-10.60418]]],[[[122.00538,-10.46795],[121.88185,-10.59832],[121.69012,-10.56422],[121.90162,-10.42099],[122.00538,-10.46795]]],[[[120.82667,-10.09124],[120.71119,-10.20672],[120.54737,-10.23333],[120.47047,-10.31032],[120.23023,-10.24521],[120.03419,-10.11207],[119.9673,-9.98358],[119.69711,-9.85263],[119.63445,-9.76914],[119.4061,-9.79013],[119.09685,-9.71754],[118.94191,-9.52557],[119.16871,-9.38551],[119.62924,-9.34189],[119.79949,-9.38372],[119.95875,-9.29046],[120.09425,-9.4612],[120.22926,-9.49228],[120.27117,-9.64251],[120.45851,-9.6325],[120.58033,-9.73496],[120.66969,-9.88519],[120.81227,-9.98358],[120.82667,-10.09124]]],[[[119.78858,-8.64153],[119.70916,-8.69354],[119.69825,-8.80153],[119.60629,-8.76865],[119.66041,-8.68548],[119.63445,-8.59661],[119.69549,-8.66709],[119.7378,-8.61712],[119.78858,-8.64153]]],[[[119.58717,-8.56243],[119.4568,-8.59661],[119.4699,-8.74066],[119.37371,-8.73447],[119.41529,-8.44329],[119.56023,-8.48797],[119.58717,-8.56243]]],[[[123.00074,-8.341],[122.90414,-8.36338],[122.89731,-8.46063],[122.80356,-8.43792],[122.84938,-8.55202],[122.80738,-8.61093],[122.44947,-8.73431],[122.11451,-8.73235],[121.78045,-8.88795],[121.69012,-8.85052],[121.64601,-8.90569],[121.58106,-8.81764],[121.39601,-8.79412],[121.34059,-8.91806],[120.99488,-8.94052],[120.83318,-8.81699],[120.74781,-8.87103],[120.57789,-8.79022],[120.27906,-8.82936],[120.16529,-8.76865],[119.9074,-8.87168],[119.80567,-8.74066],[119.8672,-8.41286],[119.99057,-8.44703],[120.02475,-8.38494],[120.09425,-8.39861],[120.2129,-8.29274],[120.42205,-8.22731],[120.45737,-8.27508],[120.59392,-8.28191],[120.59392,-8.23349],[120.74464,-8.32977],[120.97608,-8.3375],[121.50172,-8.60182],[121.60816,-8.54209],[121.6255,-8.46746],[121.68043,-8.51133],[121.89275,-8.49285],[122.01905,-8.42596],[122.03956,-8.51474],[122.25807,-8.63128],[122.47739,-8.59498],[122.49415,-8.47503],[122.9441,-8.21543],[122.74138,-8.23024],[122.86256,-8.06976],[122.97967,-8.14691],[123.00074,-8.341]]],[[[122.41017,-8.44394],[122.3768,-8.50172],[122.34392,-8.44842],[122.41017,-8.44394]]],[[[121.73406,-8.29315],[121.69386,-8.34433],[121.67612,-8.30926],[121.73406,-8.29315]]],[[[123.40919,-10.67913],[122.97169,-10.90618],[122.82097,-10.89324],[122.81251,-10.77842],[123.04916,-10.71136],[123.38648,-10.43304],[123.35597,-10.58123],[123.4131,-10.60459],[123.40919,-10.67913]]],[[[123.49496,-10.19818],[123.39625,-10.2278],[123.41342,-10.33262],[123.32179,-10.33896],[123.40382,-10.15765],[123.45753,-10.13934],[123.49496,-10.19818]]],[[[124.31007,-9.48872],[124.45053,-9.18019],[124.60434,-9.15634],[124.91951,-8.96202],[124.93303,-9.07448],[125.08681,-8.98622],[125.15399,-9.04079],[125.15063,-9.18538],[124.95793,-9.21194],[125.06162,-9.48577],[124.97975,-9.64902],[124.49936,-10.11199],[124.38087,-10.17051],[124.12241,-10.17254],[124.03387,-10.27614],[123.79933,-10.37469],[123.47202,-10.36492],[123.51539,-10.21307],[123.76466,-10.07497],[123.5774,-10.03436],[123.58375,-9.94402],[123.66041,-9.87127],[123.68881,-9.61142],[124.0101,-9.34393],[124.12108,-9.42692],[124.21069,-9.37886],[124.25751,-9.50123],[124.31007,-9.48872]]],[[[123.16358,-8.47373],[123.0066,-8.50791],[122.93084,-8.6041],[122.88299,-8.58294],[122.99985,-8.44866],[123.14625,-8.42596],[123.16358,-8.47373]]],[[[123.93881,-8.23219],[123.78989,-8.29363],[123.68751,-8.43621],[123.64308,-8.41123],[123.56764,-8.48113],[123.58302,-8.56552],[123.50001,-8.52158],[123.40675,-8.58945],[123.22731,-8.52606],[123.48569,-8.35076],[123.36964,-8.31666],[123.41424,-8.26718],[123.56764,-8.24774],[123.5171,-8.3375],[123.56837,-8.37493],[123.64967,-8.21998],[123.70135,-8.25123],[123.80445,-8.17889],[123.93881,-8.23219]]],[[[124.29998,-8.31927],[124.12989,-8.54827],[124.05934,-8.55153],[124.01881,-8.42995],[123.90724,-8.45485],[124.0442,-8.30486],[124.10939,-8.38494],[124.27027,-8.17889],[124.29998,-8.31927]]],[[[123.33082,-8.25465],[123.28932,-8.40447],[123.01954,-8.39178],[123.1565,-8.24358],[123.33082,-8.25465]]],[[[125.1233,-8.35231],[124.42791,-8.46746],[124.33351,-8.41302],[124.54762,-8.23073],[124.39243,-8.26523],[124.47527,-8.13258],[124.5687,-8.13104],[124.60304,-8.2068],[125.08692,-8.15879],[125.13917,-8.23358],[125.1233,-8.35231]]]]}},{"type":"Feature","properties":{"id":"id-pa","lat":-5.30104,"lng":139.39351},"geometry":{"type":"MultiPolygon","coordinates":[[[[138.90984,-8.39609],[138.69996,-8.39463],[138.54802,-8.3471],[138.67506,-8.18914],[138.8169,-8.16188],[138.90984,-8.39609]]],[[[139.07553,-7.57627],[138.99366,-7.72015],[138.97722,-7.84092],[138.89112,-7.89804],[138.90414,-8.07586],[138.6609,-8.16904],[138.44418,-8.37908],[138.3357,-8.41912],[137.84913,-8.37754],[137.63819,-8.42588],[137.89487,-7.81618],[138.02809,-7.61004],[138.24415,-7.45648],[138.71705,-7.35955],[138.80453,-7.3742],[138.93897,-7.54209],[139.07553,-7.57627]]],[[[138.78745,-6.82952],[138.69508,-6.85621],[138.6185,-6.7291],[138.74684,-6.76816],[138.78745,-6.82952]]],[[[140.97446,-2.60052],[140.9769,-6.33512],[140.84921,-6.70285],[140.97716,-6.89663],[140.97698,-9.10613],[140.85694,-9.04909],[140.36345,-8.49082],[139.98813,-8.19248],[139.97975,-8.12152],[140.05836,-8.08196],[140.06056,-7.94834],[140.12867,-7.93613],[140.1517,-7.8847],[140.06105,-7.92441],[140.04184,-8.04551],[139.97364,-8.09694],[139.39519,-8.20094],[139.25465,-8.14609],[139.24513,-8.01507],[139.21892,-7.97967],[139.28785,-7.9734],[139.21713,-7.95135],[139.22446,-8.0744],[138.9144,-8.29209],[138.84278,-8.11745],[138.9253,-8.07049],[138.91538,-7.90325],[138.99399,-7.86549],[139.09303,-7.55999],[138.94435,-7.497],[138.86549,-7.33603],[138.66749,-7.19785],[139.15707,-7.2431],[139.24,-7.15106],[139.06056,-7.2125],[138.84254,-7.1456],[138.56153,-6.91863],[138.93149,-6.84254],[139.07277,-6.94883],[139.19223,-6.97291],[138.68344,-6.71453],[138.68247,-6.64511],[138.82911,-6.70599],[138.46607,-6.40211],[138.26246,-5.91473],[138.40398,-5.83571],[138.20875,-5.82529],[138.15756,-5.7737],[138.36297,-5.67881],[138.07106,-5.72861],[138.05486,-5.58961],[138.10971,-5.53411],[138.06422,-5.51116],[138.07106,-5.40993],[137.99928,-5.47894],[137.91456,-5.38689],[137.92481,-5.32871],[137.81397,-5.35817],[137.80812,-5.25303],[137.73243,-5.27337],[137.57985,-5.1819],[137.57277,-5.12078],[137.5193,-5.14853],[137.37778,-5.08245],[137.36915,-5.02646],[137.26808,-5.01385],[137.27882,-4.93662],[137.21901,-5.01336],[137.14967,-4.94508],[137.0901,-4.96014],[137.10174,-4.88926],[137.04184,-4.94305],[136.94654,-4.91766],[136.96925,-4.86956],[136.82211,-4.92832],[135.95045,-4.50628],[135.42953,-4.43043],[135.18556,-4.44891],[134.87349,-4.25461],[135.26511,-3.75998],[134.2338,-3.38382],[134.30558,-3.22094],[134.45069,-3.0779],[134.44759,-3.01279],[134.67001,-2.83766],[134.72706,-2.98577],[134.85133,-2.89983],[134.81853,-3.13633],[134.89894,-3.26279],[134.96412,-3.23821],[134.98471,-3.32969],[135.34083,-3.38974],[135.50538,-3.34808],[135.60157,-3.20403],[135.75172,-3.12835],[135.75734,-3.05584],[135.92652,-2.96592],[136.0232,-2.7077],[136.26637,-2.56032],[136.38087,-2.23406],[136.53256,-2.18987],[136.60523,-2.25205],[136.74928,-2.25205],[136.98146,-2.12656],[137.17848,-2.10613],[137.23365,-2.06097],[137.20485,-1.94964],[137.10174,-1.88828],[137.12355,-1.79746],[137.83912,-1.47112],[138.07488,-1.61028],[138.66521,-1.78916],[138.84278,-1.94964],[139.1067,-2.01279],[139.78077,-2.35467],[140.15797,-2.3209],[140.33229,-2.45574],[140.37713,-2.39528],[140.74464,-2.49912],[140.72381,-2.63397],[140.97446,-2.60052]]],[[[136.88836,-1.8025],[136.53631,-1.90179],[136.33766,-1.86094],[136.26637,-1.90936],[135.71803,-1.7033],[135.49789,-1.68279],[135.42221,-1.61077],[136.19125,-1.6539],[136.88836,-1.8025]]],[[[135.31568,-1.48789],[135.2754,-1.52223],[135.09685,-1.50856],[135.10906,-1.47381],[135.31568,-1.48789]]],[[[134.99138,-1.08294],[134.86354,-1.12103],[134.80006,-1.02777],[134.82594,-0.96575],[134.93751,-0.95761],[134.92799,-1.07204],[134.99822,-1.01865],[134.99138,-1.08294]]],[[[136.36842,-1.13616],[136.14283,-1.2234],[135.88502,-1.18304],[135.76539,-0.83929],[135.66082,-0.88714],[135.48487,-0.75726],[135.45867,-0.79274],[135.37037,-0.63592],[135.77752,-0.74871],[135.86931,-0.70379],[136.1963,-1.06658],[136.29713,-1.05438],[136.36842,-1.13616]]]]}},{"type":"Feature","properties":{"id":"id-pb","lat":-1.85858,"lng":130.10068},"geometry":{"type":"MultiPolygon","coordinates":[[[[130.43686,-1.97633],[130.37355,-2.01279],[130.33814,-1.94964],[130.25611,-2.04583],[130.12647,-2.06699],[129.71485,-1.88144],[130.34295,-1.67669],[130.43995,-1.83571],[130.34425,-1.92848],[130.43686,-1.97633]]],[[[129.95444,-1.16269],[129.8309,-1.23707],[129.8794,-1.2029],[129.74391,-1.19988],[129.8794,-1.14153],[129.95444,-1.16269]]],[[[131.07252,-1.07757],[130.99757,-1.33245],[130.86305,-1.33717],[130.75807,-1.23821],[130.64975,-0.97381],[130.89186,-0.88991],[131.03077,-0.91302],[131.07252,-1.07757]]],[[[130.89991,-0.79144],[130.81935,-0.87029],[130.40016,-0.92929],[130.47853,-0.7999],[130.51905,-0.83961],[130.81788,-0.81943],[130.80421,-0.75726],[130.89991,-0.79144]]],[[[130.65455,-0.5167],[130.57154,-0.532],[130.59685,-0.46453],[130.46168,-0.52516],[130.49635,-0.49041],[130.45485,-0.4638],[130.63209,-0.41131],[130.68637,-0.44915],[130.65455,-0.5167]]],[[[129.90235,-0.40846],[129.88819,-0.49472],[129.86443,-0.49863],[129.84889,-0.43239],[129.90235,-0.40846]]],[[[131.3401,-0.29607],[131.23797,-0.38926],[131.09848,-0.32293],[130.97047,-0.35801],[130.65008,-0.07977],[130.62924,-0.14072],[130.75099,-0.28753],[130.88706,-0.29648],[130.94825,-0.36688],[130.73308,-0.4415],[130.68824,-0.29119],[130.57911,-0.33392],[130.54737,-0.43613],[130.52369,-0.25758],[130.37566,-0.27459],[130.21705,-0.20086],[130.42408,-0.19931],[130.40626,-0.12737],[130.33814,-0.14031],[130.34498,-0.18874],[130.29713,-0.16522],[130.28061,-0.10499],[130.33814,-0.07952],[130.35865,-0.12737],[130.35865,-0.07952],[130.4275,-0.10679],[130.51002,-0.04473],[130.76547,-0.04998],[130.82472,-0.00384],[131.05641,-0.04103],[131.29737,-0.15927],[131.3401,-0.29607]]],[[[131.23707,1.02497],[131.24488,1.03535],[131.23634,1.01936],[131.23707,1.02497]]],[[[131.27019,1.06098],[131.25563,1.06879],[131.26352,1.07591],[131.27019,1.06098]]],[[[133.6277,-4.30023],[133.38819,-4.20468],[133.32423,-4.10833],[133.6277,-4.30023]]],[[[132.70289,-3.5193],[132.66635,-3.45338],[132.6268,-3.41839],[132.68116,-3.42344],[132.70289,-3.5193]]],[[[131.65463,-2.61321],[131.59815,-2.6539],[131.57252,-2.65106],[131.65463,-2.61321]]],[[[133.60548,-2.46803],[133.52328,-2.48797],[133.49,-2.43125],[133.60548,-2.46803]]],[[[134.58367,-2.43841],[134.52149,-2.40667],[134.5669,-2.2929],[134.58367,-2.43841]]],[[[134.87349,-4.25461],[134.6482,-4.11875],[134.67921,-3.96071],[134.91627,-3.97869],[134.96778,-3.93678],[134.67579,-3.90838],[134.52524,-4.02646],[134.33351,-3.86883],[134.31528,-4.02028],[134.14112,-3.90301],[134.19264,-3.83555],[134.12745,-3.74529],[134.11036,-3.81756],[134.03932,-3.79314],[133.98764,-3.85516],[133.83814,-3.59043],[133.79542,-3.63152],[133.82927,-3.72186],[133.70314,-3.67262],[133.64145,-3.48366],[133.70216,-3.40439],[133.68312,-3.23252],[133.84645,-3.08709],[133.92945,-3.11468],[133.86394,-3.04209],[133.86052,-2.92295],[133.66822,-3.12217],[133.6277,-3.41627],[133.55104,-3.43157],[133.51401,-3.37835],[133.49057,-3.44427],[133.59181,-3.54534],[133.40886,-3.72243],[133.45338,-3.86541],[133.25099,-4.06683],[132.90772,-4.08815],[132.79591,-3.94061],[132.73097,-3.68231],[132.75611,-3.62754],[132.88111,-3.64284],[132.93181,-3.55413],[132.82114,-3.43743],[132.8117,-3.28167],[132.67115,-3.32855],[132.55307,-3.10703],[132.32569,-2.94655],[131.97609,-2.92978],[132.04444,-2.8034],[131.95802,-2.78818],[132.18149,-2.72487],[132.11085,-2.71942],[132.16163,-2.68328],[132.31178,-2.67645],[132.42848,-2.69695],[132.42115,-2.74481],[132.5857,-2.71746],[132.72828,-2.81317],[133.03354,-2.47942],[133.23959,-2.41676],[133.39031,-2.52663],[133.38071,-2.67645],[133.44557,-2.49472],[133.45037,-2.64235],[133.47348,-2.52166],[133.51873,-2.58961],[133.63396,-2.53932],[133.68238,-2.71746],[133.71314,-2.51198],[133.8169,-2.64902],[133.81959,-2.47723],[133.74724,-2.43792],[133.85011,-2.42425],[133.90838,-2.47723],[133.86647,-2.41139],[134.00514,-2.38844],[133.89869,-2.37762],[133.96355,-2.32643],[133.86736,-2.34124],[133.94996,-2.2929],[133.94996,-2.20355],[133.92897,-2.27418],[133.792,-2.26019],[133.94996,-2.16937],[133.89527,-2.16253],[133.94044,-2.1076],[133.64576,-2.23602],[133.5936,-2.23756],[133.5936,-2.18304],[133.5486,-2.24505],[133.29615,-2.2042],[132.94361,-2.28338],[132.81593,-2.24505],[132.68873,-2.30722],[132.56039,-2.18564],[132.30568,-2.26556],[132.04835,-2.08318],[132.12696,-1.99814],[132.02735,-2.01849],[131.9419,-1.89512],[131.92774,-1.80576],[132.02394,-1.67596],[131.91749,-1.70729],[131.88673,-1.65203],[131.98219,-1.53875],[131.80486,-1.6076],[131.79119,-1.49774],[131.72315,-1.57195],[131.70379,-1.511],[131.4275,-1.49774],[131.38364,-1.40195],[131.27711,-1.37428],[131.33693,-1.45306],[131.20574,-1.52361],[131.12631,-1.4533],[130.95094,-1.43369],[131.03004,-1.27557],[131.18165,-1.21722],[131.25416,-1.08025],[131.29152,-0.91497],[131.24301,-0.81943],[131.87647,-0.68963],[132.15089,-0.43572],[132.43718,-0.3471],[132.70916,-0.36004],[132.97511,-0.44476],[133.39161,-0.72324],[133.97722,-0.72324],[134.17213,-0.86386],[134.03614,-0.95778],[134.28199,-1.35019],[134.21583,-1.56032],[134.08709,-1.68279],[134.16163,-2.31024],[134.33025,-2.52223],[134.46388,-2.86207],[134.53272,-2.83416],[134.48439,-2.53932],[134.5464,-2.46299],[134.63844,-2.51116],[134.67001,-2.83766],[134.44759,-3.01279],[134.45069,-3.0779],[134.30558,-3.22094],[134.2338,-3.38382],[135.26511,-3.75998],[134.87349,-4.25461]]],[[[134.42652,-2.0333],[134.39015,-2.13144],[134.35987,-2.15325],[134.3506,-2.03265],[134.42652,-2.0333]]],[[[134.23585,-1.73854],[134.21241,-1.88421],[134.17514,-1.94345],[134.16896,-1.82985],[134.23585,-1.73854]]],[[[134.33863,0.73754],[134.30047,0.74348],[134.34295,0.7652],[134.33863,0.73754]]]]}},{"type":"Feature","properties":{"id":"id-ri","lat":0.74807,"lng":101.42273},"geometry":{"type":"MultiPolygon","coordinates":[[[[102.88453,0.31525],[102.87534,0.28408],[102.83912,0.29096],[102.88453,0.31525]]],[[[100.40528,2.31269],[100.56105,2.15681],[100.81275,2.03974],[100.94728,1.82539],[100.79998,2.20893],[100.88592,2.29828],[101.0503,2.29149],[101.06739,2.21979],[101.31715,2.0246],[101.42701,1.7093],[101.7492,1.66153],[102.11817,1.38654],[102.20851,1.02408],[102.42506,0.80427],[102.95379,0.67585],[103.08375,0.51557],[103.07472,0.44233],[102.58188,0.1811],[102.5027,0.2364],[102.43043,0.24632],[102.54575,0.16914],[102.90268,0.26777],[103.36215,0.53628],[103.54103,0.43464],[103.60629,0.31086],[103.64527,0.34528],[103.73048,0.29344],[103.80177,-0.00726],[103.62916,-0.04839],[103.577,-0.01397],[103.57586,-0.10443],[103.27052,-0.25758],[103.48927,-0.21152],[103.43678,-0.33799],[103.34555,-0.36688],[103.5984,-0.43678],[103.41798,-0.51775],[103.37289,-0.44939],[103.41627,-0.57537],[103.34555,-0.6959],[103.4387,-0.74618],[102.80435,-0.79297],[102.54121,-1.08495],[102.43011,-1.05978],[102.18888,-0.85566],[101.98414,-0.88692],[101.76979,-1.03823],[101.33085,-0.78724],[101.00012,-0.40132],[100.85584,-0.32225],[100.74613,-0.08304],[100.844,-0.03752],[100.83848,0.2002],[100.50981,0.4439],[100.36868,0.41129],[100.26538,0.45046],[100.16296,0.64838],[100.20678,0.71071],[100.17123,0.78543],[100.22539,1.14603],[100.06721,1.37935],[100.44398,1.61623],[100.29257,1.92061],[100.31365,2.55455],[100.40528,2.31269]]],[[[103.05763,0.77704],[103.00733,0.69383],[102.89471,0.78998],[102.51637,0.79133],[102.4065,0.87324],[102.50066,0.95327],[102.46762,1.10643],[102.55641,1.12568],[102.62175,1.00161],[102.78256,1.00178],[103.05763,0.77704]]],[[[102.44557,1.07616],[102.46803,0.97256],[102.39967,0.92788],[102.2671,1.03685],[102.21746,1.40917],[102.29086,1.40453],[102.4734,1.24201],[102.44557,1.07616]]],[[[102.50953,1.27729],[102.33025,1.41328],[102.09555,1.47525],[102.00782,1.61538],[102.46266,1.51545],[102.50953,1.27729]]],[[[101.77556,1.94798],[101.7151,1.77822],[101.5975,1.71003],[101.46013,1.76553],[101.39381,1.93061],[101.44093,2.06493],[101.55055,2.05809],[101.64926,2.12848],[101.77556,1.94798]]],[[[103.75652,-0.34645],[103.61256,-0.38738],[103.46062,-0.33392],[103.55787,-0.2234],[103.73463,-0.28118],[103.75652,-0.34645]]],[[[103.28077,0.53803],[103.14047,0.53937],[103.17921,0.6955],[103.2732,0.66568],[103.28077,0.53803]]],[[[103.06577,0.64924],[103.06446,0.58519],[103.03663,0.65754],[103.06577,0.64924]]],[[[103.0923,0.72236],[103.07716,0.76089],[103.1128,0.79295],[103.11622,0.75776],[103.0923,0.72236]]],[[[103.12713,0.83442],[102.7907,1.03148],[102.62477,1.02196],[102.71559,1.15445],[102.88624,1.13329],[103.16326,0.8996],[103.12713,0.83442]]]]}},{"type":"Feature","properties":{"id":"id-sa","lat":0.99547,"lng":124.58065},"geometry":{"type":"MultiPolygon","coordinates":[[[[123.17563,0.92255],[123.1867,0.97362],[123.30397,0.9123],[123.93751,0.83222],[124.29037,1.01732],[124.38941,1.1861],[124.59376,1.19587],[124.61598,1.25682],[124.53443,1.28864],[124.54835,1.35985],[124.8357,1.46914],[124.82594,1.5729],[124.9839,1.73159],[125.1753,1.67817],[125.16782,1.58478],[125.23976,1.52367],[124.89869,0.97305],[124.66383,0.80561],[124.46583,0.44868],[124.32179,0.39887],[123.6325,0.26651],[123.45752,0.31173],[123.48102,0.55692],[123.24703,0.73293],[123.09719,0.92913],[123.17563,0.92255]]],[[[125.30128,1.55166],[125.24838,1.40298],[125.17156,1.40449],[125.30128,1.55166]]],[[[125.15203,1.74771],[125.12387,1.78905],[125.13527,1.83096],[125.17661,1.79279],[125.15203,1.74771]]],[[[125.40626,2.10733],[125.34913,2.07123],[125.33424,2.08186],[125.35426,2.12987],[125.40626,2.10733]]],[[[125.42311,2.31712],[125.37094,2.34813],[125.38063,2.38573],[125.45069,2.37792],[125.42311,2.31712]]],[[[125.45102,2.77839],[125.42368,2.64472],[125.39259,2.62889],[125.35646,2.74055],[125.40162,2.81021],[125.45102,2.77839]]],[[[125.66578,3.43879],[125.6172,3.39509],[125.50733,3.46332],[125.52101,3.57697],[125.42115,3.66804],[125.44207,3.73656],[125.53452,3.68305],[125.66578,3.43879]]],[[[126.81159,3.82387],[126.81153,3.73186],[126.74399,3.85338],[126.81159,3.82387]]],[[[126.71263,3.92071],[126.67792,3.81224],[126.61511,4.04392],[126.71263,3.92071]]],[[[126.92213,4.28205],[126.79844,4.01764],[126.67642,4.00448],[126.80321,4.22297],[126.7107,4.26414],[126.74439,4.5456],[126.87501,4.49433],[126.85913,4.36757],[126.92213,4.28205]]],[[[127.14576,4.75218],[127.12143,4.7685],[127.13038,4.7744],[127.14576,4.75218]]],[[[126.59938,5.55362],[126.59116,5.55711],[126.60287,5.56403],[126.59938,5.55362]]]]}},{"type":"Feature","properties":{"id":"id-sb","lat":-0.80179,"lng":100.81901},"geometry":{"type":"MultiPolygon","coordinates":[[[[100.50831,-3.1408],[100.52882,-3.18353],[100.50847,-3.12217],[100.50831,-3.1408]]],[[[100.38071,-3.15252],[100.4607,-3.3344],[100.37867,-3.27239],[100.34522,-3.12656],[100.18946,-2.96657],[100.18914,-2.79119],[100.24903,-2.78436],[100.46754,-3.01531],[100.46453,-3.1325],[100.38071,-3.15252]]],[[[100.2186,-2.73935],[100.13852,-2.82049],[100.01564,-2.83416],[99.98414,-2.48463],[100.16668,-2.62786],[100.2186,-2.73935]]],[[[99.85873,-2.35687],[99.60353,-2.26556],[99.52768,-2.14544],[99.56495,-2.03086],[99.69435,-2.0678],[99.85873,-2.35687]]],[[[99.292,-1.71893],[99.22674,-1.61444],[99.25489,-1.77207],[99.1006,-1.79941],[98.82643,-1.61248],[98.59376,-1.19842],[98.66847,-0.95436],[98.88282,-0.91318],[98.93751,-0.96006],[98.93832,-1.06512],[99.16472,-1.41424],[99.13063,-1.44817],[99.27247,-1.60182],[99.292,-1.71893]]],[[[100.83953,-2.16725],[100.88722,-2.03721],[100.8576,-1.89186],[100.65447,-1.61761],[100.56918,-1.33082],[100.40602,-1.26442],[100.43328,-1.20672],[100.36606,-1.15049],[100.41635,-1.04778],[100.30144,-0.81634],[99.82398,-0.31341],[99.76173,-0.05218],[99.63282,0.081],[99.34108,0.23876],[99.15117,0.25246],[99.35361,0.48447],[99.56434,0.56302],[99.81409,0.46819],[99.9082,0.50359],[99.88928,0.61696],[99.70666,0.88723],[100.1734,0.75758],[100.20771,0.71908],[100.16296,0.64838],[100.26538,0.45046],[100.36868,0.41129],[100.50981,0.4439],[100.78938,0.25595],[100.8517,0.17244],[100.84561,-0.03033],[100.74613,-0.08304],[100.85584,-0.32225],[101.00012,-0.40132],[101.33085,-0.78724],[101.52526,-0.93193],[101.74286,-0.9972],[101.78271,-1.13182],[101.8409,-1.14763],[101.79449,-1.23889],[101.67811,-1.28896],[101.67532,-1.49986],[101.4757,-1.70212],[101.11391,-1.70491],[101.14228,-1.91999],[101.3356,-2.29697],[101.0266,-2.47995],[100.83953,-2.16725]]]]}},{"type":"Feature","properties":{"id":"id-sg","lat":-3.84718,"lng":121.88865},"geometry":{"type":"MultiPolygon","coordinates":[[[[122.05014,-5.23089],[122.04689,-5.45159],[121.96827,-5.46795],[121.80681,-5.25986],[121.86492,-5.08652],[121.97731,-5.07049],[122.05014,-5.23089]]],[[[123.21811,-5.28379],[123.14503,-5.38543],[122.97755,-5.39422],[122.87623,-5.45843],[122.86101,-5.50807],[122.91822,-5.52744],[122.81349,-5.68792],[122.73561,-5.62689],[122.63836,-5.66221],[122.56715,-5.50693],[122.72104,-5.26621],[122.81471,-5.21136],[122.75758,-5.20672],[122.80445,-5.04363],[122.7527,-5.03387],[122.83351,-4.92913],[122.85499,-4.60955],[122.90895,-4.47454],[123.04135,-4.38437],[123.20045,-4.58904],[123.21974,-4.81666],[123.14991,-4.71795],[123.10532,-4.76727],[123.05209,-4.74033],[122.94988,-5.1902],[123.04689,-5.13746],[123.21811,-5.28379]]],[[[122.77312,-4.95819],[122.60426,-5.15993],[122.65854,-5.29648],[122.5984,-5.4201],[122.54347,-5.42881],[122.51148,-5.28672],[122.4686,-5.39642],[122.40724,-5.3532],[122.45102,-5.31504],[122.36394,-5.38983],[122.27963,-5.36972],[122.33253,-5.12379],[122.4026,-5.06178],[122.32748,-4.84206],[122.38266,-4.74586],[122.71111,-4.61549],[122.77312,-4.95819]]],[[[122.31691,-3.34482],[122.37257,-3.37225],[122.37843,-3.43873],[122.25172,-3.37607],[122.29054,-3.47137],[122.20053,-3.55657],[122.22511,-3.62916],[122.44142,-3.73105],[122.54868,-3.87868],[122.65642,-3.88934],[122.55128,-3.9708],[122.65642,-4.00661],[122.68816,-4.13836],[122.84205,-4.12884],[122.77516,-4.04827],[122.84498,-4.05771],[122.90707,-4.19598],[122.90016,-4.38877],[122.84205,-4.43808],[122.67018,-4.31455],[122.77027,-4.41676],[122.75815,-4.4848],[122.59913,-4.39674],[122.23325,-4.46803],[122.10776,-4.51995],[122.04835,-4.62591],[122.04298,-4.70778],[122.12892,-4.80047],[122.09099,-4.83668],[121.70436,-4.83522],[121.55421,-4.74375],[121.47771,-4.62298],[121.53321,-4.23805],[121.58497,-4.23675],[121.6277,-4.08709],[121.2461,-3.89422],[121.25514,-3.81569],[121.16033,-3.79616],[120.89381,-3.53916],[120.88941,-3.38877],[121.06674,-3.19378],[121.08637,-2.91018],[121.22628,-2.86556],[121.47525,-3.01976],[121.78144,-2.9855],[122.18756,-3.10033],[122.33937,-3.23756],[122.31691,-3.34482]]],[[[122.35548,-3.55657],[122.29331,-3.58082],[122.28468,-3.56292],[122.3213,-3.51189],[122.35548,-3.55657]]],[[[122.46469,-3.44085],[122.42579,-3.47731],[122.41537,-3.38543],[122.46469,-3.44085]]],[[[124.04127,-6.02077],[123.96892,-5.93532],[123.97918,-5.86989],[124.0652,-5.9625],[124.04127,-6.02077]]],[[[123.80144,-5.52272],[123.79331,-5.58913],[123.69117,-5.47275],[123.80144,-5.52272]]],[[[123.62379,-5.26653],[123.6338,-5.36688],[123.59059,-5.37412],[123.51987,-5.25172],[123.62379,-5.26653]]],[[[123.23878,-4.12217],[123.16928,-4.22112],[123.0866,-4.23447],[122.95069,-4.04705],[123.02817,-3.97381],[123.20444,-3.99293],[123.23878,-4.12217]]],[[[123.17709,-3.60101],[123.09881,-3.61924],[123.06105,-3.5709],[123.15724,-3.54485],[123.17709,-3.60101]]]]}},{"type":"Feature","properties":{"id":"id-sn","lat":-3.81146,"lng":119.95116},"geometry":{"type":"MultiPolygon","coordinates":[[[[121.76889,-7.35076],[121.83481,-7.38828],[121.75904,-7.41578],[121.76889,-7.35076]]],[[[121.04998,-7.28582],[120.99269,-7.33359],[120.79233,-7.27947],[120.81568,-7.2575],[121.04998,-7.28582]]],[[[120.78126,-7.05592],[120.7715,-7.13055],[120.67035,-7.15096],[120.55625,-7.07289],[120.6137,-7.06982],[120.62126,-6.99824],[120.78126,-7.05592]]],[[[120.5586,-6.06634],[120.50514,-6.43174],[120.48129,-6.47731],[120.42945,-6.18581],[120.48048,-5.76409],[120.5586,-6.06634]]],[[[121.07081,-2.85101],[120.98683,-2.83262],[121.08041,-2.75905],[121.01539,-2.66595],[120.77605,-2.61492],[120.58448,-2.68206],[120.20346,-2.9577],[120.26433,-3.14202],[120.42579,-3.25612],[120.39894,-3.50091],[120.44654,-3.72869],[120.35971,-3.89422],[120.3519,-4.10027],[120.36736,-4.42441],[120.44996,-4.64658],[120.38657,-4.82928],[120.30942,-4.87127],[120.26433,-5.15],[120.46363,-5.62021],[120.32325,-5.50953],[120.10043,-5.59564],[119.91489,-5.56894],[119.80567,-5.69248],[119.72364,-5.70379],[119.60971,-5.60914],[119.57,-5.65594],[119.51759,-5.55804],[119.43328,-5.58782],[119.35279,-5.35564],[119.51979,-4.91668],[119.49122,-4.75408],[119.59108,-4.56414],[119.64698,-3.97796],[119.59343,-4.02646],[119.45672,-3.71453],[119.51401,-3.56308],[119.41192,-3.21469],[119.63919,-3.12095],[119.51516,-2.75869],[119.66125,-2.75823],[119.78688,-2.68686],[119.729,-2.38435],[119.62358,-2.29356],[119.63526,-2.19397],[119.87349,-1.95538],[120.04805,-1.86149],[120.32349,-1.90355],[120.40488,-1.83767],[120.76362,-2.21749],[121.39846,-2.36378],[121.79368,-2.69524],[121.7725,-2.80091],[121.50233,-3.02095],[121.2608,-2.8715],[121.08637,-2.91018],[121.07081,-2.85101]]]]}},{"type":"Feature","properties":{"id":"id-sr","lat":-2.19876,"lng":119.38539},"geometry":{"type":"Polygon","coordinates":[[[119.49093,-3.48654],[119.29762,-3.42791],[118.92677,-3.56609],[118.76417,-3.09092],[118.8484,-3.0678],[118.88551,-2.86956],[118.77166,-2.86207],[118.75733,-2.77581],[118.80616,-2.62981],[118.9144,-2.64837],[119.13575,-2.45428],[119.13404,-2.20355],[119.21608,-2.00994],[119.34702,-1.95941],[119.31365,-1.24578],[119.44361,-1.11305],[119.56622,-0.83369],[119.60178,-1.15073],[119.48736,-1.31124],[119.68161,-1.43376],[119.72466,-1.61251],[119.83897,-1.75715],[119.82212,-1.90815],[119.87349,-1.95538],[119.63526,-2.19397],[119.62358,-2.29356],[119.729,-2.38435],[119.78688,-2.68686],[119.66125,-2.75823],[119.51516,-2.75869],[119.64136,-3.1103],[119.41424,-3.2043],[119.49093,-3.48654]]]}},{"type":"Feature","properties":{"id":"id-ss","lat":-3.31153,"lng":104.40357},"geometry":{"type":"Polygon","coordinates":[[[104.53159,-1.73406],[104.49708,-1.93597],[104.56446,-1.85768],[104.63697,-1.92156],[104.58888,-2.01946],[104.65455,-1.97015],[104.6858,-2.04469],[104.81463,-2.0084],[104.88282,-2.12567],[104.75701,-2.3305],[104.60621,-2.40211],[104.70965,-2.37086],[104.71314,-2.55779],[104.56951,-2.65643],[104.5311,-2.77264],[104.73146,-2.59075],[104.86264,-2.28875],[104.92897,-2.37477],[104.98023,-2.32643],[105.11671,-2.38047],[105.24692,-2.34287],[105.62379,-2.40179],[105.61842,-2.5949],[105.77809,-2.69012],[105.80958,-2.89902],[106.01564,-2.9695],[106.05405,-3.04697],[106.07301,-3.25555],[105.90024,-3.40716],[105.81959,-3.67254],[105.95289,-3.86907],[105.82797,-4.15797],[105.70919,-4.14998],[105.51323,-3.86845],[105.31583,-3.75166],[105.26606,-3.88612],[105.13392,-3.94715],[105.11584,-4.0534],[105.00887,-4.1692],[104.30907,-4.44024],[104.26338,-4.70106],[104.33883,-4.82064],[104.30328,-4.88828],[103.88945,-4.9336],[103.72254,-4.75749],[103.60348,-4.39048],[103.19926,-4.26522],[103.12878,-4.03314],[102.79908,-3.98244],[102.63599,-3.82747],[102.89721,-3.63084],[102.88321,-3.57389],[102.99307,-3.58407],[102.9986,-3.40801],[102.85644,-3.37111],[102.76596,-3.27897],[102.63134,-3.37302],[102.56261,-3.34409],[102.45889,-3.24363],[102.48148,-3.13226],[102.24113,-3.05883],[102.23054,-2.96452],[102.06682,-2.78236],[102.2602,-2.63953],[102.44845,-2.72846],[102.59641,-2.70981],[102.79174,-2.56785],[102.86357,-2.46176],[102.86202,-2.35391],[103.19875,-2.36983],[103.1696,-2.27123],[103.23265,-2.17945],[103.45702,-2.40228],[103.45387,-2.24617],[103.55257,-2.20348],[103.52028,-1.97905],[103.88635,-1.79477],[104.17419,-1.83642],[104.32152,-1.80433],[104.39785,-1.68997],[104.53159,-1.73406]]]}},{"type":"Feature","properties":{"id":"id-st","lat":-0.95696,"lng":122.11023},"geometry":{"type":"MultiPolygon","coordinates":[[[[121.33332,0.46228],[121.10792,0.40713],[120.87647,0.42451],[120.67954,0.53058],[120.37525,0.47769],[120.13331,0.19123],[120.02296,-0.07098],[119.99659,-0.23431],[120.0892,-0.65732],[120.25563,-0.89935],[120.32553,-0.93865],[120.41245,-0.90496],[120.50034,-0.97527],[120.67596,-1.39471],[120.83009,-1.3401],[120.84441,-1.38958],[121.10548,-1.40586],[121.20655,-1.19134],[121.50066,-0.85931],[121.62013,-0.80039],[121.7142,-0.93548],[122.10532,-0.9262],[122.20769,-0.76474],[122.92905,-0.75888],[122.96022,-0.73056],[122.73463,-0.64837],[123.07586,-0.55641],[123.27369,-0.58327],[123.44467,-0.70957],[123.35239,-1.03973],[123.23878,-1.02483],[123.0962,-0.83506],[123.00945,-0.89373],[122.83871,-0.89918],[122.72096,-1.10906],[122.36883,-1.49277],[122.18393,-1.61419],[121.86134,-1.66969],[121.69215,-1.90814],[121.55299,-1.92913],[121.44093,-1.81357],[121.34742,-1.77899],[121.29607,-1.81666],[121.34571,-1.85573],[121.34059,-1.99131],[121.40203,-1.90936],[121.57456,-2.16253],[121.70086,-2.18035],[121.82293,-2.28729],[122.00929,-2.59352],[122.01564,-2.69354],[122.19264,-2.86631],[122.28712,-2.88877],[122.27963,-3.03965],[122.47291,-3.15114],[122.42921,-3.24586],[122.33937,-3.23756],[122.16999,-3.09371],[121.59804,-2.97284],[121.78495,-2.77678],[121.76371,-2.6279],[121.39846,-2.36378],[120.76362,-2.21749],[120.42653,-1.84712],[120.32349,-1.90355],[120.06862,-1.85451],[119.84662,-1.94872],[119.84548,-1.77514],[119.72466,-1.61251],[119.68161,-1.43376],[119.48736,-1.31124],[119.59867,-1.16866],[119.56622,-0.83369],[119.68214,-0.73691],[119.65943,-0.69622],[119.73365,-0.63388],[119.84653,-0.87461],[119.8659,-0.81357],[119.75782,-0.4699],[119.79998,-0.12379],[119.6753,-0.09938],[119.63445,0.01048],[119.6753,0.03034],[119.83269,-0.0844],[119.88819,0.07128],[119.78517,0.23949],[119.86948,0.28718],[119.91179,0.4737],[120.03224,0.5163],[120.03419,0.71381],[120.22706,0.81489],[120.27849,0.99421],[120.34164,0.98286],[120.34645,0.85562],[120.56813,0.78213],[120.66228,0.96882],[120.80177,1.05264],[120.82081,1.31],[120.90919,1.35366],[120.90854,1.31143],[121.08041,1.33194],[121.2649,1.22956],[121.45143,1.29755],[121.45045,1.16743],[121.58676,1.06175],[121.92612,1.0987],[121.99025,1.02192],[122.06373,1.06501],[122.19734,1.02767],[122.04566,0.94377],[121.8559,0.97508],[121.30317,0.8261],[121.16044,0.68606],[121.33376,0.57562],[121.33332,0.46228]]],[[[121.91603,-0.4699],[121.87843,-0.51092],[121.73536,-0.47991],[121.64226,-0.54559],[121.75213,-0.40106],[121.85385,-0.40106],[121.91603,-0.4699]]],[[[122.05307,-0.37371],[121.93181,-0.41465],[121.86012,-0.36745],[121.92652,-0.31227],[122.05307,-0.37371]]],[[[122.14454,-0.37396],[122.05991,-0.35394],[122.09474,-0.26385],[122.14454,-0.37396]]],[[[122.38266,-0.33961],[122.26051,-0.24098],[122.23194,-0.18874],[122.35939,-0.24928],[122.38266,-0.33961]]],[[[122.2365,-0.27337],[122.19996,-0.26776],[122.14438,-0.233],[122.17709,-0.19638],[122.2365,-0.27337]]],[[[121.64967,-0.14739],[121.62452,-0.19842],[121.57456,-0.18255],[121.59742,-0.12469],[121.64967,-0.14739]]],[[[120.40235,1.07722],[120.36866,1.03172],[120.37762,1.0799],[120.40235,1.07722]]],[[[120.65992,1.06761],[120.63209,1.06851],[120.6076,1.07245],[120.65992,1.06761]]],[[[123.88787,-2.05088],[123.83937,-2.04909],[123.86744,-2.00555],[123.88787,-2.05088]]],[[[123.84783,-1.99554],[123.78736,-1.98064],[123.78736,-1.87396],[123.85239,-1.93874],[123.84783,-1.99554]]],[[[123.66383,-1.96331],[123.64959,-1.90179],[123.65699,-1.90179],[123.66383,-1.96331]]],[[[123.74635,-1.92913],[123.71168,-1.95713],[123.72608,-1.9],[123.74635,-1.92913]]],[[[123.14324,-1.77549],[123.07277,-1.90162],[123.10206,-1.74847],[123.14324,-1.77549]]],[[[123.37818,-1.71282],[123.30128,-1.78834],[123.28028,-1.78582],[123.35613,-1.67588],[123.37818,-1.71282]]],[[[123.60873,-1.67425],[123.57488,-1.71999],[123.48731,-1.69996],[123.52329,-1.48268],[123.60873,-1.67425]]],[[[123.53907,-1.27272],[123.52858,-1.43304],[123.40838,-1.51653],[123.28028,-1.42889],[123.24334,-1.63242],[123.11069,-1.57692],[123.18483,-1.48561],[123.15235,-1.30055],[122.89584,-1.58953],[122.81202,-1.44362],[122.82081,-1.31374],[122.91383,-1.17637],[123.18946,-1.14528],[123.2461,-1.2234],[123.19874,-1.26873],[123.23194,-1.39471],[123.36598,-1.2234],[123.53907,-1.27272]]]]}},{"type":"Feature","properties":{"id":"id-su","lat":2.25781,"lng":99.20867},"geometry":{"type":"MultiPolygon","coordinates":[[[[98.50733,-0.36492],[98.5005,-0.56561],[98.44793,-0.5263],[98.42205,-0.5866],[98.27516,-0.52516],[98.33611,-0.51775],[98.42921,-0.24383],[98.50733,-0.36492]]],[[[98.55983,-0.27825],[98.54152,-0.38112],[98.29566,-0.00726],[98.4061,-0.00738],[98.55983,-0.27825]]],[[[98.5476,0.15933],[98.80574,0.16092],[98.84459,0.08486],[98.52813,0.11158],[98.5476,0.15933]]],[[[97.93442,0.96361],[97.87428,0.62202],[97.81935,0.55854],[97.70411,0.57274],[97.61378,0.82355],[97.47934,0.94343],[97.39536,0.94489],[97.24724,1.26703],[97.06365,1.41523],[97.23585,1.41669],[97.33546,1.53767],[97.41676,1.51923],[97.93442,0.96361]]],[[[98.59913,1.63199],[98.49757,1.62726],[98.43483,1.69196],[98.55519,1.68203],[98.59913,1.63199]]],[[[99.13933,0.27375],[99.10027,0.60175],[99.0486,0.61994],[99.04176,0.77704],[98.98121,0.83173],[98.84457,1.34589],[98.70965,1.56411],[98.76645,1.54902],[98.8191,1.68232],[98.72706,1.7919],[98.71111,1.72578],[98.65821,1.7639],[98.53517,1.93647],[98.26922,2.03807],[98.10133,2.18862],[98.12763,2.32699],[98.02531,2.57612],[98.05704,2.81213],[97.91039,2.92416],[97.89307,3.07919],[97.94046,3.12792],[97.86398,3.25742],[97.98955,3.33039],[97.77758,3.73646],[97.89333,3.84819],[97.89023,3.91516],[98.00103,3.98007],[98.06573,4.2509],[98.17838,4.29374],[98.26759,4.28791],[98.17897,4.10822],[98.26303,4.17731],[98.30567,4.08031],[98.40577,4.07892],[98.67662,3.91455],[98.79658,3.72544],[99.17976,3.54634],[99.55812,3.24457],[99.75074,3.18049],[99.85792,3.01146],[99.9795,2.94847],[99.95346,2.69623],[100.00799,2.60261],[99.97397,2.70307],[100.05494,2.72728],[100.12582,2.5301],[100.1211,2.66356],[100.20338,2.70987],[100.31218,2.56289],[100.29257,1.92061],[100.44398,1.61623],[100.06721,1.37935],[100.22322,1.16086],[100.1734,0.75758],[99.70666,0.88723],[99.88928,0.61696],[99.9082,0.50359],[99.81409,0.46819],[99.56434,0.56302],[99.35361,0.48447],[99.13933,0.27375]]]]}},{"type":"Feature","properties":{"id":"id-yo","lat":-7.87157,"lng":110.41748},"geometry":{"type":"Polygon","coordinates":[[[110.84356,-8.20084],[110.47674,-8.11191],[110.04274,-7.8891],[110.13651,-7.67679],[110.24596,-7.67245],[110.25878,-7.71529],[110.43768,-7.56006],[110.5369,-7.80986],[110.78133,-7.85404],[110.84356,-8.20084]]]}}]}
