{"type":"FeatureCollection","features":[{"type":"Feature","properties":{"id":"ie-ce","lat":52.83953,"lng":-8.93197},"geometry":{"type":"Polygon","coordinates":[[[-8.51314,52.7064],[-8.96085,52.69367],[-8.94262,52.77521],[-9.1468,52.62376],[-9.2858,52.59081],[-9.33308,52.59772],[-9.27896,52.63931],[-9.43448,52.61201],[-9.58072,52.66596],[-9.5528,52.63931],[-9.70686,52.58023],[-9.93635,52.55671],[-9.49865,52.75251],[-9.35407,52.9335],[-9.47765,52.94033],[-9.25109,53.15192],[-9.1586,53.11103],[-9.07287,53.11848],[-9.12816,53.15941],[-9.00128,53.14565],[-9.01802,53.10797],[-8.89069,53.05562],[-8.86217,52.96901],[-8.59696,53.0334],[-8.27967,52.96509],[-8.39697,52.90385],[-8.51314,52.7064]]]}},{"type":"Feature","properties":{"id":"ie-cn","lat":54.06016,"lng":-7.32488},"geometry":{"type":"Polygon","coordinates":[[[-8.04723,54.24387],[-7.88026,54.28702],[-7.85644,54.21142],[-7.60901,54.1399],[-7.00946,54.09706],[-6.74829,53.91397],[-6.96125,53.87077],[-6.90828,53.8086],[-6.97391,53.77532],[-7.38877,53.77899],[-7.56664,53.85883],[-7.59423,54.02327],[-8.03865,54.18941],[-8.04723,54.24387]]]}},{"type":"Feature","properties":{"id":"ie-co","lat":51.90361,"lng":-8.60959},"geometry":{"type":"MultiPolygon","coordinates":[[[[-9.8072,51.64029],[-9.89216,51.61127],[-9.91788,51.61937],[-9.88166,51.64106],[-9.8072,51.64029]]],[[[-8.42935,51.88451],[-8.32925,51.86131],[-8.30175,51.7582],[-8.48396,51.67841],[-8.49112,51.69868],[-8.51244,51.70604],[-8.55842,51.70637],[-8.49755,51.69269],[-8.53173,51.61078],[-8.75764,51.64496],[-8.69001,51.63129],[-8.69616,51.57665],[-8.85387,51.59593],[-8.93318,51.53535],[-9.12076,51.56297],[-9.22378,51.48729],[-9.38142,51.47362],[-9.31994,51.53506],[-9.40184,51.50092],[-9.44327,51.55952],[-9.82022,51.4457],[-9.83389,51.48729],[-9.54589,51.61078],[-9.84752,51.54938],[-9.45861,51.68399],[-9.44294,51.72004],[-9.56021,51.76162],[-9.54589,51.72004],[-9.62682,51.68505],[-9.87414,51.65619],[-10.0288,51.5965],[-10.16283,51.59028],[-9.94937,51.74702],[-9.86091,51.75475],[-9.77808,51.69033],[-9.32167,51.84252],[-9.29635,51.93745],[-9.12572,51.98205],[-9.20581,52.02117],[-9.17812,52.07605],[-9.26674,52.23278],[-9.12923,52.3306],[-8.97317,52.29304],[-8.69225,52.37685],[-8.51769,52.28032],[-8.3299,52.32053],[-8.19864,52.28642],[-8.09704,52.22089],[-8.145,52.14333],[-7.8518,51.97711],[-7.92223,51.91181],[-7.89147,51.8819],[-8.13419,51.80476],[-8.25056,51.8063],[-8.1754,51.85716],[-8.19376,51.89541],[-8.42935,51.88451]]]]}},{"type":"Feature","properties":{"id":"ie-cw","lat":52.69218,"lng":-6.82151},"geometry":{"type":"Polygon","coordinates":[[[-6.93102,52.88452],[-6.73103,52.91589],[-6.49601,52.87104],[-6.5667,52.80592],[-6.66163,52.82944],[-6.68804,52.77311],[-6.60907,52.71172],[-6.64701,52.65586],[-6.76896,52.61803],[-6.86425,52.47437],[-6.92327,52.46594],[-6.97794,52.67265],[-7.09261,52.72505],[-6.93769,52.8251],[-6.93102,52.88452]]]}},{"type":"Feature","properties":{"id":"ie-d","lat":53.42324,"lng":-6.25655},"geometry":{"type":"Polygon","coordinates":[[[-6.21532,53.35806],[-6.09699,53.28555],[-6.08894,53.20409],[-6.33209,53.17681],[-6.52918,53.28336],[-6.32702,53.48692],[-6.41234,53.56386],[-6.19799,53.63447],[-6.07494,53.53974],[-6.19481,53.46109],[-6.05085,53.3854],[-6.21532,53.35806]]]}},{"type":"Feature","properties":{"id":"ie-dl","lat":54.93513,"lng":-7.92498},"geometry":{"type":"MultiPolygon","coordinates":[[[[-6.93956,55.23908],[-7.40525,55.00357],[-7.54307,54.74167],[-7.92967,54.69671],[-7.84642,54.63145],[-7.71056,54.62426],[-7.84884,54.54091],[-8.24711,54.46489],[-8.30012,54.47797],[-8.21019,54.50194],[-8.27098,54.52367],[-8.12767,54.65278],[-8.45661,54.56464],[-8.38768,54.61986],[-8.79182,54.65961],[-8.6621,54.76264],[-8.40819,54.76264],[-8.55842,54.81786],[-8.49071,54.852],[-8.32567,54.83153],[-8.38134,54.85594],[-8.33703,54.90363],[-8.45079,54.92207],[-8.36657,54.94819],[-8.45661,55.00288],[-8.3474,55.06428],[-8.31998,55.03433],[-8.27847,55.16055],[-8.14127,55.16055],[-8.15648,55.1245],[-7.9768,55.22191],[-8.00414,55.17414],[-7.90856,55.18842],[-7.85644,55.13898],[-7.86612,55.21491],[-7.7987,55.25609],[-7.81574,55.19465],[-7.7176,55.16657],[-7.7025,55.09907],[-7.69506,55.20746],[-7.78816,55.21857],[-7.64395,55.27277],[-7.52579,55.11616],[-7.64102,55.05069],[-7.56184,55.0445],[-7.68139,54.95441],[-7.45617,55.05614],[-7.46288,55.14346],[-7.54955,55.2154],[-7.52432,55.29027],[-7.25674,55.284],[-7.38443,55.38638],[-6.93956,55.23908]]],[[[-8.54353,55.01533],[-8.48396,54.97553],[-8.56583,54.97553],[-8.54353,55.01533]]]]}},{"type":"Feature","properties":{"id":"ie-g","lat":53.33564,"lng":-8.88375},"geometry":{"type":"MultiPolygon","coordinates":[[[[-9.69669,53.13654],[-9.66051,53.09064],[-9.81143,53.1376],[-9.69669,53.13654]]],[[[-9.67146,53.28075],[-9.69237,53.22639],[-9.72008,53.26606],[-9.67146,53.28075]]],[[[-8.94262,53.26179],[-9.51171,53.22834],[-9.57136,53.29047],[-9.61229,53.23615],[-9.6173,53.32148],[-9.56078,53.34121],[-9.60115,53.36489],[-9.5528,53.3854],[-9.62165,53.37848],[-9.63463,53.33006],[-9.65266,53.39281],[-9.74307,53.3144],[-9.88659,53.31721],[-9.79918,53.4195],[-9.96142,53.37958],[-10.1765,53.41266],[-10.01207,53.48151],[-10.20324,53.54361],[-9.99572,53.54621],[-10.04678,53.59927],[-10.00866,53.60444],[-9.55753,53.60954],[-9.18737,53.47524],[-8.96707,53.64778],[-8.46901,53.7131],[-8.28339,53.56655],[-8.17776,53.30326],[-7.9692,53.22466],[-8.13751,53.15283],[-8.30944,52.98013],[-8.59696,53.0334],[-8.8571,52.96834],[-8.89069,53.05562],[-9.04564,53.1662],[-8.93639,53.14574],[-8.89485,53.22089],[-9.04564,53.22089],[-8.94262,53.26179]]]]}},{"type":"Feature","properties":{"id":"ie-ke","lat":53.07888,"lng":-6.86647},"geometry":{"type":"Polygon","coordinates":[[[-6.73103,52.91589],[-6.88446,52.86354],[-7.07706,52.99795],[-7.06248,53.1598],[-7.14367,53.1828],[-7.0138,53.2105],[-7.06093,53.22492],[-6.98776,53.30719],[-7.07478,53.36553],[-7.04967,53.40361],[-6.91851,53.44899],[-6.45632,53.38842],[-6.52918,53.28336],[-6.468,53.22399],[-6.77987,52.99211],[-6.73103,52.91589]]]}},{"type":"Feature","properties":{"id":"ie-kk","lat":52.54312,"lng":-7.18295},"geometry":{"type":"Polygon","coordinates":[[[-6.9945,52.27753],[-7.21596,52.2488],[-7.36463,52.33562],[-7.45791,52.47153],[-7.4191,52.5123],[-7.47497,52.61973],[-7.66823,52.77983],[-7.13803,52.86918],[-7.04739,52.79316],[-7.09261,52.72505],[-6.97794,52.67265],[-6.92337,52.57395],[-6.9945,52.27753]]]}},{"type":"Feature","properties":{"id":"ie-ky","lat":52.12472,"lng":-9.52434},"geometry":{"type":"MultiPolygon","coordinates":[[[[-10.30162,51.92479],[-10.36156,51.89203],[-10.42903,51.88984],[-10.35167,51.93114],[-10.30162,51.92479]]],[[[-9.85652,51.75861],[-9.58072,51.87767],[-10.13561,51.74116],[-10.22435,51.78213],[-10.17707,51.81367],[-10.23461,51.85102],[-10.34105,51.78827],[-10.39562,51.88451],[-10.25414,51.90868],[-10.30687,51.95344],[-10.26623,51.98847],[-9.75817,52.15205],[-10.43659,52.0974],[-10.46129,52.18],[-10.37206,52.1756],[-10.36657,52.22822],[-10.17186,52.28681],[-10.16625,52.23457],[-10.10082,52.24079],[-10.0598,52.30964],[-9.9475,52.23762],[-9.73766,52.24824],[-9.86937,52.27314],[-9.83446,52.37523],[-9.94994,52.4121],[-9.63463,52.47358],[-9.68309,52.49462],[-9.64831,52.57038],[-9.36254,52.57543],[-9.30033,52.50641],[-9.33175,52.35133],[-9.21326,52.28394],[-9.26674,52.23278],[-9.17812,52.07605],[-9.20855,52.02628],[-9.12117,51.98608],[-9.2916,51.94065],[-9.28064,51.8757],[-9.44673,51.78991],[-9.81394,51.68656],[-9.85652,51.75861]]]]}},{"type":"Feature","properties":{"id":"ie-ld","lat":53.69538,"lng":-7.72577},"geometry":{"type":"Polygon","coordinates":[[[-7.63868,53.93521],[-7.38319,53.73274],[-7.60219,53.65802],[-7.55982,53.62133],[-7.65997,53.54061],[-7.963,53.52428],[-8.03235,53.61916],[-7.88724,53.76964],[-7.92202,53.8116],[-7.7873,53.81739],[-7.63868,53.93521]]]}},{"type":"Feature","properties":{"id":"ie-lh","lat":53.93978,"lng":-6.49708},"geometry":{"type":"Polygon","coordinates":[[[-6.35483,54.11065],[-6.10729,54.01362],[-6.16076,53.97443],[-6.35985,54.01602],[-6.37296,53.89932],[-6.24324,53.86514],[-6.22277,53.79629],[-6.2458,53.72964],[-6.4481,53.71683],[-6.44567,53.76468],[-6.68437,53.90513],[-6.55269,53.98296],[-6.59507,54.05241],[-6.37751,54.06326],[-6.35483,54.11065]]]}},{"type":"Feature","properties":{"id":"ie-lk","lat":52.5456,"lng":-8.7787},"geometry":{"type":"Polygon","coordinates":[[[-9.35871,52.57534],[-8.6658,52.65286],[-8.47697,52.75507],[-8.44969,52.68789],[-8.18743,52.66536],[-8.23047,52.51586],[-8.39284,52.45168],[-8.24334,52.40734],[-8.15523,52.31241],[-8.49914,52.27696],[-8.66786,52.37334],[-8.79426,52.37923],[-8.97317,52.29304],[-9.12112,52.33159],[-9.21661,52.29397],[-9.33175,52.35133],[-9.29945,52.49943],[-9.35871,52.57534]]]}},{"type":"Feature","properties":{"id":"ie-lm","lat":54.12809,"lng":-8.02692},"geometry":{"type":"Polygon","coordinates":[[[-8.16847,54.46348],[-7.94207,54.29887],[-8.04723,54.24387],[-8.03865,54.18941],[-7.59423,54.02327],[-7.59878,53.93314],[-7.86197,53.80808],[-7.92202,53.8116],[-8.02377,53.94095],[-8.09271,53.92048],[-8.04987,54.09065],[-8.30856,54.16553],[-8.38757,54.34139],[-8.34923,54.41472],[-8.41398,54.41968],[-8.38166,54.46857],[-8.16847,54.46348]]]}},{"type":"Feature","properties":{"id":"ie-ls","lat":52.97695,"lng":-7.3788},"geometry":{"type":"Polygon","coordinates":[[[-6.93102,52.88452],[-6.93769,52.8251],[-7.04739,52.79316],[-7.18346,52.88819],[-7.45336,52.78562],[-7.5624,52.81889],[-7.66823,52.77983],[-7.71283,52.85372],[-7.65738,52.92556],[-7.72849,52.95594],[-7.59258,53.09252],[-7.63237,53.16053],[-7.37078,53.20761],[-7.28485,53.13412],[-7.0677,53.1642],[-7.07706,52.99795],[-6.93102,52.88452]]]}},{"type":"Feature","properties":{"id":"ie-mh","lat":53.64175,"lng":-6.57691},"geometry":{"type":"Polygon","coordinates":[[[-6.2458,53.72964],[-6.19799,53.63447],[-6.40676,53.56965],[-6.32702,53.48692],[-6.45632,53.38842],[-6.95768,53.4493],[-7.0738,53.37566],[-7.1816,53.42759],[-7.06104,53.46826],[-6.94761,53.64903],[-7.16181,53.6851],[-7.33854,53.79537],[-6.97391,53.77532],[-6.90828,53.8086],[-6.96125,53.87077],[-6.72633,53.9165],[-6.44567,53.76468],[-6.4481,53.71683],[-6.2458,53.72964]]]}},{"type":"Feature","properties":{"id":"ie-mn","lat":54.1613,"lng":-6.95364},"geometry":{"type":"Polygon","coordinates":[[[-7.01784,54.41317],[-6.87971,54.34159],[-6.88218,54.27726],[-6.78782,54.203],[-6.64034,54.16801],[-6.67253,54.06843],[-6.55269,53.98296],[-6.74829,53.91397],[-7.00946,54.09706],[-7.31649,54.11428],[-7.32598,54.15458],[-7.28004,54.12615],[-7.24909,54.19742],[-7.15333,54.22424],[-7.19245,54.33472],[-7.01784,54.41317]]]}},{"type":"Feature","properties":{"id":"ie-mo","lat":53.90984,"lng":-9.28313},"geometry":{"type":"MultiPolygon","coordinates":[[[[-9.1298,53.48428],[-9.90844,53.64606],[-9.90844,53.76211],[-9.5664,53.79629],[-9.62165,53.81733],[-9.5664,53.89932],[-9.94376,53.87938],[-9.90844,53.92036],[-9.91588,53.95384],[-9.78551,53.94709],[-9.89892,54.02534],[-9.83389,54.11213],[-9.94555,54.06623],[-9.99096,54.10468],[-9.90844,54.11835],[-9.98819,54.21312],[-10.08715,54.15933],[-10.06688,54.09492],[-10.12658,54.10602],[-10.0598,54.22207],[-10.1151,54.23505],[-10.00764,54.30353],[-9.88109,54.26301],[-9.97728,54.2425],[-9.9099,54.20441],[-9.84386,54.2766],[-9.765,54.25556],[-9.84398,54.32876],[-9.32201,54.31708],[-9.2176,54.28352],[-9.14123,54.1457],[-8.948,54.1416],[-8.92309,54.10858],[-9.00469,54.02626],[-8.81829,53.96994],[-8.58652,54.01014],[-8.58322,53.95815],[-8.68362,53.96136],[-8.6319,53.88493],[-8.72579,53.82137],[-8.70517,53.72184],[-8.97317,53.64453],[-9.1298,53.48428]]],[[[-9.9759,54.02114],[-9.958,53.8806],[-10.05553,53.91372],[-10.06664,53.9676],[-10.26594,53.98184],[-9.9759,54.02114]]]]}},{"type":"Feature","properties":{"id":"ie-oy","lat":53.1489,"lng":-7.82779},"geometry":{"type":"Polygon","coordinates":[[[-7.1816,53.42759],[-6.98776,53.30719],[-7.06088,53.22745],[-7.029,53.18766],[-7.25911,53.13443],[-7.37078,53.20761],[-7.62514,53.16337],[-7.59258,53.09252],[-7.72849,52.95594],[-7.81313,52.96917],[-7.96568,52.8531],[-8.02997,52.89662],[-7.91628,53.08306],[-8.07653,53.1704],[-7.97659,53.2075],[-8.04764,53.28212],[-7.94414,53.36672],[-7.75681,53.35328],[-7.61945,53.4093],[-7.44303,53.32465],[-7.1816,53.42759]]]}},{"type":"Feature","properties":{"id":"ie-rn","lat":53.68977,"lng":-8.20174},"geometry":{"type":"Polygon","coordinates":[[[-7.94414,53.36672],[-8.04568,53.27623],[-8.16464,53.29142],[-8.23864,53.3693],[-8.28339,53.56655],[-8.4625,53.7114],[-8.8171,53.66815],[-8.6935,53.74116],[-8.72579,53.82137],[-8.6319,53.88493],[-8.68362,53.96136],[-8.34168,53.92353],[-8.38457,53.99867],[-8.1342,54.11468],[-8.04987,54.09065],[-8.09271,53.92048],[-8.02377,53.94095],[-7.88466,53.78054],[-8.03235,53.61916],[-7.94414,53.36672]]]}},{"type":"Feature","properties":{"id":"ie-so","lat":54.181,"lng":-8.71357},"geometry":{"type":"Polygon","coordinates":[[[-9.13386,54.16506],[-9.01749,54.2919],[-8.67642,54.27131],[-8.51122,54.20775],[-8.621,54.25556],[-8.47029,54.2766],[-8.57266,54.31391],[-8.51915,54.32673],[-8.66828,54.35175],[-8.4667,54.475],[-8.34923,54.41472],[-8.38809,54.34583],[-8.33693,54.19695],[-8.15699,54.09804],[-8.3885,53.99562],[-8.33693,53.92487],[-8.45134,53.9117],[-8.64513,54.03221],[-8.81829,53.96994],[-9.00469,54.02626],[-8.92371,54.11664],[-9.13386,54.16506]]]}},{"type":"Feature","properties":{"id":"ie-ta","lat":52.67663,"lng":-7.92664},"geometry":{"type":"Polygon","coordinates":[[[-7.36463,52.33562],[-7.77319,52.34197],[-7.75583,52.22498],[-8.09911,52.20922],[-8.18464,52.2812],[-8.17239,52.36538],[-8.39284,52.45168],[-8.23047,52.51586],[-8.18743,52.66536],[-8.44969,52.68789],[-8.43625,52.84473],[-8.28365,52.95119],[-8.3052,52.98979],[-8.13751,53.15283],[-7.94119,53.11769],[-7.94599,52.99222],[-8.02997,52.89662],[-7.96568,52.8531],[-7.81313,52.96917],[-7.65738,52.92556],[-7.70968,52.84318],[-7.47497,52.61973],[-7.4191,52.5123],[-7.45791,52.47153],[-7.36463,52.33562]]]}},{"type":"Feature","properties":{"id":"ie-wd","lat":52.14258,"lng":-7.71652},"geometry":{"type":"Polygon","coordinates":[[[-6.99059,52.26166],[-6.95515,52.17935],[-7.0172,52.13837],[-7.10603,52.13093],[-7.07185,52.16572],[-7.10635,52.173],[-7.59997,52.10102],[-7.62735,52.06269],[-7.54516,52.055],[-7.58992,51.99116],[-7.7233,51.94457],[-7.91215,51.97972],[-8.0633,52.1348],[-8.14774,52.14679],[-7.97726,52.24162],[-7.74885,52.22823],[-7.7659,52.34327],[-7.36463,52.33562],[-7.20671,52.24735],[-6.99059,52.26166]]]}},{"type":"Feature","properties":{"id":"ie-wh","lat":53.58097,"lng":-7.30198},"geometry":{"type":"Polygon","coordinates":[[[-7.33854,53.79537],[-7.16181,53.6851],[-6.95076,53.65388],[-7.06104,53.46826],[-7.43026,53.32584],[-7.52571,53.32719],[-7.61945,53.4093],[-7.75681,53.35328],[-7.94414,53.36672],[-7.963,53.52428],[-7.65997,53.54061],[-7.55982,53.62133],[-7.60219,53.65802],[-7.33854,53.79537]]]}},{"type":"Feature","properties":{"id":"ie-ww","lat":52.93666,"lng":-6.37788},"geometry":{"type":"Polygon","coordinates":[[[-6.08894,53.20409],[-6.03038,53.11103],[-6.05162,53.00926],[-5.99352,52.95742],[-6.15103,52.74156],[-6.36671,52.78763],[-6.53709,52.6818],[-6.68535,52.76934],[-6.65837,52.83187],[-6.5667,52.80592],[-6.49601,52.87104],[-6.73103,52.91589],[-6.78364,52.98395],[-6.71873,53.06053],[-6.468,53.22399],[-6.33209,53.17681],[-6.08894,53.20409]]]}},{"type":"Feature","properties":{"id":"ie-wx","lat":52.45508,"lng":-6.58719},"geometry":{"type":"Polygon","coordinates":[[[-6.15103,52.74156],[-6.21532,52.66596],[-6.2091,52.54584],[-6.36612,52.34443],[-6.49649,52.36433],[-6.40917,52.28925],[-6.37296,52.3227],[-6.31835,52.24079],[-6.35985,52.18618],[-6.80557,52.21284],[-6.76403,52.2613],[-6.8391,52.23457],[-6.82478,52.17935],[-6.94896,52.13093],[-6.90372,52.17219],[-7.01846,52.29428],[-6.76896,52.61803],[-6.60907,52.71172],[-6.48712,52.69399],[-6.36671,52.78763],[-6.15103,52.74156]]]}}]}
