{"type":"FeatureCollection","features":[{"type":"Feature","properties":{"id":"il-d","lat":30.76696,"lng":34.85432},"geometry":{"type":"Polygon","coordinates":[[[34.24835,31.21145],[34.3509,31.28925],[34.36734,31.39281],[34.55603,31.53983],[34.4812,31.58314],[34.68055,31.87798],[34.67373,31.78636],[34.82778,31.79199],[34.87294,31.6591],[34.95318,31.60832],[34.86715,31.39643],[34.90095,31.34848],[35.16491,31.36227],[35.45854,31.49162],[35.3957,31.25768],[35.43849,31.10374],[35.14001,30.43019],[35.14528,30.12338],[34.91082,29.48994],[34.24835,31.21145]]]}},{"type":"Feature","properties":{"id":"il-ha","lat":32.6583,"lng":34.99897},"geometry":{"type":"Polygon","coordinates":[[[35.21036,32.54187],[35.06435,32.46314],[35.03273,32.3822],[34.8678,32.40751],[34.95558,32.83438],[35.02768,32.82661],[35.07549,32.89308],[35.14264,32.83213],[35.13225,32.70873],[35.02487,32.60788],[35.08228,32.53447],[35.21036,32.54187]]]}},{"type":"Feature","properties":{"id":"il-jm","lat":31.76254,"lng":35.04514},"geometry":{"type":"Polygon","coordinates":[[[35.18617,31.80874],[35.22202,31.87918],[35.26494,31.82627],[35.24242,31.71085],[35.12574,31.7331],[34.95318,31.60832],[34.87294,31.6591],[34.82778,31.79199],[34.97127,31.85495],[35.18617,31.80874]]]}},{"type":"Feature","properties":{"id":"il-m","lat":32.09778,"lng":34.92674},"geometry":{"type":"Polygon","coordinates":[[[35.03273,32.3822],[34.95822,32.18645],[35.03432,31.86111],[34.78654,31.76584],[34.73827,31.81416],[34.67373,31.78636],[34.73389,32.01331],[34.88431,32.02538],[34.86472,32.17018],[34.80443,32.19251],[34.8678,32.40751],[35.03273,32.3822]]]}},{"type":"Feature","properties":{"id":"il-ta","lat":32.0991,"lng":34.82055},"geometry":{"type":"Polygon","coordinates":[[[34.73389,32.01331],[34.80443,32.19251],[34.86256,32.17282],[34.88431,32.02538],[34.73389,32.01331]]]}},{"type":"Feature","properties":{"id":"il-z","lat":32.85055,"lng":35.46838},"geometry":{"type":"Polygon","coordinates":[[[35.56096,32.38472],[35.40686,32.41479],[35.36314,32.51011],[35.17199,32.57323],[35.11861,32.529],[35.05205,32.55411],[35.02487,32.61015],[35.15473,32.77802],[35.06544,32.92308],[35.09213,33.06769],[35.48014,33.08739],[35.54949,33.28102],[35.60385,33.24009],[35.8211,33.40672],[35.7686,33.2727],[35.88807,32.94494],[35.75759,32.74435],[35.56055,32.6409],[35.56096,32.38472]]]}}]}
