{"type":"FeatureCollection","features":[{"type":"Feature","properties":{"id":"in-an","lat":12.55933,"lng":92.85426},"geometry":{"type":"MultiPolygon","coordinates":[[[[92.73121,9.13085],[92.70851,9.20161],[92.76303,9.26415],[92.83198,9.14503],[92.73121,9.13085]]],[[[92.57449,10.65548],[92.51303,10.50797],[92.38411,10.52933],[92.417,10.62906],[92.37672,10.78402],[92.4828,10.88562],[92.56506,10.84931],[92.57449,10.65548]]],[[[92.68279,11.37153],[92.59352,11.37836],[92.63559,11.50804],[92.6963,11.45441],[92.68279,11.37153]]],[[[92.27809,11.58381],[92.23455,11.54035],[92.2173,11.59809],[92.27809,11.58381]]],[[[93.03541,11.91193],[92.94703,11.98969],[92.98072,12.03632],[93.0254,12.03156],[93.03541,11.91193]]],[[[93.08204,12.20478],[93.10328,12.10204],[93.09425,12.09097],[93.08204,12.20478]]],[[[93.07569,13.26911],[93.01954,13.03364],[92.95655,13.08466],[92.95265,12.97077],[92.90528,12.98225],[92.87631,12.91665],[92.96404,12.86494],[92.99057,12.51923],[92.93605,12.41991],[92.84669,12.43354],[92.91505,12.33836],[92.89422,12.20502],[92.7575,12.07746],[92.79265,12.03632],[92.74057,11.98363],[92.73748,11.87865],[92.76197,11.94013],[92.79949,11.89912],[92.76002,11.70869],[92.68393,11.64989],[92.69679,11.61123],[92.76148,11.66364],[92.71697,11.49445],[92.52491,11.85749],[92.57057,11.9326],[92.61769,11.8664],[92.68181,12.21963],[92.72779,12.17284],[92.79265,12.20767],[92.79265,12.29637],[92.71778,12.36249],[92.72169,12.59943],[92.78321,12.66498],[92.73748,12.8072],[92.83473,13.00202],[92.84742,13.34492],[93.01173,13.57811],[93.06642,13.5371],[93.07838,13.39712],[92.97706,13.34536],[93.07569,13.26911]]],[[[92.73748,12.96174],[92.68279,12.79731],[92.70834,12.98867],[92.73748,12.96174]]],[[[93.0005,13.6577],[93.03321,13.68024],[93.05275,13.6402],[93.0005,13.6577]]],[[[93.92872,7.01236],[93.90309,6.8083],[93.81267,6.75397],[93.76531,6.9243],[93.64918,7.01309],[93.67644,7.18187],[93.81397,7.24185],[93.865,7.20067],[93.92872,7.01236]]],[[[93.73439,7.35082],[93.62818,7.25332],[93.594,7.31477],[93.69695,7.44505],[93.73439,7.35082]]],[[[93.45737,7.88019],[93.34498,7.89134],[93.3226,8.0021],[93.39137,8.01557],[93.45737,7.88019]]],[[[93.51832,7.96581],[93.5586,8.01362],[93.57398,7.92487],[93.51832,7.96581]]],[[[93.53761,8.05732],[93.48439,7.99189],[93.51694,8.0633],[93.44662,8.15436],[93.50465,8.227],[93.53761,8.05732]]],[[[93.16733,8.20453],[93.06577,8.26813],[93.08375,8.3559],[93.11411,8.25642],[93.16733,8.20453]]],[[[93.6268,8.50585],[93.60141,8.43818],[93.60768,8.56916],[93.6268,8.50585]]],[[[93.87281,12.26887],[93.8519,12.27155],[93.86061,12.2812],[93.87281,12.26887]]],[[[94.28093,13.44355],[94.27491,13.42032],[94.26189,13.42927],[94.28093,13.44355]]]]}},{"type":"Feature","properties":{"id":"in-ap","lat":15.90164,"lng":79.41974},"geometry":{"type":"MultiPolygon","coordinates":[[[[80.98316,15.78075],[80.94256,15.74108],[80.87916,15.84007],[80.93727,15.81892],[80.98316,15.78075]]],[[[80.27775,13.51252],[80.14186,13.72895],[80.13559,13.61909],[80.094,13.69477],[80.05649,13.59516],[80.11939,13.50068],[80.25921,13.466],[80.10253,13.45936],[80.10863,13.51212],[80.03411,13.53413],[80.05416,13.48385],[79.9567,13.36577],[79.75816,13.2933],[79.77604,13.22082],[79.44955,13.33115],[79.4202,13.21999],[79.31488,13.13199],[79.2508,13.14775],[79.16161,13.04491],[78.96121,13.09323],[78.90136,13.03781],[78.85868,13.08047],[78.72494,13.05778],[78.64474,12.992],[78.57766,12.77049],[78.50036,12.7448],[78.44744,12.64352],[78.29913,12.67502],[78.22957,12.75989],[78.24404,12.85374],[78.35918,12.91725],[78.4678,12.86766],[78.41189,12.9367],[78.56836,13.27482],[78.38088,13.32275],[78.36837,13.591],[78.06793,13.65927],[78.07971,13.85693],[78.03268,13.88473],[77.92065,13.83047],[77.93708,13.96326],[77.87879,13.91662],[77.79156,13.94168],[77.78919,13.87032],[77.6693,13.76094],[77.44874,13.69945],[77.38921,13.84324],[77.14354,13.9107],[77.09992,13.85866],[77.12773,13.76789],[76.96278,13.7672],[77.01021,13.91406],[76.87544,14.16273],[76.96743,14.17102],[76.99533,14.06638],[77.11233,14.00506],[77.28927,14.01075],[77.38673,13.89037],[77.32792,14.12265],[77.46776,14.19244],[77.46104,14.29014],[77.38239,14.33543],[77.37898,14.23838],[77.25681,14.33396],[77.13289,14.34401],[77.07274,14.23259],[76.9082,14.25786],[76.85818,14.38256],[76.9296,14.46651],[76.82563,14.48126],[76.74057,14.61293],[76.82222,14.92098],[76.71948,14.98588],[76.76434,15.09412],[77.03419,15.00521],[77.13072,15.14163],[77.10489,15.30821],[77.02592,15.35149],[76.96743,15.50601],[77.00804,15.51184],[77.01053,15.64463],[77.08494,15.66729],[77.03409,15.87373],[77.22643,15.97639],[77.66057,15.89557],[77.8956,15.918],[78.10035,15.82966],[78.23528,15.95047],[78.24439,16.03852],[78.49977,16.09378],[78.79111,16.03453],[78.84693,16.15074],[79.02166,16.24714],[79.21005,16.2366],[79.21347,16.49323],[79.26564,16.56961],[79.77166,16.72712],[79.9581,16.63044],[80.07333,16.82286],[80.0127,16.90215],[80.15313,17.02314],[80.25411,17.0236],[80.39314,16.83852],[80.59791,16.79328],[80.58623,16.93394],[80.38431,16.97598],[80.39736,17.07908],[80.46742,17.03575],[80.59094,17.13979],[80.85577,17.05307],[80.93079,17.19252],[81.40834,17.37064],[81.57389,17.70453],[81.77578,17.83321],[81.75897,17.90893],[82.04236,18.04327],[82.24008,17.99293],[82.32989,18.04404],[82.36028,18.13941],[82.31129,18.2055],[82.4382,18.51926],[82.5027,18.51063],[82.59737,18.32521],[82.58238,18.25106],[82.64243,18.22948],[82.79539,18.42934],[82.90412,18.35534],[83.0392,18.39035],[83.08354,18.52533],[83.02814,18.64085],[83.12653,18.75816],[83.20167,18.74162],[83.39205,18.85332],[83.29986,18.99158],[83.44961,18.96845],[83.46419,19.07346],[83.51834,19.01],[83.61281,19.12979],[83.73807,18.92928],[83.74954,19.00111],[83.80184,18.99995],[83.89713,18.80836],[84.16213,18.78531],[84.33607,18.8165],[84.46723,18.95362],[84.46971,19.03065],[84.6697,19.09015],[84.68551,19.15757],[84.76302,19.15638],[84.77776,19.1162],[84.73878,19.14765],[84.71998,19.10163],[84.77833,19.09101],[84.67954,18.94571],[84.42368,18.63646],[84.24692,18.52558],[84.34995,18.55292],[84.11313,18.29828],[83.45191,17.92292],[83.34132,17.71743],[83.24692,17.71625],[83.29908,17.66429],[83.2129,17.63491],[83.23894,17.59296],[82.71852,17.34862],[82.37037,17.11009],[82.2527,16.92919],[82.31422,16.84662],[82.36248,16.85908],[82.34889,16.95649],[82.36655,16.90864],[82.36557,16.81159],[82.33814,16.67841],[82.28093,16.62084],[82.30738,16.57978],[81.76295,16.32258],[81.55698,16.37303],[81.41668,16.34015],[81.41139,16.38251],[81.25961,16.33271],[81.14975,15.96963],[80.99887,15.84675],[81.01254,15.77782],[80.91,15.85269],[80.8965,16.03107],[80.80714,15.71638],[80.77613,15.88426],[80.67018,15.9077],[80.27963,15.70067],[80.09059,15.30488],[80.05299,15.0926],[80.10816,14.71434],[80.17848,14.60578],[80.14186,14.57123],[80.19695,14.56501],[80.17498,14.34455],[80.04664,14.20661],[80.13559,14.22919],[80.27775,13.51252]],[[82.30105,16.73329],[82.17765,16.71859],[82.26064,16.69033],[82.30105,16.73329]]]]}},{"type":"Feature","properties":{"id":"in-ar","lat":28.0254,"lng":95.00604},"geometry":{"type":"Polygon","coordinates":[[[96.19532,28.94111],[96.36657,29.03654],[96.45761,28.99459],[96.59801,28.70991],[96.50104,28.68763],[96.30185,28.42071],[96.36964,28.37812],[96.56152,28.44729],[96.71692,28.43654],[96.96579,28.33047],[97.07845,28.37514],[97.3235,28.21748],[97.33352,27.89416],[97.22293,27.89972],[96.86213,27.5993],[96.88135,27.44411],[97.10129,27.1833],[97.11917,27.08729],[96.86533,27.17162],[96.85376,27.24873],[96.70524,27.36076],[96.14259,27.25751],[95.6993,26.89619],[95.24693,26.6489],[95.18502,27.04202],[95.42377,27.14129],[95.53425,27.27177],[95.64381,27.23033],[95.90374,27.27609],[96.00968,27.36975],[95.97826,27.44969],[95.88772,27.40179],[95.88679,27.557],[95.77589,27.71733],[95.9641,27.9933],[95.71677,27.9902],[95.40837,27.87083],[95.30481,27.89589],[94.52594,27.6039],[94.35293,27.59312],[94.24306,27.64798],[94.24306,27.52597],[93.84659,27.19889],[93.82655,27.09599],[93.46068,26.94724],[93.375,26.98879],[93.0203,26.95301],[92.69877,27.06592],[92.32887,26.93575],[92.08037,26.92157],[91.9877,27.10403],[92.08878,27.29234],[92.0236,27.44678],[91.72709,27.45994],[91.59506,27.54638],[91.63577,27.78252],[91.56436,27.85137],[91.82659,27.80763],[91.86491,27.72999],[91.95225,27.72482],[92.23957,27.86528],[92.30385,27.78616],[92.39284,27.85603],[92.57498,27.84781],[92.73639,27.98591],[92.63892,28.05749],[92.67861,28.13306],[93.20782,28.34054],[93.18629,28.432],[93.31717,28.60346],[93.44621,28.67189],[93.92779,28.68275],[93.99202,28.84465],[94.25018,28.93311],[94.34731,29.02435],[94.27079,29.09793],[94.2875,29.14794],[94.51478,29.22106],[94.59994,29.31664],[94.70422,29.2847],[94.77657,29.1667],[95.36741,29.0365],[95.48758,29.06899],[95.56443,29.24561],[95.71716,29.21828],[95.74478,29.34043],[96.14197,29.36847],[96.23529,29.24121],[96.36624,29.25723],[96.31642,29.17186],[96.17463,29.10884],[96.19532,28.94111]]]}},{"type":"Feature","properties":{"id":"in-as","lat":26.06045,"lng":90.76752},"geometry":{"type":"Polygon","coordinates":[[[89.8587,26.72206],[90.12719,26.75139],[90.17742,26.83206],[90.34883,26.89665],[90.71708,26.76705],[91.29658,26.77459],[91.42019,26.87154],[91.52065,26.79759],[91.82512,26.85846],[91.87866,26.80302],[91.89313,26.88136],[92.03586,26.85485],[92.08037,26.92157],[92.32887,26.93575],[92.69877,27.06592],[93.0203,26.95301],[93.375,26.98879],[93.4798,26.94921],[93.82655,27.09599],[93.84659,27.19889],[94.24306,27.52597],[94.24306,27.64798],[94.35293,27.59312],[94.52594,27.6039],[95.30481,27.89589],[95.40837,27.87083],[95.71677,27.9902],[95.97309,27.98881],[95.77589,27.71733],[95.88679,27.557],[95.88772,27.40179],[95.97826,27.44969],[96.00719,27.36513],[95.90374,27.27609],[95.64381,27.23033],[95.5111,27.26198],[95.42377,27.14129],[95.0179,26.92818],[94.91713,26.95117],[94.76541,26.78803],[94.48656,26.67667],[94.34549,26.4897],[94.26963,26.55471],[94.00773,26.1844],[93.94778,25.88617],[93.77911,25.83103],[93.79637,25.9516],[93.68506,25.927],[93.70584,25.86436],[93.33831,25.54847],[93.44373,25.4217],[93.45572,25.32259],[93.26297,25.03599],[93.19941,24.81652],[93.11765,24.79719],[93.03673,24.41461],[92.83726,24.36761],[92.75778,24.48298],[92.62445,24.23852],[92.48018,24.12923],[92.42302,24.23803],[92.22024,24.26433],[92.25776,24.396],[92.14998,24.54218],[92.23378,24.77753],[92.21766,24.87458],[92.47769,24.86391],[92.48379,24.92822],[92.38494,25.00477],[92.56069,25.15025],[92.81163,25.23412],[92.78961,25.34889],[92.58487,25.49152],[92.67789,25.61063],[92.59345,25.58666],[92.3824,25.76434],[92.16733,25.68954],[92.21466,25.91948],[92.1757,25.97978],[92.26427,26.08267],[91.92248,26.03823],[91.80714,26.0881],[91.67247,25.93116],[91.59196,26.03441],[91.47228,25.8901],[91.52737,25.88808],[91.36055,25.84325],[91.22206,25.73068],[91.19591,25.86894],[91.03127,25.83571],[90.97453,25.94364],[90.64432,25.93147],[90.60959,25.9694],[90.53466,25.91095],[90.54531,25.98066],[90.3971,26.01715],[90.13562,25.95979],[89.94462,25.72582],[89.99847,25.58066],[89.80857,25.43951],[89.83439,25.63477],[89.78313,25.81445],[89.82866,25.9794],[89.6558,26.1613],[89.82886,26.32785],[89.8885,26.5329],[89.8587,26.72206]]]}},{"type":"Feature","properties":{"id":"in-br","lat":25.84278,"lng":86.18775},"geometry":{"type":"Polygon","coordinates":[[[87.58698,26.37803],[87.86981,26.46464],[88.00665,26.36986],[88.08714,26.5391],[88.19403,26.54952],[88.28229,26.42844],[88.30017,26.33893],[87.97027,26.1383],[87.78744,25.91167],[88.04282,25.67815],[88.06742,25.49108],[87.9558,25.53408],[87.76801,25.43628],[87.74496,25.39946],[87.83901,25.2883],[87.78372,25.21409],[87.52348,25.32378],[87.42343,25.18854],[87.30251,25.18391],[87.26137,25.06397],[87.18551,25.06198],[87.12133,24.98628],[87.04226,24.5884],[86.91783,24.61268],[86.88992,24.5316],[86.75536,24.58814],[86.58565,24.56145],[86.44974,24.34311],[86.27642,24.43481],[86.29048,24.55155],[86.13669,24.56959],[86.04015,24.74999],[85.91158,24.69847],[85.84916,24.76446],[85.74601,24.77004],[85.64731,24.64857],[85.65682,24.55765],[85.52639,24.50155],[85.28061,24.48727],[85.089,24.34195],[85.08063,24.39332],[84.90885,24.35368],[84.79847,24.49659],[84.48449,24.30286],[84.31437,24.44313],[84.30538,24.5308],[84.1305,24.46977],[84.02167,24.63904],[83.91842,24.5438],[83.5231,24.52967],[83.52362,24.74635],[83.35484,24.87505],[83.32301,25.07901],[83.38409,25.23593],[83.8869,25.51702],[84.14342,25.73621],[84.27602,25.64148],[84.35592,25.76055],[84.52417,25.70022],[84.61047,25.77388],[84.37431,25.9403],[84.24357,25.94371],[83.98808,26.20856],[84.18559,26.28486],[84.18621,26.39462],[83.92628,26.46464],[83.92587,26.54636],[83.96349,26.51593],[84.05402,26.56476],[84.09919,26.64959],[84.39395,26.65442],[84.24636,26.75705],[84.22611,26.89151],[84.07056,26.9236],[83.83409,27.43404],[84.00767,27.44081],[84.09955,27.51687],[84.28941,27.37611],[84.57704,27.32903],[84.65765,27.20341],[84.64024,27.02838],[84.81749,27.0106],[85.01856,26.8458],[85.16202,26.85102],[85.19493,26.75888],[85.28728,26.73697],[85.60938,26.85102],[85.70183,26.79661],[85.71289,26.65321],[85.82854,26.56613],[86.01137,26.65445],[86.19585,26.58267],[86.28443,26.61202],[86.7136,26.41456],[87.04133,26.58019],[87.10629,26.40475],[87.2191,26.4081],[87.30049,26.34599],[87.41645,26.42697],[87.58698,26.37803]]]}},{"type":"Feature","properties":{"id":"in-ch","lat":30.71499,"lng":76.79297},"geometry":{"type":"Polygon","coordinates":[[[76.69809,30.74926],[76.81457,30.78913],[76.82728,30.68071],[76.69809,30.74926]]]}},{"type":"Feature","properties":{"id":"in-ct","lat":20.95928,"lng":81.51221},"geometry":{"type":"Polygon","coordinates":[[[82.93647,23.92017],[83.22131,23.95422],[83.33706,24.14023],[83.5107,24.0829],[83.54036,23.95673],[83.71182,23.80098],[83.76153,23.59652],[83.91625,23.56376],[83.92369,23.62349],[83.98633,23.63902],[84.01454,23.55399],[83.94395,23.38291],[84.02829,23.35839],[84.02891,23.14611],[84.115,22.99885],[84.3184,22.98539],[84.35219,22.88558],[84.19097,22.70094],[83.9887,22.58593],[83.95573,22.37871],[83.62366,22.21327],[83.557,22.12943],[83.51287,21.97305],[83.56485,21.85358],[83.46688,21.79999],[83.32766,21.49915],[83.37975,21.33919],[83.27939,21.3588],[83.14359,21.12062],[82.96458,21.17853],[82.65669,21.15261],[82.46301,20.85539],[82.34591,20.87245],[82.34012,20.54249],[82.42032,20.45162],[82.41557,20.06697],[82.69504,20.00054],[82.71281,19.84956],[82.59272,19.7691],[82.57907,19.84316],[82.47593,19.87238],[82.3611,19.8839],[82.30488,19.82331],[82.21786,19.97299],[82.09073,20.05469],[82.0219,20.01167],[81.9449,20.10557],[81.8678,20.04666],[81.81716,19.92434],[82.03616,19.76709],[82.03192,19.50845],[82.16752,19.40522],[82.14571,19.22531],[82.22447,18.92195],[82.13889,18.74725],[82.09869,18.77061],[81.90335,18.63408],[81.94707,18.5676],[81.73313,18.34958],[81.54255,18.26245],[81.39403,17.80669],[81.15725,17.8379],[81.0294,17.77698],[80.93814,18.06616],[80.95912,18.14825],[80.87354,18.13757],[80.82828,18.2153],[80.7426,18.16698],[80.77422,18.24853],[80.66518,18.44999],[80.50261,18.59995],[80.35203,18.59228],[80.26139,18.74451],[80.34923,18.83092],[80.27182,18.97944],[80.40536,19.2504],[80.57599,19.39197],[80.72048,19.26156],[80.83096,19.33425],[80.80575,19.40334],[80.89701,19.46861],[80.70136,19.59751],[80.53775,19.81091],[80.47884,19.76647],[80.40897,19.792],[80.48607,19.85499],[80.42747,19.88824],[80.44484,19.93121],[80.53114,19.9207],[80.55718,20.04834],[80.53062,20.13487],[80.41817,20.14887],[80.42437,20.23409],[80.6224,20.32589],[80.6349,20.51234],[80.61465,20.60618],[80.49486,20.60117],[80.57299,20.69757],[80.55212,20.91932],[80.43533,20.99923],[80.45962,21.13587],[80.67841,21.30198],[80.73981,21.74146],[80.82156,21.80278],[80.90341,22.08529],[81.00222,22.06312],[81.16479,22.4653],[81.35806,22.49796],[81.4178,22.43749],[81.64228,22.55085],[81.76641,22.66399],[81.77933,22.83582],[81.94025,22.94583],[81.94614,23.04296],[82.14168,23.11322],[82.18974,23.28873],[82.12494,23.36219],[82.0344,23.36762],[81.92754,23.49541],[81.75948,23.54352],[81.62833,23.48782],[81.59143,23.56117],[81.6859,23.70651],[81.61955,23.86756],[81.68187,23.88513],[81.80868,23.79475],[81.93694,23.84066],[82.49867,23.7724],[82.76811,23.92895],[82.80087,23.99872],[82.93647,23.92017]]]}},{"type":"Feature","properties":{"id":"in-dh","lat":20.19879,"lng":72.98875},"geometry":{"type":"MultiPolygon","coordinates":[[[[73.07133,20.33563],[73.12322,20.27814],[73.04178,20.15774],[73.17003,20.16453],[73.14285,20.02661],[72.99723,20.03981],[72.88871,20.23306],[73.07133,20.33563]]],[[[72.81811,20.37877],[72.86378,20.46202],[72.88183,20.3921],[72.81811,20.37877]]],[[[71.00082,20.72215],[70.97604,20.73286],[71.00595,20.73656],[71.00082,20.72215]]]]}},{"type":"Feature","properties":{"id":"in-dl","lat":28.63754,"lng":77.10446},"geometry":{"type":"Polygon","coordinates":[[[77.2008,28.87679],[77.31314,28.70727],[77.3274,28.51971],[77.19356,28.43261],[77.00339,28.5589],[76.87265,28.51942],[76.83369,28.57893],[76.94727,28.69616],[76.94355,28.82628],[77.2008,28.87679]]]}},{"type":"Feature","properties":{"id":"in-ga","lat":15.31619,"lng":74.10003},"geometry":{"type":"Polygon","coordinates":[[[74.09116,14.8876],[73.9131,15.07892],[73.96217,15.15204],[73.89129,15.34321],[73.78289,15.4079],[73.96778,15.37377],[73.7964,15.44888],[73.86598,15.53758],[73.75123,15.51313],[73.73707,15.59854],[73.83814,15.66112],[73.72828,15.61957],[73.69793,15.66283],[73.68678,15.71312],[73.82643,15.78304],[73.96441,15.61881],[74.17235,15.65339],[74.23798,15.61602],[74.30423,15.28917],[74.24087,15.24731],[74.29276,15.18827],[74.26661,15.03231],[74.22661,14.94325],[74.09116,14.8876]]]}},{"type":"Feature","properties":{"id":"in-gj","lat":22.39255,"lng":71.93187},"geometry":{"type":"Polygon","coordinates":[[[70.91772,24.36172],[71.08277,24.41151],[70.97714,24.46494],[70.95482,24.58452],[71.05663,24.69282],[71.22235,24.63682],[71.54584,24.68805],[71.82149,24.63571],[71.85683,24.68493],[71.93476,24.65816],[72.05093,24.70836],[72.17278,24.634],[72.3275,24.64216],[72.24875,24.59271],[72.4136,24.52297],[72.457,24.43055],[72.54454,24.51013],[72.71756,24.39024],[72.89739,24.36058],[72.99454,24.49006],[73.09107,24.50721],[73.09727,24.4043],[73.21665,24.36903],[73.10751,24.29229],[73.10162,24.15943],[73.24559,24.01554],[73.35411,24.10473],[73.42387,23.94094],[73.35814,23.78736],[73.50273,23.70171],[73.50418,23.60264],[73.61538,23.60179],[73.62717,23.4387],[73.80348,23.4388],[73.88544,23.33922],[73.95955,23.35883],[74.08367,23.27153],[74.12192,23.17021],[74.20594,23.17207],[74.30805,23.06947],[74.365,22.87496],[74.45192,22.84093],[74.36025,22.63242],[74.1399,22.50581],[74.03345,22.50963],[74.09814,22.41693],[74.24573,22.38561],[74.05939,22.32063],[74.12884,21.95176],[73.80938,21.83647],[73.83914,21.68219],[73.7516,21.61103],[73.82085,21.50833],[74.14651,21.5707],[74.28542,21.5731],[74.29999,21.52791],[74.04223,21.46179],[73.91862,21.29157],[73.80845,21.28589],[73.6961,21.16468],[73.55348,21.19548],[73.86829,20.97477],[73.90901,20.77571],[73.79232,20.60618],[73.69982,20.56241],[73.62996,20.56386],[73.44723,20.72003],[73.36465,20.65267],[73.4587,20.53802],[73.36072,20.36938],[73.37788,20.18032],[73.26254,20.19094],[73.19298,20.11102],[73.15474,20.17784],[73.05366,20.14221],[73.03743,20.21205],[73.12322,20.27814],[73.06513,20.33734],[72.89243,20.25184],[72.94721,20.1274],[72.7081,20.07264],[72.78159,20.35228],[72.88183,20.3921],[72.847,20.46831],[72.89894,20.73216],[72.94679,20.75947],[72.88575,20.80711],[72.9004,20.86811],[72.83692,20.83584],[72.88844,20.98261],[72.77198,21.02387],[72.84986,21.048],[72.80958,21.13003],[72.70037,21.07477],[72.71404,21.16413],[72.615,21.10586],[72.73455,21.19892],[72.61842,21.25292],[72.58676,21.34121],[72.64576,21.36278],[72.56463,21.38581],[72.74708,21.45287],[72.58367,21.41743],[72.82309,21.64395],[72.88966,21.64053],[73.13201,21.7578],[72.92693,21.68496],[72.5503,21.66669],[72.56691,21.84935],[72.73455,21.99404],[72.54273,21.91083],[72.50172,21.97602],[72.57545,22.19452],[72.74822,22.16405],[72.81227,22.23412],[72.91603,22.22309],[72.90577,22.2814],[72.7566,22.24372],[72.57374,22.28824],[72.46616,22.23257],[72.39186,22.25349],[72.39723,22.36677],[72.3283,22.26073],[72.24041,22.30191],[72.14877,22.2779],[72.24041,22.28824],[72.23911,22.23892],[72.30649,22.22956],[72.30763,22.07901],[72.17311,21.97565],[72.09702,22.00702],[72.10206,21.94505],[72.02866,21.93879],[72.1565,21.92585],[72.16944,21.84138],[72.05795,21.89875],[72.1045,21.83576],[72.00416,21.85773],[71.9961,21.79951],[72.16603,21.79393],[72.29884,21.62629],[72.1045,21.31501],[72.10475,21.20506],[71.14064,20.76569],[70.97299,20.70962],[70.74025,20.71849],[70.33668,20.92707],[70.05445,21.15316],[69.8086,21.46581],[69.42742,21.78124],[69.39088,21.8767],[69.33619,21.86245],[69.19842,21.97972],[68.94459,22.29507],[68.98325,22.41938],[69.07358,22.48188],[69.07179,22.39948],[69.20216,22.41486],[69.16969,22.32795],[69.21209,22.27391],[69.47967,22.34223],[69.51596,22.44815],[69.61606,22.3559],[69.73341,22.48005],[69.79493,22.41861],[69.97299,22.54145],[70.17848,22.56196],[70.37525,22.90265],[70.50473,22.97956],[70.50294,23.1044],[70.46713,23.12971],[70.39877,23.06904],[70.39243,22.94086],[70.23308,23.00015],[70.1631,22.94896],[70.13063,22.99396],[70.13543,22.93],[69.83318,22.85847],[69.71583,22.74689],[69.5857,22.76118],[69.20191,22.85224],[68.86622,23.01996],[68.65406,23.15778],[68.62306,23.26765],[68.55226,23.25971],[68.60694,23.32559],[68.52068,23.36921],[68.53639,23.42133],[68.42368,23.44579],[68.48585,23.51411],[68.43735,23.54881],[68.41163,23.4947],[68.40887,23.62132],[68.49147,23.61884],[68.46941,23.65925],[68.82162,23.8784],[68.42775,23.7143],[68.32732,23.5869],[68.1434,23.6127],[68.27589,23.66584],[68.16375,23.75772],[68.26393,23.93593],[68.72447,23.96518],[68.74731,24.33118],[68.79919,24.32908],[68.83877,24.23645],[68.9042,24.32058],[68.98078,24.25539],[69.56307,24.27676],[69.76905,24.16256],[70.01596,24.17405],[70.10971,24.3049],[70.52095,24.42492],[70.56291,24.42409],[70.56022,24.28725],[70.62151,24.24116],[70.77602,24.23669],[70.91772,24.36172]]]}},{"type":"Feature","properties":{"id":"in-hp","lat":31.86736,"lng":77.31781},"geometry":{"type":"Polygon","coordinates":[[[78.38098,32.52804],[78.45219,32.41678],[78.45798,32.22966],[78.74458,31.9642],[78.67089,31.77052],[78.81889,31.60737],[78.69952,31.51002],[78.76256,31.44511],[78.74086,31.31773],[78.89261,31.28177],[78.99325,31.13079],[78.86953,31.12198],[78.79274,31.20701],[78.50098,31.21957],[78.31298,31.2945],[77.94111,31.1729],[77.7497,30.97992],[77.79342,30.89574],[77.70578,30.79145],[77.7433,30.60056],[77.81296,30.52106],[77.57586,30.42874],[77.58382,30.38218],[77.43438,30.42122],[77.45205,30.45478],[77.20813,30.47695],[77.13414,30.55436],[77.12597,30.71138],[76.90573,30.8993],[76.76816,30.9076],[76.62564,31.01661],[76.62843,31.22008],[76.4394,31.29969],[76.35992,31.4303],[76.27538,31.31044],[76.17946,31.31848],[75.87974,31.97239],[75.57785,32.0837],[75.66105,32.18879],[75.6134,32.25093],[75.91261,32.41906],[75.84739,32.51675],[75.92263,32.61734],[75.9124,32.7619],[75.80688,32.92368],[75.95467,32.90138],[76.29429,33.1479],[76.54244,33.23286],[76.75452,33.19456],[77.08845,32.95021],[77.3487,32.86724],[77.72107,33.01264],[78.00891,32.61031],[78.36042,32.76761],[78.37778,32.65734],[78.27401,32.49114],[78.38098,32.52804]]]}},{"type":"Feature","properties":{"id":"in-hr","lat":29.31587,"lng":76.05253},"geometry":{"type":"Polygon","coordinates":[[[76.81012,30.93426],[77.12597,30.71138],[77.13414,30.55436],[77.20813,30.47695],[77.45205,30.45478],[77.43438,30.42122],[77.58796,30.37045],[77.57008,30.27823],[77.22994,29.97665],[77.05817,29.55548],[77.12028,29.48378],[77.06561,29.42485],[77.14819,29.41492],[77.13393,29.11636],[77.21992,28.90604],[76.9544,28.83547],[76.94727,28.69616],[76.83369,28.57893],[76.87265,28.51942],[77.00339,28.5589],[77.19356,28.43261],[77.3274,28.51971],[77.46579,28.43428],[77.46652,28.31522],[77.53866,28.24306],[77.46807,28.04681],[77.52925,27.95251],[77.23366,27.79329],[77.04081,27.80729],[77.07781,27.74616],[76.91048,27.6704],[76.94149,28.13534],[76.84268,28.23394],[76.55949,27.97129],[76.4456,28.0647],[76.45345,28.16283],[76.30256,28.19924],[76.33294,28.0518],[76.15962,28.04428],[76.20913,27.8274],[75.98754,27.84789],[75.92635,27.9376],[76.03002,28.10214],[75.94144,28.11772],[76.08138,28.17459],[75.95777,28.34346],[75.77287,28.43253],[75.59356,28.64267],[75.48597,28.92684],[75.51873,28.98882],[75.39295,29.10598],[75.38809,29.25765],[75.33817,29.23455],[75.31378,29.29894],[75.07958,29.23633],[74.83123,29.40376],[74.61284,29.33281],[74.53708,29.44138],[74.61005,29.48779],[74.60478,29.75503],[74.45936,29.76309],[74.54701,29.86081],[74.51652,29.94719],[74.65067,29.91407],[74.81624,29.98631],[74.99566,29.87298],[75.10211,29.92381],[75.1448,29.79387],[75.19317,29.83267],[75.23823,29.74878],[75.17229,29.68493],[75.23461,29.56179],[75.30179,29.58049],[75.45248,29.80921],[75.69856,29.76898],[75.79695,29.83019],[75.88666,29.74924],[76.04386,29.75816],[76.22556,29.86908],[76.17698,29.94554],[76.25274,30.08858],[76.21388,30.13749],[76.37346,30.11697],[76.40932,30.18588],[76.45459,30.10162],[76.53138,30.08398],[76.64145,30.19798],[76.53913,30.24513],[76.72971,30.3496],[76.72765,30.42006],[76.90035,30.37202],[76.90149,30.5988],[76.82728,30.68071],[76.83524,30.83587],[76.76816,30.9076],[76.81012,30.93426]]]}},{"type":"Feature","properties":{"id":"in-jh","lat":23.68228,"lng":85.19297},"geometry":{"type":"Polygon","coordinates":[[[83.33706,24.14023],[83.45396,24.36159],[83.39422,24.47442],[83.43783,24.52093],[83.75016,24.50838],[83.93827,24.54868],[84.02167,24.63904],[84.1305,24.46977],[84.30538,24.5308],[84.31437,24.44313],[84.48449,24.30286],[84.79847,24.49659],[84.90885,24.35368],[85.08063,24.39332],[85.089,24.34195],[85.28061,24.48727],[85.65682,24.55765],[85.64731,24.64857],[85.74601,24.77004],[85.84916,24.76446],[85.91158,24.69847],[86.04015,24.74999],[86.13669,24.56959],[86.29048,24.55155],[86.27642,24.43481],[86.44974,24.34311],[86.58565,24.56145],[86.75536,24.58814],[86.88992,24.5316],[86.91783,24.61268],[87.04226,24.5884],[87.12815,25.00163],[87.26137,25.06397],[87.30251,25.18391],[87.42343,25.18854],[87.52348,25.32378],[87.77018,25.23699],[87.77628,25.09679],[87.87746,24.93887],[87.8542,24.7897],[87.811,24.78554],[87.89999,24.62095],[87.75085,24.59333],[87.80046,24.50078],[87.7338,24.33469],[87.62373,24.26048],[87.66155,24.1862],[87.56327,24.11207],[87.48854,24.13243],[87.45816,24.01983],[87.23553,24.04042],[87.28514,23.94068],[87.24122,23.85084],[87.14469,23.87813],[87.13187,23.80312],[86.87721,23.91306],[86.7998,23.72553],[86.41047,23.61657],[86.27301,23.45374],[86.12645,23.49247],[86.12914,23.57835],[86.03912,23.60716],[86.00481,23.51422],[85.82549,23.47932],[85.89484,23.41648],[85.82983,23.2608],[85.88843,23.16308],[86.00191,23.1651],[86.17803,23.00573],[86.50648,22.98834],[86.41047,22.93578],[86.3991,22.78497],[86.74006,22.55821],[86.71815,22.4694],[86.85251,22.30202],[86.68652,22.21802],[86.49718,22.33468],[86.36603,22.33006],[86.03984,22.55674],[85.93784,22.49917],[85.99323,22.3352],[85.97411,22.10459],[85.83428,21.98613],[85.78064,22.0222],[85.79221,22.12909],[85.67914,22.07586],[85.41001,22.16201],[85.22015,22.02915],[85.09789,22.11346],[84.98627,22.10666],[85.10471,22.33083],[85.06554,22.5032],[84.90834,22.42197],[84.51673,22.42142],[84.42082,22.33099],[84.31096,22.32401],[84.17856,22.36437],[83.9702,22.53935],[84.3369,22.86189],[84.33101,22.9703],[84.11934,22.99568],[84.02891,23.14611],[84.02829,23.35839],[83.94395,23.38291],[84.01454,23.55399],[83.98633,23.63902],[83.92369,23.62349],[83.91625,23.56376],[83.76153,23.59652],[83.71182,23.80098],[83.54036,23.95673],[83.51752,24.07522],[83.33706,24.14023]]]}},{"type":"Feature","properties":{"id":"in-jk","lat":33.53816,"lng":75.23662},"geometry":{"type":"Polygon","coordinates":[[[74.72498,32.46081],[74.62958,32.58809],[74.68529,32.83123],[74.57377,32.75255],[74.34619,32.76689],[74.31126,32.99429],[74.15385,33.04018],[73.98849,33.20862],[74.15778,33.49424],[73.9767,33.64839],[73.97071,33.74706],[74.27229,33.96214],[74.22837,34.01289],[73.91624,34.02795],[73.8933,34.11474],[73.99055,34.21851],[73.93774,34.30421],[73.77486,34.37095],[73.92596,34.56497],[73.91934,34.64254],[74.28583,34.76889],[75.23689,34.63189],[75.34809,34.55722],[75.37455,34.37098],[75.46949,34.28005],[75.6634,34.19923],[75.87959,33.9637],[76.02437,33.98209],[76.16638,33.87323],[76.2461,33.57409],[76.48803,33.50223],[76.73984,33.19741],[76.54244,33.23286],[76.39671,33.19772],[75.95467,32.90138],[75.81463,32.93179],[75.9093,32.7727],[75.92263,32.61734],[75.82858,32.49789],[75.5024,32.30059],[75.44194,32.35976],[75.2984,32.33243],[75.02367,32.46626],[74.72498,32.46081]]]}},{"type":"Feature","properties":{"id":"in-ka","lat":15.04966,"lng":75.50395},"geometry":{"type":"Polygon","coordinates":[[[74.85426,12.76529],[74.82496,12.8382],[74.94093,12.87861],[74.81756,12.86176],[74.68946,13.38158],[74.66668,13.63276],[74.73561,13.6538],[74.68775,13.71182],[74.66049,13.66006],[74.49537,14.03059],[74.42905,14.24042],[74.50896,14.25031],[74.41537,14.30109],[74.3519,14.53022],[74.42775,14.47626],[74.35873,14.57123],[74.30055,14.52741],[74.33904,14.61278],[74.27589,14.61017],[74.25294,14.71894],[74.09132,14.81143],[74.23308,14.86457],[74.20802,14.90082],[74.11183,14.84618],[74.09116,14.8876],[74.24119,14.95604],[74.29276,15.18827],[74.24087,15.24731],[74.30423,15.28917],[74.23798,15.61602],[74.09287,15.6693],[74.19447,15.76958],[74.22351,15.7261],[74.3311,15.76193],[74.43301,16.01858],[74.3835,16.06949],[74.47197,16.12788],[74.46618,16.24239],[74.32376,16.28293],[74.30619,16.37711],[74.35787,16.40073],[74.22599,16.48615],[74.24356,16.53958],[74.35322,16.54351],[74.43487,16.64676],[74.52458,16.62384],[74.55238,16.55183],[74.66576,16.60622],[74.68829,16.71268],[74.85758,16.75792],[74.8458,16.86125],[74.96383,16.95421],[75.1665,16.86794],[75.25601,16.95917],[75.4717,16.96305],[75.5487,17.01527],[75.62735,16.97697],[75.62105,17.24244],[75.55149,17.3893],[75.62177,17.47635],[75.76988,17.37721],[75.87003,17.41615],[75.93648,17.32587],[76.1127,17.38196],[76.35361,17.35703],[76.3131,17.60975],[76.5227,17.77703],[76.67597,17.70685],[76.75566,17.82584],[76.74088,17.89842],[76.86314,17.90374],[76.90025,18.15701],[77.08029,18.19134],[77.31335,18.45624],[77.43758,18.28191],[77.58331,18.29154],[77.59995,18.11484],[77.55768,18.08616],[77.62578,17.95746],[77.41153,17.63078],[77.59912,17.54681],[77.68583,17.56717],[77.37443,17.22257],[77.46776,17.02581],[77.40957,16.73784],[77.44626,16.64077],[77.25744,16.44936],[77.55178,16.31769],[77.4908,16.26159],[77.44647,15.95298],[77.16307,15.96711],[77.03409,15.87373],[77.08494,15.66729],[77.01053,15.64463],[77.00804,15.51184],[76.96743,15.50601],[77.02592,15.35149],[77.10489,15.30821],[77.13072,15.14163],[77.03419,15.00521],[76.76434,15.09412],[76.71948,14.98588],[76.82222,14.92098],[76.74057,14.61293],[76.82563,14.48126],[76.9296,14.46651],[76.85818,14.38256],[76.9082,14.25786],[77.07274,14.23259],[77.13289,14.34401],[77.25681,14.33396],[77.3673,14.23825],[77.37443,14.33447],[77.46393,14.28499],[77.46548,14.18624],[77.32792,14.12265],[77.38673,13.89037],[77.28927,14.01075],[77.11233,14.00506],[76.99533,14.06638],[76.96743,14.17102],[76.87544,14.16273],[77.01021,13.91406],[76.96918,13.75371],[77.12773,13.76789],[77.09992,13.85866],[77.14354,13.9107],[77.38404,13.84673],[77.44254,13.70195],[77.49422,13.70237],[77.6046,13.77632],[77.6693,13.76094],[77.78919,13.87032],[77.78257,13.93659],[77.87879,13.91662],[77.93708,13.96326],[77.92065,13.83047],[78.03268,13.88473],[78.09139,13.83011],[78.06793,13.65927],[78.37302,13.58623],[78.38088,13.32275],[78.56247,13.29345],[78.51152,13.07721],[78.41189,12.9367],[78.4678,12.86766],[78.34615,12.91329],[78.326,12.86079],[78.24404,12.85374],[78.22957,12.75989],[78.04064,12.85033],[77.98742,12.80436],[77.90484,12.87146],[77.80128,12.85655],[77.76531,12.71873],[77.60935,12.67279],[77.56873,12.55957],[77.6046,12.40578],[77.46476,12.26153],[77.48336,12.20755],[77.73678,12.17409],[77.76583,12.10068],[77.67085,11.97131],[77.48977,11.92612],[77.40812,11.79161],[77.25919,11.8169],[77.0962,11.75042],[77.01269,11.82197],[76.91823,11.80734],[76.82077,11.6256],[76.56693,11.63376],[76.50358,11.71916],[76.41594,11.66683],[76.38214,11.74918],[76.08634,11.87114],[76.07239,11.96325],[75.83065,11.95775],[75.76109,12.06875],[75.62921,12.10205],[75.38933,12.29473],[75.33972,12.40462],[75.36825,12.47035],[75.25136,12.53691],[75.27089,12.60073],[75.11048,12.63001],[74.94068,12.77612],[74.85426,12.76529]]]}},{"type":"Feature","properties":{"id":"in-kl","lat":10.49224,"lng":76.44225},"geometry":{"type":"Polygon","coordinates":[[[75.22218,12.02204],[74.85426,12.76529],[74.94068,12.77612],[75.11048,12.63001],[75.27089,12.60073],[75.25136,12.53691],[75.36825,12.47035],[75.33972,12.40462],[75.38933,12.29473],[75.62921,12.10205],[75.76109,12.06875],[75.81525,11.9672],[75.96056,11.92863],[76.07239,11.96325],[76.09875,11.86044],[76.38927,11.74401],[76.41532,11.64875],[76.33925,11.59149],[76.24075,11.60397],[76.23052,11.52914],[76.54275,11.33797],[76.44839,11.20686],[76.70274,11.23805],[76.76754,11.0461],[76.68765,11.03346],[76.67752,10.95626],[76.88971,10.78004],[76.82108,10.63318],[76.84154,10.31066],[76.95699,10.22346],[77.1915,10.35131],[77.24162,10.28444],[77.26023,9.95236],[77.18685,9.59678],[77.34063,9.57996],[77.40378,9.46108],[77.16493,9.001],[77.2534,8.85073],[77.18767,8.63937],[77.27883,8.52641],[77.20607,8.47891],[77.1547,8.2959],[76.99586,8.36811],[76.54396,8.9125],[76.62062,8.92544],[76.57398,8.94257],[76.66847,9.00739],[76.52809,8.94697],[76.48276,9.17182],[76.41456,9.24698],[76.44256,9.14517],[76.36297,9.32518],[76.31178,9.49299],[76.23634,9.9527],[76.25147,9.96312],[76.33888,9.69941],[76.33269,9.87075],[76.39405,9.67894],[76.35743,9.5207],[76.50327,9.53498],[76.40699,9.56908],[76.39405,9.84284],[76.24513,10.1022],[76.21534,10.13825],[76.24269,9.98745],[76.18238,10.10566],[76.24025,10.23896],[76.19483,10.26862],[76.20167,10.19969],[76.15317,10.22016],[75.73552,11.37153],[75.30763,11.9322],[75.40024,11.92023],[75.3934,11.97484],[75.33172,11.94953],[75.27882,12.00324],[75.39688,12.14293],[75.22293,12.10017],[75.22218,12.02204]]]}},{"type":"Feature","properties":{"id":"in-la","lat":33.91846,"lng":77.42657},"geometry":{"type":"Polygon","coordinates":[[[77.80035,35.49541],[77.88313,35.43107],[78.04426,35.49163],[78.00116,35.26891],[78.29603,34.62466],[78.66458,34.52642],[78.97619,34.30917],[78.97619,34.21716],[78.73011,34.07926],[78.78137,33.55279],[78.99345,33.33078],[79.4561,33.2504],[79.37317,33.11214],[79.39927,33.02688],[79.33359,32.99429],[79.41409,32.97205],[79.62067,32.72872],[79.4435,32.53477],[79.32047,32.59227],[79.28741,32.53258],[79.11293,32.47239],[79.07531,32.37079],[78.94343,32.34637],[78.77145,32.46166],[78.71326,32.63752],[78.28218,32.48065],[78.29944,32.58866],[78.37778,32.65734],[78.36042,32.76761],[78.00891,32.61031],[77.72107,33.01264],[77.37133,32.86704],[77.13579,32.92675],[76.73984,33.19741],[76.48803,33.50223],[76.2461,33.57409],[76.16638,33.87323],[76.02437,33.98209],[75.87959,33.9637],[75.6634,34.19923],[75.37455,34.37098],[75.34809,34.55722],[75.77711,34.50381],[76.0234,34.67716],[76.15497,34.66166],[76.43816,34.76289],[76.65261,34.74698],[76.74387,34.81927],[76.75762,34.91513],[76.92112,34.92071],[77.01311,34.98639],[77.04243,35.10701],[77.80035,35.49541]]]}},{"type":"Feature","properties":{"id":"in-ld","lat":8.29143,"lng":73.0638},"geometry":{"type":"MultiPolygon","coordinates":[[[[72.64975,10.56688],[72.64861,10.57396],[72.65056,10.57258],[72.64975,10.56688]]],[[[72.54119,10.7729],[72.54249,10.7779],[72.54884,10.77945],[72.54119,10.7729]]],[[[72.17262,10.82998],[72.20004,10.87808],[72.1727,10.80923],[72.17262,10.82998]]],[[[72.74496,11.10952],[72.73951,11.11396],[72.75001,11.11909],[72.74496,11.10952]]],[[[72.78907,11.26166],[72.78907,11.24803],[72.7754,11.18659],[72.77418,11.22289],[72.78907,11.26166]]],[[[72.70867,11.68915],[72.70094,11.68643],[72.71616,11.69416],[72.70867,11.68915]]],[[[73.084,8.3085],[73.05665,8.26],[73.0241,8.25544],[73.02247,8.27436],[73.084,8.3085]]],[[[73.64405,10.07697],[73.63331,10.07787],[73.64389,10.09455],[73.64405,10.07697]]],[[[73.66228,10.1446],[73.65463,10.14151],[73.65561,10.14476],[73.66228,10.1446]]],[[[73.67628,10.82437],[73.6714,10.82974],[73.68442,10.82754],[73.67628,10.82437]]],[[[73.00563,11.47964],[73.00709,11.50129],[73.01319,11.50218],[73.00563,11.47964]]]]}},{"type":"Feature","properties":{"id":"in-mh","lat":18.8201,"lng":75.44895},"geometry":{"type":"Polygon","coordinates":[[[73.83232,15.78149],[73.64625,15.73688],[73.60467,15.88085],[73.45037,16.0589],[73.48797,16.18936],[73.44703,16.11359],[73.38494,16.4016],[73.30584,16.52265],[73.3073,16.56318],[73.344,16.52359],[73.37867,16.5183],[73.31463,16.59943],[73.37127,16.61018],[73.31218,16.64472],[73.27573,17.0786],[73.18702,17.30598],[73.24903,17.28486],[73.12599,17.55654],[73.20069,17.58649],[73.12135,17.62641],[73.00522,18.01236],[73.04347,18.06696],[72.98731,18.06656],[72.92693,18.22394],[72.93995,18.28604],[73.04762,18.18879],[73.07398,18.22419],[73.07154,18.27302],[72.91261,18.36115],[72.90724,18.52359],[73.01498,18.46996],[72.85532,18.68114],[72.86557,18.79938],[72.92693,18.82665],[72.99513,18.73102],[73.01629,18.81362],[72.89682,18.89448],[73.05681,19.01533],[72.98829,18.9986],[72.97478,19.16307],[72.8213,18.90331],[72.77036,18.94819],[72.82423,19.05353],[72.82309,19.16926],[72.78159,19.15965],[72.83009,19.25243],[72.7754,19.20466],[72.78541,19.31391],[72.97267,19.29369],[73.02662,19.20551],[73.04965,19.21772],[72.9878,19.30069],[72.76344,19.38019],[72.75441,19.48176],[72.87916,19.53237],[72.74195,19.5808],[72.75563,19.51936],[72.7225,19.53628],[72.6867,19.7248],[72.72641,19.7058],[72.73276,19.77973],[72.67791,19.74657],[72.64918,19.852],[72.7081,20.07264],[72.94721,20.1274],[72.99723,20.03981],[73.14285,20.02661],[73.2554,20.18636],[73.37788,20.18032],[73.36072,20.36938],[73.4587,20.53802],[73.36413,20.64846],[73.434,20.71628],[73.69982,20.56241],[73.89888,20.75096],[73.86829,20.97477],[73.55348,21.19548],[73.6961,21.16468],[73.80845,21.28589],[73.91862,21.29157],[74.04223,21.46179],[74.30082,21.53698],[74.14651,21.5707],[73.81558,21.51153],[73.7516,21.61103],[73.83914,21.68219],[73.80938,21.83647],[74.06104,21.94031],[74.24904,21.92977],[74.40769,22.02305],[74.48561,21.94597],[74.51249,21.72692],[74.60819,21.65891],[75.01147,21.57349],[75.14046,21.42913],[75.31192,21.38146],[76.08293,21.36808],[76.14288,21.19312],[76.10856,21.15313],[76.28664,21.07481],[76.62595,21.20884],[76.63711,21.34921],[76.77705,21.48011],[76.81405,21.60013],[77.33298,21.77446],[77.47406,21.7673],[77.54837,21.70744],[77.57493,21.54832],[77.432,21.53422],[77.4938,21.3912],[77.91021,21.40058],[78.366,21.62542],[78.42791,21.50848],[78.79956,21.48931],[79.25866,21.71426],[79.48634,21.66348],[79.5652,21.53881],[79.75878,21.59408],[79.84973,21.52941],[80.00528,21.54832],[80.18666,21.63948],[80.40267,21.48021],[80.40267,21.39433],[80.67903,21.35115],[80.63738,21.2517],[80.4652,21.14796],[80.43626,21.02469],[80.46334,20.94221],[80.5547,20.90785],[80.57103,20.68238],[80.49486,20.60117],[80.61465,20.60618],[80.6349,20.51234],[80.6224,20.32589],[80.42437,20.23409],[80.41817,20.14887],[80.53062,20.13487],[80.55718,20.04834],[80.53114,19.9207],[80.44484,19.93121],[80.42747,19.88824],[80.48607,19.85499],[80.40897,19.792],[80.47884,19.76647],[80.53775,19.81091],[80.89535,19.4522],[80.72048,19.26156],[80.57599,19.39197],[80.40536,19.2504],[80.27182,18.97944],[80.34923,18.83092],[80.27038,18.71369],[80.09054,18.69749],[79.91691,18.82658],[79.96487,18.93536],[79.93355,19.05313],[79.86182,19.08108],[79.94378,19.16922],[79.96383,19.42602],[79.79578,19.5941],[79.6361,19.56981],[79.57636,19.50811],[79.266,19.58956],[79.19773,19.46188],[78.93485,19.59818],[78.78003,19.77667],[78.47772,19.79913],[78.3292,19.89129],[78.40341,19.71926],[78.30264,19.48277],[78.2119,19.44013],[78.16787,19.2641],[78.05098,19.26541],[77.98907,19.325],[77.86546,19.29735],[77.83673,19.12669],[77.75198,19.04589],[77.91207,18.83536],[77.71239,18.68945],[77.68852,18.57473],[77.55922,18.50763],[77.50259,18.38159],[77.55116,18.30787],[77.43758,18.28191],[77.34663,18.35152],[77.3243,18.44913],[77.26477,18.45306],[77.22736,18.32209],[77.08773,18.19705],[76.90025,18.15701],[76.86314,17.90374],[76.74088,17.89842],[76.75566,17.82584],[76.67597,17.70685],[76.5227,17.77703],[76.3131,17.60975],[76.38038,17.37876],[76.3438,17.35186],[76.21037,17.38891],[75.93648,17.32587],[75.87003,17.41615],[75.76988,17.37721],[75.61309,17.4716],[75.55149,17.3893],[75.62105,17.24244],[75.62735,16.97697],[75.5487,17.01527],[75.4717,16.96305],[75.25601,16.95917],[75.1665,16.86794],[74.96383,16.95421],[74.8458,16.86125],[74.85758,16.75792],[74.68829,16.71268],[74.66576,16.60622],[74.55238,16.55183],[74.52458,16.62384],[74.43487,16.64676],[74.35322,16.54351],[74.24356,16.53958],[74.22599,16.48615],[74.35787,16.40073],[74.30619,16.37711],[74.32376,16.28293],[74.476,16.21733],[74.46959,16.10979],[74.3835,16.06949],[74.42877,15.99375],[74.32159,15.75273],[74.22351,15.7261],[74.19447,15.76958],[74.10062,15.64029],[73.99035,15.61354],[73.83232,15.78149]]]}},{"type":"Feature","properties":{"id":"in-ml","lat":25.52253,"lng":91.25342},"geometry":{"type":"Polygon","coordinates":[[[92.38494,25.00477],[92.034,25.18167],[91.63868,25.12405],[91.2357,25.20192],[90.36464,25.14999],[89.81904,25.28497],[89.8007,25.41287],[89.88881,25.4733],[89.90338,25.55353],[89.99847,25.58066],[89.94462,25.72582],[90.13562,25.95979],[90.3971,26.01715],[90.54531,25.98066],[90.53466,25.91095],[90.60959,25.9694],[90.64432,25.93147],[90.97453,25.94364],[91.03127,25.83571],[91.19591,25.86894],[91.22206,25.73068],[91.36055,25.84325],[91.52737,25.88808],[91.47228,25.8901],[91.59196,26.03441],[91.67247,25.93116],[91.80714,26.0881],[91.92248,26.03823],[92.25517,26.08515],[92.1757,25.97978],[92.21466,25.91948],[92.16733,25.68954],[92.3824,25.76434],[92.59345,25.58666],[92.67789,25.61063],[92.58487,25.49152],[92.78961,25.34889],[92.81163,25.23412],[92.56069,25.15025],[92.38494,25.00477]]]}},{"type":"Feature","properties":{"id":"in-mn","lat":24.76366,"lng":93.85345},"geometry":{"type":"Polygon","coordinates":[[[94.65036,25.44665],[94.55333,25.20415],[94.68913,25.13852],[94.70856,25.02589],[94.58154,24.73012],[94.51633,24.70495],[94.29536,24.3326],[94.11687,23.84165],[93.71111,24.00546],[93.45665,23.95996],[93.34855,24.08889],[93.24871,24.01773],[93.23289,24.06884],[93.10567,24.04494],[92.97937,24.10478],[93.11765,24.79719],[93.19941,24.81652],[93.26297,25.03599],[93.44921,25.30213],[93.60548,25.2058],[93.80857,25.4461],[93.7696,25.53208],[94.32533,25.51204],[94.57038,25.68763],[94.53586,25.51369],[94.65036,25.44665]]]}},{"type":"Feature","properties":{"id":"in-mp","lat":23.97691,"lng":79.38298},"geometry":{"type":"Polygon","coordinates":[[[78.3261,26.85981],[78.56351,26.7585],[78.71006,26.79888],[78.92607,26.70622],[79.06115,26.34937],[78.93816,26.2546],[78.95315,26.10032],[78.73982,25.7898],[78.74758,25.64272],[78.37055,25.55268],[78.25117,25.39783],[78.36631,25.18601],[78.32486,25.00217],[78.16911,24.86546],[78.27226,24.62444],[78.22389,24.51923],[78.35049,24.40797],[78.35649,24.30916],[78.4894,24.41078],[78.80979,24.22023],[78.97237,24.42257],[78.87108,24.62573],[78.71977,24.6564],[78.7237,24.84872],[78.51359,25.27337],[78.58211,25.40674],[78.72753,25.34639],[78.72691,25.49447],[78.78189,25.52402],[78.83553,25.41974],[78.89113,25.53811],[78.90912,25.44139],[78.95997,25.42654],[78.87945,25.17479],[78.99862,25.2827],[79.0474,25.25693],[79.02405,25.17464],[79.27953,25.16428],[79.26196,25.29592],[79.31157,25.36455],[79.31033,25.24381],[79.4418,25.29727],[79.33907,25.14741],[79.34713,25.07521],[79.39198,25.07413],[79.39901,25.14133],[79.47952,25.10555],[79.55373,25.17903],[79.80167,25.13193],[79.86699,25.15583],[79.85211,25.24784],[80.27575,25.41649],[80.422,25.18598],[80.26986,25.0886],[80.29715,25.01206],[80.40701,25.01336],[80.4067,25.06377],[80.47822,25.01834],[80.51388,25.05046],[80.45848,25.11705],[80.54643,25.10754],[80.56462,25.15244],[80.63883,25.07343],[80.71789,25.08198],[80.66643,25.14971],[80.83541,25.21774],[80.76172,24.98331],[81.0047,24.96644],[81.09813,24.90861],[81.18143,24.95814],[81.24324,25.16952],[81.41842,25.10413],[81.46917,25.12694],[81.42534,25.16482],[81.53697,25.19975],[81.57789,25.08454],[81.84206,25.02708],[81.95606,24.87101],[82.12215,24.8081],[82.20866,24.84311],[82.20804,24.7643],[82.26302,24.79117],[82.26519,24.71544],[82.32338,24.69376],[82.30705,24.63201],[82.40968,24.63563],[82.42714,24.71857],[82.70816,24.72152],[82.81803,24.5894],[82.73441,24.55163],[82.7648,24.33004],[82.67385,24.18033],[82.80087,23.99872],[82.64305,23.83707],[82.49867,23.7724],[81.93694,23.84066],[81.80868,23.79475],[81.68187,23.88513],[81.61955,23.86756],[81.6859,23.70651],[81.59143,23.56117],[81.62833,23.48782],[81.75948,23.54352],[81.92754,23.49541],[82.0344,23.36762],[82.18633,23.30943],[82.15657,23.1483],[81.94614,23.04296],[81.94025,22.94583],[81.77933,22.83582],[81.76641,22.66399],[81.64228,22.55085],[81.4178,22.43749],[81.35806,22.49796],[81.16479,22.4653],[81.00222,22.06312],[80.90341,22.08529],[80.82156,21.80278],[80.73981,21.74146],[80.67903,21.35115],[80.40267,21.39433],[80.40267,21.48021],[80.18666,21.63948],[80.00528,21.54832],[79.84973,21.52941],[79.75878,21.59408],[79.5652,21.53881],[79.48634,21.66348],[79.25866,21.71426],[78.79956,21.48931],[78.42791,21.50848],[78.366,21.62542],[77.91021,21.40058],[77.4938,21.3912],[77.432,21.53422],[77.57493,21.54832],[77.54837,21.70744],[77.47406,21.7673],[77.33298,21.77446],[76.81405,21.60013],[76.77705,21.48011],[76.63711,21.34921],[76.62595,21.20884],[76.28664,21.07481],[76.10856,21.15313],[76.14288,21.19312],[76.08293,21.36808],[75.2095,21.40288],[75.01147,21.57349],[74.70813,21.61116],[74.52117,21.71756],[74.48561,21.94597],[74.40769,22.02305],[74.24904,21.92977],[74.12884,21.95176],[74.05939,22.32063],[74.24573,22.38561],[74.09814,22.41693],[74.03345,22.50963],[74.15147,22.51031],[74.36893,22.64118],[74.45905,22.82246],[74.35932,22.8838],[74.32345,23.03606],[74.71961,23.16944],[74.52127,23.28974],[74.63144,23.42035],[74.85334,23.52696],[74.93499,23.66641],[74.90306,23.85526],[74.96848,24.0413],[74.86998,24.23612],[74.73097,24.26777],[74.84683,24.43551],[74.71185,24.52385],[74.78141,24.78174],[74.88115,24.66488],[74.9569,24.68302],[74.97923,24.77745],[74.83257,24.80053],[74.81707,24.9275],[74.99514,24.86412],[75.0954,24.89659],[75.13333,25.04002],[75.31936,25.05956],[75.32029,24.93525],[75.24515,24.91143],[75.40577,24.89021],[75.29745,24.83939],[75.18686,24.8929],[75.19224,24.7319],[75.44804,24.70314],[75.74704,24.78009],[75.81339,24.71767],[75.87395,24.50109],[75.76543,24.49336],[75.73443,24.42396],[75.80398,24.29252],[75.74642,24.17188],[75.80615,24.0977],[75.72998,24.00068],[75.52948,24.04259],[75.48607,23.98892],[75.59707,23.8179],[75.69288,23.78914],[75.72874,23.91624],[75.79251,23.88188],[75.98671,23.96489],[75.98475,24.03685],[76.11663,24.13403],[76.12396,24.312],[76.17357,24.35149],[76.2145,24.28376],[76.45614,24.26503],[76.51154,24.20909],[76.66078,24.3096],[76.66915,24.22359],[76.76661,24.16033],[76.86273,24.17504],[76.89415,24.22966],[76.82046,24.3373],[76.80671,24.5654],[76.87575,24.5653],[76.92226,24.49608],[77.06086,24.57785],[77.01456,24.69917],[76.78274,24.82675],[76.88175,24.89052],[76.84733,25.01237],[76.99936,25.08772],[77.38239,25.14291],[77.35851,25.41186],[77.28121,25.44266],[77.18106,25.34254],[76.92278,25.30639],[76.6523,25.37918],[76.52146,25.55017],[76.47836,25.7198],[76.52311,25.81215],[77.33578,26.3611],[77.71508,26.50603],[77.90277,26.66403],[78.0794,26.68292],[78.10121,26.79511],[78.3261,26.85981]]]}},{"type":"Feature","properties":{"id":"in-mz","lat":23.24192,"lng":92.86946},"geometry":{"type":"Polygon","coordinates":[[[93.30256,24.03578],[93.43236,23.64732],[93.3749,23.12973],[93.27279,23.00591],[93.15238,23.04994],[93.17553,22.88171],[93.07952,22.77272],[93.17367,22.25942],[93.14173,22.18728],[93.02453,22.2019],[92.9681,21.98724],[92.90619,22.01731],[92.87746,21.95701],[92.68378,22.15431],[92.65091,22.01917],[92.57588,21.97757],[92.49588,22.69562],[92.35987,22.92661],[92.34861,23.35411],[92.2528,23.60931],[92.33197,23.99484],[92.29848,24.23772],[92.42302,24.23803],[92.43129,24.153],[92.48948,24.13251],[92.62445,24.23852],[92.75778,24.48298],[92.83726,24.36761],[93.01844,24.39913],[93.04593,24.32653],[92.97937,24.10478],[93.30256,24.03578]]]}},{"type":"Feature","properties":{"id":"in-nl","lat":26.11717,"lng":94.55491},"geometry":{"type":"Polygon","coordinates":[[[95.24693,26.6489],[95.13262,26.62081],[95.04064,26.47559],[95.04632,26.24796],[95.15122,26.04994],[95.00064,25.92204],[95.0088,25.73714],[94.78236,25.50459],[94.65036,25.44665],[94.55281,25.49033],[94.57038,25.68763],[94.32533,25.51204],[93.7696,25.53208],[93.80857,25.4461],[93.60548,25.2058],[93.44921,25.30213],[93.44373,25.4217],[93.33831,25.54847],[93.70584,25.86436],[93.68506,25.927],[93.79637,25.9516],[93.77911,25.83103],[93.94778,25.88617],[94.00773,26.1844],[94.26963,26.55471],[94.34549,26.4897],[94.48656,26.67667],[94.76541,26.78803],[94.91713,26.95117],[95.0179,26.92818],[95.17644,27.03318],[95.23432,26.94575],[95.19742,26.84177],[95.24693,26.6489]]]}},{"type":"Feature","properties":{"id":"in-or","lat":20.1636,"lng":84.44947},"geometry":{"type":"Polygon","coordinates":[[[87.47739,21.61359],[87.11305,21.50796],[86.86695,21.25605],[86.844,21.08222],[86.96567,20.80598],[86.87875,20.78058],[86.98658,20.75186],[86.99871,20.71113],[86.9402,20.69798],[87.04322,20.69798],[86.75147,20.48916],[86.72047,20.36848],[86.80983,20.41511],[86.6937,20.29393],[86.75465,20.31444],[86.49513,20.18407],[86.39145,20.02021],[86.42628,19.99917],[86.20916,20.06664],[86.15252,20.14313],[86.16773,20.07294],[86.37241,19.96499],[85.4568,19.66332],[85.42701,19.70409],[85.57651,19.74584],[85.57032,19.87564],[85.44012,19.89623],[85.22096,19.73603],[85.10287,19.52961],[85.12403,19.47834],[85.23325,19.5541],[85.19304,19.5808],[85.24757,19.65648],[85.39145,19.69062],[85.37794,19.61494],[85.28842,19.60126],[85.33058,19.5764],[85.57651,19.69062],[85.18043,19.475],[84.79103,19.12059],[84.6945,19.16059],[84.6697,19.09015],[84.46971,19.03065],[84.46258,18.94631],[84.31778,18.80924],[83.9024,18.80565],[83.80184,18.99995],[83.74954,19.00111],[83.73807,18.92928],[83.61281,19.12979],[83.51834,19.01],[83.46419,19.07346],[83.44961,18.96845],[83.29986,18.99158],[83.39205,18.85332],[83.20167,18.74162],[83.12653,18.75816],[83.02814,18.64085],[83.08354,18.52533],[83.03,18.38195],[82.90412,18.35534],[82.79539,18.42934],[82.63571,18.22886],[82.58238,18.25106],[82.59737,18.32521],[82.5027,18.51063],[82.4382,18.51926],[82.31129,18.2055],[82.36028,18.13941],[82.32989,18.04404],[82.24008,17.99293],[82.04236,18.04327],[81.57841,17.79695],[81.39403,17.80669],[81.54255,18.26245],[81.73313,18.34958],[81.94707,18.5676],[81.90335,18.63408],[82.09869,18.77061],[82.13889,18.74725],[82.22788,18.93396],[82.14571,19.22531],[82.16752,19.40522],[82.02903,19.51785],[82.03616,19.76709],[81.83318,19.9038],[81.81933,19.96571],[81.9449,20.10557],[82.0219,20.01167],[82.08133,20.05787],[82.21786,19.97299],[82.30488,19.82331],[82.3611,19.8839],[82.47593,19.87238],[82.57907,19.84316],[82.57525,19.76807],[82.70785,19.84321],[82.69504,20.00054],[82.41557,20.06697],[82.42032,20.45162],[82.34012,20.54249],[82.34322,20.86684],[82.46301,20.85539],[82.65669,21.15261],[82.96458,21.17853],[83.14359,21.12062],[83.27939,21.3588],[83.37975,21.33919],[83.32766,21.49915],[83.46688,21.79999],[83.56485,21.85358],[83.51287,21.97305],[83.57105,22.05837],[83.54873,22.11294],[83.62366,22.21327],[83.95573,22.37871],[83.99645,22.44054],[83.9702,22.53935],[84.17856,22.36437],[84.31096,22.32401],[84.42082,22.33099],[84.51673,22.42142],[84.90834,22.42197],[85.06554,22.5032],[85.10471,22.33083],[84.98627,22.10666],[85.09789,22.11346],[85.22015,22.02915],[85.41001,22.16201],[85.67914,22.07586],[85.79221,22.12909],[85.78064,22.0222],[85.83428,21.98613],[85.97411,22.10459],[85.99323,22.3352],[85.93784,22.49917],[86.04997,22.55581],[86.36603,22.33006],[86.49718,22.33468],[86.97126,22.07953],[87.03141,21.90799],[87.12081,21.97693],[87.19068,21.95621],[87.25197,21.82211],[87.42446,21.77474],[87.47739,21.61359]]]}},{"type":"Feature","properties":{"id":"in-pb","lat":31.05697,"lng":75.61952},"geometry":{"type":"Polygon","coordinates":[[[75.29466,32.14889],[75.35905,32.26167],[75.2984,32.33243],[75.44194,32.35976],[75.5024,32.30059],[75.8663,32.50486],[75.91261,32.41906],[75.6134,32.25093],[75.66105,32.18879],[75.58095,32.0767],[75.87974,31.97239],[76.17946,31.31848],[76.27538,31.31044],[76.35992,31.4303],[76.4394,31.29969],[76.62357,31.22649],[76.6153,31.03015],[76.83524,30.83587],[76.6954,30.75587],[76.78056,30.67345],[76.85126,30.68156],[76.91038,30.51416],[76.89105,30.36125],[76.75287,30.43052],[76.72971,30.3496],[76.53913,30.24513],[76.64145,30.19798],[76.53138,30.08398],[76.45459,30.10162],[76.40932,30.18588],[76.37346,30.11697],[76.20582,30.13098],[76.25274,30.08858],[76.17698,29.94554],[76.22556,29.86908],[76.04386,29.75816],[75.88666,29.74924],[75.79695,29.83019],[75.69856,29.76898],[75.45248,29.80921],[75.24856,29.55982],[75.17208,29.68821],[75.23833,29.75188],[75.19317,29.83267],[75.14769,29.79283],[75.10025,29.82691],[75.09529,29.92776],[74.99566,29.87298],[74.81624,29.98631],[74.65067,29.91407],[73.8871,29.98424],[73.97712,30.17806],[73.84234,30.35298],[74.05753,30.53137],[74.06745,30.61054],[74.16367,30.6649],[74.31921,30.89341],[74.40128,30.8931],[74.65883,31.08379],[74.53677,31.11516],[74.50639,31.17541],[74.61718,31.45891],[74.48944,31.71119],[74.55042,31.827],[74.69842,31.95025],[74.78368,31.94286],[74.82864,32.02544],[75.29466,32.14889]]]}},{"type":"Feature","properties":{"id":"in-py","lat":11.87661,"lng":79.77078},"geometry":{"type":"MultiPolygon","coordinates":[[[[79.84734,10.80964],[79.70545,10.91044],[79.73087,10.98321],[79.84669,10.97983],[79.84734,10.80964]]],[[[79.84498,11.93325],[79.81087,11.83298],[79.73139,11.83907],[79.67207,11.98229],[79.7686,11.97749],[79.7778,11.91416],[79.84498,11.93325]]],[[[75.26051,11.99779],[75.22293,12.10017],[75.39688,12.14293],[75.30954,12.09371],[75.26051,11.99779]]],[[[82.17765,16.71859],[82.29124,16.74208],[82.30105,16.73329],[82.26064,16.69033],[82.17765,16.71859]]]]}},{"type":"Feature","properties":{"id":"in-rj","lat":26.62955,"lng":73.78694},"geometry":{"type":"Polygon","coordinates":[[[71.22633,27.84536],[71.8744,27.95969],[71.9083,28.13557],[72.14994,28.35377],[72.35458,28.76719],[72.93036,29.04769],[73.23287,29.5366],[73.37033,29.92732],[73.73972,30.04845],[73.94683,30.20408],[73.97133,30.14186],[73.8871,29.98424],[74.51652,29.94719],[74.54701,29.86081],[74.45936,29.76309],[74.60478,29.75503],[74.61005,29.48779],[74.53708,29.44138],[74.61284,29.33281],[74.83123,29.40376],[75.07958,29.23633],[75.31378,29.29894],[75.33817,29.23455],[75.38809,29.25765],[75.39295,29.10598],[75.51873,28.98882],[75.48597,28.92684],[75.59356,28.64267],[75.77287,28.43253],[75.95777,28.34346],[76.08138,28.17459],[75.94144,28.11772],[76.03002,28.10214],[75.92635,27.9376],[75.98754,27.84789],[76.20913,27.8274],[76.15962,28.04428],[76.33294,28.0518],[76.30256,28.19924],[76.45345,28.16283],[76.4456,28.0647],[76.55949,27.97129],[76.84971,28.23228],[76.94149,28.13534],[76.89136,27.68381],[77.07171,27.74112],[77.05249,27.81133],[77.28069,27.80944],[77.34012,27.55046],[77.44254,27.39618],[77.60212,27.3295],[77.65731,27.20271],[77.4998,27.08917],[77.71911,27.00293],[77.42332,26.88438],[77.39789,26.77888],[77.72046,26.93396],[78.01625,26.86666],[78.10689,26.9473],[78.24652,26.91784],[78.17531,26.87348],[78.16498,26.79193],[78.10121,26.79511],[78.0794,26.68292],[77.90277,26.66403],[77.71508,26.50603],[77.12473,26.23786],[76.74015,25.92322],[76.54595,25.84829],[76.48115,25.73215],[76.55143,25.46013],[76.76589,25.33466],[76.92278,25.30639],[77.18106,25.34254],[77.28121,25.44266],[77.35851,25.41186],[77.38239,25.14291],[76.99936,25.08772],[76.84733,25.01237],[76.88175,24.89052],[76.78274,24.82675],[77.01456,24.69917],[77.06086,24.57785],[76.92226,24.49608],[76.87575,24.5653],[76.80671,24.5654],[76.82046,24.3373],[76.89415,24.22966],[76.86273,24.17504],[76.76661,24.16033],[76.66915,24.22359],[76.66078,24.3096],[76.51154,24.20909],[76.45614,24.26503],[76.2145,24.28376],[76.17357,24.35149],[76.12396,24.312],[76.11663,24.13403],[75.98475,24.03685],[75.98671,23.96489],[75.79251,23.88188],[75.72874,23.91624],[75.69288,23.78914],[75.59707,23.8179],[75.48607,23.98892],[75.52948,24.04259],[75.72998,24.00068],[75.80615,24.0977],[75.74642,24.17188],[75.80398,24.29252],[75.73443,24.42396],[75.76543,24.49336],[75.87395,24.50109],[75.81339,24.71767],[75.74704,24.78009],[75.44804,24.70314],[75.19224,24.7319],[75.18686,24.8929],[75.29745,24.83939],[75.40577,24.89021],[75.24515,24.91143],[75.32029,24.93525],[75.31936,25.05956],[75.13333,25.04002],[75.0954,24.89659],[74.99514,24.86412],[74.81707,24.9275],[74.83257,24.80053],[74.97923,24.77745],[74.9569,24.68302],[74.88115,24.66488],[74.78141,24.78174],[74.71185,24.52385],[74.84683,24.43551],[74.73097,24.26777],[74.86998,24.23612],[74.96848,24.0413],[74.90306,23.85526],[74.93499,23.66641],[74.85334,23.52696],[74.63144,23.42035],[74.52127,23.28974],[74.71961,23.16944],[74.32345,23.03606],[73.95955,23.35883],[73.88544,23.33922],[73.80348,23.4388],[73.62717,23.4387],[73.61538,23.60179],[73.50418,23.60264],[73.50273,23.70171],[73.35814,23.78736],[73.42387,23.94094],[73.35411,24.10473],[73.24559,24.01554],[73.10162,24.15943],[73.10751,24.29229],[73.21665,24.36903],[73.09727,24.4043],[73.09107,24.50721],[72.99454,24.49006],[72.89739,24.36058],[72.71756,24.39024],[72.54454,24.51013],[72.457,24.43055],[72.4136,24.52297],[72.24875,24.59271],[72.3275,24.64216],[72.17278,24.634],[72.05093,24.70836],[71.93476,24.65816],[71.85683,24.68493],[71.82149,24.63571],[71.54584,24.68805],[71.22235,24.63682],[71.05663,24.69282],[70.84857,25.16332],[70.65448,25.39659],[70.65386,25.67445],[70.26458,25.6973],[70.08325,25.92994],[70.15807,26.53011],[70.05606,26.58908],[69.77226,26.59507],[69.47284,26.76658],[69.57558,27.18842],[69.84802,27.41037],[70.01689,27.60059],[70.10195,27.81174],[70.34194,28.01147],[70.45625,28.03979],[70.55981,27.99845],[70.76176,27.70978],[71.22633,27.84536]]]}},{"type":"Feature","properties":{"id":"in-sk","lat":27.6529,"lng":88.44286},"geometry":{"type":"Polygon","coordinates":[[[88.89233,27.31554],[88.73308,27.14897],[88.51804,27.17622],[88.37169,27.08457],[88.08881,27.15165],[88.00466,27.24916],[88.02334,27.49491],[88.15966,27.77412],[88.09992,27.92832],[88.37877,27.98263],[88.594,28.10661],[88.80293,28.01101],[88.85388,27.84368],[88.74164,27.53168],[88.77358,27.40851],[88.89233,27.31554]]]}},{"type":"Feature","properties":{"id":"in-tg","lat":17.85051,"lng":79.26532},"geometry":{"type":"Polygon","coordinates":[[[77.60098,18.12512],[77.50259,18.38159],[77.55922,18.50763],[77.68852,18.57473],[77.71239,18.68945],[77.91207,18.83536],[77.75198,19.04589],[77.83673,19.12669],[77.86546,19.29735],[77.98907,19.325],[78.05098,19.26541],[78.16787,19.2641],[78.2119,19.44013],[78.30264,19.48277],[78.40341,19.71926],[78.3292,19.89129],[78.47772,19.79913],[78.78003,19.77667],[78.93485,19.59818],[79.19773,19.46188],[79.266,19.58956],[79.57636,19.50811],[79.6361,19.56981],[79.79578,19.5941],[79.96383,19.42602],[79.94378,19.16922],[79.86182,19.08108],[79.93355,19.05313],[79.96487,18.93536],[79.91691,18.82658],[80.09054,18.69749],[80.29466,18.71338],[80.35203,18.59228],[80.48659,18.60618],[80.58343,18.54137],[80.77009,18.25902],[80.73505,18.17375],[80.82828,18.2153],[80.87354,18.13757],[80.95912,18.14825],[81.01545,17.78522],[81.15725,17.8379],[81.57841,17.79695],[81.75897,17.90893],[81.78657,17.86312],[81.57389,17.70453],[81.46953,17.42049],[80.93079,17.19252],[80.85577,17.05307],[80.59094,17.13979],[80.46742,17.03575],[80.39736,17.07908],[80.38431,16.97598],[80.58623,16.93394],[80.59791,16.79328],[80.39314,16.83852],[80.25411,17.0236],[80.15313,17.02314],[80.0127,16.90215],[80.07333,16.82286],[79.9581,16.63044],[79.77166,16.72712],[79.26564,16.56961],[79.21347,16.49323],[79.20143,16.22862],[79.02166,16.24714],[78.84693,16.15074],[78.83945,16.06672],[78.76092,16.0277],[78.49977,16.09378],[78.24439,16.03852],[78.23528,15.95047],[78.10035,15.82966],[77.8956,15.918],[77.66057,15.89557],[77.44647,15.95298],[77.4908,16.26159],[77.55261,16.33216],[77.25744,16.44936],[77.44626,16.64077],[77.40957,16.73784],[77.46776,17.02581],[77.37443,17.22257],[77.68583,17.56717],[77.59912,17.54681],[77.41153,17.63078],[77.53132,17.75401],[77.50786,17.83473],[77.62671,17.94219],[77.55912,18.07835],[77.60098,18.12512]]]}},{"type":"Feature","properties":{"id":"in-tn","lat":10.82542,"lng":78.32814},"geometry":{"type":"MultiPolygon","coordinates":[[[[79.84986,10.75519],[79.85133,10.28221],[79.55665,10.29865],[79.58692,10.3437],[79.30494,10.26813],[79.23634,10.16657],[79.27906,10.03583],[78.93149,9.56167],[78.91529,9.45303],[79.03989,9.31468],[79.34108,9.31586],[79.45362,9.159],[79.29273,9.25031],[78.98894,9.27827],[78.41212,9.09984],[78.18279,8.8771],[78.16236,8.75348],[78.21518,8.76545],[78.11459,8.6579],[78.12827,8.48802],[78.05592,8.36371],[77.56528,8.08251],[77.44972,8.08747],[77.11033,8.28517],[77.27883,8.52641],[77.18767,8.63937],[77.2534,8.85073],[77.16493,9.001],[77.40378,9.46108],[77.34063,9.57996],[77.18685,9.59678],[77.27697,10.2101],[77.1915,10.35131],[76.9698,10.2247],[76.84154,10.31066],[76.82108,10.63318],[76.88971,10.78004],[76.67752,10.95626],[76.68765,11.03346],[76.76754,11.0461],[76.70274,11.23805],[76.44839,11.20686],[76.54275,11.33797],[76.25625,11.47845],[76.23176,11.58568],[76.33925,11.59149],[76.48373,11.71954],[76.56693,11.63376],[76.82077,11.6256],[76.91823,11.80734],[77.01269,11.82197],[77.0962,11.75042],[77.25919,11.8169],[77.40812,11.79161],[77.48977,11.92612],[77.67085,11.97131],[77.76583,12.10068],[77.73678,12.17409],[77.48336,12.20755],[77.46476,12.26153],[77.6046,12.40578],[77.56873,12.55957],[77.60935,12.67279],[77.76531,12.71873],[77.80128,12.85655],[77.90484,12.87146],[77.98742,12.80436],[78.05625,12.84594],[78.42574,12.63383],[78.57766,12.77049],[78.64474,12.992],[78.72494,13.05778],[78.85868,13.08047],[78.90136,13.03781],[78.96121,13.09323],[79.16161,13.04491],[79.2508,13.14775],[79.31488,13.13199],[79.4202,13.21999],[79.46691,13.33725],[79.77604,13.22082],[79.75816,13.2933],[79.9567,13.36577],[80.04796,13.53445],[80.10863,13.51212],[80.10253,13.45936],[80.26588,13.46825],[80.34783,13.34907],[80.15602,12.47451],[79.94386,12.21784],[80.00514,12.24177],[79.84956,11.95518],[79.7778,11.91416],[79.7686,11.97749],[79.67072,11.97586],[79.70307,11.85811],[79.81087,11.83298],[79.75196,11.57697],[79.82195,11.39106],[79.74985,11.37368],[79.67628,11.29645],[79.82993,11.3461],[79.85532,11.15986],[79.84669,10.97983],[79.73087,10.98321],[79.70545,10.91044],[79.80271,10.87081],[79.84986,10.75519]]],[[[80.30958,13.47931],[80.31373,13.4409],[80.2881,13.52709],[80.30958,13.47931]]]]}},{"type":"Feature","properties":{"id":"in-tr","lat":23.75161,"lng":91.72031},"geometry":{"type":"Polygon","coordinates":[[[92.25974,23.70264],[92.1943,23.64814],[92.15079,23.73165],[92.01901,23.64006],[91.92269,23.72297],[91.94078,23.49518],[91.74368,23.27233],[91.79556,23.0895],[91.58607,22.94447],[91.39435,23.26266],[91.37089,23.06278],[91.31353,23.10105],[91.28727,23.35555],[91.13235,23.72065],[91.20521,23.77157],[91.21627,23.90839],[91.33906,23.99523],[91.36303,24.09985],[91.58183,24.0961],[91.62906,24.21532],[91.70368,24.14295],[91.73293,24.23428],[91.8645,24.15059],[91.89985,24.33805],[91.97219,24.31606],[91.94997,24.37539],[92.08826,24.38164],[92.14998,24.54218],[92.25776,24.396],[92.22024,24.26433],[92.32535,24.18834],[92.31998,23.85738],[92.27068,23.82911],[92.25974,23.70264]]]}},{"type":"Feature","properties":{"id":"in-up","lat":27.14159,"lng":80.77684},"geometry":{"type":"Polygon","coordinates":[[[82.67389,27.69646],[82.75214,27.49496],[83.13279,27.44422],[83.28244,27.33094],[83.38703,27.47047],[83.59043,27.45662],[83.89011,27.32813],[84.07056,26.9236],[84.22611,26.89151],[84.24636,26.75705],[84.39395,26.65442],[84.09919,26.64959],[84.05402,26.56476],[83.96349,26.51593],[83.92587,26.54636],[83.92628,26.46464],[84.18621,26.39462],[84.18559,26.28486],[83.98808,26.20856],[84.26145,25.93131],[84.37431,25.9403],[84.61244,25.78685],[84.52417,25.70022],[84.32615,25.74851],[84.32646,25.66332],[84.27602,25.64148],[84.14342,25.73621],[83.8869,25.51702],[83.34595,25.19898],[83.35484,24.87505],[83.52362,24.74635],[83.5231,24.52967],[83.39835,24.49331],[83.45158,24.35368],[83.215,23.94898],[82.93647,23.92017],[82.73452,24.06587],[82.67385,24.18033],[82.7648,24.33004],[82.73441,24.55163],[82.81803,24.5894],[82.71457,24.71777],[82.42714,24.71857],[82.40968,24.63563],[82.30705,24.63201],[82.32338,24.69376],[82.26519,24.71544],[82.26302,24.79117],[82.20804,24.7643],[82.20866,24.84311],[82.12215,24.8081],[81.95606,24.87101],[81.84206,25.02708],[81.57789,25.08454],[81.53697,25.19975],[81.42534,25.16482],[81.46917,25.12694],[81.41842,25.10413],[81.24324,25.16952],[81.18143,24.95814],[81.09813,24.90861],[81.0047,24.96644],[80.76172,24.98331],[80.83541,25.21774],[80.66643,25.14971],[80.71789,25.08198],[80.63883,25.07343],[80.56462,25.15244],[80.54643,25.10754],[80.45848,25.11705],[80.51388,25.05046],[80.47822,25.01834],[80.4067,25.06377],[80.40701,25.01336],[80.29715,25.01206],[80.26986,25.0886],[80.422,25.18598],[80.28361,25.41447],[80.19813,25.41643],[79.84043,25.24068],[79.86327,25.15324],[79.55373,25.17903],[79.47952,25.10555],[79.39901,25.14133],[79.35767,25.07111],[79.33907,25.14741],[79.4418,25.29727],[79.31033,25.24381],[79.31157,25.36455],[79.26196,25.29592],[79.27953,25.16428],[79.02405,25.17464],[79.0474,25.25693],[78.99862,25.2827],[78.86984,25.18051],[78.95997,25.42654],[78.90912,25.44139],[78.89113,25.53811],[78.83553,25.41974],[78.78189,25.52402],[78.72691,25.49447],[78.72753,25.34639],[78.58211,25.40674],[78.51359,25.27337],[78.7237,24.84872],[78.71977,24.6564],[78.87108,24.62573],[78.97237,24.42257],[78.80979,24.22023],[78.4894,24.41078],[78.37055,24.30247],[78.35049,24.40797],[78.22389,24.51923],[78.27226,24.62444],[78.16911,24.86546],[78.32486,25.00217],[78.36631,25.18601],[78.25117,25.39783],[78.37055,25.55268],[78.74758,25.64272],[78.73331,25.77416],[78.95315,26.10032],[78.93816,26.2546],[79.05857,26.34304],[79.04926,26.44066],[78.92607,26.70622],[78.71006,26.79888],[78.56351,26.7585],[78.3506,26.85846],[78.20012,26.82358],[78.17262,26.86862],[78.246,26.92291],[78.1688,26.94892],[78.01625,26.86666],[77.72046,26.93396],[77.39789,26.77888],[77.42332,26.88438],[77.71922,27.01579],[77.50341,27.08047],[77.65731,27.20271],[77.60212,27.3295],[77.43407,27.40613],[77.31831,27.61687],[77.28069,27.80944],[77.52925,27.95251],[77.46972,28.11273],[77.50383,28.09286],[77.53866,28.24306],[77.46652,28.31522],[77.49701,28.39325],[77.29784,28.56939],[77.31314,28.70727],[77.20628,28.82186],[77.22074,28.91438],[77.13393,29.11636],[77.14819,29.41492],[77.06561,29.42485],[77.12028,29.48378],[77.06561,29.50368],[77.08783,29.6585],[77.22994,29.97665],[77.57008,30.27823],[77.58506,30.38293],[77.66154,30.39492],[77.94607,30.22834],[77.7464,29.97734],[77.83146,29.65989],[77.96654,29.72441],[78.15495,29.67498],[78.19784,29.74816],[78.15495,29.92544],[78.21769,29.95368],[78.64309,29.53758],[78.91997,29.42218],[78.71409,29.29059],[78.86767,29.21517],[78.91377,29.10559],[79.05588,29.15176],[79.29638,28.97156],[79.37121,28.96989],[79.44366,28.84958],[79.81263,28.87687],[79.83413,28.80579],[79.88704,28.81801],[79.972,28.73287],[80.08186,28.81935],[80.48845,28.56244],[80.48762,28.65647],[80.55584,28.67895],[80.90527,28.44085],[81.1697,28.36132],[81.29621,28.12831],[81.39604,28.16063],[81.85565,27.85094],[82.02722,27.91241],[82.40193,27.67717],[82.67389,27.69646]]]}},{"type":"Feature","properties":{"id":"in-ut","lat":30.10674,"lng":79.3206},"geometry":{"type":"Polygon","coordinates":[[[80.17984,30.55948],[80.59635,30.4598],[81.0033,30.21273],[80.86791,30.20017],[80.71583,30.01331],[80.36898,29.75793],[80.3852,29.60484],[80.21374,29.41689],[80.28009,29.31015],[80.25818,29.20246],[80.2188,29.21109],[80.22066,29.12608],[80.13261,29.11021],[80.03391,28.91594],[80.06967,28.80517],[79.98719,28.73357],[79.83413,28.80579],[79.81263,28.87687],[79.44366,28.84958],[79.37121,28.96989],[79.29638,28.97156],[79.05588,29.15176],[78.91377,29.10559],[78.86767,29.21517],[78.71409,29.29059],[78.91997,29.42218],[78.64309,29.53758],[78.21769,29.95368],[78.15495,29.92544],[78.19784,29.74816],[78.15495,29.67498],[77.96654,29.72441],[77.83146,29.65989],[77.7464,29.97734],[77.94607,30.22834],[77.56532,30.41486],[77.81296,30.52106],[77.7433,30.60056],[77.70578,30.79145],[77.79342,30.89574],[77.7497,30.97992],[77.92892,31.16526],[78.31298,31.2945],[78.50098,31.21957],[78.79274,31.20701],[78.86953,31.12198],[78.96152,31.12185],[78.99335,31.1634],[78.89261,31.28177],[79.07021,31.46138],[79.23832,31.32966],[79.40159,31.02364],[79.57781,30.93837],[79.8335,30.96152],[80.06253,30.78479],[80.1693,30.78525],[80.23141,30.72495],[80.16661,30.67441],[80.17984,30.55948]]]}},{"type":"Feature","properties":{"id":"in-wb","lat":24.41952,"lng":88.01914},"geometry":{"type":"MultiPolygon","coordinates":[[[[88.84132,21.614],[88.90797,21.53071],[88.83871,21.53193],[88.84132,21.614]]],[[[88.11931,21.85952],[88.167,21.76545],[88.13006,21.62592],[88.04225,21.66816],[88.11931,21.85952]]],[[[88.66326,21.92129],[88.64633,21.78791],[88.59181,21.80439],[88.59864,21.86986],[88.66326,21.92129]]],[[[88.10499,21.86115],[88.09425,21.93789],[88.11891,21.94501],[88.10499,21.86115]]],[[[88.82763,27.09788],[88.85171,26.94544],[88.90664,26.98109],[89.0965,26.82141],[89.34166,26.85433],[89.58609,26.78405],[89.60981,26.71222],[89.8587,26.72206],[89.8885,26.5329],[89.73533,26.21171],[89.61332,26.21938],[89.57343,26.16073],[89.61136,26.07221],[89.52842,25.95713],[89.31515,26.00679],[89.13159,26.13376],[89.06943,26.28739],[89.10291,26.32734],[88.95016,26.43694],[88.89187,26.36878],[89.01945,26.23447],[88.87579,26.27736],[88.82484,26.22657],[88.74795,26.2925],[88.6634,26.26444],[88.71224,26.32826],[88.65627,26.41513],[88.41102,26.5451],[88.38528,26.62354],[88.31511,26.46505],[88.46114,26.45389],[88.49763,26.35271],[88.43169,26.36222],[88.32627,26.21592],[88.1638,26.14047],[88.0744,25.90814],[88.12773,25.77491],[88.25992,25.78902],[88.53029,25.5002],[88.66635,25.46289],[88.77234,25.50196],[88.842,25.33282],[88.98271,25.29448],[88.92416,25.16787],[88.4413,25.18973],[88.32275,24.87468],[88.24276,24.8806],[88.20245,24.9453],[88.11491,24.91641],[88.14096,24.84458],[88.02179,24.6456],[88.10995,24.50099],[88.4754,24.31547],[88.63452,24.29413],[88.66015,24.33826],[88.73751,24.2871],[88.7464,24.21408],[88.67808,24.15429],[88.71415,23.92516],[88.57762,23.85516],[88.54155,23.63876],[88.71942,23.4681],[88.77017,23.48883],[88.69658,23.25235],[88.95998,23.20269],[88.8513,23.07513],[88.83879,22.97581],[88.94452,22.84801],[88.92799,22.54813],[89.07816,22.15085],[89.03688,22.0856],[89.06088,21.93846],[89.00953,21.90461],[88.90504,21.96943],[89.01588,21.85334],[89.08823,21.63373],[89.00025,21.60342],[88.89698,21.65013],[88.85865,21.76683],[88.85865,21.63654],[88.80584,21.62287],[88.81088,21.69172],[88.79054,21.56826],[88.70753,21.57831],[88.69451,21.83983],[88.76303,22.01728],[88.70851,22.07221],[88.76303,22.13056],[88.69483,22.08153],[88.73072,22.03718],[88.68995,21.94599],[88.63087,21.94546],[88.68312,22.18496],[88.66017,22.20502],[88.56707,21.85082],[88.56463,21.76683],[88.63282,21.75007],[88.57228,21.55793],[88.48797,21.55654],[88.53289,21.79531],[88.49562,21.95181],[88.45631,21.62401],[88.39308,21.60025],[88.39259,21.69855],[88.33123,21.71906],[88.30974,21.61018],[88.29819,21.76411],[88.26157,21.79865],[88.30584,21.57168],[88.25441,21.55467],[88.18189,21.66523],[88.20973,21.78856],[88.14674,21.95922],[88.22242,22.07795],[88.19801,22.16779],[88.00904,22.24042],[87.94044,22.41303],[87.90659,22.42475],[87.96534,22.24482],[88.13258,22.17914],[88.16432,22.08979],[88.04314,22.01728],[87.98365,21.85419],[87.8672,21.7508],[87.70379,21.6555],[87.47739,21.61359],[87.42446,21.77474],[87.25197,21.82211],[87.19068,21.95621],[87.12081,21.97693],[87.03141,21.90799],[86.98738,22.06659],[86.70461,22.1887],[86.69334,22.22433],[86.85251,22.30202],[86.71815,22.4694],[86.74006,22.55821],[86.3991,22.78497],[86.41047,22.93578],[86.50648,22.98834],[86.17803,23.00573],[86.00191,23.1651],[85.88843,23.16308],[85.82983,23.2608],[85.89484,23.41648],[85.82239,23.4702],[86.00481,23.51422],[86.03912,23.60716],[86.12914,23.57835],[86.12645,23.49247],[86.27301,23.45374],[86.41047,23.61657],[86.7998,23.72553],[86.87721,23.91306],[87.16629,23.81023],[87.13931,23.87332],[87.23254,23.84583],[87.28266,23.92795],[87.23553,24.04042],[87.45816,24.01983],[87.48854,24.13243],[87.56327,24.11207],[87.66155,24.1862],[87.62373,24.26048],[87.7338,24.33469],[87.80046,24.50078],[87.75085,24.59333],[87.89999,24.62095],[87.811,24.78554],[87.8542,24.7897],[87.87746,24.93887],[87.76873,25.15924],[87.83901,25.2883],[87.74382,25.40264],[87.9558,25.53408],[88.06742,25.49108],[88.04282,25.67815],[87.78951,25.91917],[87.97027,26.1383],[88.30389,26.35175],[88.20343,26.54719],[88.08714,26.5391],[88.16783,26.76291],[88.09682,26.95934],[87.97073,27.10274],[87.98934,27.21839],[88.35743,27.08512],[88.54233,27.17808],[88.82763,27.09788]]]]}}]}
