{"type":"FeatureCollection","features":[{"type":"Feature","properties":{"id":"iq-an","lat":32.84656,"lng":41.54076},"geometry":{"type":"Polygon","coordinates":[[[40.42413,31.92053],[39.14637,32.11814],[39.292,32.24452],[39.23577,32.35286],[39.02876,32.32834],[38.97822,32.47497],[39.05718,32.4966],[38.77451,33.37168],[40.69047,34.3315],[40.96528,34.40185],[41.20423,34.79312],[41.19233,35.1589],[41.98424,34.96427],[42.49129,34.97272],[42.53976,34.59531],[42.77726,34.44304],[42.92878,34.49588],[43.01084,34.1814],[43.13187,33.9995],[43.42963,33.76533],[44.00148,33.6635],[44.13346,33.48785],[44.09998,33.46599],[44.27785,33.37857],[44.22224,33.28218],[44.28725,33.18916],[44.23919,33.13891],[43.82035,33.2017],[44.01574,33.0894],[44.1409,32.87631],[44.12964,32.78115],[43.75901,32.81681],[43.4656,32.62964],[43.21073,32.57098],[43.79581,32.08342],[43.7895,32.03376],[43.438,31.877],[43.25352,31.65352],[43.04547,31.06177],[42.78341,30.55104],[42.0754,31.07986],[40.42413,31.92053]]]}},{"type":"Feature","properties":{"id":"iq-ar","lat":36.3952,"lng":44.17558},"geometry":{"type":"Polygon","coordinates":[[[44.06903,37.31373],[44.23501,37.23677],[44.24834,37.16967],[44.18002,37.08761],[44.24327,36.97777],[44.61028,37.17835],[44.75384,37.15915],[44.76655,37.07895],[44.88737,37.01593],[44.82339,36.80933],[45.03527,36.6896],[45.00545,36.50661],[44.63379,36.44261],[44.53954,36.34778],[44.69518,36.21425],[44.62738,36.12679],[44.97713,35.89644],[44.83347,35.85275],[44.61498,35.90783],[44.54046,35.85027],[44.16984,35.84293],[44.09284,35.78105],[43.91187,35.84577],[43.76232,35.70929],[43.80108,35.6487],[43.73194,35.53737],[43.41289,35.43107],[43.35821,35.45822],[43.37506,35.58824],[43.32162,35.68578],[43.39438,35.92724],[43.34478,35.98884],[43.4934,36.05157],[43.8542,36.50891],[44.02194,36.62391],[44.13532,36.60084],[44.30213,36.73463],[43.82816,37.01185],[44.09853,37.20768],[44.06903,37.31373]]]}},{"type":"Feature","properties":{"id":"iq-ba","lat":30.17384,"lng":47.55283},"geometry":{"type":"Polygon","coordinates":[[[47.94801,29.99404],[47.67417,30.09822],[47.35822,30.09212],[47.1447,30.00334],[46.85345,29.44456],[46.56147,29.12417],[46.74457,30.0893],[46.57466,30.51408],[46.90115,30.59129],[47.08842,30.57379],[47.12615,31.12981],[47.17627,31.23094],[47.39476,31.27915],[47.67644,31.23652],[47.67294,30.9947],[48.01224,30.98907],[48.01359,30.46388],[48.13058,30.4475],[48.20009,30.32394],[48.30571,30.31283],[48.4087,30.20234],[48.38111,30.14534],[48.45314,30.00143],[48.55926,29.9466],[48.41188,29.93842],[48.11915,30.04499],[47.96901,30.00406],[47.95167,30.08832],[47.93482,30.10708],[47.94801,29.99404]]]}},{"type":"Feature","properties":{"id":"iq-bb","lat":32.64757,"lng":44.60705},"geometry":{"type":"Polygon","coordinates":[[[44.30038,33.19082],[44.50481,33.17601],[44.54698,32.82632],[44.93589,32.7249],[45.05175,32.49763],[45.19396,32.4466],[45.19841,32.39443],[44.81838,32.22788],[44.74965,32.12145],[44.49974,32.2163],[44.37365,32.14499],[44.22266,32.57023],[44.26007,32.74958],[44.12964,32.78115],[44.1409,32.87631],[44.01574,33.0894],[43.82035,33.2017],[44.21811,33.13384],[44.30038,33.19082]]]}},{"type":"Feature","properties":{"id":"iq-bg","lat":33.35616,"lng":44.39937},"geometry":{"type":"Polygon","coordinates":[[[44.50481,33.17601],[44.28725,33.18916],[44.22627,33.30143],[44.34978,33.43251],[44.52579,33.41088],[44.50481,33.17601]]]}},{"type":"Feature","properties":{"id":"iq-da","lat":37.0288,"lng":43.02379},"geometry":{"type":"Polygon","coordinates":[[[42.78047,37.3755],[42.93705,37.32015],[43.11482,37.37113],[43.4796,37.24336],[43.8094,37.19969],[44.03559,37.31824],[44.09946,37.21039],[43.82816,37.01185],[43.6537,37.04575],[43.63788,36.97963],[43.72821,36.93679],[43.64884,36.82651],[43.3207,36.93457],[43.18582,36.77799],[42.84341,36.69252],[42.504,36.85132],[42.50762,36.97307],[42.4146,36.99555],[42.35724,37.10998],[42.56126,37.14662],[42.78047,37.3755]]]}},{"type":"Feature","properties":{"id":"iq-di","lat":34.07646,"lng":44.89804},"geometry":{"type":"Polygon","coordinates":[[[45.7962,34.90306],[45.62738,34.72083],[45.70153,34.55128],[45.50066,34.59169],[45.50346,34.49417],[45.41705,34.44436],[45.46077,34.34046],[45.56304,34.28928],[45.54454,34.13949],[45.38036,33.97356],[45.48578,33.93865],[45.73455,33.58312],[45.88596,33.63092],[45.92793,33.55087],[45.85258,33.49437],[45.96446,33.49597],[45.91609,33.41522],[45.72086,33.32016],[45.48366,33.06602],[44.83471,33.17433],[44.69911,33.01613],[44.61219,33.07718],[44.54005,33.006],[44.53333,33.40357],[44.34978,33.43251],[44.27485,33.37788],[44.24477,33.43333],[44.40146,33.59679],[44.38936,33.7836],[44.44776,33.93542],[44.28942,34.01343],[44.34813,34.16448],[44.50884,34.26269],[44.50605,34.56296],[44.63038,34.52438],[44.72102,34.68897],[44.96597,34.86748],[45.1857,34.78364],[45.21732,34.5128],[45.44935,34.67202],[45.713,35.10992],[45.82318,35.01608],[45.78153,35.01282],[45.7962,34.90306]]]}},{"type":"Feature","properties":{"id":"iq-dq","lat":31.25707,"lng":46.25656},"geometry":{"type":"Polygon","coordinates":[[[45.80716,31.45979],[45.72572,31.94779],[46.31741,32.00544],[46.43265,31.69122],[46.59915,31.54162],[46.60504,31.39604],[46.73031,31.31602],[46.74953,31.19812],[46.84585,31.13911],[47.12615,31.12981],[47.08842,30.57379],[46.90115,30.59129],[46.52825,30.50775],[46.37136,30.7335],[45.71983,30.83763],[45.72613,31.07294],[45.79434,31.1244],[45.74081,31.18706],[45.80953,31.33561],[45.72386,31.35586],[45.80716,31.45979]]]}},{"type":"Feature","properties":{"id":"iq-ka","lat":32.49357,"lng":43.77483},"geometry":{"type":"Polygon","coordinates":[[[43.75901,32.81681],[44.2641,32.74167],[44.22266,32.57023],[44.30255,32.44644],[44.29645,32.29596],[43.6906,32.16845],[43.21765,32.5407],[43.75901,32.81681]]]}},{"type":"Feature","properties":{"id":"iq-ma","lat":31.97395,"lng":47.00566},"geometry":{"type":"Polygon","coordinates":[[[46.6006,32.82252],[47.09059,32.47456],[47.34334,32.45869],[47.504,32.22674],[47.49134,32.14863],[47.83447,31.80571],[47.67893,31.40785],[47.67644,31.23652],[47.3497,31.27595],[47.17627,31.23094],[47.12615,31.12981],[46.84585,31.13911],[46.7426,31.20593],[46.71759,31.33075],[46.60504,31.39604],[46.59915,31.54162],[46.43265,31.69122],[46.3109,31.93541],[46.35369,31.96433],[46.31741,32.00544],[46.57683,31.98358],[46.6037,32.13372],[46.42862,32.2495],[46.48112,32.60062],[46.6006,32.82252]]]}},{"type":"Feature","properties":{"id":"iq-mu","lat":30.34053,"lng":45.38696},"geometry":{"type":"Polygon","coordinates":[[[46.56147,29.12417],[46.35746,29.06314],[44.71746,29.1931],[43.82401,29.81398],[44.05636,30.16697],[44.27195,30.67624],[44.62707,31.00695],[44.72691,31.40746],[44.97827,31.26264],[45.1086,31.6014],[45.02488,31.6792],[45.29205,31.7276],[45.78576,31.65153],[45.80716,31.45979],[45.72386,31.35586],[45.80953,31.33561],[45.74081,31.18706],[45.79434,31.1244],[45.72613,31.07294],[45.71983,30.83763],[46.37136,30.7335],[46.51523,30.51641],[46.57466,30.51408],[46.74457,30.0893],[46.56147,29.12417]]]}},{"type":"Feature","properties":{"id":"iq-na","lat":31.23462,"lng":43.89404},"geometry":{"type":"Polygon","coordinates":[[[43.82401,29.81398],[42.78341,30.55104],[43.04547,31.06177],[43.23925,31.63153],[43.40917,31.8503],[43.7895,32.03376],[43.6906,32.16845],[44.29645,32.29596],[44.3195,32.34371],[44.31267,32.23126],[44.37365,32.14499],[44.49974,32.2163],[44.62987,32.15946],[44.58398,32.09918],[44.61312,32.0582],[44.49954,31.95273],[44.54171,31.64078],[44.42926,31.58531],[44.51597,31.48562],[44.72691,31.40746],[44.62707,31.00695],[44.27195,30.67624],[44.05636,30.16697],[43.82401,29.81398]]]}},{"type":"Feature","properties":{"id":"iq-ni","lat":36.02535,"lng":42.34483},"geometry":{"type":"Polygon","coordinates":[[[41.26625,35.99429],[41.26883,36.32796],[41.38541,36.51638],[41.81732,36.59973],[42.37681,37.062],[42.45263,36.9655],[42.50762,36.97307],[42.504,36.85132],[42.84341,36.69252],[43.18582,36.77799],[43.3207,36.93457],[43.64884,36.82651],[43.72821,36.93679],[43.63788,36.97963],[43.66052,37.04862],[43.92603,36.97996],[44.30182,36.74311],[44.13532,36.60084],[44.02194,36.62391],[43.8542,36.50891],[43.4934,36.05157],[43.35294,35.99912],[43.39438,35.92724],[43.31873,35.69423],[42.8802,35.48057],[43.0249,35.09685],[42.5164,35.07008],[42.49129,34.97272],[42.27332,34.94844],[41.98424,34.96427],[41.19233,35.1589],[41.26108,35.49417],[41.3635,35.65524],[41.35451,35.82557],[41.26625,35.99429]]]}},{"type":"Feature","properties":{"id":"iq-qa","lat":31.84016,"lng":45.12772},"geometry":{"type":"Polygon","coordinates":[[[45.18373,32.39508],[45.39189,32.33508],[45.38351,32.26129],[45.53813,32.11484],[45.68603,32.06892],[45.78576,31.65153],[45.29205,31.7276],[45.02488,31.6792],[45.1086,31.6014],[44.97827,31.26264],[44.51597,31.48562],[44.42926,31.58531],[44.54171,31.64078],[44.49954,31.95273],[44.61312,32.0582],[44.58398,32.09918],[44.62987,32.15946],[44.74965,32.12145],[44.81838,32.22788],[45.18373,32.39508]]]}},{"type":"Feature","properties":{"id":"iq-sd","lat":34.57913,"lng":43.61205},"geometry":{"type":"Polygon","coordinates":[[[44.56207,35.12907],[44.66294,35.04202],[44.95191,34.97673],[44.96597,34.86748],[44.72102,34.68897],[44.63038,34.52438],[44.50605,34.56296],[44.50884,34.26269],[44.34813,34.16448],[44.28942,34.01343],[44.44776,33.93542],[44.38936,33.7836],[44.40146,33.59679],[44.24477,33.43333],[44.09998,33.46599],[44.13346,33.48785],[44.00148,33.6635],[43.48255,33.74885],[43.29217,33.86535],[43.06324,34.07559],[42.92878,34.49588],[42.8092,34.4394],[42.73386,34.46345],[42.53976,34.59531],[42.49987,34.74008],[42.5164,35.07008],[43.03565,35.10261],[42.8802,35.48057],[43.33434,35.72345],[43.37123,35.46404],[43.31449,35.42675],[43.27388,35.4667],[43.26736,35.42102],[43.36493,35.34503],[43.35046,35.28043],[43.4225,35.26542],[43.4072,35.18971],[44.28839,34.70452],[44.53364,35.01608],[44.51339,35.08398],[44.56207,35.12907]]]}},{"type":"Feature","properties":{"id":"iq-su","lat":35.49847,"lng":45.37381},"geometry":{"type":"Polygon","coordinates":[[[45.00952,36.5162],[45.08374,36.41282],[45.23887,36.403],[45.33809,35.9793],[45.53999,35.99398],[45.74902,35.81099],[46.06042,35.85724],[46.16352,35.79751],[46.32707,35.8035],[46.23788,35.71555],[46.0165,35.68573],[45.99924,35.57214],[45.95934,35.57871],[45.97702,35.46533],[46.12016,35.31852],[46.10145,35.23428],[46.16925,35.21625],[46.14311,35.09951],[45.9132,35.08732],[45.83501,34.89017],[45.78029,35.00598],[45.82318,35.01608],[45.70711,35.1068],[45.44935,34.67202],[45.21732,34.5128],[45.16957,34.80227],[44.96597,34.86748],[44.96401,34.96476],[44.86592,35.02626],[44.67937,35.03567],[44.56207,35.12907],[44.69487,35.18834],[44.8034,35.4592],[44.75244,35.5316],[44.78541,35.6856],[44.62728,35.88569],[44.83347,35.85275],[44.97765,35.89871],[44.62738,36.12679],[44.69518,36.21425],[44.53984,36.36897],[44.63379,36.44261],[44.9609,36.4694],[45.00952,36.5162]]]}},{"type":"Feature","properties":{"id":"iq-ts","lat":35.31273,"lng":44.0512},"geometry":{"type":"Polygon","coordinates":[[[44.62728,35.88569],[44.78541,35.6856],[44.75244,35.5316],[44.8034,35.4592],[44.69487,35.18834],[44.52672,35.11253],[44.53364,35.01608],[44.40259,34.90454],[44.3135,34.70251],[43.49391,35.11067],[43.38839,35.21354],[43.4225,35.26542],[43.35046,35.28043],[43.36493,35.34503],[43.26953,35.41148],[43.27388,35.4667],[43.44451,35.42603],[43.73194,35.53737],[43.80108,35.6487],[43.76232,35.70929],[43.91187,35.84577],[44.09284,35.78105],[44.16984,35.84293],[44.62728,35.88569]]]}},{"type":"Feature","properties":{"id":"iq-wa","lat":32.7689,"lng":45.67433},"geometry":{"type":"Polygon","coordinates":[[[45.96446,33.49597],[46.16419,33.24335],[46.16719,33.16834],[46.0303,33.10568],[46.12042,33.06168],[46.09701,32.95432],[46.37963,32.93176],[46.6006,32.82252],[46.48112,32.60062],[46.42862,32.2495],[46.6037,32.13372],[46.57683,31.98358],[46.05758,32.00464],[45.72572,31.94779],[45.68603,32.06892],[45.53813,32.11484],[45.38351,32.26129],[45.39189,32.33508],[45.06922,32.47895],[44.95016,32.71529],[44.54036,32.84213],[44.52331,32.99793],[44.61219,33.07718],[44.69911,33.01613],[44.83471,33.17433],[45.49183,33.06876],[45.96446,33.49597]]]}}]}
