{"type":"FeatureCollection","features":[{"type":"Feature","properties":{"id":"ir-01","lat":37.90814,"lng":46.54656},"geometry":{"type":"Polygon","coordinates":[[[46.37823,38.92471],[46.55373,38.88982],[46.86616,39.16536],[47.01363,39.18696],[47.10393,39.04984],[47.07292,38.98995],[46.88389,38.91874],[46.77299,38.94078],[46.76297,38.86866],[46.65889,38.86603],[46.56567,38.73588],[46.64525,38.65914],[46.84782,38.7219],[46.99747,38.6888],[47.15209,38.80507],[47.23818,38.98139],[47.52561,39.08312],[47.52974,38.87665],[47.58762,38.76389],[47.5409,38.63028],[47.61232,38.55796],[47.30195,38.44373],[47.22444,38.33487],[47.23167,38.25239],[47.71278,38.23565],[47.79918,37.98412],[47.95545,37.83216],[47.94367,37.566],[48.16991,37.46851],[48.20401,37.34713],[48.32463,37.24739],[48.45526,37.22388],[48.33414,37.17287],[47.62069,37.16657],[47.20676,36.86907],[47.19384,36.75683],[46.95644,36.73476],[46.85888,36.74541],[46.79283,36.98265],[46.63884,37.05893],[46.38955,36.98441],[46.29292,36.87775],[45.92353,37.10921],[45.68655,37.12915],[45.39468,37.28186],[45.35447,37.50531],[45.23489,37.66884],[45.19944,38.11341],[45.08937,38.26702],[45.36563,38.5778],[45.32677,38.73738],[45.37783,38.88517],[45.49453,38.98192],[46.12605,38.86267],[46.37823,38.92471]]]}},{"type":"Feature","properties":{"id":"ir-02","lat":37.8787,"lng":44.75139},"geometry":{"type":"Polygon","coordinates":[[[44.59043,39.77153],[44.87228,39.62508],[44.95703,39.43449],[45.08798,39.35073],[45.15273,39.21352],[45.31112,39.20053],[45.49453,38.98192],[45.35582,38.84342],[45.36563,38.5778],[45.08937,38.26702],[45.19944,38.11341],[45.23489,37.66884],[45.35447,37.50531],[45.35685,37.32718],[45.68655,37.12915],[45.92353,37.10921],[46.29292,36.87775],[46.38955,36.98441],[46.59274,37.06497],[46.76131,37.00441],[46.85888,36.74541],[47.19384,36.75683],[47.33234,36.50769],[47.21648,36.36819],[46.92378,36.37246],[46.81516,36.45777],[46.04642,36.44811],[45.95878,36.42021],[45.88705,36.28988],[45.72448,36.24761],[45.53586,36.02256],[45.32021,35.99408],[45.34832,36.08751],[45.23887,36.403],[45.07227,36.42341],[44.99139,36.53374],[45.03527,36.6896],[44.82339,36.80933],[44.88737,37.01593],[44.7527,37.10332],[44.80159,37.29269],[44.57214,37.43079],[44.58744,37.58401],[44.54088,37.63272],[44.59612,37.71638],[44.43644,37.7678],[44.36714,37.86022],[44.20209,37.89717],[44.45876,38.33833],[44.28952,38.38226],[44.29702,38.62232],[44.24431,38.65896],[44.275,38.84357],[44.15196,38.96462],[44.18664,39.14513],[44.0777,39.20006],[44.01486,39.37408],[44.38797,39.4145],[44.45949,39.69846],[44.59043,39.77153]]]}},{"type":"Feature","properties":{"id":"ir-03","lat":38.3893,"lng":47.95953},"geometry":{"type":"Polygon","coordinates":[[[47.95726,39.70734],[48.33894,39.37894],[48.10619,39.26918],[48.14216,39.1812],[48.2713,39.10831],[48.29367,39.0046],[48.05854,38.94837],[47.99312,38.85008],[48.22298,38.72146],[48.31031,38.60015],[48.41527,38.61811],[48.75447,38.29552],[48.51965,38.06582],[48.45609,37.88032],[48.54808,37.67884],[48.86661,37.35206],[48.88253,37.20279],[48.67603,37.21793],[48.60027,37.15479],[48.52565,37.2183],[48.32463,37.24739],[48.20401,37.34713],[48.16991,37.46851],[47.94367,37.566],[47.95545,37.83216],[47.79918,37.98412],[47.71278,38.23565],[47.23167,38.25239],[47.22444,38.33487],[47.30195,38.44373],[47.61232,38.55796],[47.5409,38.63028],[47.58762,38.76389],[47.52974,38.87665],[47.52561,39.08312],[47.23818,38.98139],[47.15209,38.80507],[46.99747,38.6888],[46.84782,38.7219],[46.64525,38.65914],[46.56567,38.73588],[46.65889,38.86603],[46.76297,38.86866],[46.77299,38.94078],[46.88389,38.91874],[47.09349,39.01186],[47.01363,39.18696],[47.10222,39.3084],[47.95726,39.70734]]]}},{"type":"Feature","properties":{"id":"ir-04","lat":32.6641,"lng":51.47454},"geometry":{"type":"Polygon","coordinates":[[[50.00153,33.49865],[50.24317,33.63487],[50.89894,33.81489],[51.0211,34.04624],[50.98369,34.16161],[51.02555,34.38702],[51.15836,34.45252],[51.78891,34.54198],[51.98228,34.45542],[52.42226,34.44769],[52.90006,34.32496],[55.28668,34.3841],[55.37515,34.34191],[55.35986,33.59464],[55.27459,33.47064],[54.98634,33.32996],[54.81467,32.9707],[53.65071,32.61287],[53.26107,32.67201],[52.88373,32.5052],[52.90492,32.1646],[52.82409,31.81385],[52.87071,31.59745],[52.45337,31.51286],[52.23064,31.55503],[52.14217,31.71253],[51.82333,31.53771],[51.65125,31.54836],[51.67109,31.47177],[51.84266,31.38744],[51.87159,31.32005],[51.71719,30.78218],[51.64112,30.7722],[51.37323,30.97449],[51.20993,31.64848],[51.2922,31.73853],[51.24,31.83242],[51.31587,31.9397],[51.29736,32.04368],[50.94927,32.32743],[50.94503,32.47838],[50.85346,32.62648],[50.53721,32.60726],[50.38021,32.5376],[50.11304,32.61509],[49.93311,32.59605],[49.73612,32.50634],[49.78428,32.60876],[49.74283,32.6562],[49.50161,32.70782],[49.45872,32.84254],[49.62057,32.92654],[49.69602,33.10188],[49.86872,33.14904],[50.00153,33.49865]]]}},{"type":"Feature","properties":{"id":"ir-05","lat":33.08368,"lng":46.80857},"geometry":{"type":"Polygon","coordinates":[[[45.73455,33.58312],[45.82204,34.01384],[46.03588,34.02862],[46.85567,33.79471],[47.18247,33.82491],[47.21741,33.92374],[47.17514,34.01364],[47.38618,34.03782],[47.43166,33.92925],[47.38928,33.85403],[46.96357,33.71745],[46.82787,33.55366],[47.00946,33.43336],[47.02941,33.36587],[47.46535,33.15953],[47.70585,32.92083],[47.89881,32.60147],[47.73376,32.33498],[47.7473,32.2202],[47.54364,32.11458],[47.34334,32.45869],[47.09059,32.47456],[46.37963,32.93176],[46.09701,32.95432],[46.12042,33.06168],[46.0303,33.10568],[46.16719,33.16834],[46.1553,33.26022],[45.97443,33.4908],[45.85258,33.49437],[45.92793,33.55087],[45.88596,33.63092],[45.73455,33.58312]]]}},{"type":"Feature","properties":{"id":"ir-06","lat":28.78396,"lng":51.45164},"geometry":{"type":"MultiPolygon","coordinates":[[[[52.6788,27.32237],[52.57911,27.39277],[52.6701,27.44863],[52.45965,27.63264],[52.24488,27.68138],[52.01124,27.83271],[51.68344,27.83058],[51.42816,27.96115],[51.39988,27.93171],[51.26976,28.14045],[51.28533,28.24091],[51.08074,28.53392],[51.05885,28.73591],[50.87615,28.83202],[50.80486,28.93358],[50.82325,28.99665],[50.89926,28.94945],[50.92994,29.05463],[50.84034,29.14061],[50.64381,29.14346],[50.68946,29.29084],[50.65528,29.44912],[50.14487,29.93806],[50.1277,30.12067],[50.05058,30.20736],[50.21784,30.24999],[50.54671,30.1824],[50.73957,29.86991],[51.15484,29.79803],[51.34615,29.52853],[51.57879,29.37278],[52.02766,28.63241],[52.22237,28.14089],[52.37534,28.03012],[52.64292,27.61718],[52.97086,27.38202],[52.6788,27.32237]]],[[[50.28327,29.26894],[50.33302,29.22403],[50.31653,29.20757],[50.28327,29.26894]]]]}},{"type":"Feature","properties":{"id":"ir-07","lat":35.5898,"lng":51.94131},"geometry":{"type":"Polygon","coordinates":[[[50.87124,35.44719],[50.84499,35.55765],[50.79869,35.60478],[50.69647,35.55054],[50.651,35.67648],[50.58196,35.65007],[50.61038,35.57483],[50.28554,35.66602],[50.23862,35.74102],[50.29774,35.85396],[50.53452,35.9608],[50.62588,36.16477],[50.47189,36.23965],[50.42083,36.29639],[50.44967,36.33168],[51.02989,36.27179],[51.465,36.0647],[51.75439,36.01098],[52.02921,35.77092],[52.177,35.78996],[52.39849,35.9762],[52.74027,35.88101],[52.94481,35.88156],[53.03473,35.83109],[53.07937,35.61814],[53.04723,35.52837],[52.88828,35.41019],[52.67496,35.33619],[52.21969,35.41422],[51.87015,35.56982],[51.8225,35.31526],[51.98063,35.12525],[51.88234,34.87549],[51.31235,35.15395],[50.78484,35.21591],[50.87124,35.44719]]]}},{"type":"Feature","properties":{"id":"ir-08","lat":31.86312,"lng":50.7126},"geometry":{"type":"Polygon","coordinates":[[[50.81429,32.65511],[50.94503,32.47838],[50.94927,32.32743],[51.29736,32.04368],[51.31587,31.9397],[51.24,31.83242],[51.2922,31.73853],[51.20993,31.64848],[51.32083,31.19841],[51.10802,31.09384],[50.95909,31.1064],[50.58712,31.38966],[50.25753,31.4879],[50.35034,31.65135],[50.1364,31.89382],[50.06581,32.06383],[49.93838,32.14719],[49.73994,32.47688],[49.93311,32.59605],[50.11304,32.61509],[50.38021,32.5376],[50.81429,32.65511]]]}},{"type":"Feature","properties":{"id":"ir-10","lat":31.53151,"lng":49.00076},"geometry":{"type":"Polygon","coordinates":[[[48.22298,30.3181],[48.14092,30.44192],[48.01359,30.46388],[48.01224,30.98907],[47.67294,30.9947],[47.67893,31.40785],[47.83727,31.78447],[47.58023,32.1035],[47.7473,32.2202],[47.73376,32.33498],[48.09012,32.97135],[48.5674,33.0447],[49.00634,32.94205],[49.2393,32.80704],[49.45324,32.8088],[49.50161,32.70782],[49.74283,32.6562],[49.78428,32.60876],[49.75627,32.41642],[50.35034,31.65135],[50.19087,31.41167],[49.93476,31.24114],[49.91905,31.15019],[49.95481,30.86641],[50.12534,30.88579],[50.39561,30.69554],[50.35499,30.52553],[50.42982,30.2188],[49.95102,30.21503],[49.53224,30.02294],[49.47983,30.15607],[49.24513,30.15648],[49.2212,30.26455],[49.16139,30.22378],[48.92115,30.38076],[49.06202,30.40811],[49.20289,30.34662],[49.26385,30.44965],[49.21119,30.50633],[48.98146,30.51561],[48.94565,30.47972],[49.03728,30.43252],[48.93482,30.41865],[48.86232,30.34561],[48.93605,30.21011],[48.92856,30.06],[48.64332,30.05541],[48.6587,29.98363],[48.61085,29.95702],[48.4578,29.99486],[48.38111,30.14534],[48.40359,30.21252],[48.29636,30.31975],[48.22298,30.3181]]]}},{"type":"Feature","properties":{"id":"ir-11","lat":36.40473,"lng":48.48264},"geometry":{"type":"Polygon","coordinates":[[[48.88253,37.20279],[49.18669,36.97743],[49.24581,36.81308],[49.05554,36.73254],[49.01482,36.65678],[49.15486,36.434],[49.29904,36.37545],[49.40425,36.10927],[49.09791,35.99589],[49.0328,35.88887],[48.87601,35.92675],[48.59831,35.84872],[48.80253,35.63578],[48.69091,35.55582],[48.30437,35.61749],[48.1788,35.75293],[47.90357,35.88897],[47.96775,36.16004],[47.90005,36.37065],[47.36127,36.48418],[47.19384,36.75683],[47.20676,36.86907],[47.62069,37.16657],[48.33414,37.17287],[48.48441,37.23029],[48.60027,37.15479],[48.67603,37.21793],[48.88253,37.20279]]]}},{"type":"Feature","properties":{"id":"ir-12","lat":35.9023,"lng":55.07762},"geometry":{"type":"Polygon","coordinates":[[[53.03473,35.83109],[53.58663,35.97351],[53.78765,36.16376],[53.86114,36.36031],[54.01937,36.46046],[54.46379,36.49012],[55.01114,36.78509],[55.50434,36.77287],[55.64005,37.09854],[55.86742,37.35436],[56.01863,37.19385],[56.17789,37.14306],[56.08322,37.08967],[56.06731,36.88214],[56.20446,36.74383],[56.37427,36.65037],[56.7637,36.62658],[56.78819,36.5479],[56.70613,36.28347],[56.75729,35.97494],[57.08719,35.70035],[56.85558,35.30583],[56.37127,35.06923],[55.85089,34.40725],[55.74112,34.36033],[52.90006,34.32496],[52.42226,34.44769],[51.98228,34.45542],[51.78891,34.54198],[51.98063,35.12525],[51.8225,35.31526],[51.8534,35.55545],[52.29276,35.39363],[52.67496,35.33619],[53.04723,35.52837],[53.07937,35.61814],[53.03473,35.83109]]]}},{"type":"Feature","properties":{"id":"ir-13","lat":28.28081,"lng":60.76901},"geometry":{"type":"Polygon","coordinates":[[[61.60626,31.38874],[61.74923,31.30238],[61.82633,31.03459],[61.80225,30.84706],[60.84438,29.85818],[61.33737,29.37438],[61.33282,29.27491],[61.48775,29.08066],[61.5665,28.87098],[61.89279,28.5426],[62.36279,28.41889],[62.57564,28.22903],[62.76152,28.24644],[62.73568,27.99498],[62.8147,27.49496],[62.74235,27.26681],[62.89242,27.21348],[63.16698,27.2587],[63.26061,27.21379],[63.31963,27.11731],[63.23136,27.06584],[63.26165,26.87175],[63.18956,26.84601],[63.14134,26.6254],[62.75356,26.64416],[62.4185,26.56231],[62.29199,26.50123],[62.26512,26.36098],[62.12383,26.374],[62.09417,26.31483],[61.83295,26.22538],[61.7545,25.81997],[61.66035,25.76918],[61.62004,25.28549],[61.58823,25.20209],[61.55445,25.2541],[61.55836,25.20051],[61.4826,25.19367],[61.52418,25.17316],[61.41172,25.05941],[61.03061,25.20978],[60.63347,25.27497],[60.54965,25.44693],[60.39527,25.37787],[60.46725,25.29028],[60.27125,25.37958],[60.20151,25.37116],[60.20921,25.31969],[60.08204,25.36595],[59.90381,25.32986],[59.53799,25.39975],[59.4539,25.46161],[59.25107,25.43073],[59.27621,25.49599],[59.07095,25.7529],[58.8322,25.92945],[58.94703,26.28664],[58.88522,26.41999],[58.94217,26.50024],[58.89297,26.58355],[58.9494,26.70258],[58.82063,26.8766],[58.77495,27.22945],[58.89008,27.63079],[58.89659,28.09172],[59.04294,28.31517],[58.88801,28.47144],[59.36674,28.71086],[59.3129,28.98908],[59.44457,29.35175],[59.41005,29.563],[59.30132,29.69845],[59.51537,30.60661],[60.29713,30.80282],[60.62548,30.64655],[60.86484,30.39236],[61.03475,30.40807],[61.01801,30.99168],[61.12943,31.27029],[61.12515,31.44889],[61.60626,31.38874]]]}},{"type":"Feature","properties":{"id":"ir-14","lat":29.42213,"lng":53.13329},"geometry":{"type":"Polygon","coordinates":[[[52.14217,31.71253],[52.23064,31.55503],[52.52768,31.51317],[52.87071,31.59745],[53.12516,31.51394],[53.40494,31.2615],[53.63841,30.75515],[54.00759,30.26319],[54.07177,29.98427],[54.4302,29.79322],[54.59546,29.45459],[54.92753,29.38968],[55.18736,28.79845],[55.16007,28.7021],[55.48739,28.38282],[55.42021,28.06573],[55.55726,27.90321],[55.53411,27.8221],[55.19521,27.71278],[55.12349,27.56917],[54.94076,27.48644],[54.67411,27.51987],[54.05492,27.45037],[53.98609,27.22774],[53.85483,27.13938],[53.43274,27.17336],[53.29456,27.25539],[53.07152,27.27306],[52.51094,27.76138],[52.37534,28.03012],[52.19736,28.1773],[52.02766,28.63241],[51.57879,29.37278],[51.34615,29.52853],[51.15484,29.79803],[50.73957,29.86991],[50.60149,30.09349],[50.60139,30.14723],[50.91217,30.16573],[51.17913,30.30066],[51.14833,30.66772],[51.53559,30.52951],[51.66582,30.58966],[51.64112,30.7722],[51.7453,30.79009],[51.7424,30.96873],[51.87159,31.32005],[51.84266,31.38744],[51.67109,31.47177],[51.65125,31.54836],[51.82333,31.53771],[52.14217,31.71253]]]}},{"type":"Feature","properties":{"id":"ir-15","lat":29.17042,"lng":57.20362},"geometry":{"type":"Polygon","coordinates":[[[55.12969,28.95074],[54.92753,29.38968],[54.59546,29.45459],[54.42999,29.77348],[54.61675,29.84797],[54.60383,30.29735],[54.40064,30.67547],[54.42028,30.79791],[54.55443,30.95778],[55.51499,31.04679],[55.68449,31.11092],[55.75684,31.57626],[56.28776,31.81509],[56.63409,32.04918],[57.83474,31.63727],[59.11632,31.10616],[59.51537,30.60661],[59.30132,29.69845],[59.41005,29.563],[59.44457,29.35175],[59.3129,28.98908],[59.36674,28.71086],[58.88801,28.47144],[59.04294,28.31517],[58.89659,28.09172],[58.89008,27.63079],[58.77495,27.22945],[58.82063,26.8766],[58.9494,26.70258],[58.89297,26.58355],[58.94217,26.50024],[58.88522,26.41999],[58.94703,26.28664],[58.8631,26.01025],[58.74177,26.08993],[58.54933,26.06068],[58.50923,26.20026],[58.06987,26.21752],[58.15555,26.63688],[58.13106,26.74635],[58.21539,26.71119],[58.19524,26.78576],[57.99287,26.93954],[57.815,26.84689],[57.408,27.04613],[57.35643,27.47827],[57.24925,27.647],[57.2879,27.74862],[57.01681,28.00377],[56.98136,28.27755],[56.82271,28.32439],[56.5202,28.11735],[56.33726,28.12337],[56.05924,28.34954],[56.01584,28.93862],[55.6171,28.74223],[55.39531,28.9003],[55.12969,28.95074]]]}},{"type":"Feature","properties":{"id":"ir-16","lat":35.60843,"lng":46.90425},"geometry":{"type":"Polygon","coordinates":[[[45.74902,35.81099],[45.50142,36.00543],[45.72448,36.24761],[45.88705,36.28988],[45.95878,36.42021],[46.04642,36.44811],[46.81516,36.45777],[46.92378,36.37246],[47.14103,36.34125],[47.33234,36.50769],[47.86512,36.40341],[47.96775,36.16004],[47.88982,35.91553],[48.22572,35.69022],[48.04258,35.74743],[48.10139,35.62966],[47.96868,35.5753],[47.8675,35.6602],[47.79949,35.58721],[47.97695,35.30637],[48.12402,35.19023],[48.13167,35.02303],[48.06325,34.9528],[48.0095,35.02727],[47.77737,34.95554],[47.62369,35.09775],[47.44075,35.17005],[47.44478,35.08726],[47.26733,35.05367],[47.25089,34.96949],[47.02693,34.89374],[46.93587,34.76393],[46.67956,34.74248],[46.64897,34.86227],[46.34294,35.15481],[46.12528,35.28499],[45.96399,35.49417],[46.00379,35.67426],[46.23788,35.71555],[46.31963,35.81688],[46.16352,35.79751],[46.06042,35.85724],[45.74902,35.81099]]]}},{"type":"Feature","properties":{"id":"ir-17","lat":34.46927,"lng":46.72292},"geometry":{"type":"Polygon","coordinates":[[[46.11541,35.22633],[46.15298,35.27738],[46.34294,35.15481],[46.64897,34.86227],[46.67956,34.74248],[46.93587,34.76393],[47.02693,34.89374],[47.25089,34.96949],[47.26733,35.05367],[47.44478,35.08726],[47.46979,35.16804],[47.85148,34.95123],[47.72704,34.74661],[47.59506,34.72682],[47.59041,34.67142],[47.77458,34.58724],[47.81479,34.51381],[47.9693,34.60817],[47.99007,34.431],[47.74823,34.42405],[47.69397,34.34971],[47.57697,34.34038],[47.57739,34.20804],[47.39972,34.16068],[47.40355,34.0481],[47.17514,34.01364],[47.21741,33.92374],[47.18247,33.82491],[46.73878,33.80264],[46.34707,33.95739],[46.03588,34.02862],[45.82204,34.01384],[45.72463,33.63304],[45.48578,33.93865],[45.38036,33.97356],[45.54454,34.13949],[45.56304,34.28928],[45.46077,34.34046],[45.41705,34.44436],[45.50346,34.49417],[45.50066,34.59169],[45.70153,34.55128],[45.62738,34.72083],[45.66675,34.80692],[45.7454,34.84098],[45.75512,34.90996],[45.8502,34.90681],[45.9132,35.08732],[46.14311,35.09951],[46.16925,35.21625],[46.11541,35.22633]]]}},{"type":"Feature","properties":{"id":"ir-18","lat":30.81931,"lng":50.89926},"geometry":{"type":"Polygon","coordinates":[[[51.3108,31.16401],[51.37323,30.97449],[51.64112,30.7722],[51.66582,30.58966],[51.53559,30.52951],[51.14833,30.66772],[51.17913,30.30066],[50.91217,30.16573],[50.60149,30.14483],[50.42982,30.2188],[50.35499,30.52553],[50.39561,30.69554],[50.12534,30.88579],[49.95481,30.86641],[49.91822,31.20872],[50.25753,31.4879],[50.58712,31.38966],[50.95909,31.1064],[51.10802,31.09384],[51.3108,31.16401]]]}},{"type":"Feature","properties":{"id":"ir-19","lat":37.55911,"lng":48.97595},"geometry":{"type":"Polygon","coordinates":[[[48.61296,38.39565],[48.87428,38.43407],[48.94451,37.90339],[49.1325,37.62336],[49.44174,37.49486],[49.93377,37.47443],[50.22731,37.36542],[50.32228,37.15327],[50.5763,36.98917],[50.43964,36.86824],[50.35644,36.69737],[49.80526,36.56195],[49.47226,36.62433],[49.24581,36.81308],[49.14422,37.03239],[48.88253,37.20279],[48.86661,37.35206],[48.54808,37.67884],[48.45609,37.88032],[48.51965,38.06582],[48.75447,38.29552],[48.61296,38.39565]]]}},{"type":"Feature","properties":{"id":"ir-20","lat":33.43226,"lng":48.46843},"geometry":{"type":"Polygon","coordinates":[[[50.00153,33.49865],[49.86872,33.14904],[49.69602,33.10188],[49.62057,32.92654],[49.45324,32.8088],[49.2393,32.80704],[49.00634,32.94205],[48.5674,33.0447],[48.14417,33.006],[47.89881,32.60147],[47.55548,33.08134],[47.02941,33.36587],[46.82663,33.56141],[46.96357,33.71745],[47.31373,33.79957],[47.41305,33.87504],[47.39972,34.16068],[47.57739,34.20804],[47.57697,34.34038],[47.62524,34.35744],[48.21197,34.0588],[48.47108,34.02508],[48.69804,34.08588],[48.971,33.98909],[48.91043,33.76254],[49.04045,33.69665],[49.18091,33.67996],[49.31392,33.82602],[49.51856,33.87212],[49.58967,33.7891],[49.57354,33.68081],[49.74656,33.57544],[49.8312,33.66771],[50.00153,33.49865]]]}},{"type":"Feature","properties":{"id":"ir-21","lat":36.42254,"lng":52.32247},"geometry":{"type":"Polygon","coordinates":[[[50.5763,36.98917],[51.08863,36.73701],[51.90903,36.58271],[54.00652,36.95262],[53.9476,36.89875],[53.60914,36.8769],[54.12014,36.48478],[53.86114,36.36031],[53.78765,36.16376],[53.47243,35.91132],[53.03473,35.83109],[52.39849,35.9762],[52.177,35.78996],[52.02921,35.77092],[51.75439,36.01098],[51.465,36.0647],[51.29199,36.1781],[50.80096,36.31866],[50.30456,36.67027],[50.5763,36.98917]]]}},{"type":"Feature","properties":{"id":"ir-22","lat":34.58926,"lng":49.50127},"geometry":{"type":"Polygon","coordinates":[[[51.03299,34.1058],[50.89894,33.81489],[50.24317,33.63487],[50.00153,33.49865],[49.8312,33.66771],[49.74656,33.57544],[49.57354,33.68081],[49.58967,33.7891],[49.46368,33.88667],[49.31392,33.82602],[49.18091,33.67996],[49.04045,33.69665],[48.91043,33.76254],[48.95529,33.96787],[49.09585,34.11053],[48.95994,34.56823],[48.89503,34.6128],[49.10163,34.60145],[49.14039,34.90937],[49.4088,34.90498],[49.42688,34.79359],[49.54243,34.727],[49.52011,34.92495],[49.24292,35.06758],[49.39712,35.14788],[49.32105,35.32172],[49.37955,35.35593],[49.40022,35.28896],[49.46812,35.31433],[49.44053,35.43763],[49.61592,35.44156],[49.68785,35.52323],[50.19614,35.66671],[50.42951,35.65255],[50.61038,35.57483],[50.58196,35.65007],[50.651,35.67648],[50.69647,35.55054],[50.79869,35.60478],[50.87083,35.51703],[50.69368,34.91596],[50.21113,34.81937],[50.15397,34.78149],[50.16276,34.67199],[50.06003,34.57706],[50.26415,34.46642],[50.32874,34.31788],[50.44119,34.22478],[51.03299,34.1058]]]}},{"type":"Feature","properties":{"id":"ir-23","lat":27.18748,"lng":55.10013},"geometry":{"type":"MultiPolygon","coordinates":[[[[55.04371,25.89289],[55.0184,25.8596],[55.01205,25.88162],[55.04371,25.89289]]],[[[54.54656,25.9265],[54.51368,25.90265],[54.50978,25.91376],[54.54656,25.9265]]],[[[54.49838,26.31737],[54.52638,26.25194],[54.4922,26.26557],[54.49838,26.31737]]],[[[53.90284,26.5362],[54.01881,26.55557],[54.05242,26.5058],[53.95541,26.49258],[53.90284,26.5362]]],[[[53.65122,26.68382],[53.60125,26.67959],[53.60922,26.6905],[53.65122,26.68382]]],[[[53.29908,26.79072],[53.14943,26.84789],[53.38201,26.80313],[53.29908,26.79072]]],[[[55.90398,26.64525],[55.85548,26.64411],[55.8943,26.67943],[55.90398,26.64525]]],[[[56.27947,26.97382],[55.94703,26.69627],[55.87664,26.74291],[55.28541,26.55996],[55.28468,26.66022],[55.77418,26.79694],[55.75799,26.95405],[55.89772,26.90681],[56.17319,27.00235],[56.27947,26.97382]]],[[[56.34116,26.87934],[56.40919,26.86225],[56.32228,26.83442],[56.34116,26.87934]]],[[[56.45541,27.10277],[56.49529,27.05231],[56.43458,27.05484],[56.45541,27.10277]]],[[[59.25107,25.43073],[59.00733,25.40974],[58.81373,25.56362],[58.41896,25.61201],[58.17042,25.54409],[58.04624,25.57494],[57.96323,25.69318],[57.77174,25.63556],[57.75563,25.74274],[57.31153,25.78412],[57.16676,26.08299],[57.2129,26.16625],[57.08033,26.41535],[57.09002,26.6188],[57.02491,26.85098],[56.92555,26.95515],[56.97332,27.003],[56.86549,27.01187],[56.88461,27.07807],[56.80885,27.13955],[56.35304,27.20161],[56.12371,27.16063],[55.9393,27.02668],[55.66586,26.99543],[55.55445,26.89989],[55.58041,26.85912],[55.52174,26.78457],[55.27084,26.79255],[54.79103,26.49584],[54.38941,26.60513],[54.30812,26.71499],[54.0158,26.74946],[53.71607,26.70856],[53.49155,26.85431],[53.4441,26.97565],[53.02866,27.10407],[52.6788,27.32237],[52.97086,27.38202],[53.07152,27.27306],[53.29456,27.25539],[53.43274,27.17336],[53.85483,27.13938],[53.98609,27.22774],[54.05492,27.45037],[55.06561,27.52034],[55.19521,27.71278],[55.51116,27.80766],[55.55726,27.90321],[55.42021,28.06573],[55.48739,28.38282],[55.16007,28.7021],[55.18736,28.79845],[55.12969,28.95074],[55.39531,28.9003],[55.6171,28.74223],[56.01584,28.93862],[56.05924,28.34954],[56.23443,28.17826],[56.45622,28.10722],[56.63792,28.16867],[56.82271,28.32439],[56.98136,28.27755],[57.01681,28.00377],[57.2879,27.74862],[57.24925,27.647],[57.35643,27.47827],[57.408,27.04613],[57.78472,26.8551],[57.99287,26.93954],[58.13653,26.84648],[58.22387,26.73033],[58.13106,26.74635],[58.15555,26.63688],[58.06987,26.21752],[58.37332,26.23189],[58.52793,26.18954],[58.54933,26.06068],[58.82228,26.06559],[58.8631,26.01025],[58.8322,25.92945],[59.07095,25.7529],[59.27621,25.49599],[59.25107,25.43073]]]]}},{"type":"Feature","properties":{"id":"ir-24","lat":34.83627,"lng":48.45638},"geometry":{"type":"Polygon","coordinates":[[[49.44053,35.43763],[49.46812,35.31433],[49.40022,35.28896],[49.37955,35.35593],[49.32105,35.32172],[49.39712,35.14788],[49.2456,35.05326],[49.47205,34.97164],[49.56693,34.76757],[49.54243,34.727],[49.46626,34.75504],[49.4088,34.90498],[49.14039,34.90937],[49.10163,34.60145],[48.89503,34.6128],[48.95994,34.56823],[49.09585,34.11053],[48.971,33.98909],[48.69804,34.08588],[48.47108,34.02508],[48.21197,34.0588],[47.69397,34.34971],[47.74823,34.42405],[47.99007,34.431],[47.98842,34.58425],[47.90016,34.58737],[47.81479,34.51381],[47.58069,34.71119],[47.72704,34.74661],[47.85148,34.95123],[47.9909,35.02342],[48.06325,34.9528],[48.15151,35.09775],[47.79949,35.58721],[47.8675,35.6602],[47.96868,35.5753],[48.10139,35.62966],[48.04258,35.74743],[48.07854,35.7557],[48.30437,35.61749],[48.69091,35.55582],[48.84914,35.6524],[48.95849,35.65085],[49.11776,35.49272],[49.44053,35.43763]]]}},{"type":"Feature","properties":{"id":"ir-25","lat":32.40138,"lng":55.53282},"geometry":{"type":"Polygon","coordinates":[[[53.65071,32.61287],[54.81467,32.9707],[54.98634,33.32996],[55.27459,33.47064],[55.35986,33.59464],[55.37526,34.34436],[55.85089,34.40725],[56.21045,34.90606],[57.26837,35.20131],[57.67124,34.99394],[57.69201,34.86686],[57.19892,34.55774],[57.13081,34.45629],[57.00482,34.14257],[56.99666,33.97348],[57.1058,33.62358],[57.55993,33.65324],[57.60272,33.60772],[57.78224,32.9968],[58.04062,32.87107],[58.1477,32.7486],[58.10036,32.56814],[58.22221,32.29756],[58.17395,32.14605],[57.83474,31.63727],[56.63409,32.04918],[56.28776,31.81509],[55.75684,31.57626],[55.68449,31.11092],[55.51499,31.04679],[54.55443,30.95778],[54.42028,30.79791],[54.40064,30.67547],[54.60383,30.29735],[54.61675,29.84797],[54.4302,29.79322],[54.07177,29.98427],[54.00759,30.26319],[53.63841,30.75515],[53.40494,31.2615],[53.12516,31.51394],[52.87071,31.59745],[52.82709,31.74442],[52.90492,32.1646],[52.88373,32.5052],[53.26107,32.67201],[53.65071,32.61287]]]}},{"type":"Feature","properties":{"id":"ir-26","lat":34.62453,"lng":50.97045},"geometry":{"type":"Polygon","coordinates":[[[51.78891,34.54198],[51.06306,34.41824],[50.98369,34.16161],[51.03299,34.1058],[50.44119,34.22478],[50.32874,34.31788],[50.26415,34.46642],[50.06003,34.57706],[50.16276,34.67199],[50.15397,34.78149],[50.21113,34.81937],[50.69368,34.91596],[50.78473,35.21842],[51.07216,35.21325],[51.31235,35.15395],[51.88234,34.87549],[51.89319,34.754],[51.78891,34.54198]]]}},{"type":"Feature","properties":{"id":"ir-27","lat":37.21157,"lng":54.83862},"geometry":{"type":"Polygon","coordinates":[[[55.70867,38.11866],[56.16674,38.08079],[56.16249,37.77041],[56.30306,37.63414],[55.97088,37.48081],[55.82608,37.32723],[55.64005,37.09854],[55.50434,36.77287],[55.01114,36.78509],[54.39413,36.47744],[54.12014,36.48478],[53.71789,36.7784],[53.70538,36.81628],[53.88917,36.79361],[54.03305,36.84577],[53.91375,37.34276],[54.20644,37.3246],[54.65396,37.4389],[54.78831,37.52464],[54.82666,37.73527],[55.13031,37.95231],[55.4474,38.08367],[55.70867,38.11866]]]}},{"type":"Feature","properties":{"id":"ir-28","lat":36.13702,"lng":50.00337},"geometry":{"type":"Polygon","coordinates":[[[49.24581,36.81308],[49.47226,36.62433],[49.80526,36.56195],[50.08555,36.66629],[50.30456,36.67027],[50.80096,36.31866],[50.42083,36.29639],[50.62588,36.16477],[50.53452,35.9608],[50.24275,35.81084],[50.28554,35.66602],[49.68785,35.52323],[49.61592,35.44156],[49.11776,35.49272],[48.95849,35.65085],[48.80253,35.63578],[48.59831,35.84872],[48.87601,35.92675],[49.0328,35.88887],[49.09791,35.99589],[49.40425,36.10927],[49.29904,36.37545],[49.15486,36.434],[49.01482,36.65678],[49.05554,36.73254],[49.24581,36.81308]]]}},{"type":"Feature","properties":{"id":"ir-29","lat":32.30072,"lng":59.51328},"geometry":{"type":"Polygon","coordinates":[[[60.48846,34.08093],[60.51179,33.63839],[60.92086,33.51411],[60.83218,33.4845],[60.82908,33.41628],[60.5676,33.15129],[60.56295,33.05827],[60.83032,32.24889],[60.77493,32.02719],[60.82174,31.49467],[61.12515,31.44889],[61.14328,31.39075],[61.01801,30.99168],[61.00127,30.65418],[61.05212,30.46],[61.00086,30.39646],[60.86484,30.39236],[60.62548,30.64655],[60.29713,30.80282],[59.51537,30.60661],[59.11632,31.10616],[58.97287,31.19789],[57.83474,31.63727],[58.19038,32.19279],[58.22438,32.35255],[58.10036,32.56814],[58.24867,32.95419],[58.38758,33.13085],[58.74632,33.34349],[58.832,33.48506],[58.6101,33.66668],[58.66983,34.04107],[58.63976,34.1481],[58.95519,34.12241],[59.50493,34.27796],[59.65675,34.10712],[59.78791,34.06851],[60.48846,34.08093]]]}},{"type":"Feature","properties":{"id":"ir-30","lat":35.42695,"lng":59.08802},"geometry":{"type":"Polygon","coordinates":[[[57.73483,37.89827],[58.17353,37.78162],[58.20681,37.67874],[58.35781,37.63331],[58.52979,37.70039],[58.68172,37.64272],[58.80109,37.69465],[59.21171,37.51632],[59.31228,37.53035],[59.37036,37.31943],[59.46172,37.2076],[59.55598,37.19778],[59.60497,37.12389],[59.65324,37.14967],[60.01921,37.0258],[60.34229,36.63714],[61.16581,36.63632],[61.14669,36.35726],[61.22472,36.12369],[61.12984,35.97052],[61.24105,35.89388],[61.23174,35.67188],[61.29004,35.54806],[61.1871,35.30038],[61.10834,35.27795],[61.14731,35.1021],[61.06545,34.81472],[60.95993,34.72321],[60.94752,34.63799],[60.69969,34.5164],[60.89047,34.31891],[60.64367,34.30664],[60.48846,34.08093],[59.78791,34.06851],[59.65675,34.10712],[59.50493,34.27796],[58.95519,34.12241],[58.63976,34.1481],[58.66983,34.04107],[58.6101,33.66668],[58.832,33.48506],[58.70177,33.30551],[58.38758,33.13085],[58.1477,32.7486],[58.04062,32.87107],[57.78224,32.9968],[57.60272,33.60772],[57.55993,33.65324],[57.1058,33.62358],[56.99666,33.97348],[57.00482,34.14257],[57.13081,34.45629],[57.19892,34.55774],[57.69201,34.86686],[57.67124,34.99394],[57.26837,35.20131],[56.21045,34.90606],[56.50035,35.16594],[56.85558,35.30583],[57.072,35.63041],[57.08719,35.70035],[56.75729,35.97494],[56.70613,36.28347],[56.78819,36.5479],[56.66706,36.70525],[56.73269,36.81251],[56.97351,36.96911],[57.13318,36.96291],[57.79526,36.66807],[58.07225,36.63399],[58.18552,36.67735],[58.2188,36.75548],[58.16175,36.81956],[58.22397,36.92178],[58.16227,36.98482],[58.10801,36.94663],[58.00869,37.0613],[58.20764,37.44818],[58.03494,37.65473],[57.54825,37.69331],[57.57574,37.80867],[57.73483,37.89827]]]}},{"type":"Feature","properties":{"id":"ir-31","lat":37.4645,"lng":57.07576},"geometry":{"type":"Polygon","coordinates":[[[57.17494,38.27756],[57.34433,38.08106],[57.3524,37.96753],[57.73483,37.89827],[57.57574,37.80867],[57.54825,37.69331],[58.03494,37.65473],[58.20764,37.44818],[58.00869,37.0613],[58.10801,36.94663],[58.16227,36.98482],[58.22397,36.92178],[58.16175,36.81956],[58.2188,36.75548],[58.14811,36.64895],[57.79526,36.66807],[57.13318,36.96291],[56.97351,36.96911],[56.67502,36.75083],[56.67161,36.6426],[56.51927,36.6218],[56.31794,36.66541],[56.08601,36.85062],[56.07702,37.075],[56.17789,37.14306],[56.01863,37.19385],[55.86742,37.35436],[55.97088,37.48081],[56.30306,37.63414],[56.16249,37.77041],[56.16674,38.08079],[56.31546,38.08946],[56.30336,38.17943],[56.43648,38.25508],[56.72938,38.27105],[57.03841,38.18728],[57.17494,38.27756]]]}}]}
