{"type":"FeatureCollection","features":[{"type":"Feature","properties":{"id":"is-0","lat":64.12893,"lng":-21.80585},"geometry":{"type":"Polygon","coordinates":[[[-22.12418,64.04389],[-21.96337,64.07612],[-22.04532,64.09658],[-22.01012,64.12059],[-21.91503,64.10957],[-22.04532,64.15803],[-21.79967,64.13727],[-21.81876,64.1717],[-21.72378,64.17145],[-21.70275,64.19155],[-21.92862,64.23379],[-21.89452,64.26789],[-21.61588,64.25724],[-21.65519,64.08156],[-21.9303,64.00406],[-22.12418,64.04389]]]}},{"type":"Feature","properties":{"id":"is-1","lat":64.21721,"lng":-21.50821},"geometry":{"type":"Polygon","coordinates":[[[-21.87564,64.27372],[-21.62678,64.37604],[-21.14343,64.38119],[-21.39954,64.24843],[-21.41739,64.16285],[-21.61379,63.9994],[-21.9303,64.00406],[-21.65519,64.08156],[-21.60605,64.18599],[-21.61588,64.25724],[-21.87564,64.27372]]]}},{"type":"Feature","properties":{"id":"is-2","lat":63.9643,"lng":-22.19397},"geometry":{"type":"Polygon","coordinates":[[[-21.93198,63.84817],[-22.33641,63.86319],[-22.67907,63.80915],[-22.73058,63.8911],[-22.635,63.94916],[-22.73681,63.99348],[-22.68961,64.08975],[-22.51846,63.97944],[-22.12418,64.04389],[-21.65239,64.00002],[-21.93198,63.84817]]]}},{"type":"Feature","properties":{"id":"is-3","lat":64.90611,"lng":-21.71222},"geometry":{"type":"Polygon","coordinates":[[[-21.14919,64.36403],[-21.63117,64.40265],[-21.96264,64.29731],[-22.09997,64.31501],[-21.85973,64.39077],[-22.04532,64.4051],[-21.97509,64.50373],[-21.77782,64.54157],[-21.81876,64.56208],[-21.70275,64.6105],[-21.57991,64.57184],[-21.49665,64.56952],[-21.68224,64.61665],[-21.51089,64.65144],[-21.70275,64.63101],[-21.66112,64.66572],[-22.00902,64.52509],[-22.03881,64.5666],[-22.08503,64.47866],[-22.16478,64.45966],[-22.25764,64.48701],[-22.2434,64.57575],[-22.33951,64.55585],[-22.34699,64.61665],[-22.44253,64.66572],[-22.3651,64.64265],[-22.18871,64.74022],[-22.40209,64.67634],[-22.31965,64.75385],[-22.43639,64.76752],[-22.40844,64.82274],[-22.65819,64.76667],[-23.55525,64.81981],[-23.67394,64.74112],[-23.83357,64.7259],[-23.94612,64.76089],[-24.06005,64.89106],[-23.84976,64.93057],[-23.63801,64.89851],[-23.39533,64.96678],[-23.26309,64.92626],[-23.23766,65.00092],[-23.16857,65.02009],[-23.08682,65.01459],[-23.16259,64.95311],[-23.10729,64.91836],[-23.02139,65.01301],[-22.94286,64.98664],[-22.71752,65.076],[-22.75109,65.02757],[-22.57974,64.98041],[-22.62816,65.01459],[-22.5454,65.05219],[-21.82624,65.03506],[-21.73412,65.19379],[-22.03384,65.11494],[-22.55769,65.16893],[-22.45686,65.17841],[-22.55248,65.18586],[-22.42886,65.26777],[-21.61457,65.50184],[-21.65482,65.38252],[-21.48388,65.36932],[-21.28311,65.23243],[-21.26461,65.07045],[-21.11328,64.98549],[-20.72713,64.91371],[-20.40565,64.95498],[-19.79336,64.92415],[-20.04497,64.69825],[-20.78978,64.53141],[-21.14919,64.36403]]]}},{"type":"Feature","properties":{"id":"is-4","lat":65.71436,"lng":-22.57572},"geometry":{"type":"Polygon","coordinates":[[[-21.61457,65.50184],[-21.97643,65.43976],[-21.93546,65.46703],[-21.9901,65.508],[-22.06282,65.48404],[-22.11425,65.52851],[-22.25381,65.43366],[-22.3872,65.49169],[-22.16478,65.54149],[-22.1068,65.59675],[-22.47863,65.508],[-22.54589,65.63402],[-22.54654,65.56074],[-22.65616,65.52806],[-22.70763,65.57221],[-22.68212,65.62409],[-22.75939,65.62983],[-22.73152,65.50178],[-22.8876,65.54149],[-22.80199,65.60098],[-22.90526,65.56688],[-22.95344,65.61042],[-22.98522,65.55121],[-23.18301,65.57636],[-23.23144,65.48749],[-23.40827,65.51374],[-23.89753,65.40461],[-23.98436,65.41865],[-23.98619,65.47419],[-24.53991,65.508],[-24.30337,65.63837],[-23.89281,65.52216],[-23.80679,65.53535],[-24.08678,65.65135],[-23.80679,65.61042],[-24.08056,65.706],[-24.13516,65.78913],[-24.09284,65.80476],[-23.62808,65.706],[-23.56176,65.61367],[-23.28547,65.67935],[-23.53917,65.72272],[-23.24454,65.74038],[-23.18985,65.78238],[-23.72916,65.77436],[-23.86661,65.87556],[-23.80085,65.92621],[-23.60082,65.87792],[-23.20979,65.84321],[-23.57787,65.90502],[-23.8131,66.01138],[-23.75137,66.07657],[-23.37487,65.98778],[-23.66967,66.1175],[-23.39533,66.09764],[-23.60082,66.14484],[-23.46141,66.20417],[-23.1527,66.14582],[-23.10729,66.07591],[-23.0277,66.10871],[-22.97688,66.03368],[-23.05895,65.9667],[-22.92919,66.04926],[-22.84044,66.02192],[-22.94286,65.94684],[-22.82311,66.00458],[-22.81932,65.91209],[-22.76403,66.04926],[-22.68273,66.05585],[-22.57738,65.97309],[-22.64818,65.83369],[-22.51732,65.97577],[-22.42211,65.92573],[-22.46988,65.83698],[-22.43163,65.84589],[-22.36071,65.91958],[-22.4842,66.02945],[-22.38117,66.09764],[-22.86596,66.15949],[-22.97761,66.2342],[-22.55236,66.22138],[-22.3675,66.27521],[-22.56457,66.28364],[-22.4921,66.32197],[-22.71007,66.29564],[-22.60766,66.3714],[-22.93969,66.30146],[-23.18969,66.35529],[-23.04674,66.36066],[-23.02481,66.39183],[-23.10473,66.44282],[-22.86449,66.43138],[-22.95031,66.46699],[-22.42663,66.42792],[-22.46312,66.46699],[-22.2023,66.33723],[-22.21666,66.26838],[-21.97932,66.27497],[-21.92178,66.24103],[-21.9901,66.21377],[-21.74987,66.18578],[-21.72301,66.08222],[-21.64122,66.07038],[-21.66796,66.02192],[-21.62019,66.03901],[-21.64122,66.08344],[-21.54882,66.09764],[-21.53478,66.0257],[-21.33064,66.00902],[-21.60652,65.96052],[-21.30175,65.93598],[-21.32592,65.87792],[-21.27819,65.85688],[-21.32779,65.80903],[-21.4768,65.7687],[-21.33214,65.74079],[-21.57921,65.69302],[-21.68594,65.76944],[-21.77782,65.7687],[-21.66796,65.72773],[-21.62767,65.64826],[-21.40103,65.62409],[-21.48302,65.56265],[-21.32091,65.60187],[-21.31981,65.52237],[-21.4768,65.44652],[-21.31542,65.4807],[-21.20189,65.42841],[-21.19286,65.31013],[-20.98422,64.97236],[-21.26461,65.07045],[-21.27609,65.22543],[-21.48388,65.36932],[-21.65482,65.38252],[-21.61457,65.50184]]]}},{"type":"Feature","properties":{"id":"is-5","lat":65.4702,"lng":-19.86296},"geometry":{"type":"Polygon","coordinates":[[[-21.08357,65.1684],[-21.09887,65.44546],[-20.91511,65.34349],[-20.98729,65.50678],[-20.91808,65.60139],[-20.67536,65.69392],[-20.62344,65.67072],[-20.64647,65.55565],[-20.58552,65.58316],[-20.47566,65.49494],[-20.42785,65.54898],[-20.53087,65.57689],[-20.41071,65.59675],[-20.38752,65.52851],[-20.37613,65.59642],[-20.27013,65.66502],[-20.30785,65.69318],[-20.27123,65.77017],[-20.44888,66.02945],[-20.42785,66.08344],[-20.09203,66.13117],[-19.87979,65.90522],[-19.7084,65.87108],[-19.62877,65.75275],[-19.45617,65.72895],[-19.39924,65.83661],[-19.51085,65.96015],[-19.41364,66.00764],[-19.45189,66.05598],[-19.13524,66.10493],[-19.13244,66.09024],[-19.05793,66.07038],[-19.10513,66.11131],[-19.07877,66.15799],[-18.85424,66.0193],[-18.90832,65.96205],[-18.86502,65.90662],[-18.98532,65.85066],[-18.79766,65.70343],[-18.91602,65.58892],[-18.7241,65.51605],[-18.77952,65.43327],[-18.69738,65.37229],[-18.38252,65.21845],[-18.35161,65.06859],[-18.42654,64.88061],[-19.6959,64.75005],[-19.97743,64.80163],[-19.81,64.93552],[-20.72713,64.91371],[-20.97515,64.96177],[-21.08357,65.1684]]]}},{"type":"Feature","properties":{"id":"is-6","lat":65.47701,"lng":-17.44092},"geometry":{"type":"MultiPolygon","coordinates":[[[[-19.07844,66.15851],[-18.90103,66.15546],[-18.85412,66.20539],[-18.77685,66.1933],[-18.80468,66.14175],[-18.62906,66.13862],[-18.65954,66.09024],[-18.54454,66.08275],[-18.54003,65.97419],[-18.34801,65.95018],[-18.21817,65.86774],[-18.17658,65.73395],[-18.06359,65.64521],[-18.10949,65.73159],[-18.06762,65.83055],[-18.29699,66.01508],[-18.29699,66.17963],[-17.91275,66.15229],[-17.54967,65.91209],[-17.57763,65.97419],[-17.49511,65.98778],[-17.61116,65.99404],[-17.45202,65.99519],[-17.4132,65.96052],[-17.35216,66.09711],[-17.14562,66.22118],[-16.99242,66.19953],[-16.92276,66.11103],[-16.75813,66.1496],[-16.59691,66.09764],[-16.68627,66.16596],[-16.53136,66.19916],[-16.62426,66.16596],[-16.42626,66.14484],[-16.48705,66.18952],[-16.42195,66.28709],[-16.51537,66.36734],[-16.54332,66.50699],[-16.31286,66.48127],[-16.02294,66.53661],[-15.89123,66.49494],[-15.93765,66.42381],[-15.70669,66.3959],[-15.67956,66.34406],[-15.77514,66.28946],[-15.69945,66.2342],[-15.52872,66.22736],[-15.38036,66.14997],[-15.33129,66.26146],[-15.10875,66.27839],[-14.92544,66.38532],[-14.56363,66.38451],[-14.99059,66.28583],[-14.95214,66.1933],[-15.17935,66.11131],[-15.07413,66.09711],[-15.076,66.04963],[-14.69701,66.0655],[-14.61461,65.98627],[-15.10138,65.922],[-15.44802,65.77381],[-15.67534,65.74488],[-15.69227,65.55029],[-16.03635,65.57036],[-16.17645,65.42611],[-16.02744,65.33307],[-16.198,65.21034],[-16.20154,65.05128],[-16.61748,64.924],[-16.67846,64.82147],[-16.63311,64.74489],[-16.66252,64.67486],[-16.87661,64.47196],[-18.42654,64.88061],[-18.35394,65.04642],[-18.37505,65.20765],[-18.77952,65.43327],[-18.73014,65.52076],[-18.91602,65.58892],[-18.79766,65.70343],[-18.98532,65.85066],[-18.86502,65.90662],[-18.90832,65.96205],[-18.85424,66.0193],[-19.07844,66.15851]]],[[[-18.38931,66.01854],[-18.39049,65.98347],[-18.41442,66.02367],[-18.38931,66.01854]]],[[[-18.00894,66.56415],[-17.99983,66.53339],[-18.01952,66.56135],[-18.00894,66.56415]]]]}},{"type":"Feature","properties":{"id":"is-7","lat":64.88891,"lng":-15.26669},"geometry":{"type":"Polygon","coordinates":[[[-14.61461,65.98627],[-14.65046,65.88817],[-14.89127,65.76122],[-14.7882,65.79605],[-14.84411,65.73517],[-14.8087,65.72773],[-14.3295,65.78238],[-14.39513,65.7215],[-14.27432,65.67251],[-14.35782,65.65607],[-14.53018,65.54548],[-14.56237,65.50117],[-14.32022,65.65241],[-14.19237,65.63154],[-14.24763,65.66502],[-13.87141,65.61904],[-13.78767,65.52167],[-13.68529,65.55516],[-13.60961,65.51423],[-13.67097,65.37763],[-13.83552,65.364],[-13.72985,65.32709],[-14.00674,65.28205],[-13.68765,65.30638],[-13.56798,65.26097],[-14.03409,65.20014],[-13.62662,65.20014],[-13.74669,65.13744],[-13.62662,65.10395],[-13.52017,65.17219],[-13.50959,65.06916],[-13.64737,64.98664],[-14.03409,65.08283],[-13.99376,65.05549],[-14.23339,65.03506],[-13.91804,65.01459],[-13.69831,64.9252],[-14.0546,64.9326],[-13.76692,64.85383],[-13.96642,64.83584],[-13.83922,64.79857],[-14.01366,64.80231],[-14.04845,64.78119],[-13.98632,64.74022],[-14.04845,64.71971],[-14.30639,64.70417],[-14.42056,64.78962],[-14.5139,64.80231],[-14.27432,64.65144],[-14.49348,64.65827],[-14.40925,64.61026],[-14.58438,64.59032],[-14.49047,64.54841],[-14.34618,64.60562],[-14.46613,64.53473],[-14.54491,64.4051],[-14.74669,64.38398],[-14.56851,64.41812],[-14.71312,64.43171],[-14.95275,64.31924],[-14.87759,64.28148],[-15.22647,64.26789],[-15.20661,64.30142],[-15.32315,64.3039],[-15.36644,64.36933],[-15.40844,64.38764],[-15.4735,64.39765],[-15.36364,64.33682],[-15.39782,64.27411],[-15.99206,64.14448],[-16.4702,63.90477],[-16.78254,63.86319],[-16.74779,63.84956],[-16.79621,63.8017],[-16.88736,63.86567],[-16.91535,63.80516],[-16.93004,63.8664],[-16.92614,63.80004],[-16.96691,63.7875],[-16.9403,63.89777],[-16.96898,63.92032],[-17.02892,63.84956],[-17.00622,63.79784],[-17.38571,63.77299],[-17.34175,64.0394],[-16.68688,64.63869],[-16.63348,64.73677],[-16.67846,64.82147],[-16.61748,64.924],[-16.20154,65.05128],[-16.198,65.21034],[-16.02744,65.33307],[-16.17645,65.42611],[-16.03635,65.57036],[-15.69227,65.55029],[-15.67534,65.74488],[-15.44802,65.77381],[-15.10138,65.922],[-14.61461,65.98627]]]}},{"type":"Feature","properties":{"id":"is-8","lat":64.10113,"lng":-19.38249},"geometry":{"type":"MultiPolygon","coordinates":[[[[-20.28262,63.45059],[-20.27953,63.40274],[-20.30557,63.43476],[-20.28262,63.45059]]],[[[-17.82331,63.69139],[-17.74926,63.69196],[-17.77111,63.68073],[-17.82331,63.69139]]],[[[-17.56094,63.7508],[-17.54967,63.7875],[-17.59065,63.74653],[-17.72102,63.70551],[-17.62483,63.74653],[-17.71475,63.78124],[-17.87841,63.73102],[-17.96695,63.66059],[-17.79674,63.67137],[-17.96862,63.62299],[-17.85823,63.60993],[-17.96495,63.52253],[-18.19538,63.47281],[-18.22814,63.49323],[-18.11889,63.53425],[-18.3168,63.54853],[-18.2657,63.46654],[-18.18367,63.46385],[-18.78303,63.39765],[-19.28726,63.43867],[-19.73575,63.54853],[-20.1857,63.54442],[-20.55069,63.71235],[-20.49853,63.76301],[-20.31115,63.73286],[-20.44213,63.7875],[-20.41112,63.83625],[-20.5775,63.71418],[-20.77042,63.7744],[-20.60595,63.76756],[-20.71581,63.78124],[-20.68562,63.86343],[-20.81823,63.78124],[-21.18879,63.8911],[-21.19494,63.93207],[-21.04479,63.94575],[-21.23644,63.95336],[-21.29869,63.9184],[-21.2093,63.88369],[-21.36693,63.84956],[-21.93198,63.84817],[-21.60728,64.00054],[-21.41739,64.16285],[-21.38786,64.25763],[-20.81399,64.52381],[-20.04497,64.69825],[-19.97743,64.80163],[-19.6668,64.7508],[-18.42654,64.88061],[-16.87661,64.47196],[-17.34175,64.0394],[-17.38571,63.77299],[-17.56094,63.7508]]]]}}]}
