{"type":"FeatureCollection","features":[{"type":"Feature","properties":{"id":"it:abruzzo","lat":42.28508,"lng":13.85944},"geometry":{"type":"Polygon","coordinates":[[[14.07537,42.59882],[14.56023,42.22565],[14.70924,42.17548],[14.76336,42.07795],[14.47342,41.76902],[14.4222,41.84701],[14.27637,41.9053],[14.14227,41.82417],[14.18294,41.76293],[13.9457,41.68818],[13.65568,41.80949],[13.5452,41.7682],[13.36112,41.82866],[13.36375,41.91248],[13.01696,42.05465],[13.09426,42.17314],[13.2415,42.12906],[13.36749,42.18518],[13.15756,42.3445],[13.1386,42.54542],[13.36894,42.58598],[13.33756,42.68766],[13.71914,42.86302],[13.90553,42.90156],[14.07537,42.59882]]]}},{"type":"Feature","properties":{"id":"it:apulia","lat":40.87079,"lng":16.82845},"geometry":{"type":"Polygon","coordinates":[[[18.21168,40.46475],[18.51612,40.13923],[18.36834,39.79662],[18.07154,39.91153],[17.96746,40.05732],[18.011,40.09602],[17.86313,40.28563],[17.51206,40.3037],[17.20021,40.4204],[17.32325,40.49848],[17.04957,40.51911],[16.86328,40.39092],[16.73089,40.47753],[16.69457,40.73364],[16.50932,40.76118],[16.41046,40.70604],[16.19662,40.91143],[15.98402,40.95254],[16.03135,41.01692],[15.85833,41.13682],[15.5964,41.10935],[15.55856,41.05512],[15.27507,41.10591],[15.20023,41.1594],[15.26246,41.24754],[15.07534,41.3304],[15.09705,41.42585],[14.93504,41.526],[14.93394,41.62009],[15.1571,41.70169],[15.10263,41.76375],[15.14354,41.93118],[16.14047,41.91991],[16.18434,41.77961],[15.90008,41.61465],[15.96111,41.45946],[17.20314,41.02098],[17.47609,40.83015],[18.00701,40.6507],[18.03745,40.55695],[18.21168,40.46475]]]}},{"type":"Feature","properties":{"id":"it:basilicata","lat":40.53993,"lng":16.11815},"geometry":{"type":"Polygon","coordinates":[[[16.86328,40.39092],[16.64005,40.11875],[16.42114,40.13274],[16.35428,39.9008],[16.26272,39.94219],[16.06892,39.90669],[15.94636,40.00562],[15.84113,40.00397],[15.74581,39.9246],[15.64915,40.07768],[15.78914,40.26183],[15.44663,40.60233],[15.48917,40.65826],[15.37852,40.7294],[15.36922,40.89895],[15.53665,40.93326],[15.58317,41.10455],[15.85833,41.13682],[16.03135,41.01692],[15.98402,40.95254],[16.19662,40.91143],[16.41046,40.70604],[16.50932,40.76118],[16.71566,40.71539],[16.73089,40.47753],[16.86328,40.39092]]]}},{"type":"Feature","properties":{"id":"it:calabria","lat":38.995,"lng":16.66165},"geometry":{"type":"Polygon","coordinates":[[[16.56137,38.41633],[16.30633,38.27709],[16.06316,37.93268],[15.76149,37.92524],[15.6351,38.0091],[15.63282,38.22028],[15.81284,38.3006],[15.9048,38.47394],[15.91603,38.55036],[15.8366,38.64899],[16.1526,38.7309],[16.22169,38.85659],[16.08302,39.07526],[15.9954,39.43877],[15.80641,39.6955],[15.74581,39.9246],[15.84113,40.00397],[16.02128,39.98687],[16.06892,39.90669],[16.26272,39.94219],[16.35428,39.9008],[16.42114,40.13274],[16.64005,40.11875],[16.59693,40.04678],[16.6316,39.96621],[16.49171,39.80549],[16.51564,39.6896],[16.78248,39.61164],[17.1587,39.40619],[17.11451,39.26935],[17.12452,39.09089],[17.20639,39.02949],[17.17237,38.96052],[17.10402,38.89908],[16.83855,38.9182],[16.58562,38.79784],[16.53484,38.6999],[16.56137,38.41633]]]}},{"type":"Feature","properties":{"id":"it-cam","lat":40.7669,"lng":14.89349},"geometry":{"type":"MultiPolygon","coordinates":[[[[15.62468,40.06489],[15.36094,39.99889],[15.12721,40.16962],[14.91114,40.24164],[14.99827,40.39756],[14.78199,40.66987],[14.34262,40.57062],[14.33774,40.62442],[14.47637,40.6951],[14.46062,40.74421],[14.2942,40.83877],[14.0477,40.78959],[14.02134,40.92183],[13.74366,41.2376],[13.86543,41.30247],[13.86218,41.426],[13.96181,41.4707],[14.10443,41.39039],[14.12087,41.49566],[14.58761,41.37013],[14.99529,41.48207],[15.09364,41.43024],[15.07534,41.3304],[15.26617,41.24162],[15.20287,41.15338],[15.57625,41.02659],[15.53665,40.93326],[15.36922,40.89895],[15.34426,40.82068],[15.38616,40.71835],[15.48761,40.66186],[15.4456,40.60566],[15.53788,40.48463],[15.78914,40.26183],[15.62468,40.06489]]],[[[13.96583,40.73505],[13.84913,40.71528],[13.8628,40.7624],[13.96583,40.73505]]]]}},{"type":"Feature","properties":{"id":"it:emilia-romagna","lat":44.44877,"lng":11.14015},"geometry":{"type":"Polygon","coordinates":[[[12.45332,43.97905],[12.38563,43.92453],[12.42025,43.87816],[12.35145,43.86995],[12.28584,43.76887],[11.9686,43.77314],[11.70888,43.88484],[11.65116,44.01272],[11.74143,44.13172],[11.59375,44.12589],[11.60412,44.16253],[11.40254,44.23493],[11.20022,44.15663],[11.22937,44.10271],[11.04149,44.09181],[10.99073,44.13999],[10.91921,44.0678],[10.70739,44.16201],[10.57039,44.12562],[10.47123,44.22459],[10.24902,44.26985],[9.93556,44.47039],[9.83565,44.47625],[9.68977,44.35766],[9.59852,44.42716],[9.44038,44.41155],[9.49066,44.5549],[9.20314,44.61376],[9.20143,44.68213],[9.32215,44.70771],[9.35831,44.85649],[9.30261,44.91313],[9.42505,45.10118],[9.54187,45.08604],[9.55273,45.13482],[9.83369,45.06825],[9.89585,45.09187],[9.88289,45.13415],[9.9866,45.12872],[10.07188,45.03753],[10.39925,44.99132],[10.52135,44.91617],[10.69249,44.99038],[10.88893,44.91349],[11.30296,44.96007],[11.62227,44.89509],[11.86964,44.98537],[12.28764,44.93535],[12.29338,44.86475],[12.3934,44.79345],[12.29233,44.84325],[12.24659,44.71162],[12.35027,44.28815],[12.47877,44.13935],[12.75384,43.9724],[12.7282,43.8791],[12.63305,43.84254],[12.45332,43.97905]],[[12.19934,43.78047],[12.22669,43.81445],[12.17084,43.80461],[12.19934,43.78047]]]}},{"type":"Feature","properties":{"id":"it:friuli-venezia giulia","lat":46.10318,"lng":13.00822},"geometry":{"type":"Polygon","coordinates":[[[13.56597,45.83033],[13.77872,45.74341],[13.88704,45.61877],[13.71176,45.59321],[13.80812,45.61433],[13.57423,45.78962],[13.4017,45.67544],[13.43141,45.70685],[13.3694,45.74462],[13.11931,45.77196],[13.07504,45.69685],[13.14967,45.70376],[13.09563,45.65232],[12.97288,45.84262],[12.79196,45.85617],[12.69016,45.80057],[12.5679,45.83886],[12.41895,46.05068],[12.49498,46.15568],[12.33592,46.26947],[12.5293,46.44902],[12.66986,46.45913],[12.64644,46.50176],[12.76019,46.53693],[12.7485,46.641],[13.70095,46.51975],[13.67749,46.45208],[13.36526,46.2903],[13.41012,46.20798],[13.63739,46.18039],[13.46179,46.00639],[13.62282,45.96639],[13.56597,45.83033]]]}},{"type":"Feature","properties":{"id":"it-laz","lat":42.01362,"lng":12.52048},"geometry":{"type":"MultiPolygon","coordinates":[[[[13.41896,40.7956],[13.42693,40.79084],[13.41472,40.78587],[13.41896,40.7956]]],[[[13.86543,41.30247],[13.54396,41.20661],[13.28582,41.29572],[13.04461,41.22752],[12.89357,41.39932],[12.63527,41.4475],[12.44801,41.63076],[12.23902,41.73627],[12.17018,41.87958],[12.02036,41.99307],[11.82748,42.03417],[11.65821,42.27936],[11.4515,42.37437],[11.47193,42.41857],[11.60181,42.44739],[11.58817,42.56614],[11.78691,42.65125],[11.80712,42.74251],[11.75048,42.80633],[11.88902,42.85039],[11.97346,42.76029],[11.95434,42.68747],[12.23583,42.64758],[12.30067,42.48992],[12.53301,42.36847],[12.61214,42.46312],[12.72215,42.454],[12.90198,42.6096],[13.14937,42.64324],[13.19448,42.7346],[13.28248,42.73951],[13.3863,42.64443],[13.36894,42.58598],[13.18611,42.58691],[13.12946,42.43619],[13.17835,42.39995],[13.16005,42.34078],[13.36749,42.18518],[13.2415,42.12906],[13.09426,42.17314],[13.01696,42.05465],[13.36375,41.91248],[13.36112,41.82866],[13.5452,41.7682],[13.71481,41.79479],[13.97018,41.66487],[14.00931,41.52464],[13.86016,41.42303],[13.86543,41.30247]],[[12.45403,41.90275],[12.45303,41.90391],[12.45271,41.90302],[12.45403,41.90275]]]]}},{"type":"Feature","properties":{"id":"it:liguria","lat":44.22305,"lng":9.66971},"geometry":{"type":"Polygon","coordinates":[[[7.47787,43.86552],[7.74963,44.14057],[7.98755,44.11291],[8.05753,44.16372],[8.06916,44.30779],[8.20583,44.42243],[8.23613,44.53232],[8.35961,44.48096],[8.56416,44.51624],[8.63212,44.5887],[8.72462,44.57863],[8.77334,44.50126],[8.90399,44.56519],[8.87586,44.63728],[8.94466,44.68476],[9.13457,44.58348],[9.23109,44.61997],[9.48029,44.56297],[9.44038,44.41155],[9.65143,44.40618],[9.85209,44.25259],[9.86171,44.18593],[10.05689,44.09445],[9.96274,44.04466],[9.82643,44.10724],[9.83229,44.0423],[9.23064,44.3537],[9.2107,44.30533],[9.10206,44.37397],[8.76238,44.43212],[8.46608,44.30427],[8.40821,44.19351],[8.25652,44.12836],[8.16798,43.95649],[8.06772,43.89667],[7.695,43.7912],[7.50229,43.79222],[7.47787,43.86552]]]}},{"type":"Feature","properties":{"id":"it-lom","lat":45.69954,"lng":9.67767},"geometry":{"type":"Polygon","coordinates":[[[9.54264,45.13155],[9.54187,45.08604],[9.42505,45.10118],[9.38312,45.04503],[9.30261,44.91313],[9.35831,44.85649],[9.32215,44.70771],[9.23265,44.67882],[8.88083,45.05255],[8.64554,45.04123],[8.49853,45.29548],[8.5564,45.36651],[8.7027,45.30478],[8.73499,45.3755],[8.832,45.40818],[8.56851,45.7895],[8.5885,45.91028],[8.72462,46.01613],[8.72897,46.10824],[8.83437,46.06639],[8.76792,45.98309],[8.87096,45.94707],[8.9,45.8264],[9.00243,45.82072],[9.0631,45.89896],[8.98052,45.96438],[9.00212,46.03931],[9.22483,46.23119],[9.28231,46.49737],[9.43465,46.49833],[9.44436,46.37528],[9.53645,46.29862],[9.91844,46.37115],[10.04267,46.22049],[10.14582,46.24333],[10.09177,46.32896],[10.14076,46.4029],[10.02634,46.44626],[10.03275,46.53298],[10.08784,46.60439],[10.21786,46.62697],[10.2347,46.5753],[10.45183,46.5467],[10.62765,46.44765],[10.63231,46.38632],[10.52785,46.34264],[10.59023,46.23337],[10.45914,45.98499],[10.56088,45.80036],[10.8449,45.83405],[10.64424,45.60957],[10.69746,45.32026],[10.98732,45.19738],[11.07735,45.09946],[11.20411,45.11244],[11.19574,45.0634],[11.4215,44.94986],[11.08308,44.96191],[10.88893,44.91349],[10.69249,44.99038],[10.52135,44.91617],[10.39925,44.99132],[10.07188,45.03753],[9.9866,45.12872],[9.88289,45.13415],[9.89585,45.09187],[9.83369,45.06825],[9.54264,45.13155]]]}},{"type":"Feature","properties":{"id":"it:marche","lat":43.17518,"lng":13.30596},"geometry":{"type":"Polygon","coordinates":[[[13.90553,42.90156],[13.53637,42.81115],[13.41157,42.69512],[13.19448,42.7346],[13.25033,42.77082],[13.23405,42.8438],[13.15044,42.82361],[13.04306,42.91935],[12.97211,42.8887],[12.9071,42.97153],[12.7465,43.37883],[12.75817,43.46123],[12.60888,43.42887],[12.48832,43.52197],[12.30909,43.55207],[12.35886,43.61941],[12.28595,43.5916],[12.19582,43.65336],[12.30193,43.72891],[12.33405,43.68912],[12.35763,43.7226],[12.28499,43.79469],[12.48309,43.9292],[12.63305,43.84254],[12.7282,43.8791],[12.75384,43.9724],[12.92888,43.91584],[13.25327,43.70319],[13.61557,43.56049],[13.90553,42.90156]],[[12.4212,43.58971],[12.42982,43.63147],[12.4103,43.62103],[12.4212,43.58971]]]}},{"type":"Feature","properties":{"id":"it:molise","lat":41.73231,"lng":14.60799},"geometry":{"type":"Polygon","coordinates":[[[14.58761,41.37013],[14.12087,41.49566],[14.10909,41.39269],[14.03148,41.39815],[13.96181,41.4707],[14.00867,41.55331],[13.9457,41.68818],[14.18294,41.76293],[14.14227,41.82417],[14.27637,41.9053],[14.42824,41.84238],[14.44846,41.7669],[14.51455,41.78613],[14.76336,42.07795],[15.14354,41.93118],[15.10263,41.76375],[15.1571,41.70169],[14.93394,41.62009],[14.93504,41.526],[14.99529,41.48207],[14.58761,41.37013]]]}},{"type":"Feature","properties":{"id":"it:piemonte","lat":45.25313,"lng":7.80071},"geometry":{"type":"Polygon","coordinates":[[[7.68793,44.0908],[7.62473,44.1801],[7.34062,44.12366],[6.9734,44.24945],[6.86984,44.36293],[6.9178,44.43631],[6.83574,44.53403],[6.95986,44.68317],[7.05516,44.68487],[7.00493,44.82796],[6.74541,44.9078],[6.7235,45.01338],[6.60273,45.10345],[7.06218,45.21853],[7.15965,45.39847],[7.07537,45.46629],[7.13158,45.50994],[7.22455,45.48421],[7.53801,45.58879],[7.88017,45.60269],[7.91629,45.72966],[7.84962,45.93971],[8.11059,46.12695],[8.08734,46.2718],[8.31627,46.43365],[8.42789,46.44869],[8.43812,46.23537],[8.60183,46.12282],[8.72897,46.10824],[8.72818,46.022],[8.59052,45.91466],[8.56541,45.79862],[8.832,45.40818],[8.73499,45.3755],[8.7027,45.30478],[8.54649,45.36421],[8.50009,45.28773],[8.64554,45.04123],[8.88083,45.05255],[9.05964,44.83711],[9.15674,44.80672],[9.19926,44.59929],[9.12092,44.58736],[8.94466,44.68476],[8.87586,44.63728],[8.90399,44.56519],[8.77334,44.50126],[8.72462,44.57863],[8.63212,44.5887],[8.56416,44.51624],[8.35961,44.48096],[8.23613,44.53232],[8.00027,44.11612],[7.75754,44.14382],[7.68793,44.0908]]]}},{"type":"Feature","properties":{"id":"it:sardegna","lat":40.05884,"lng":9.07725},"geometry":{"type":"MultiPolygon","coordinates":[[[[8.44459,39.10273],[8.40984,38.96182],[8.34604,39.09772],[8.44459,39.10273]]],[[[8.31202,39.12031],[8.22462,39.15705],[8.30584,39.19331],[8.31202,39.12031]]],[[[8.55958,39.05671],[8.37176,39.23062],[8.43214,39.30183],[8.37403,39.37885],[8.46339,39.57685],[8.44606,39.76252],[8.51694,39.70213],[8.56577,39.70108],[8.50441,39.7215],[8.54526,39.87857],[8.46306,39.91413],[8.43539,39.85806],[8.39454,39.91266],[8.37721,40.03376],[8.48732,40.08955],[8.47608,40.29214],[8.386,40.35179],[8.31202,40.57807],[8.21632,40.57062],[8.19337,40.6175],[8.15309,40.57779],[8.19744,40.69123],[8.1338,40.72891],[8.21534,40.88141],[8.1823,40.9453],[8.22902,40.96255],[8.31023,40.85065],[8.52052,40.82697],[8.82252,40.94733],[9.23064,41.26264],[9.26808,41.23664],[9.26743,41.20197],[9.27833,41.19501],[9.42237,41.18073],[9.44288,41.09199],[9.46909,41.14619],[9.55958,41.12613],[9.51189,41.01626],[9.66261,41.00263],[9.50424,40.92691],[9.6421,40.92064],[9.61411,40.89338],[9.72397,40.84492],[9.65789,40.79987],[9.82643,40.52961],[9.62615,40.26309],[9.65463,40.1446],[9.73227,40.08393],[9.60206,39.35566],[9.63461,39.29694],[9.51857,39.10456],[9.29217,39.22126],[9.16603,39.18708],[9.01393,39.2639],[9.07985,39.2246],[9.01832,39.14614],[9.02573,38.99531],[8.85328,38.878],[8.71656,38.9326],[8.64096,38.86433],[8.55958,39.05671]]],[[[8.24643,40.99364],[8.22316,41.03364],[8.32618,41.12613],[8.34132,41.07412],[8.25115,41.04377],[8.24643,40.99364]]],[[[9.4795,41.22419],[9.43702,41.18594],[9.45997,41.24238],[9.4795,41.22419]]],[[[9.43531,41.21703],[9.37306,41.22989],[9.42189,41.26089],[9.43531,41.21703]]]]}},{"type":"Feature","properties":{"id":"it:sicily","lat":37.41907,"lng":14.16513},"geometry":{"type":"MultiPolygon","coordinates":[[[[12.62127,35.51337],[12.59832,35.49433],[12.52613,35.51667],[12.62127,35.51337]]],[[[12.86703,35.87226],[12.85092,35.8559],[12.84702,35.86831],[12.86703,35.87226]]],[[[12.03061,36.74136],[11.96119,36.7652],[11.92221,36.82836],[12.03761,36.80663],[12.03061,36.74136]]],[[[14.27882,37.04401],[13.89438,37.10082],[13.71583,37.17137],[12.94264,37.56851],[12.65935,37.56513],[12.5062,37.66551],[12.42701,37.79702],[12.49293,38.02143],[12.7046,38.11083],[12.73178,38.19278],[12.90113,38.02806],[13.06137,38.08348],[13.10092,38.19009],[13.31813,38.22065],[13.39137,38.10318],[13.51352,38.11054],[13.65113,38.00096],[13.79078,37.97362],[14.02052,38.04938],[14.51173,38.04438],[14.90707,38.18769],[15.0879,38.12824],[15.17742,38.15632],[15.23715,38.2648],[15.29184,38.20702],[15.52866,38.30264],[15.65162,38.27529],[15.21306,37.76146],[15.09669,37.49445],[15.09669,37.34369],[15.25196,37.25772],[15.18344,37.20746],[15.33237,37.01162],[15.15838,36.92422],[15.094,36.79955],[15.11451,36.6599],[14.48732,36.79336],[14.27882,37.04401]]],[[[12.2732,37.93952],[12.35467,37.92699],[12.36883,37.92524],[12.29965,37.91926],[12.2732,37.93952]]],[[[12.06479,37.95083],[12.05356,37.99242],[12.07928,37.95026],[12.06479,37.95083]]],[[[13.19744,38.70832],[13.15309,38.7023],[13.19597,38.71149],[13.19744,38.70832]]],[[[14.96632,38.43293],[14.98683,38.36408],[14.94532,38.41226],[14.96632,38.43293]]],[[[14.95786,38.52204],[14.97934,38.48139],[14.94874,38.45091],[14.90065,38.49868],[14.95786,38.52204]]],[[[14.34645,38.53514],[14.35719,38.55121],[14.36085,38.53905],[14.34645,38.53514]]],[[[14.79379,38.5716],[14.86695,38.58112],[14.86166,38.53929],[14.79379,38.5716]]],[[[14.57358,38.55654],[14.54623,38.58796],[14.58546,38.55744],[14.57358,38.55654]]],[[[15.22779,38.81029],[15.20607,38.77521],[15.18702,38.79271],[15.22779,38.81029]]]]}},{"type":"Feature","properties":{"id":"it:toscana","lat":43.45115,"lng":11.21941},"geometry":{"type":"MultiPolygon","coordinates":[[[[10.31324,42.32392],[10.29705,42.34488],[10.30641,42.35155],[10.31324,42.32392]]],[[[10.08432,42.61469],[10.07179,42.57274],[10.0503,42.58194],[10.08432,42.61469]]],[[[10.4367,42.80443],[10.38884,42.76349],[10.41554,42.70889],[10.3379,42.76484],[10.14723,42.73729],[10.10141,42.784],[10.34734,42.80585],[10.41236,42.87336],[10.4367,42.80443]]],[[[9.82578,43.07463],[9.82295,43.00846],[9.78459,43.02844],[9.82578,43.07463]]],[[[10.76352,42.91828],[10.47755,42.99006],[10.53907,43.07941],[10.52817,43.24677],[10.31723,43.49262],[10.21013,43.92023],[10.02846,44.04926],[10.05316,44.09953],[9.86171,44.18593],[9.85209,44.25259],[9.68698,44.3636],[9.83565,44.47625],[9.98985,44.44804],[10.24902,44.26985],[10.47123,44.22459],[10.57039,44.12562],[10.70739,44.16201],[10.91921,44.0678],[10.99073,44.13999],[11.04149,44.09181],[11.24601,44.10689],[11.20022,44.15663],[11.41856,44.23218],[11.60412,44.16253],[11.59375,44.12589],[11.74567,44.13007],[11.6507,43.99086],[11.80928,43.82642],[12.35763,43.7226],[12.19582,43.65336],[12.09758,43.51828],[12.13386,43.48117],[12.03817,43.42113],[12.13871,43.29999],[12.21505,43.29487],[12.029,43.25022],[11.92272,43.13757],[11.97735,43.05221],[11.94815,42.88596],[11.75265,42.80865],[11.80712,42.74251],[11.78691,42.65125],[11.58817,42.56614],[11.60181,42.44739],[11.4515,42.37437],[11.24562,42.42231],[11.18385,42.36628],[11.10662,42.39126],[11.09913,42.44286],[11.18845,42.48027],[11.15846,42.56403],[10.94361,42.74299],[10.73129,42.80443],[10.76352,42.91828]]],[[[10.89584,42.3867],[10.90895,42.32526],[10.86183,42.36628],[10.89584,42.3867]]],[[[12.2332,43.81262],[12.19934,43.78047],[12.17084,43.80461],[12.17756,43.82167],[12.2332,43.81262]]]]}},{"type":"Feature","properties":{"id":"it:trentino-alto adige","lat":46.38213,"lng":11.20925},"geometry":{"type":"Polygon","coordinates":[[[11.83424,46.48383],[11.8957,46.45476],[11.79921,46.35319],[11.96726,46.18514],[11.70686,46.09938],[11.6848,45.98432],[11.49505,46.01244],[11.31072,45.93771],[11.13072,45.69959],[10.93178,45.68189],[10.87032,45.72207],[10.8939,45.80609],[10.8267,45.84123],[10.58465,45.79423],[10.52291,45.84134],[10.45914,45.98499],[10.59023,46.23337],[10.52785,46.34264],[10.63866,46.41107],[10.48239,46.50151],[10.45908,46.62356],[10.36917,46.6724],[10.45381,46.86443],[10.99693,46.76911],[11.17449,46.96385],[11.47184,47.00708],[11.73487,46.97062],[12.2042,47.07969],[12.11118,46.993],[12.12689,46.90887],[12.26662,46.86815],[12.2691,46.78857],[12.46963,46.6758],[12.20808,46.59493],[12.08967,46.66682],[12.02204,46.53941],[11.83424,46.48383]]]}},{"type":"Feature","properties":{"id":"it:umbria","lat":43.00489,"lng":12.43346},"geometry":{"type":"MultiPolygon","coordinates":[[[[12.87919,42.59032],[12.72215,42.454],[12.61214,42.46312],[12.53301,42.36847],[12.30067,42.48992],[12.23583,42.64758],[12.02514,42.64556],[11.9303,42.7091],[11.97346,42.76029],[11.88902,42.85039],[11.94984,42.88937],[11.97781,43.04636],[11.91776,43.12243],[12.029,43.25022],[12.21318,43.29105],[12.13871,43.29999],[12.03707,43.41652],[12.20481,43.61683],[12.35886,43.61941],[12.30909,43.55207],[12.48832,43.52197],[12.60888,43.42887],[12.75817,43.46123],[12.7465,43.37883],[12.91314,42.96343],[12.97211,42.8887],[13.04306,42.91935],[13.15044,42.82361],[13.23948,42.83854],[13.25033,42.77082],[13.15385,42.6451],[12.87919,42.59032]]],[[[12.4162,43.62784],[12.4398,43.59425],[12.40894,43.60106],[12.4162,43.62784]]]]}},{"type":"Feature","properties":{"id":"it:valle d'aosta","lat":45.73716,"lng":7.3487},"geometry":{"type":"Polygon","coordinates":[[[7.02208,45.92526],[7.15355,45.87653],[7.54112,45.98412],[7.84962,45.93971],[7.91955,45.64904],[7.74932,45.56414],[7.53801,45.58879],[7.07537,45.46629],[6.98281,45.51112],[6.96338,45.64073],[6.8161,45.69685],[6.78199,45.77746],[7.02208,45.92526]]]}},{"type":"Feature","properties":{"id":"it-ven","lat":45.75008,"lng":12.10073},"geometry":{"type":"MultiPolygon","coordinates":[[[[12.3073,45.2307],[12.36883,45.01097],[12.36883,45.06562],[12.53387,44.97004],[12.44459,44.8205],[12.40691,44.8913],[12.39796,44.79377],[12.29338,44.86475],[12.28764,44.93535],[12.08721,44.97048],[11.79735,44.97765],[11.62227,44.89509],[11.4319,44.93767],[11.19574,45.0634],[11.20411,45.11244],[11.07735,45.09946],[10.98732,45.19738],[10.69746,45.32026],[10.64424,45.60957],[10.8449,45.83405],[10.93178,45.68189],[11.13072,45.69959],[11.31072,45.93771],[11.49505,46.01244],[11.6848,45.98432],[11.70686,46.09938],[11.9022,46.13658],[11.97128,46.1931],[11.79921,46.35319],[11.8957,46.45476],[11.83224,46.50403],[12.02204,46.53941],[12.08967,46.66682],[12.20808,46.59493],[12.46963,46.6758],[12.7485,46.641],[12.76019,46.53693],[12.64644,46.50176],[12.66986,46.45913],[12.5293,46.44902],[12.33653,46.26643],[12.49498,46.15568],[12.41895,46.05068],[12.5679,45.83886],[12.69016,45.80057],[12.79196,45.85617],[12.97288,45.84262],[13.09563,45.65232],[12.42368,45.43806],[12.58172,45.55288],[12.5066,45.57331],[12.27272,45.46361],[12.21632,45.31623],[12.1491,45.29218],[12.2173,45.29385],[12.24733,45.19693],[12.3073,45.2307]]],[[[12.37184,45.42487],[12.43092,45.41568],[12.32146,45.34801],[12.37184,45.42487]]],[[[12.34718,45.45881],[12.32065,45.42984],[12.31658,45.44306],[12.34718,45.45881]]]]}}]}
