{"type":"FeatureCollection","features":[{"type":"Feature","properties":{"id":"jm-01","lat":17.98407,"lng":-76.76819},"geometry":{"type":"Polygon","coordinates":[[[-76.75544,17.9966],[-76.74747,17.96345],[-76.81246,17.97153],[-76.75544,17.9966]]]}},{"type":"Feature","properties":{"id":"jm-02","lat":18.05057,"lng":-76.75788},"geometry":{"type":"Polygon","coordinates":[[[-76.81246,17.97153],[-76.88964,18.02751],[-76.85218,18.16303],[-76.6278,18.07363],[-76.65716,17.92969],[-76.83227,17.93659],[-76.7224,17.94961],[-76.74058,17.99332],[-76.81246,17.97153]]]}},{"type":"Feature","properties":{"id":"jm-03","lat":17.96301,"lng":-76.4394},"geometry":{"type":"Polygon","coordinates":[[[-76.25679,17.99633],[-76.18798,17.91547],[-76.36303,17.86083],[-76.60277,17.86762],[-76.65716,17.92969],[-76.6278,18.07363],[-76.25679,17.99633]]]}},{"type":"Feature","properties":{"id":"jm-04","lat":18.12034,"lng":-76.52789},"geometry":{"type":"Polygon","coordinates":[[[-76.70146,18.26678],[-76.35115,18.15599],[-76.25679,17.99633],[-76.73162,18.08469],[-76.70146,18.26678]]]}},{"type":"Feature","properties":{"id":"jm-05","lat":18.27509,"lng":-76.87881},"geometry":{"type":"Polygon","coordinates":[[[-77.07035,18.41337],[-76.89492,18.40925],[-76.79239,18.28339],[-76.70146,18.26678],[-76.75143,18.13861],[-76.89641,18.15739],[-76.99641,18.24196],[-77.07035,18.41337]]]}},{"type":"Feature","properties":{"id":"jm-06","lat":18.32767,"lng":-77.25619},"geometry":{"type":"Polygon","coordinates":[[[-77.46529,18.47605],[-77.07035,18.41337],[-76.99641,18.24196],[-77.21086,18.1861],[-77.49116,18.1961],[-77.46529,18.47605]]]}},{"type":"Feature","properties":{"id":"jm-07","lat":18.35525,"lng":-77.61875},"geometry":{"type":"Polygon","coordinates":[[[-77.73554,18.5067],[-77.46529,18.47605],[-77.49116,18.1961],[-77.7814,18.23444],[-77.73554,18.5067]]]}},{"type":"Feature","properties":{"id":"jm-08","lat":18.34057,"lng":-77.85981},"geometry":{"type":"Polygon","coordinates":[[[-78.00017,18.44669],[-77.90233,18.51879],[-77.73554,18.5067],[-77.7814,18.23444],[-77.89589,18.19556],[-78.00017,18.44669]]]}},{"type":"Feature","properties":{"id":"jm-09","lat":18.40703,"lng":-78.12486},"geometry":{"type":"Polygon","coordinates":[[[-78.34604,18.29795],[-78.33194,18.36738],[-78.19498,18.45547],[-78.00017,18.44669],[-77.92141,18.29612],[-78.10019,18.3386],[-78.34604,18.29795]]]}},{"type":"Feature","properties":{"id":"jm-10","lat":18.19581,"lng":-77.98577},"geometry":{"type":"Polygon","coordinates":[[[-77.96462,18.05057],[-78.07519,18.19843],[-78.23404,18.19318],[-78.37466,18.26557],[-78.22434,18.33805],[-77.92141,18.29612],[-77.88638,18.22199],[-77.96462,18.05057]]]}},{"type":"Feature","properties":{"id":"jm-11","lat":18.10681,"lng":-77.77707},"geometry":{"type":"Polygon","coordinates":[[[-77.56457,17.8571],[-77.7307,17.8548],[-77.84557,18.01703],[-77.95629,18.03217],[-77.91888,18.18145],[-77.64029,18.22085],[-77.56457,17.8571]]]}},{"type":"Feature","properties":{"id":"jm-12","lat":18.04683,"lng":-77.51456},"geometry":{"type":"Polygon","coordinates":[[[-77.39458,17.85337],[-77.56457,17.8571],[-77.64029,18.22085],[-77.49116,18.1961],[-77.35897,17.89756],[-77.39458,17.85337]]]}},{"type":"Feature","properties":{"id":"jm-13","lat":18.04183,"lng":-77.29858},"geometry":{"type":"Polygon","coordinates":[[[-77.1346,17.8851],[-77.21646,17.77212],[-77.14074,17.76529],[-77.15811,17.70319],[-77.39458,17.85337],[-77.35897,17.89756],[-77.49116,18.1961],[-77.21086,18.1861],[-77.1346,17.8851]]]}},{"type":"Feature","properties":{"id":"jm-14","lat":18.07029,"lng":-77.02146},"geometry":{"type":"Polygon","coordinates":[[[-76.84997,17.99228],[-76.94213,17.83356],[-77.1346,17.8851],[-77.21086,18.1861],[-76.95592,18.24509],[-76.87282,18.1483],[-76.84997,17.99228]]]}}]}
