{"type":"FeatureCollection","features":[{"type":"Feature","properties":{"id":"jo-aj","lat":32.26135,"lng":35.72662},"geometry":{"type":"Polygon","coordinates":[[[35.6948,32.15618],[35.63553,32.18382],[35.6391,32.34485],[35.85479,32.39944],[35.90533,32.33888],[35.6948,32.15618]]]}},{"type":"Feature","properties":{"id":"jo-am","lat":31.58064,"lng":36.37743},"geometry":{"type":"Polygon","coordinates":[[[36.99791,31.50081],[36.95953,31.491],[37.22172,31.24729],[35.84916,31.25494],[35.818,31.40594],[35.8875,31.51175],[35.8104,31.64954],[35.83815,31.78418],[35.70829,31.77465],[35.72348,31.84219],[35.66173,31.87493],[35.9412,32.04585],[36.05447,31.951],[36.40747,32.01148],[36.5346,31.90382],[36.46892,31.83625],[36.50075,31.78966],[36.61232,31.72114],[36.71428,31.7469],[36.99791,31.50081]]]}},{"type":"Feature","properties":{"id":"jo-aq","lat":29.94961,"lng":35.26211},"geometry":{"type":"Polygon","coordinates":[[[34.95558,29.55899],[35.14528,30.12338],[35.14001,30.43019],[35.26388,30.71997],[35.44805,30.60849],[35.30377,30.00832],[35.57093,29.89089],[35.74025,29.23173],[34.94938,29.35169],[34.99781,29.51797],[34.95558,29.55899]]]}},{"type":"Feature","properties":{"id":"jo-at","lat":30.82825,"lng":35.62374},"geometry":{"type":"Polygon","coordinates":[[[35.26388,30.71997],[35.33493,30.91258],[35.44774,30.88943],[35.49073,30.99669],[35.83025,30.91486],[36.02378,30.76706],[35.94771,30.65642],[35.66235,30.60335],[35.42526,30.60935],[35.26388,30.71997]]]}},{"type":"Feature","properties":{"id":"jo-az","lat":31.87003,"lng":36.85532},"geometry":{"type":"Polygon","coordinates":[[[37.76141,31.69612],[36.99791,31.50081],[36.71428,31.7469],[36.61232,31.72114],[36.50075,31.78966],[36.46892,31.83625],[36.5346,31.90382],[36.42845,32.00347],[36.05447,31.951],[35.89588,32.09566],[35.9907,32.19667],[36.02998,32.13383],[36.43341,32.11411],[37.76141,31.69612]]]}},{"type":"Feature","properties":{"id":"jo-ba","lat":31.96039,"lng":35.66824},"geometry":{"type":"Polygon","coordinates":[[[35.50248,31.68536],[35.55941,31.76535],[35.52282,32.05784],[35.55956,32.19037],[35.89588,32.09566],[35.9412,32.04585],[35.66173,31.87493],[35.72348,31.84219],[35.70829,31.77465],[35.5975,31.68646],[35.50248,31.68536]]]}},{"type":"Feature","properties":{"id":"jo-ir","lat":32.53923,"lng":35.80657},"geometry":{"type":"Polygon","coordinates":[[[35.55956,32.19037],[35.56272,32.64421],[35.7749,32.74728],[36.00362,32.65509],[36.09421,32.43425],[36.01504,32.41143],[36.01721,32.34596],[35.90533,32.33888],[35.84808,32.402],[35.64886,32.35536],[35.63553,32.18382],[35.55956,32.19037]]]}},{"type":"Feature","properties":{"id":"jo-ja","lat":32.21905,"lng":35.87387},"geometry":{"type":"Polygon","coordinates":[[[35.71976,32.14352],[35.85769,32.31622],[36.01721,32.34596],[35.94802,32.26248],[35.98729,32.17563],[35.89588,32.09566],[35.71976,32.14352]]]}},{"type":"Feature","properties":{"id":"jo-ka","lat":31.09927,"lng":35.8135},"geometry":{"type":"Polygon","coordinates":[[[35.34711,30.92271],[35.43849,31.10374],[35.3957,31.25768],[35.45713,31.43352],[35.818,31.40594],[35.84916,31.25494],[36.15178,31.24864],[36.19193,31.0948],[36.02378,30.76706],[35.66995,30.96992],[35.49073,30.99669],[35.43658,30.88359],[35.34711,30.92271]]]}},{"type":"Feature","properties":{"id":"jo-ma","lat":32.9495,"lng":38.45029},"geometry":{"type":"Polygon","coordinates":[[[36.80657,32.31304],[38.77451,33.37168],[39.05718,32.4966],[38.97822,32.47497],[39.02876,32.32834],[39.23577,32.35286],[39.292,32.24452],[38.96344,31.99433],[37.76141,31.69612],[36.43341,32.11411],[36.02998,32.13383],[35.94724,32.25261],[36.01504,32.41143],[36.08723,32.40825],[36.08191,32.51626],[36.17736,32.52732],[36.38789,32.37932],[36.80657,32.31304]]]}},{"type":"Feature","properties":{"id":"jo-md","lat":31.58064,"lng":35.66629},"geometry":{"type":"Polygon","coordinates":[[[35.45713,31.43352],[35.50248,31.68536],[35.83815,31.78418],[35.8104,31.64954],[35.8875,31.51175],[35.84249,31.42563],[35.45713,31.43352]]]}},{"type":"Feature","properties":{"id":"jo-mn","lat":30.17896,"lng":36.45274},"geometry":{"type":"Polygon","coordinates":[[[37.22172,31.24729],[37.98138,30.49881],[37.64755,30.33086],[37.4702,29.99455],[36.72875,29.85353],[36.47708,29.49461],[36.06946,29.20003],[35.74025,29.23173],[35.57093,29.89089],[35.4805,29.95799],[35.35188,29.95975],[35.29912,30.02706],[35.44805,30.60849],[35.94771,30.65642],[36.19193,31.0948],[36.15178,31.24864],[37.22172,31.24729]]]}}]}
