{"type":"FeatureCollection","features":[{"type":"Feature","properties":{"id":"jp-01","lat":43.46568,"lng":143.34165},"geometry":{"type":"MultiPolygon","coordinates":[[[[139.37289,41.52216],[139.34555,41.49335],[139.33644,41.5185],[139.37289,41.52216]]],[[[139.54851,42.24335],[139.50896,42.10082],[139.44565,42.05484],[139.42384,42.1916],[139.54851,42.24335]]],[[[145.82496,43.3736],[145.62916,43.30976],[145.53061,43.16885],[145.13844,43.12816],[145.16822,43.07941],[145.0031,43.04462],[145.01433,42.98949],[144.89975,42.97948],[144.79868,43.0467],[144.74195,42.92422],[144.46485,42.93708],[144.32301,43.00263],[143.8864,42.84418],[143.57521,42.60334],[143.34897,42.31916],[143.33106,42.10692],[143.24155,41.92805],[142.95973,42.10537],[142.45997,42.27131],[142.16775,42.45986],[141.81715,42.5996],[141.42774,42.5644],[140.97731,42.29963],[140.73365,42.56415],[140.50066,42.57917],[140.32545,42.43281],[140.29176,42.25959],[140.54884,42.10554],[140.71355,42.13349],[141.19996,41.79946],[141.00636,41.71214],[140.82398,41.7707],[140.70802,41.74555],[140.72722,41.81135],[140.66041,41.82713],[140.60426,41.73627],[140.45289,41.68106],[140.43238,41.53083],[140.27467,41.48237],[140.20899,41.40111],[140.03826,41.44257],[139.97983,41.58173],[140.12672,41.81403],[140.14503,41.98265],[139.79835,42.23591],[139.76759,42.31098],[139.87696,42.6634],[140.03785,42.68602],[140.20037,42.81428],[140.28151,42.75727],[140.52117,42.99628],[140.33806,43.21052],[140.36012,43.32518],[140.48715,43.37238],[140.79615,43.1955],[141.01124,43.22899],[141.02198,43.17499],[141.16912,43.14086],[141.42335,43.31786],[141.43971,43.40778],[141.35987,43.52359],[141.39137,43.57909],[141.33741,43.71284],[141.64064,43.93793],[141.65545,44.27692],[141.79607,44.64175],[141.75359,44.88544],[141.58375,45.25117],[141.6657,45.45043],[141.69215,45.40229],[141.82325,45.42255],[141.945,45.52041],[142.98146,44.58649],[143.40528,44.31745],[143.77662,44.18928],[143.68043,44.18236],[143.72828,44.11347],[144.11931,44.12906],[144.17172,44.10602],[144.10548,44.03156],[144.15284,44.01984],[144.24293,44.11921],[144.3794,43.95649],[144.43043,43.94257],[144.57032,43.92479],[144.74049,43.91462],[145.34148,44.34553],[145.37184,44.24876],[145.07146,43.7746],[145.39356,43.30537],[145.25831,43.32709],[145.5171,43.22899],[145.5031,43.27753],[145.66163,43.37983],[145.82496,43.3736]]],[[[145.3628,43.55488],[145.28354,43.51789],[145.33204,43.56542],[145.2024,43.61384],[145.3628,43.55488]]],[[[144.44825,43.94221],[144.45509,43.94221],[144.44898,43.94204],[144.44825,43.94221]]],[[[143.97584,44.14826],[143.94044,44.13915],[143.81373,44.1684],[143.83627,44.17593],[143.97584,44.14826]]],[[[141.31642,45.13793],[141.23536,45.10248],[141.13185,45.21027],[141.2352,45.24128],[141.31642,45.13793]]],[[[141.06902,45.44269],[141.03565,45.26488],[140.96681,45.46345],[141.06902,45.44269]]]]}},{"type":"Feature","properties":{"id":"jp-02","lat":40.87838,"lng":140.4894},"geometry":{"type":"Polygon","coordinates":[[[139.94376,40.42928],[139.94279,40.54459],[139.86036,40.60879],[140.04598,40.76777],[140.25807,40.79564],[140.32192,41.02745],[140.36959,40.98606],[140.40779,41.0257],[140.2481,41.12336],[140.32043,41.14978],[140.34228,41.26573],[140.46225,41.18389],[140.5486,41.22624],[140.6327,41.19426],[140.70312,40.85329],[140.85207,40.88385],[140.88868,41.01078],[141.12627,40.87292],[141.27788,41.15533],[141.20591,41.26472],[141.05808,41.18307],[140.7658,41.14502],[140.90709,41.53855],[141.2761,41.3532],[141.46387,41.42602],[141.39082,41.16101],[141.42316,40.72577],[141.49164,40.56233],[141.68099,40.45101],[141.55315,40.35919],[141.30252,40.35539],[141.0015,40.21132],[140.92626,40.24398],[140.94688,40.45967],[140.86885,40.4966],[140.64788,40.4118],[140.40903,40.48084],[139.94376,40.42928]]]}},{"type":"Feature","properties":{"id":"jp-03","lat":39.58092,"lng":141.41664},"geometry":{"type":"Polygon","coordinates":[[[141.68099,40.45101],[141.84197,40.22577],[141.84246,40.07038],[141.94956,39.99657],[142.0088,39.75275],[141.96046,39.61164],[142.03614,39.63898],[142.07032,39.5502],[141.95297,39.46076],[142.03639,39.48379],[142.0381,39.42402],[141.90528,39.33047],[141.98097,39.35098],[141.8991,39.27521],[141.94703,39.2497],[141.87867,39.20759],[141.91578,39.16999],[141.84376,39.15233],[141.91334,39.09772],[141.81715,39.09089],[141.87184,39.06293],[141.82325,39.05671],[141.84742,39.02196],[141.72771,39.03628],[141.71713,38.94685],[141.69361,38.99531],[141.49946,38.98677],[141.44328,38.80941],[141.22841,38.75417],[141.13343,38.79877],[141.12888,38.86365],[140.75945,38.95173],[140.79841,39.04868],[140.74937,39.11327],[140.79609,39.17471],[140.65811,39.39227],[140.81376,39.64394],[140.78317,39.84015],[140.87055,39.87832],[140.85541,40.1806],[141.30252,40.35539],[141.55315,40.35919],[141.68099,40.45101]]]}},{"type":"Feature","properties":{"id":"jp-04","lat":38.37834,"lng":140.87514},"geometry":{"type":"Polygon","coordinates":[[[141.6403,38.9675],[141.6736,38.85195],[141.58855,38.88223],[141.52166,38.76813],[141.56642,38.70356],[141.46306,38.66136],[141.53517,38.63202],[141.46705,38.56952],[141.54762,38.51862],[141.47047,38.42951],[141.54908,38.38516],[141.50123,38.37153],[141.5254,38.26781],[141.33318,38.409],[141.2024,38.38581],[141.16969,38.32282],[141.07944,38.36091],[140.92579,38.04938],[140.93319,37.88981],[140.8549,37.87604],[140.84963,37.79878],[140.77898,37.77038],[140.6516,37.88291],[140.26956,37.96425],[140.28232,38.04512],[140.45079,38.15214],[140.58504,38.4529],[140.5344,38.63118],[140.599,38.65978],[140.61822,38.75557],[140.5329,38.88171],[140.81609,38.94659],[141.12888,38.86365],[141.13343,38.79877],[141.22841,38.75417],[141.44328,38.80941],[141.49946,38.98677],[141.6403,38.9675]]]}},{"type":"Feature","properties":{"id":"jp-05","lat":39.68571,"lng":140.43227},"geometry":{"type":"Polygon","coordinates":[[[139.88085,39.11511],[140.04858,39.50467],[140.0593,39.72749],[139.96648,39.88007],[139.7601,39.85806],[139.69773,39.98857],[139.82211,39.96109],[139.97804,40.12547],[140.02426,40.35502],[139.94376,40.42928],[140.40903,40.48084],[140.64788,40.4118],[140.84993,40.49952],[140.94037,40.4682],[140.96275,40.36865],[140.83815,40.06639],[140.87055,39.87832],[140.78317,39.84015],[140.81376,39.64394],[140.65811,39.39227],[140.79609,39.17471],[140.74937,39.11327],[140.79841,39.04868],[140.75945,38.95173],[140.54406,38.8737],[140.34278,39.00385],[139.88085,39.11511]]]}},{"type":"Feature","properties":{"id":"jp-06","lat":38.42029,"lng":140.13877},"geometry":{"type":"Polygon","coordinates":[[[139.54872,38.545],[139.77384,38.81712],[139.88085,39.11511],[140.40505,38.97566],[140.61822,38.75557],[140.599,38.65978],[140.5344,38.63118],[140.58504,38.4529],[140.45079,38.15214],[140.28232,38.04512],[140.27374,37.79955],[140.21447,37.74059],[140.1043,37.72266],[139.63104,37.87929],[139.68737,38.20206],[139.79367,38.21193],[139.87118,38.28591],[139.70938,38.38768],[139.70179,38.49439],[139.54872,38.545]]]}},{"type":"Feature","properties":{"id":"jp-07","lat":37.39764,"lng":140.11286},"geometry":{"type":"Polygon","coordinates":[[[140.93319,37.88981],[141.02223,37.72695],[141.04184,37.37714],[140.9603,36.96621],[140.79729,36.84649],[140.57,36.92607],[140.56468,36.86318],[140.44986,36.79458],[140.23731,36.92483],[140.17628,37.05893],[139.91687,37.14357],[139.35959,36.90204],[139.21737,36.9295],[139.2352,37.1399],[139.15557,37.22589],[139.18854,37.41813],[139.55358,37.5065],[139.53715,37.62437],[139.72463,37.82038],[139.93237,37.81159],[140.11737,37.72261],[140.26925,37.78054],[140.26956,37.96425],[140.6516,37.88291],[140.7641,37.7702],[140.93319,37.88981]]]}},{"type":"Feature","properties":{"id":"jp-08","lat":36.32261,"lng":140.22973},"geometry":{"type":"Polygon","coordinates":[[[140.79729,36.84649],[140.56411,36.2831],[140.64603,36.01332],[140.85717,35.73244],[140.55145,35.88856],[140.12734,35.85443],[139.68551,36.1255],[139.65373,36.20314],[139.9535,36.36212],[140.18114,36.41488],[140.26677,36.71864],[140.23731,36.92483],[140.44986,36.79458],[140.56468,36.86318],[140.57,36.92607],[140.79729,36.84649]]]}},{"type":"Feature","properties":{"id":"jp-09","lat":36.68169,"lng":139.78459},"geometry":{"type":"Polygon","coordinates":[[[139.44051,36.26848],[139.33654,36.37912],[139.44764,36.5727],[139.30595,36.64474],[139.35959,36.90204],[139.88586,37.13918],[140.18501,37.05293],[140.26677,36.71864],[140.17029,36.4016],[139.9535,36.36212],[139.70365,36.20469],[139.44051,36.26848]]]}},{"type":"Feature","properties":{"id":"jp-10","lat":36.50245,"lng":138.90514},"geometry":{"type":"Polygon","coordinates":[[[139.09196,37.03924],[139.21737,36.9295],[139.35959,36.90204],[139.30595,36.64474],[139.44764,36.5727],[139.34352,36.35856],[139.44051,36.26848],[139.60546,36.25241],[139.67404,36.15221],[139.11185,36.27086],[139.03377,36.13867],[138.70092,35.96954],[138.57028,36.15335],[138.62366,36.38396],[138.3889,36.43452],[138.40471,36.57038],[138.50744,36.68887],[138.79414,36.75781],[139.09196,37.03924]]]}},{"type":"Feature","properties":{"id":"jp-11","lat":35.95817,"lng":139.27221},"geometry":{"type":"Polygon","coordinates":[[[139.11185,36.27086],[139.67404,36.15221],[139.86653,35.88882],[139.86395,35.77813],[139.41147,35.75198],[139.01361,35.87729],[138.86897,35.83776],[138.7157,35.89647],[138.74143,36.01987],[139.03377,36.13867],[139.11185,36.27086]]]}},{"type":"Feature","properties":{"id":"jp-12","lat":35.47349,"lng":140.20804},"geometry":{"type":"Polygon","coordinates":[[[140.85947,35.73538],[140.86067,35.68779],[140.66106,35.68863],[140.48347,35.56599],[140.38592,35.381],[140.39419,35.19659],[140.32121,35.13039],[140.1346,35.12264],[139.9264,34.90736],[139.75699,34.95628],[139.86997,34.99934],[139.81897,35.15766],[139.86633,35.24621],[139.781,35.31806],[140.10205,35.56709],[139.98361,35.66864],[139.86424,35.63207],[139.87186,35.86936],[139.75285,36.07955],[140.12734,35.85443],[140.55145,35.88856],[140.85947,35.73538]]]}},{"type":"Feature","properties":{"id":"jp-tky","lat":35.68489,"lng":139.46938},"geometry":{"type":"MultiPolygon","coordinates":[[[[140.87818,27.23261],[140.86793,27.23395],[140.8742,27.23823],[140.87818,27.23261]]],[[[140.31861,30.47553],[140.30763,30.49116],[140.32594,30.48518],[140.31861,30.47553]]],[[[140.04444,31.44505],[140.04567,31.4433],[140.04347,31.4431],[140.04444,31.44505]]],[[[140.04127,31.44416],[140.04314,31.44457],[140.04152,31.4431],[140.04127,31.44416]]],[[[139.77377,32.44098],[139.75636,32.4523],[139.75709,32.47036],[139.77377,32.44098]]],[[[139.87745,33.08759],[139.82097,33.04027],[139.73976,33.13325],[139.76775,33.14989],[139.87745,33.08759]]],[[[139.29908,33.6507],[139.29908,33.65009],[139.29615,33.65107],[139.29908,33.6507]]],[[[139.62875,33.86571],[139.57976,33.88032],[139.60963,33.89639],[139.62875,33.86571]]],[[[139.57504,34.09003],[139.53452,34.03754],[139.48707,34.06078],[139.52345,34.11237],[139.57504,34.09003]]],[[[139.30095,34.41791],[139.28346,34.33686],[139.26783,34.3227],[139.30095,34.41791]]],[[[139.45786,34.68989],[139.35935,34.7023],[139.35646,34.79723],[139.43776,34.77192],[139.45786,34.68989]]],[[[139.82389,35.62295],[139.76527,35.65351],[139.78662,35.51153],[139.53942,35.61261],[139.45446,35.59731],[139.46315,35.48982],[139.03578,35.69635],[138.92282,35.83538],[139.01361,35.87729],[139.41147,35.75198],[139.86395,35.77813],[139.88116,35.67343],[139.82389,35.62295]]],[[[141.47071,24.21918],[141.45297,24.2224],[141.46998,24.22626],[141.47071,24.21918]]],[[[153.98365,24.28295],[153.98121,24.29536],[153.98561,24.29108],[153.98365,24.28295]]],[[[153.95371,24.31582],[153.95346,24.29251],[153.94068,24.31147],[153.95371,24.31582]]],[[[141.36549,24.77774],[141.28956,24.72696],[141.29949,24.78588],[141.36549,24.77774]]],[[[141.27052,25.44037],[141.29949,25.4348],[141.28745,25.41771],[141.27052,25.44037]]],[[[142.18019,26.6188],[142.13901,26.6625],[142.11134,26.72118],[142.16586,26.70132],[142.18019,26.6188]]],[[[142.23325,27.09431],[142.21852,27.04035],[142.18019,27.07807],[142.23325,27.09431]]],[[[142.19093,27.18521],[142.20183,27.16275],[142.18922,27.14549],[142.19093,27.18521]]],[[[142.19288,27.6162],[142.17945,27.61249],[142.18312,27.61945],[142.19288,27.6162]]],[[[142.10515,27.72704],[142.11166,27.72586],[142.10719,27.71674],[142.10515,27.72704]]],[[[142.07862,27.72724],[142.08513,27.72606],[142.08058,27.71695],[142.07862,27.72724]]]]}},{"type":"Feature","properties":{"id":"jp-14","lat":35.39139,"lng":139.27617},"geometry":{"type":"Polygon","coordinates":[[[139.78662,35.51153],[139.6423,35.45426],[139.6874,35.43218],[139.63579,35.40163],[139.64836,35.29789],[139.74545,35.24897],[139.66432,35.13483],[139.61629,35.134],[139.62396,35.21162],[139.54418,35.30789],[139.41486,35.31882],[139.18354,35.26327],[139.15805,35.13646],[139.02875,35.13556],[138.9686,35.23025],[138.98659,35.38115],[138.90034,35.38094],[139.09103,35.51401],[139.12177,35.654],[139.46315,35.48982],[139.45446,35.59731],[139.52738,35.61403],[139.78662,35.51153]]]}},{"type":"Feature","properties":{"id":"jp-15","lat":37.72237,"lng":139.21892},"geometry":{"type":"MultiPolygon","coordinates":[[[[137.61456,36.97511],[138.0975,37.17106],[138.2449,37.18379],[138.55063,37.37792],[138.74659,37.59687],[138.85768,37.82783],[139.21594,37.98993],[139.42514,38.15127],[139.54872,38.545],[139.70179,38.49439],[139.70938,38.38768],[139.86224,38.31438],[139.84441,38.24087],[139.67915,38.18757],[139.6174,37.90957],[139.72463,37.82038],[139.53715,37.62437],[139.55358,37.5065],[139.18854,37.41813],[139.15557,37.22589],[139.2352,37.1399],[139.21458,36.94565],[139.08002,37.03658],[138.96519,36.96741],[138.90328,36.83628],[138.67953,36.73065],[138.66681,36.83584],[138.53587,37.01004],[138.36575,36.97741],[138.26394,36.85083],[138.04422,36.80718],[137.98934,36.89697],[137.86872,36.91925],[137.73266,36.77481],[137.69478,36.91196],[137.61456,36.97511]]],[[[138.43816,38.08348],[138.57521,38.07429],[138.57521,38.0351],[138.4865,37.89175],[138.2151,37.80956],[138.34254,37.96686],[138.24789,37.9785],[138.2531,38.09032],[138.51417,38.32306],[138.43816,38.08348]]]]}},{"type":"Feature","properties":{"id":"jp-16","lat":36.67018,"lng":137.24899},"geometry":{"type":"Polygon","coordinates":[[[137.04442,36.9564],[137.00554,36.83592],[137.19729,36.75812],[137.33334,36.76273],[137.49935,36.95574],[137.61456,36.97511],[137.68455,36.92591],[137.72832,36.62141],[137.62078,36.42364],[137.56538,36.377],[137.16117,36.43685],[136.95798,36.27332],[136.85049,36.3428],[136.77323,36.292],[136.77711,36.71895],[136.8941,36.92571],[137.04442,36.9564]]]}},{"type":"Feature","properties":{"id":"jp-17","lat":36.79477,"lng":136.7683},"geometry":{"type":"MultiPolygon","coordinates":[[[[136.22672,36.2856],[136.63996,36.6626],[136.76056,36.8706],[136.72674,37.12661],[136.67026,37.14996],[136.74909,37.35792],[137.34097,37.51709],[137.35613,37.45319],[137.2536,37.42911],[137.23023,37.29214],[137.10872,37.28345],[137.01417,37.18488],[136.95107,37.23448],[136.8926,37.17332],[136.86093,37.07677],[136.98013,37.04686],[137.04713,37.09882],[137.05445,36.96675],[136.8941,36.92571],[136.77711,36.71895],[136.7644,36.32156],[136.8168,36.23521],[136.72089,36.0748],[136.32292,36.16632],[136.22672,36.2856]]],[[[137.04176,37.15973],[136.94728,37.09699],[136.90528,37.14362],[137.04176,37.15973]]]]}},{"type":"Feature","properties":{"id":"jp-18","lat":35.81719,"lng":136.42709},"geometry":{"type":"Polygon","coordinates":[[[135.47876,35.54373],[135.55828,35.49177],[135.64894,35.54283],[135.64507,35.4802],[135.73804,35.49874],[135.70609,35.56209],[135.83432,35.53437],[135.81169,35.64341],[135.98057,35.63048],[135.95601,35.72832],[136.0197,35.76535],[136.06911,35.66188],[136.09946,35.7757],[135.96322,35.99992],[136.12417,36.25318],[136.22672,36.2856],[136.32292,36.16632],[136.72089,36.0748],[136.70125,35.93161],[136.80212,35.85037],[136.75773,35.78402],[136.32416,35.76169],[136.2573,35.64563],[136.12774,35.66353],[136.14526,35.57096],[136.08082,35.51429],[135.93096,35.50264],[135.87649,35.38159],[135.74286,35.33758],[135.51879,35.37345],[135.44742,35.45207],[135.47876,35.54373]]]}},{"type":"Feature","properties":{"id":"jp-19","lat":35.58983,"lng":138.66143},"geometry":{"type":"Polygon","coordinates":[[[138.36027,35.95781],[138.45277,35.89032],[138.63446,35.85326],[138.7157,35.89647],[138.92282,35.83538],[139.12177,35.654],[139.09924,35.52566],[138.8297,35.36466],[138.6972,35.35076],[138.54341,35.41704],[138.50713,35.19429],[138.41897,35.16512],[138.34296,35.29206],[138.23588,35.30369],[138.24131,35.51778],[138.16855,35.6988],[138.2165,35.8504],[138.36027,35.95781]]]}},{"type":"Feature","properties":{"id":"jp-20","lat":36.07457,"lng":138.08663},"geometry":{"type":"Polygon","coordinates":[[[138.67953,36.73065],[138.49923,36.68205],[138.3768,36.46783],[138.4384,36.40028],[138.61483,36.40028],[138.57028,36.15335],[138.7157,35.89647],[138.62299,35.85399],[138.36027,35.95781],[138.18018,35.78673],[138.19614,35.62785],[138.11253,35.35738],[137.80557,35.19452],[137.56523,35.19312],[137.58523,35.49509],[137.44404,35.73338],[137.32323,35.80164],[137.57732,36.03124],[137.53944,36.1179],[137.6245,36.31499],[137.56538,36.377],[137.71948,36.58983],[137.73266,36.77481],[137.86872,36.91925],[137.98934,36.89697],[138.04422,36.80718],[138.26394,36.85083],[138.36575,36.97741],[138.49969,37.01539],[138.66681,36.83584],[138.67953,36.73065]]]}},{"type":"Feature","properties":{"id":"jp-21","lat":35.79632,"lng":137.05212},"geometry":{"type":"Polygon","coordinates":[[[137.2763,36.45225],[137.56538,36.377],[137.6245,36.31499],[137.53944,36.1179],[137.57732,36.03124],[137.32323,35.80164],[137.44404,35.73338],[137.58523,35.49509],[137.60445,35.38451],[137.54786,35.27035],[137.42203,35.21599],[137.2932,35.26777],[137.16861,35.24219],[136.95291,35.38414],[136.76099,35.34751],[136.67345,35.13881],[136.52834,35.22943],[136.39879,35.20261],[136.39739,35.45277],[136.2573,35.64563],[136.30427,35.74423],[136.76858,35.79099],[136.80212,35.85037],[136.69856,35.94354],[136.8168,36.23521],[136.77323,36.292],[136.85049,36.3428],[136.95798,36.27332],[137.14577,36.43271],[137.2763,36.45225]]]}},{"type":"Feature","properties":{"id":"jp-22","lat":35.10677,"lng":138.17144},"geometry":{"type":"Polygon","coordinates":[[[139.09443,35.11747],[139.14088,34.87055],[138.99876,34.73328],[138.99366,34.64985],[138.8353,34.59589],[138.74659,34.69147],[138.76189,34.9799],[138.78609,35.02644],[138.90756,35.03067],[138.69619,35.13898],[138.55408,35.09607],[138.51429,34.98018],[138.35335,34.90411],[138.34083,34.82648],[138.21599,34.71228],[138.23329,34.59459],[137.96759,34.66654],[137.4679,34.67097],[137.48844,34.80976],[137.61799,34.87927],[137.80557,35.19452],[138.12307,35.37087],[138.13594,35.54708],[138.19614,35.62785],[138.23588,35.30369],[138.34296,35.29206],[138.41897,35.16512],[138.50713,35.19429],[138.55648,35.41748],[138.6972,35.35076],[138.98659,35.38115],[138.97356,35.20496],[139.09443,35.11747]]]}},{"type":"Feature","properties":{"id":"jp-23","lat":34.9905,"lng":137.27068},"geometry":{"type":"MultiPolygon","coordinates":[[[[136.79806,34.8764],[136.82595,34.84908],[136.80773,34.8392],[136.79806,34.8764]]],[[[137.4679,34.67097],[137.0161,34.57879],[137.07283,34.6646],[137.11085,34.62543],[137.34082,34.72654],[137.27996,34.80809],[137.01825,34.78329],[136.95823,34.83235],[136.97885,34.92422],[136.91556,34.77596],[136.9715,34.69641],[136.85597,34.73981],[136.82346,34.95486],[136.88573,35.08919],[136.7518,35.02615],[136.67345,35.13881],[136.76099,35.34751],[136.95291,35.38414],[137.16861,35.24219],[137.2932,35.26777],[137.42203,35.21599],[137.54786,35.27035],[137.57515,35.18816],[137.80557,35.19452],[137.77023,35.08117],[137.60915,34.86909],[137.48844,34.80976],[137.4679,34.67097]]]]}},{"type":"Feature","properties":{"id":"jp-24","lat":34.46019,"lng":136.51534},"geometry":{"type":"MultiPolygon","coordinates":[[[[136.7448,35.02342],[136.65919,34.98395],[136.51954,34.68085],[136.55104,34.602],[136.91603,34.43399],[136.89568,34.26691],[136.83546,34.24641],[136.7942,34.25312],[136.84645,34.30756],[136.70265,34.29515],[136.7068,34.3343],[136.33668,34.18403],[136.30844,34.09003],[136.21852,34.07514],[136.2732,33.97142],[136.23219,33.99315],[136.22853,33.93838],[136.10474,33.89141],[135.99374,33.68626],[135.9508,33.70394],[135.84766,33.83814],[136.01757,34.00485],[136.09777,34.01165],[136.1187,34.24114],[136.07121,34.39382],[136.2112,34.4864],[136.05989,34.56285],[136.07235,34.65631],[136.0031,34.77369],[136.11265,34.87105],[136.38158,34.9264],[136.44318,35.13184],[136.39879,35.20261],[136.52834,35.22943],[136.7448,35.02342]]],[[[136.89899,34.50405],[136.8832,34.47537],[136.8726,34.49114],[136.89899,34.50405]]],[[[136.89647,34.53841],[136.90318,34.52502],[136.84913,34.51504],[136.89647,34.53841]]]]}},{"type":"Feature","properties":{"id":"jp-25","lat":35.18166,"lng":136.12172},"geometry":{"type":"Polygon","coordinates":[[[136.2573,35.64563],[136.39739,35.45277],[136.37615,35.23149],[136.44318,35.13184],[136.40721,34.96688],[136.31161,34.87929],[136.11265,34.87105],[136.0031,34.77369],[135.85882,34.88007],[135.82699,35.2633],[135.74286,35.33758],[135.87649,35.38159],[135.93096,35.50264],[136.13549,35.55793],[136.12774,35.66353],[136.2573,35.64563]]]}},{"type":"Feature","properties":{"id":"jp-26","lat":35.20864,"lng":135.49928},"geometry":{"type":"Polygon","coordinates":[[[134.86325,35.65828],[134.92701,35.64118],[135.22685,35.77232],[135.30616,35.67154],[135.18832,35.54526],[135.24823,35.59169],[135.23874,35.54203],[135.33549,35.50821],[135.31902,35.44697],[135.40235,35.48216],[135.3378,35.53748],[135.46322,35.60333],[135.44742,35.45207],[135.51879,35.37345],[135.74286,35.33758],[135.82699,35.2633],[135.81458,35.00109],[136.0292,34.70362],[135.75268,34.72625],[135.58276,34.94655],[135.53822,34.90978],[135.34195,35.01481],[135.37916,35.10788],[135.20129,35.17008],[135.14703,35.2472],[134.9367,35.29379],[134.93025,35.3796],[135.04476,35.395],[135.04383,35.50269],[134.91087,35.51282],[134.86325,35.65828]]]}},{"type":"Feature","properties":{"id":"jp-osk","lat":34.66937,"lng":135.54395},"geometry":{"type":"MultiPolygon","coordinates":[[[[135.20518,34.43049],[135.25705,34.43578],[135.21054,34.42191],[135.20518,34.43049]]],[[[135.09974,34.2805],[135.25656,34.37676],[135.40832,34.54098],[135.43983,34.90371],[135.36335,34.99745],[135.64638,34.89919],[135.7148,34.78532],[135.62204,34.55342],[135.66545,34.38111],[135.18847,34.2743],[135.09974,34.2805]]]]}},{"type":"Feature","properties":{"id":"jp-28","lat":35.15539,"lng":134.81756},"geometry":{"type":"MultiPolygon","coordinates":[[[[135.02817,34.59101],[134.90297,34.41901],[134.95825,34.27036],[134.72868,34.19094],[134.65717,34.2882],[134.68326,34.32823],[134.88383,34.52949],[135.02817,34.59101]]],[[[134.37649,35.61118],[134.53699,35.6722],[134.86325,35.65828],[134.91087,35.51282],[135.04383,35.50269],[135.04476,35.395],[134.93025,35.3796],[134.92678,35.30237],[135.15271,35.24477],[135.20129,35.17008],[135.38908,35.10018],[135.33864,35.02197],[135.43983,34.90371],[135.44246,34.71612],[135.04577,34.62497],[134.6963,34.77619],[134.49122,34.78706],[134.30464,34.70911],[134.26362,35.00097],[134.3941,35.1407],[134.39565,35.22922],[134.51006,35.27188],[134.37649,35.61118]]]]}},{"type":"Feature","properties":{"id":"jp-29","lat":34.31748,"lng":135.88843},"geometry":{"type":"Polygon","coordinates":[[[136.03648,34.71535],[136.05989,34.56285],[136.2112,34.4864],[136.07121,34.39382],[136.1187,34.24114],[136.10149,34.01847],[136.01757,34.00485],[135.84766,33.83814],[135.78523,33.87904],[135.61857,33.85713],[135.54302,34.06456],[135.70844,34.2129],[135.62204,34.55342],[135.70627,34.75953],[135.83226,34.69912],[136.03648,34.71535]]]}},{"type":"Feature","properties":{"id":"jp-30","lat":33.93521,"lng":135.32616},"geometry":{"type":"Polygon","coordinates":[[[135.99374,33.68626],[135.94607,33.57781],[135.76002,33.43334],[135.76557,33.48154],[135.44484,33.55085],[135.3277,33.67119],[135.39161,33.71357],[135.11868,33.89294],[135.05886,33.88003],[135.07574,33.97749],[135.16163,34.02497],[135.09449,34.06761],[135.12284,34.1371],[135.18995,34.1496],[135.0713,34.28579],[135.64684,34.37175],[135.70844,34.2129],[135.54302,34.06456],[135.60292,33.87509],[135.81727,33.87222],[135.99374,33.68626]]]}},{"type":"Feature","properties":{"id":"jp-31","lat":35.37058,"lng":133.89155},"geometry":{"type":"Polygon","coordinates":[[[133.2575,35.5362],[133.40016,35.45429],[133.58018,35.5336],[134.03479,35.51936],[134.36558,35.59996],[134.51006,35.27188],[134.17458,35.16163],[133.98694,35.32503],[133.82349,35.23904],[133.59203,35.321],[133.50144,35.17697],[133.36006,35.09527],[133.12793,35.06732],[133.16441,35.20589],[133.2998,35.28245],[133.32512,35.41613],[133.20084,35.51649],[133.2575,35.5362]]]}},{"type":"Feature","properties":{"id":"jp-32","lat":34.981,"lng":132.46063},"geometry":{"type":"MultiPolygon","coordinates":[[[[131.67563,34.67214],[131.85841,34.7145],[132.40808,35.17505],[132.63868,35.29465],[132.67402,35.38542],[132.63536,35.44096],[132.96974,35.517],[133.09126,35.60148],[133.32602,35.56851],[133.20084,35.51649],[133.32574,35.41148],[133.29319,35.26917],[133.16441,35.20589],[133.12793,35.06732],[132.85404,35.07326],[132.64253,34.89469],[132.66785,34.83824],[132.24793,34.78294],[132.1438,34.70501],[131.94676,34.30605],[131.78196,34.30654],[131.76847,34.41614],[131.68326,34.43774],[131.67563,34.67214]]],[[[133.06666,36.00654],[133.02784,35.99364],[133.01246,36.0148],[133.02418,36.02558],[133.06666,36.00654]]],[[[133.09946,36.0375],[133.08131,36.08015],[133.12135,36.10977],[133.13543,36.08955],[133.09946,36.0375]]],[[[133.08814,36.11827],[133.04493,36.05512],[132.94939,36.06196],[133.03875,36.13081],[133.08814,36.11827]]],[[[133.09327,36.10977],[133.09327,36.12336],[133.11362,36.11351],[133.09327,36.10977]]],[[[133.37338,36.1977],[133.25636,36.16498],[133.19264,36.20596],[133.1963,36.27798],[133.292,36.34248],[133.38185,36.25772],[133.37338,36.1977]]]]}},{"type":"Feature","properties":{"id":"jp-33","lat":34.86449,"lng":133.80233},"geometry":{"type":"Polygon","coordinates":[[[134.30464,34.70911],[134.20875,34.72801],[134.27882,34.69823],[134.14796,34.59699],[133.99439,34.60871],[133.9367,34.58723],[134.04615,34.58153],[133.93629,34.45124],[133.79444,34.44294],[133.7234,34.52757],[133.47006,34.42398],[133.52247,34.48306],[133.44302,34.47267],[133.2643,35.05063],[133.50144,35.17697],[133.59203,35.321],[133.82349,35.23904],[133.98694,35.32503],[134.17458,35.16163],[134.39565,35.22922],[134.3941,35.1407],[134.26362,35.00097],[134.30464,34.70911]]]}},{"type":"Feature","properties":{"id":"jp-34","lat":34.60691,"lng":132.75794},"geometry":{"type":"MultiPolygon","coordinates":[[[[132.47804,34.08047],[132.49684,34.15705],[132.55152,34.17064],[132.56984,34.07587],[132.47804,34.08047]]],[[[132.70899,34.20332],[132.74,34.1599],[132.68897,34.18989],[132.70899,34.20332]]],[[[132.9323,34.27485],[132.90577,34.21308],[132.84995,34.21516],[132.84645,34.24022],[132.9323,34.27485]]],[[[132.31446,34.30044],[132.29591,34.24323],[132.26791,34.24445],[132.31446,34.30044]]],[[[133.44915,34.5088],[133.28175,34.32152],[133.31495,34.36603],[133.24732,34.4265],[133.18556,34.2805],[133.07643,34.25959],[133.07228,34.31753],[133.16847,34.35505],[133.09327,34.3898],[133.05909,34.33234],[132.83619,34.3111],[132.65626,34.19929],[132.55445,34.19237],[132.51759,34.35301],[132.38347,34.36567],[132.2225,34.23896],[132.24041,34.1898],[132.12644,34.24876],[132.04127,34.49521],[132.1438,34.70501],[132.24793,34.78294],[132.66785,34.83824],[132.64253,34.89469],[132.83916,35.06649],[132.99398,35.08055],[133.2643,35.05063],[133.30414,34.9974],[133.44915,34.5088]]]]}},{"type":"Feature","properties":{"id":"jp-35","lat":34.21928,"lng":131.54376},"geometry":{"type":"MultiPolygon","coordinates":[[[[132.20875,33.80012],[132.27296,33.76854],[132.18832,33.77969],[132.20875,33.80012]]],[[[132.22641,33.86066],[132.18629,33.92121],[132.22609,33.9527],[132.32618,33.89631],[132.46949,33.93793],[132.37403,33.8417],[132.22641,33.86066]]],[[[132.24041,34.1898],[132.21323,33.98965],[132.13559,33.93842],[132.16163,33.8417],[132.04135,33.77627],[132.09946,33.87226],[131.85206,33.99836],[131.77955,33.96967],[131.82277,34.02668],[131.74147,34.05622],[131.59327,34.0373],[131.57887,33.98575],[131.48292,34.03205],[131.44117,33.97891],[131.3899,34.03974],[131.25799,33.92479],[131.0356,34.04798],[130.91575,33.91399],[130.86158,34.11274],[130.92335,34.18378],[130.87159,34.27924],[130.89991,34.35505],[131.03361,34.38179],[130.93393,34.39598],[130.95875,34.42744],[131.1727,34.36774],[131.17131,34.42954],[131.25263,34.43739],[131.28121,34.40796],[131.2295,34.41771],[131.20899,34.36933],[131.41432,34.42398],[131.59687,34.65959],[131.67563,34.67214],[131.67923,34.4471],[131.76847,34.41614],[131.77142,34.31426],[131.94676,34.30605],[132.05042,34.45784],[132.12644,34.24876],[132.24041,34.1898]]]]}},{"type":"Feature","properties":{"id":"jp-36","lat":33.89646,"lng":134.16341},"geometry":{"type":"Polygon","coordinates":[[[134.44245,34.20827],[134.64687,34.23925],[134.59978,34.00947],[134.70257,33.93727],[134.64625,33.8531],[134.75123,33.83491],[134.40402,33.65448],[134.29567,33.53032],[134.19008,33.55152],[134.15872,33.65624],[134.06017,33.67934],[134.01754,33.81078],[133.90638,33.78497],[133.64789,33.85566],[133.66061,33.99787],[133.82825,34.09288],[133.984,34.07441],[134.1721,34.15766],[134.40826,34.15704],[134.44245,34.20827]]]}},{"type":"Feature","properties":{"id":"jp-37","lat":34.19645,"lng":134.03131},"geometry":{"type":"MultiPolygon","coordinates":[[[[133.59188,34.02381],[133.64112,34.18464],[133.55836,34.25947],[133.70143,34.23127],[133.93702,34.37507],[134.08131,34.34772],[134.14356,34.39179],[134.16627,34.32486],[134.21681,34.35505],[134.44245,34.20827],[134.40826,34.15704],[134.1721,34.15766],[133.984,34.07441],[133.82825,34.09288],[133.66061,33.99787],[133.59188,34.02381]]],[[[133.70826,34.39728],[133.70314,34.35175],[133.68849,34.36616],[133.70826,34.39728]]],[[[134.03663,34.48078],[134.08343,34.50072],[134.1045,34.49026],[134.08399,34.45983],[134.03663,34.48078]]],[[[134.36573,34.53628],[134.34693,34.43081],[134.32065,34.46894],[134.24439,34.41771],[134.24318,34.46385],[134.16139,34.47919],[134.17506,34.52009],[134.36573,34.53628]]]]}},{"type":"Feature","properties":{"id":"jp-38","lat":33.59547,"lng":132.76618},"geometry":{"type":"MultiPolygon","coordinates":[[[[132.61842,32.90689],[132.55893,32.93675],[132.50416,32.89167],[132.4715,33.04069],[132.3824,33.01978],[132.48317,33.06769],[132.44907,33.11489],[132.49008,33.13276],[132.39468,33.2039],[132.4857,33.16915],[132.54836,33.2269],[132.48457,33.27653],[132.52561,33.31466],[132.37867,33.31949],[132.42115,33.44449],[132.3078,33.46429],[132.01054,33.34899],[132.67661,33.71564],[132.71237,33.90455],[132.94238,34.14126],[133.12701,33.93329],[133.64665,34.01214],[133.64789,33.85566],[133.17883,33.77156],[133.00256,33.4753],[132.80903,33.444],[132.88226,33.31631],[132.68552,33.12364],[132.61865,33.15338],[132.67534,32.96279],[132.61842,32.90689]]],[[[132.60646,33.9892],[132.63445,33.96483],[132.58912,33.95645],[132.60646,33.9892]]],[[[133.10174,34.17097],[133.04518,34.11839],[133.0171,34.11884],[133.03305,34.1894],[133.10174,34.17097]]],[[[132.95485,34.19819],[132.96974,34.25263],[133.03004,34.29532],[133.05177,34.22232],[132.95485,34.19819]]]]}},{"type":"Feature","properties":{"id":"jp-39","lat":33.26942,"lng":133.0462},"geometry":{"type":"MultiPolygon","coordinates":[[[[132.5486,32.7508],[132.57081,32.71727],[132.54322,32.70844],[132.5486,32.7508]]],[[[134.2732,33.508],[134.17653,33.23613],[133.92521,33.49369],[133.7394,33.53751],[133.46591,33.45432],[133.26938,33.34687],[133.22543,33.15908],[133.09776,33.02347],[133.01826,33.02402],[132.95548,32.81462],[133.02801,32.72065],[132.91505,32.77798],[132.62766,32.75209],[132.70916,32.90941],[132.6399,32.90892],[132.67173,33.00111],[132.61385,33.14501],[132.68552,33.12364],[132.87668,33.30272],[132.80903,33.444],[133.00256,33.4753],[133.17883,33.77156],[133.56025,33.85313],[133.90638,33.78497],[134.01754,33.81078],[134.06017,33.67934],[134.14864,33.66549],[134.19008,33.55152],[134.2732,33.508]]]]}},{"type":"Feature","properties":{"id":"jp-40","lat":33.48182,"lng":130.51992},"geometry":{"type":"Polygon","coordinates":[[[130.03627,33.45759],[130.16798,33.53408],[130.09303,33.57343],[130.20801,33.66508],[130.29029,33.5742],[130.39087,33.60487],[130.39869,33.66913],[130.34897,33.64113],[130.2949,33.66435],[130.29428,33.68924],[130.38648,33.67723],[130.46767,33.74356],[130.48894,33.85537],[130.69239,33.93732],[130.89698,33.88931],[131.00715,33.96605],[130.96168,33.81623],[131.00695,33.81309],[131.08131,33.63495],[131.20089,33.61271],[131.14949,33.49566],[130.98067,33.49578],[130.88584,33.4254],[130.83711,33.33975],[130.83473,33.08093],[130.68518,33.14005],[130.42916,32.98052],[130.34675,33.17991],[130.53191,33.33789],[130.52664,33.41424],[130.41429,33.38654],[130.25895,33.46798],[130.03627,33.45759]]]}},{"type":"Feature","properties":{"id":"jp-41","lat":33.22822,"lng":130.11378},"geometry":{"type":"Polygon","coordinates":[[[129.81454,33.33125],[129.85157,33.28001],[129.86866,33.39745],[129.78726,33.45452],[129.87135,33.44294],[129.85319,33.5525],[129.94215,33.53168],[129.98895,33.44885],[130.25895,33.46798],[130.41429,33.38654],[130.5193,33.42085],[130.53641,33.37698],[130.34936,33.14205],[130.2414,33.18823],[130.12757,33.12094],[130.2041,32.94357],[129.92518,33.06878],[129.93014,33.13209],[129.75945,33.2682],[129.81454,33.33125]]]}},{"type":"Feature","properties":{"id":"jp-42","lat":32.69528,"lng":128.74865},"geometry":{"type":"MultiPolygon","coordinates":[[[[128.90113,32.64598],[128.77963,32.6468],[128.77311,32.57167],[128.60044,32.61418],[128.65094,32.77541],[128.69965,32.74377],[128.80849,32.79991],[128.90113,32.64598]]],[[[128.89975,32.81831],[128.8401,32.77757],[128.83725,32.83381],[128.89975,32.81831]]],[[[128.94654,32.88019],[128.94044,32.80443],[128.88071,32.86262],[128.94654,32.88019]]],[[[129.02817,32.85566],[128.96803,32.87368],[128.98463,32.92918],[129.02068,32.91669],[129.02817,32.85566]]],[[[129.16963,33.00582],[129.04572,32.82209],[129.04782,32.90996],[128.98146,32.96035],[129.08399,33.02338],[129.10818,33.16669],[129.09799,32.98827],[129.16963,33.00582]]],[[[129.12827,33.30158],[129.11915,33.24653],[129.07504,33.25991],[129.12827,33.30158]]],[[[130.2041,32.94357],[130.10532,32.87592],[130.33942,32.85658],[130.37578,32.74788],[130.3417,32.66726],[130.16599,32.59296],[130.12813,32.68387],[130.20758,32.75216],[130.09379,32.79486],[129.95851,32.76478],[129.74035,32.56844],[129.85906,32.72451],[129.63843,32.92655],[129.68161,33.09409],[129.75967,33.04789],[129.74166,32.99103],[129.82328,32.97954],[129.7944,32.87492],[130.00315,32.84538],[129.93122,32.92889],[129.94562,33.01576],[129.74648,33.06559],[129.75868,33.13894],[129.70976,33.16257],[129.66652,33.10126],[129.65268,33.19025],[129.55214,33.22584],[129.58041,33.37101],[129.67318,33.39854],[129.80747,33.34813],[129.75821,33.27911],[129.815,33.18596],[129.91934,33.14428],[129.91711,33.07832],[130.0322,32.98755],[130.2041,32.94357]]],[[[129.55568,33.41081],[129.44661,33.19852],[129.37602,33.16972],[129.3425,33.17962],[129.40651,33.19404],[129.44266,33.34807],[129.55568,33.41081]]],[[[129.54176,33.50731],[129.52687,33.48045],[129.50318,33.4737],[129.54176,33.50731]]],[[[129.78386,33.73819],[129.72104,33.69774],[129.65713,33.74256],[129.68865,33.87115],[129.76726,33.84455],[129.78386,33.73819]]],[[[129.34296,34.27828],[129.2483,34.09993],[129.17163,34.10681],[129.20736,34.32928],[129.34296,34.27828]]],[[[129.4731,34.57933],[129.37947,34.45262],[129.35946,34.39062],[129.39318,34.4108],[129.40797,34.35158],[129.36824,34.30743],[129.30546,34.32487],[129.347,34.35585],[129.3051,34.34321],[129.30932,34.3844],[129.22891,34.3556],[129.31087,34.46051],[129.3233,34.64807],[129.46456,34.70081],[129.4731,34.57933]]]]}},{"type":"Feature","properties":{"id":"jp-43","lat":32.63508,"lng":130.88678},"geometry":{"type":"MultiPolygon","coordinates":[[[[130.18727,32.19636],[130.16733,32.11433],[130.13461,32.11799],[130.11329,32.20759],[130.18727,32.19636]]],[[[130.23227,32.29865],[130.24285,32.26309],[130.2107,32.25536],[130.23227,32.29865]]],[[[130.20151,32.39549],[130.13331,32.26512],[129.99545,32.19066],[130.00913,32.25214],[129.96127,32.25214],[130.0643,32.30679],[129.97975,32.33299],[130.00294,32.53335],[130.16049,32.54633],[130.20151,32.39549]]],[[[130.45704,32.52558],[130.36231,32.37499],[130.35385,32.42414],[130.24195,32.39549],[130.21306,32.43651],[130.45704,32.52558]]],[[[130.45289,32.61099],[130.40919,32.54926],[130.41359,32.61359],[130.45289,32.61099]]],[[[130.35694,32.16938],[130.46957,32.34711],[130.51246,32.3382],[130.55047,32.49168],[130.59881,32.50536],[130.56471,32.54633],[130.66831,32.64875],[130.44801,32.62141],[130.62599,32.71141],[130.59303,32.81586],[130.42916,32.98052],[130.68518,33.14005],[130.97695,33.02886],[130.97757,33.16072],[131.12495,33.14245],[131.3239,32.82229],[131.24225,32.79327],[131.00413,32.48742],[131.08784,32.31366],[131.07591,32.15563],[130.71236,32.09091],[130.58979,32.16346],[130.40788,32.11373],[130.35694,32.16938]]]]}},{"type":"Feature","properties":{"id":"jp-44","lat":33.22333,"lng":131.35497},"geometry":{"type":"Polygon","coordinates":[[[131.20089,33.61271],[131.36762,33.5748],[131.52104,33.67637],[131.66737,33.66719],[131.73729,33.48461],[131.59623,33.3494],[131.50603,33.36307],[131.51038,33.2734],[131.90263,33.26604],[131.80957,33.12765],[132.01344,33.06387],[131.92955,33.04709],[131.90317,32.98306],[132.08119,32.94323],[131.98219,32.8889],[131.95558,32.82754],[131.99659,32.81053],[131.8825,32.78343],[131.87232,32.73163],[131.74687,32.82304],[131.69566,32.76583],[131.52689,32.74299],[131.47831,32.815],[131.35661,32.80464],[131.26215,32.86629],[131.20908,33.03021],[131.05942,33.18061],[130.97292,33.1542],[130.9909,33.0331],[130.83473,33.08093],[130.83711,33.33975],[130.88584,33.4254],[130.98067,33.49578],[131.14949,33.49566],[131.20089,33.61271]]]}},{"type":"Feature","properties":{"id":"jp-45","lat":32.11133,"lng":131.20722},"geometry":{"type":"Polygon","coordinates":[[[131.87232,32.73163],[131.68214,32.53506],[131.7365,32.49168],[131.65979,32.47682],[131.68913,32.42174],[131.56242,32.21792],[131.44728,31.8769],[131.49635,31.79597],[131.45533,31.62092],[131.36378,31.41966],[131.33131,31.36766],[131.24985,31.38813],[131.15064,31.47134],[131.18624,31.58683],[131.04723,31.63727],[130.8891,31.79023],[130.87344,31.88756],[130.70012,32.06703],[131.07591,32.15563],[131.08784,32.31366],[131.00413,32.48742],[131.25807,32.80381],[131.47831,32.815],[131.5397,32.74304],[131.76119,32.82218],[131.87232,32.73163]]]}},{"type":"Feature","properties":{"id":"jp-46","lat":31.57285,"lng":130.96998},"geometry":{"type":"MultiPolygon","coordinates":[[[[129.58741,29.45824],[129.61069,29.46556],[129.61231,29.44335],[129.58741,29.45824]]],[[[129.74383,29.6223],[129.71485,29.65453],[129.74594,29.66104],[129.74383,29.6223]]],[[[129.92042,29.81965],[129.8634,29.82461],[129.83277,29.87308],[129.89356,29.87474],[129.92042,29.81965]]],[[[129.52857,29.90892],[129.55445,29.89753],[129.53989,29.88988],[129.52857,29.90892]]],[[[129.42945,30.84089],[129.43092,30.84821],[129.43385,30.84455],[129.42945,30.84089]]],[[[129.78321,31.79963],[129.72934,31.64423],[129.65937,31.64194],[129.78321,31.79963]]],[[[129.9297,31.85342],[129.8899,31.81074],[129.82057,31.84553],[129.84498,31.8806],[129.9297,31.85342]]],[[[129.94093,29.95319],[129.90064,29.97256],[129.90903,29.99933],[129.92199,30.00473],[129.94093,29.95319]]],[[[130.57728,30.23591],[130.43771,30.23897],[130.37625,30.39444],[130.49895,30.46796],[130.67457,30.37458],[130.57728,30.23591]]],[[[130.24287,30.46361],[130.21247,30.42069],[130.14177,30.4893],[130.24287,30.46361]]],[[[131.08793,30.78261],[130.9778,30.40028],[130.87038,30.3439],[130.84938,30.46126],[130.93022,30.54086],[130.9393,30.67225],[131.04526,30.83686],[131.08793,30.78261]]],[[[129.93995,30.84894],[129.91196,30.81977],[129.90398,30.83442],[129.93995,30.84894]]],[[[131.1529,31.47389],[131.01361,31.36307],[131.13211,31.27951],[130.94068,31.12132],[130.65772,31.00319],[130.79525,31.34443],[130.69557,31.5458],[130.59089,31.58599],[130.68784,31.61945],[130.74903,31.55972],[130.81031,31.65095],[130.68605,31.72553],[130.61305,31.68236],[130.51612,31.45331],[130.5735,31.3146],[130.66033,31.27143],[130.63982,31.18647],[130.53679,31.16218],[130.45114,31.24939],[130.22221,31.2463],[130.20777,31.33661],[130.11899,31.40864],[130.22828,31.38129],[130.33766,31.6079],[130.17143,31.79014],[130.23512,31.81952],[130.17986,32.09345],[130.34464,32.16179],[130.42437,32.11342],[130.58979,32.16346],[130.71236,32.09091],[130.87344,31.88756],[130.8891,31.79023],[131.04723,31.63727],[131.18624,31.58683],[131.1529,31.47389]]]]}},{"type":"Feature","properties":{"id":"jp-47","lat":28.31672,"lng":129.37169},"geometry":{"type":"MultiPolygon","coordinates":[[[[123.93442,24.3675],[123.87306,24.25825],[123.66822,24.29662],[123.74236,24.31973],[123.76987,24.41836],[123.93442,24.3675]]],[[[123.01637,24.46979],[122.94752,24.43952],[122.93816,24.45482],[123.01637,24.46979]]],[[[124.3213,24.59028],[124.21192,24.3371],[124.14031,24.34199],[124.07789,24.42845],[124.21192,24.44697],[124.3213,24.59028]]],[[[125.44402,24.73721],[125.2588,24.73338],[125.26027,24.8852],[125.35825,24.78262],[125.44402,24.73721]]],[[[125.15064,24.80435],[125.16358,24.85464],[125.21079,24.83698],[125.20525,24.805],[125.15064,24.80435]]],[[[123.60629,25.739],[123.60043,25.73937],[123.60279,25.74547],[123.60629,25.739]]],[[[123.58863,25.75153],[123.59425,25.75279],[123.59303,25.74437],[123.58863,25.75153]]],[[[123.5582,25.75434],[123.55559,25.75755],[123.55991,25.75682],[123.5582,25.75434]]],[[[123.51393,25.76911],[123.54534,25.76179],[123.51148,25.75808],[123.51393,25.76911]]],[[[123.61801,25.77448],[123.62045,25.77448],[123.62045,25.77359],[123.61801,25.77448]]],[[[123.59238,25.79743],[123.59531,25.80191],[123.59547,25.79727],[123.59238,25.79743]]],[[[124.56886,25.89623],[124.56528,25.89574],[124.56682,25.89842],[124.56886,25.89623]]],[[[123.67921,25.93077],[123.67587,25.91816],[123.6727,25.92683],[123.67921,25.93077]]],[[[123.67172,25.92976],[123.67302,25.9287],[123.67205,25.92748],[123.67172,25.92976]]],[[[126.78712,26.38007],[126.7824,26.30451],[126.69777,26.36904],[126.78712,26.38007]]],[[[131.27711,25.85838],[131.21209,25.82905],[131.24106,25.87568],[131.27711,25.85838]]],[[[131.3213,25.9477],[131.30152,25.92674],[131.28972,25.95136],[131.3213,25.9477]]],[[[127.37086,26.20319],[127.3423,26.18],[127.36411,26.22134],[127.37086,26.20319]]],[[[128.33766,26.76431],[128.13836,26.55402],[127.85174,26.44123],[127.91993,26.30964],[127.8283,26.31623],[127.77101,26.2165],[127.82358,26.18675],[127.79689,26.13972],[127.6517,26.08438],[127.63819,26.21475],[127.74187,26.32054],[127.7225,26.42992],[127.96022,26.56411],[127.87827,26.69452],[128.05738,26.64476],[128.25506,26.8863],[128.33766,26.76431]]],[[[127.24415,26.58641],[127.20883,26.58198],[127.24236,26.59675],[127.24415,26.58641]]],[[[127.75856,26.71288],[127.80983,26.73542],[127.81121,26.70698],[127.75856,26.71288]]],[[[128.44858,27.0207],[128.42897,27.06647],[128.45436,27.04751],[128.44858,27.0207]]],[[[127.92579,27.00975],[127.99537,27.09174],[128.00099,27.09174],[127.97576,27.03974],[127.92579,27.00975]]],[[[128.6976,27.43574],[128.61313,27.36433],[128.52687,27.37189],[128.53842,27.41763],[128.6976,27.43574]]],[[[129.02426,27.75658],[128.92945,27.68671],[128.89454,27.8913],[128.94703,27.91413],[129.02426,27.75658]]],[[[128.23227,27.85285],[128.24342,27.85724],[128.24155,27.84536],[128.23227,27.85285]]],[[[129.35043,28.08649],[129.22145,28.09911],[129.18084,28.19025],[129.35043,28.08649]]],[[[129.71599,28.42914],[129.44744,28.29092],[129.42018,28.24995],[129.46795,28.21577],[129.35182,28.16055],[129.37599,28.11957],[129.2693,28.22944],[129.14576,28.24995],[129.27084,28.25536],[129.22771,28.30459],[129.26393,28.32884],[129.47535,28.42129],[129.51637,28.3933],[129.62623,28.48273],[129.64405,28.43977],[129.67311,28.50983],[129.71599,28.42914]]],[[[130.00766,28.30654],[129.91359,28.2971],[130.03028,28.37348],[130.00766,28.30654]]]]}}]}
