{"type":"FeatureCollection","features":[{"type":"Feature","properties":{"id":"ke-110","lat":-1.26437,"lng":36.90714},"geometry":{"type":"Polygon","coordinates":[[[37.13151,-1.23713],[37.0665,-1.30168],[36.96935,-1.2916],[36.89721,-1.41712],[36.67624,-1.29821],[36.80052,-1.17435],[36.94253,-1.13936],[36.98273,-1.20406],[37.13151,-1.23713]]]}},{"type":"Feature","properties":{"id":"ke-200","lat":-0.58759,"lng":36.94102},"geometry":{"type":"Polygon","coordinates":[[[37.08619,0.01922],[37.32364,-0.16986],[37.47692,-0.59015],[37.49077,-0.74026],[37.25037,-0.77975],[37.24277,-0.86961],[37.31445,-0.97606],[37.37191,-0.968],[37.36426,-1.0388],[37.32334,-1.08965],[37.18675,-1.09213],[37.13151,-1.23713],[36.98273,-1.20406],[36.94253,-1.13936],[36.80052,-1.17435],[36.67624,-1.29821],[36.50788,-1.25186],[36.58581,-1.00118],[36.51501,-0.64983],[36.40158,-0.58503],[36.3774,-0.40147],[36.2587,-0.39042],[36.2064,-0.27957],[36.25653,-0.00904],[36.47129,0.11849],[36.6488,0.01473],[36.54436,-0.10175],[36.85902,-0.14366],[36.83902,-0.22774],[36.91473,-0.30138],[37.02335,-0.23156],[37.00382,-0.09948],[37.08619,0.01922]]]}},{"type":"Feature","properties":{"id":"ke-300","lat":-2.36577,"lng":39.76442},"geometry":{"type":"MultiPolygon","coordinates":[[[[41.53509,-1.6963],[41.28272,-1.96852],[41.21901,-1.92246],[41.1858,-1.99017],[41.01295,-2.04241],[41.00611,-1.90179],[40.94532,-2.07317],[40.86101,-1.96347],[40.91196,-2.19199],[40.97926,-2.24212],[40.94483,-2.30934],[40.86305,-2.23138],[40.77394,-2.27923],[40.8169,-2.39788],[40.65056,-2.53932],[40.4909,-2.5285],[40.23211,-2.66904],[40.16261,-2.93426],[40.23292,-2.98187],[40.12289,-3.26735],[39.98911,-3.37322],[39.96607,-3.32122],[39.86598,-3.61647],[39.78093,-3.56658],[39.86704,-3.69492],[39.78639,-3.91717],[39.68377,-3.91717],[39.74529,-3.96868],[39.69947,-4.04843],[39.66049,-3.9708],[39.56056,-4.03981],[39.66586,-4.11207],[39.54005,-4.43043],[39.45069,-4.58196],[39.44386,-4.51995],[39.39137,-4.57106],[39.39617,-4.629],[39.30047,-4.59499],[39.1906,-4.6775],[37.77096,-3.65544],[37.70832,-3.52717],[37.59908,-3.51343],[37.58523,-3.41297],[37.70005,-3.31437],[37.68,-3.19215],[37.8309,-3.16497],[37.91792,-2.77993],[38.12913,-2.69151],[38.44709,-2.98664],[38.53907,-2.96395],[38.79947,-3.06777],[39.04199,-3.02028],[38.62863,-2.40719],[38.79715,-2.33366],[38.97946,-1.96887],[38.99651,-1.14629],[38.41536,-0.06759],[38.5737,-0.02382],[38.93383,-0.09312],[39.05708,-0.03788],[39.14302,-0.12728],[39.4432,-0.19477],[39.58123,-0.32241],[39.63989,-0.50467],[39.8115,-0.68962],[39.91703,-1.13466],[39.99392,-1.21874],[40.03345,-1.48043],[40.11345,-1.62615],[40.16823,-2.07812],[40.99655,-1.71111],[41.53509,-1.6963]]],[[[41.06568,-2.03631],[41.15528,-2.11207],[40.99562,-2.14381],[40.99366,-2.1972],[40.96925,-2.11981],[41.06568,-2.03631]]]]}},{"type":"Feature","properties":{"id":"ke-400","lat":0.69143,"lng":38.43383},"geometry":{"type":"Polygon","coordinates":[[[36.04532,4.44372],[36.84409,4.43224],[37.01565,4.37059],[38.10189,3.61265],[38.44595,3.60167],[38.509,3.65081],[38.89523,3.51358],[39.29634,3.49199],[39.32332,3.04235],[39.12023,2.91822],[38.97078,2.57382],[38.87983,2.49964],[38.94318,2.13274],[39.02649,1.97438],[39.19299,1.72579],[39.45152,1.53076],[39.27784,1.45263],[39.44641,0.98387],[39.3075,0.92604],[39.15852,0.71112],[38.67007,0.48736],[38.74717,0.21534],[38.74578,-0.06521],[38.5737,-0.02382],[38.41536,-0.06759],[38.99651,-1.14629],[38.97946,-1.96887],[38.79715,-2.33366],[38.62863,-2.40719],[39.04028,-3.02183],[38.79947,-3.06777],[38.53907,-2.96395],[38.44709,-2.98664],[38.13486,-2.69002],[37.91792,-2.77993],[37.59598,-2.35479],[37.71902,-2.19418],[37.18815,-1.91921],[37.15807,-1.77979],[36.97276,-1.54063],[36.97638,-1.45443],[36.86445,-1.45428],[36.96935,-1.2916],[37.0665,-1.30168],[37.14505,-1.22303],[37.18675,-1.09213],[37.32334,-1.08965],[37.36426,-1.0388],[37.37191,-0.968],[37.31445,-0.97606],[37.24277,-0.86961],[37.25554,-0.76533],[37.34783,-0.79613],[37.49247,-0.73572],[37.32364,-0.16986],[37.08619,0.01922],[37.35822,0.20526],[37.39594,0.3375],[37.3486,0.51268],[36.86724,0.58963],[36.92264,0.75174],[37.24866,0.76962],[37.38121,0.59273],[37.57112,0.57754],[37.6923,0.67174],[38.05559,0.79132],[38.03554,1.13698],[37.94743,1.2561],[37.91498,1.43826],[37.84222,1.50105],[37.55268,1.42345],[37.37108,1.7725],[37.17544,2.0006],[36.9571,2.02202],[36.74001,2.53176],[36.69671,2.53814],[36.63604,2.40903],[36.55847,2.39458],[36.38096,2.84644],[36.24753,2.98052],[36.12692,2.98773],[36.14821,3.21329],[36.04548,3.26791],[36.04532,4.44372]]]}},{"type":"Feature","properties":{"id":"ke-500","lat":1.21825,"lng":40.16687},"geometry":{"type":"Polygon","coordinates":[[[40.76374,4.28493],[41.163,3.94268],[41.88502,3.97723],[41.34273,3.20115],[40.96538,2.81414],[40.97975,-0.8708],[41.52287,-1.57277],[41.53594,-1.67631],[40.99655,-1.71111],[40.16823,-2.07812],[40.11345,-1.62615],[39.77388,-0.61247],[39.66376,-0.54188],[39.58123,-0.32241],[39.4432,-0.19477],[39.14302,-0.12728],[39.05708,-0.03788],[38.93383,-0.09312],[38.74578,-0.06521],[38.74717,0.21534],[38.6648,0.47454],[39.15852,0.71112],[39.3075,0.92604],[39.44641,0.98387],[39.27784,1.45263],[39.45152,1.53076],[39.19299,1.72579],[39.02649,1.97438],[38.94318,2.13274],[38.87983,2.49964],[38.97078,2.57382],[39.12023,2.91822],[39.32332,3.04235],[39.29634,3.49199],[39.53632,3.40501],[39.84845,3.86728],[40.76374,4.28493]]]}},{"type":"Feature","properties":{"id":"ke-600","lat":-0.57071,"lng":34.48163},"geometry":{"type":"Polygon","coordinates":[[[34.71889,-1.41241],[34.00002,-1.00257],[33.90421,-1.00257],[33.95248,-0.1157],[34.09573,0.21404],[34.23288,0.30381],[34.38822,0.28345],[34.5203,0.08925],[34.52154,-0.01974],[35.20011,-0.03152],[35.32563,-0.18862],[35.28837,-0.24805],[35.12078,-0.12764],[35.04911,-0.21151],[34.99867,-0.36065],[35.07241,-0.78078],[34.99433,-0.88558],[34.57322,-1.00996],[34.71889,-1.41241]]]}},{"type":"Feature","properties":{"id":"ke-700","lat":0.9928,"lng":36.34787},"geometry":{"type":"Polygon","coordinates":[[[35.7394,4.68113],[35.78122,4.61992],[35.92083,4.61933],[35.94047,4.50805],[36.04532,4.44372],[36.04548,3.26791],[36.14821,3.21329],[36.12692,2.98773],[36.24753,2.98052],[36.38096,2.84644],[36.55847,2.39458],[36.63604,2.40903],[36.69671,2.53814],[36.74001,2.53176],[36.9571,2.02202],[37.17544,2.0006],[37.37108,1.7725],[37.55268,1.42345],[37.84222,1.50105],[37.91498,1.43826],[37.94743,1.2561],[38.03554,1.13698],[38.05559,0.79132],[37.6923,0.67174],[37.57112,0.57754],[37.38121,0.59273],[37.24866,0.76962],[36.92264,0.75174],[36.8629,0.59257],[37.34147,0.52519],[37.39594,0.3375],[37.35822,0.20526],[37.01235,-0.0833],[37.02614,-0.22185],[36.9692,-0.29363],[36.84135,-0.23239],[36.85515,-0.14159],[36.57491,-0.12914],[36.54049,-0.06459],[36.6488,0.01473],[36.47129,0.11849],[36.26149,0.00052],[36.20004,-0.24464],[36.25591,-0.38819],[36.38003,-0.40504],[36.40158,-0.58503],[36.5085,-0.61981],[36.58581,-1.00118],[36.50788,-1.25186],[36.84274,-1.39066],[36.86915,-1.46131],[36.97638,-1.45443],[36.97276,-1.54063],[37.15807,-1.77979],[37.18815,-1.91921],[37.71902,-2.19418],[37.59319,-2.34404],[37.90661,-2.72826],[37.82439,-3.17391],[37.68,-3.19215],[37.64487,-3.04596],[34.71889,-1.41241],[34.57477,-1.02898],[34.63885,-0.96428],[34.99433,-0.88558],[35.07241,-0.78078],[34.99867,-0.36065],[35.04911,-0.21151],[35.12078,-0.12764],[35.28837,-0.24805],[35.32563,-0.18862],[35.20476,-0.03271],[35.05236,-0.05963],[34.75863,-0.00749],[34.93366,0.25228],[34.84504,0.57066],[35.08714,0.63278],[35.17091,0.72781],[35.12843,0.84853],[35.05655,0.88258],[34.77274,0.83597],[34.56688,1.10302],[34.58045,1.15254],[34.79791,1.23192],[34.77899,1.38855],[34.97867,1.67595],[35.00647,1.91686],[34.85909,2.38678],[34.92358,2.47732],[34.8656,2.60486],[34.81868,2.59798],[34.73693,2.84437],[34.63141,2.86954],[34.53384,3.11847],[34.434,3.18203],[34.38129,3.47687],[34.43452,3.52622],[34.43969,3.66774],[34.33706,3.73458],[34.27887,3.70972],[34.24094,3.78362],[34.15247,3.77564],[34.20497,3.87454],[34.08477,3.87734],[34.06927,4.08802],[33.97708,4.21969],[34.38119,4.62016],[35.4116,5.03038],[35.39612,4.92643],[35.57084,4.90431],[35.52218,4.78046],[35.61064,4.62001],[35.70036,4.58911],[35.7394,4.68113]]]}},{"type":"Feature","properties":{"id":"ke-800","lat":0.47018,"lng":34.50039},"geometry":{"type":"Polygon","coordinates":[[[34.54035,1.08939],[34.78127,0.83091],[35.05112,0.88367],[35.15541,0.80207],[35.17044,0.72084],[35.10543,0.64508],[34.84116,0.56208],[34.92824,0.37827],[34.91025,0.17875],[34.75863,-0.00749],[34.52154,-0.01974],[34.5203,0.08925],[34.38822,0.28345],[34.23288,0.30381],[34.09573,0.21404],[33.95248,-0.1157],[33.89357,0.10981],[34.08519,0.34701],[34.14957,0.60363],[34.38801,0.81582],[34.48702,1.08247],[34.54035,1.08939]]]}}]}
