{"type":"FeatureCollection","features":[{"type":"Feature","properties":{"id":"kg-b","lat":39.84026,"lng":71.59561},"geometry":{"type":"Polygon","coordinates":[[[71.83647,40.24917],[72.21211,40.28751],[72.19676,40.1892],[72.27169,40.14344],[72.28254,39.95689],[72.48129,39.86129],[72.52801,39.73933],[72.09589,39.63262],[71.71338,39.73843],[71.55122,39.66884],[71.50965,39.585],[71.37831,39.59417],[71.24927,39.51438],[71.0959,39.51237],[70.97714,39.39491],[70.77013,39.38209],[70.62213,39.56353],[70.47723,39.6012],[70.22329,39.51909],[70.20065,39.6195],[70.13244,39.55004],[69.66942,39.57779],[69.30035,39.51562],[69.28753,39.67779],[69.2263,39.75101],[69.31032,39.9848],[69.40536,39.89612],[69.50158,39.92247],[69.46313,40.02541],[69.51801,40.1251],[69.96956,40.2116],[70.52549,40.03368],[70.45087,39.93741],[70.47723,39.90093],[70.61396,39.97575],[70.66595,40.10417],[70.92929,40.17062],[70.99513,40.26659],[71.20101,40.26385],[71.25382,40.32441],[71.52125,40.20375],[71.59297,40.19843],[71.62832,40.25889],[71.69333,40.14112],[71.83647,40.24917]],[[71.66553,39.9402],[71.76712,39.91545],[71.78552,39.98971],[71.66553,39.9402]],[[71.244,40.04676],[71.00856,40.15776],[70.95405,40.0958],[71.04582,39.99203],[71.0219,39.88082],[71.20845,39.88878],[71.1747,39.99399],[71.244,40.04676]],[[70.49872,39.88191],[70.58161,39.76657],[70.70481,39.82207],[70.69892,39.85845],[70.49872,39.88191]]]}},{"type":"Feature","properties":{"id":"kg-c","lat":42.54014,"lng":74.59592},"geometry":{"type":"Polygon","coordinates":[[[74.17876,43.2617],[74.71392,42.99988],[75.20464,42.84519],[75.64616,42.8061],[75.79716,42.93619],[76.41407,42.8855],[76.95688,42.98851],[77.2223,42.8849],[77.09832,42.80126],[76.48353,42.77535],[76.15812,42.60404],[75.83659,42.59004],[75.53558,42.40857],[75.51744,42.45529],[74.81929,42.42361],[74.87717,42.30067],[74.75474,42.30233],[74.67299,42.22988],[74.34077,42.23791],[74.32025,42.13355],[74.36572,42.10343],[74.31978,42.01568],[74.13871,41.86437],[73.99738,41.99609],[73.8009,41.95759],[73.75202,42.02116],[73.3818,42.01914],[73.12249,42.12208],[73.08818,42.24311],[73.53089,42.28899],[73.69011,42.40982],[73.5804,42.49064],[73.50508,42.42156],[73.41002,42.58965],[73.57094,43.03192],[73.90167,43.13096],[73.96533,43.21692],[74.2139,43.20264],[74.17876,43.2617]],[[74.58189,42.77873],[74.67175,42.86922],[74.61775,42.93779],[74.5037,42.87495],[74.58189,42.77873]]]}},{"type":"Feature","properties":{"id":"kg-gb","lat":42.82398,"lng":74.58597},"geometry":{"type":"Polygon","coordinates":[[[74.61775,42.93779],[74.67175,42.86922],[74.58189,42.77873],[74.5037,42.87495],[74.61775,42.93779]]]}},{"type":"Feature","properties":{"id":"kg-j","lat":41.507,"lng":73.1894},"geometry":{"type":"Polygon","coordinates":[[[70.84547,42.03036],[71.27516,42.20427],[71.62724,42.20288],[72.06189,42.0717],[72.35143,42.20621],[72.81771,42.06115],[73.11226,42.13934],[73.3818,42.01914],[73.7747,42.01335],[73.8009,41.95759],[73.72519,41.88742],[73.79222,41.8406],[73.82715,41.87693],[73.97159,41.84675],[73.97748,41.74399],[74.10021,41.72386],[74.12646,41.60309],[74.01908,41.68981],[73.91185,41.6666],[74.07634,41.56496],[74.40717,41.5462],[74.69392,41.63302],[74.75289,41.60255],[74.64705,41.38114],[74.34262,41.29422],[74.39864,41.21164],[74.08285,41.15878],[74.14383,41.0685],[74.04171,40.97202],[73.92766,41.01745],[73.87025,41.12674],[73.71171,40.95337],[73.63564,40.97628],[73.5897,41.01047],[73.69801,41.0984],[73.66453,41.13971],[73.27799,41.01088],[73.26088,40.90435],[73.13504,40.83527],[73.00343,40.87017],[72.87031,40.81818],[72.86866,40.86412],[72.61947,40.88009],[72.33236,41.07284],[72.16514,40.99936],[72.15842,41.18787],[71.87161,41.19449],[71.84701,41.34182],[71.74521,41.45282],[71.67194,41.42548],[71.67142,41.54739],[71.59545,41.49375],[71.63742,41.43127],[71.58553,41.32352],[71.52383,41.29665],[71.41877,41.3474],[71.41608,41.12736],[71.32524,41.15733],[71.27614,41.11315],[71.20638,41.18875],[71.18013,41.10814],[70.77044,41.23852],[70.7692,41.3521],[70.66781,41.47137],[70.4532,41.40548],[70.34442,41.4938],[70.16655,41.52021],[70.16929,41.57834],[70.45366,41.71208],[70.64895,41.88739],[70.814,41.91954],[70.84547,42.03036]]]}},{"type":"Feature","properties":{"id":"kg-n","lat":41.34749,"lng":75.96437},"geometry":{"type":"Polygon","coordinates":[[[78.23134,41.17286],[78.05718,41.03434],[77.83104,41.06297],[77.50352,40.98107],[77.00773,41.04421],[76.86097,41.01321],[76.76682,40.94468],[76.76248,40.84702],[76.64786,40.76485],[76.62078,40.61132],[76.44911,40.41552],[76.31351,40.34333],[76.24416,40.4412],[75.90186,40.29888],[75.68182,40.2917],[75.66694,40.45025],[75.55986,40.63287],[75.21249,40.44472],[75.03907,40.4411],[74.58886,40.55391],[74.57057,40.62318],[74.22206,40.81335],[74.04171,40.97202],[74.14553,41.07713],[74.07665,41.15299],[74.39864,41.21164],[74.34262,41.29422],[74.64705,41.38114],[74.75195,41.61175],[74.40717,41.5462],[74.07634,41.56496],[73.91185,41.6666],[74.01908,41.68981],[74.12646,41.60309],[74.10021,41.72386],[73.97748,41.74399],[73.97159,41.84675],[73.82715,41.87693],[73.79222,41.8406],[73.72256,41.89563],[73.99738,41.99609],[74.13871,41.86437],[74.31978,42.01568],[74.36572,42.10343],[74.32025,42.13355],[74.34077,42.23791],[74.67299,42.22988],[74.75474,42.30233],[74.87717,42.30067],[74.81929,42.42361],[75.51744,42.45529],[75.53558,42.40857],[75.63707,42.45979],[75.77251,42.35189],[75.95395,42.3753],[76.00728,42.29047],[75.98309,42.20226],[76.09048,42.10632],[76.02237,42.01116],[76.16138,42.03402],[76.65422,41.94142],[76.62068,41.85321],[76.45061,41.81399],[76.73194,41.76112],[76.66367,41.60232],[77.21377,41.58529],[77.34425,41.62697],[77.28343,41.49972],[77.41722,41.38088],[77.355,41.26322],[77.63069,41.31409],[77.65462,41.22668],[77.96432,41.19991],[78.1364,41.252],[78.23134,41.17286]]]}},{"type":"Feature","properties":{"id":"kg-o","lat":40.16632,"lng":73.34084},"geometry":{"type":"Polygon","coordinates":[[[74.83231,40.50812],[74.7874,40.42074],[74.86213,40.32617],[74.70575,40.33129],[74.33379,40.09373],[74.1676,40.10639],[73.96637,40.03327],[73.82302,39.80568],[73.92678,39.59288],[73.82074,39.46819],[73.47689,39.46478],[73.16786,39.35538],[72.51901,39.37569],[72.31634,39.32881],[72.2289,39.18924],[72.04979,39.36886],[71.75121,39.27425],[71.7109,39.32096],[71.74025,39.44834],[71.55432,39.44416],[71.4921,39.49366],[71.55122,39.66884],[71.71338,39.73843],[72.09589,39.63262],[72.52801,39.73933],[72.48129,39.86129],[72.28254,39.95689],[72.27169,40.14344],[72.19676,40.1892],[72.21211,40.28751],[72.01324,40.26207],[71.95667,40.31568],[72.1827,40.45779],[72.39406,40.38942],[72.4262,40.45934],[72.35189,40.60197],[72.62547,40.5105],[72.66423,40.57778],[72.74836,40.5751],[72.78391,40.66966],[73.11805,40.78294],[73.26088,40.90435],[73.26931,41.00401],[73.39188,41.0222],[73.46278,41.09499],[73.6037,41.08871],[73.67011,41.13925],[73.69801,41.0984],[73.5897,41.01047],[73.70561,40.95269],[73.88048,41.12338],[73.92766,41.01745],[74.40035,40.67623],[74.57057,40.62318],[74.58886,40.55391],[74.83231,40.50812]]]}},{"type":"Feature","properties":{"id":"kg-t","lat":42.44875,"lng":72.13188},"geometry":{"type":"Polygon","coordinates":[[[73.47689,42.39907],[73.57559,42.49059],[73.69166,42.4294],[73.59156,42.30824],[73.08818,42.24311],[73.11226,42.13934],[72.83465,42.05981],[72.38326,42.20647],[72.23505,42.18575],[72.16446,42.08118],[72.06189,42.0717],[71.62724,42.20288],[71.24987,42.19839],[71.04577,42.29096],[70.94779,42.24815],[70.85266,42.30607],[70.96195,42.46811],[71.06417,42.47033],[71.00319,42.56353],[71.14277,42.60254],[71.14902,42.67794],[71.24545,42.74713],[71.40461,42.79488],[71.58357,42.75964],[71.84774,42.83405],[72.72582,42.65288],[72.87455,42.54399],[73.27835,42.5134],[73.3262,42.42868],[73.47689,42.39907]]]}},{"type":"Feature","properties":{"id":"kg-y","lat":42.07017,"lng":78.14546},"geometry":{"type":"Polygon","coordinates":[[[80.21033,42.18952],[80.23121,42.03369],[79.84291,42.00183],[79.74751,41.87974],[79.28232,41.7835],[78.67213,41.53845],[78.3599,41.37753],[78.34946,41.2704],[78.23134,41.17286],[78.1364,41.252],[77.96432,41.19991],[77.65462,41.22668],[77.63069,41.31409],[77.355,41.26322],[77.41722,41.38088],[77.28343,41.49972],[77.34425,41.62697],[77.21377,41.58529],[76.66367,41.60232],[76.73194,41.76112],[76.45061,41.81399],[76.62068,41.85321],[76.65422,41.94142],[76.16138,42.03402],[76.02237,42.01116],[76.09048,42.10632],[75.98309,42.20226],[76.00728,42.29047],[75.95395,42.3753],[75.77251,42.35189],[75.63707,42.45979],[75.83659,42.59004],[76.15812,42.60404],[76.48353,42.77535],[77.12514,42.80785],[77.21189,42.90994],[78.03062,42.85467],[78.42956,42.88067],[78.99294,42.75713],[79.17339,42.78563],[79.20636,42.65647],[79.42567,42.46961],[79.91794,42.42444],[80.21033,42.18952]]]}}]}
