{"type":"FeatureCollection","features":[{"type":"Feature","properties":{"id":"kh-1","lat":13.84024,"lng":103.08297},"geometry":{"type":"Polygon","coordinates":[[[102.33223,13.5646],[102.59775,13.60545],[102.54235,13.66971],[102.69862,13.7618],[102.91861,14.18549],[103.01693,14.23887],[103.19301,14.11934],[103.18417,14.05392],[103.26381,14.0009],[103.33006,14.06359],[103.43062,13.91869],[103.4055,13.42822],[103.16087,13.45838],[102.96382,13.40817],[102.76254,13.46714],[102.70777,13.41727],[102.32953,13.4846],[102.33223,13.5646]]]}},{"type":"Feature","properties":{"id":"kh-10","lat":12.62437,"lng":106.05979},"geometry":{"type":"Polygon","coordinates":[[[106.79056,12.06741],[106.6805,11.96506],[106.23551,11.94222],[106.16254,11.95974],[106.15929,12.04032],[105.98767,12.19683],[105.74996,12.26421],[105.77766,12.39289],[105.57772,13.26981],[105.89455,13.11742],[106.11211,13.35247],[106.3616,13.42218],[106.36475,13.26844],[106.43984,13.16674],[106.36181,13.15292],[106.35065,13.09502],[106.60572,12.92304],[106.61967,12.8596],[106.41938,12.72333],[106.37002,12.52541],[106.55265,12.41221],[106.59673,12.31488],[106.76137,12.23739],[106.79056,12.06741]]]}},{"type":"Feature","properties":{"id":"kh-11","lat":12.79147,"lng":107.01014},"geometry":{"type":"Polygon","coordinates":[[[107.4604,13.02161],[107.55667,12.47268],[107.49957,12.32581],[107.41585,12.25408],[107.3202,12.32922],[107.21188,12.30571],[106.9534,12.08107],[106.79056,12.06741],[106.76137,12.23739],[106.59673,12.31488],[106.55265,12.41221],[106.37002,12.52541],[106.41938,12.72333],[106.61967,12.8596],[106.60572,12.92304],[106.35065,13.09502],[106.36181,13.15292],[106.43984,13.16674],[106.36475,13.26844],[106.3616,13.42218],[106.86767,13.1653],[107.04502,13.17163],[107.08238,13.31846],[107.20253,13.31539],[107.25395,13.37009],[107.37989,13.27818],[107.46913,13.3311],[107.57491,13.29363],[107.4604,13.02161]]]}},{"type":"Feature","properties":{"id":"kh-12","lat":11.54689,"lng":104.87345},"geometry":{"type":"Polygon","coordinates":[[[104.78898,11.59826],[104.92412,11.67316],[104.96324,11.49553],[104.80805,11.4347],[104.78898,11.59826]]]}},{"type":"Feature","properties":{"id":"kh-13","lat":13.79944,"lng":104.96515},"geometry":{"type":"Polygon","coordinates":[[[104.77167,14.43987],[104.97383,14.38065],[105.04731,14.21407],[105.18431,14.34574],[105.33779,14.10999],[105.53317,14.16433],[105.74402,14.08695],[105.89558,13.9248],[105.53333,13.84469],[105.56702,13.49561],[104.99734,13.11548],[104.8943,13.15129],[104.89451,13.33552],[104.72718,13.35859],[104.56337,13.28374],[104.58445,13.43362],[104.68139,13.57612],[104.42198,13.60377],[104.42306,13.7542],[104.35325,13.85791],[104.49846,14.19265],[104.43903,14.25564],[104.45851,14.35704],[104.77167,14.43987]]]}},{"type":"Feature","properties":{"id":"kh-14","lat":11.32979,"lng":105.47509},"geometry":{"type":"Polygon","coordinates":[[[105.82597,11.69507],[105.67823,11.51532],[105.61724,10.97084],[105.4105,10.963],[105.31789,10.83885],[105.20915,10.89165],[105.19387,11.02238],[105.29045,11.23309],[105.295,11.42649],[105.11465,11.58565],[105.15454,11.74706],[105.32942,11.86879],[105.46005,11.77331],[105.82597,11.69507]]]}},{"type":"Feature","properties":{"id":"kh-15","lat":12.48829,"lng":103.68434},"geometry":{"type":"Polygon","coordinates":[[[102.76501,12.04456],[102.69221,12.17848],[102.76375,12.42526],[103.3192,12.58515],[103.58616,12.58081],[103.64177,12.66941],[103.62254,12.83823],[103.70321,12.97138],[103.6812,13.02716],[103.80873,13.14524],[104.40508,12.55133],[104.34209,12.34385],[104.19155,12.23923],[104.19853,12.10779],[104.11161,12.0811],[104.01761,11.94839],[103.9448,11.98237],[103.86351,11.90845],[103.49129,12.14228],[103.14609,11.9795],[102.76501,12.04456]]]}},{"type":"Feature","properties":{"id":"kh-16","lat":13.90542,"lng":107.03986},"geometry":{"type":"Polygon","coordinates":[[[107.52039,14.70458],[107.46474,14.44904],[107.35177,14.34197],[107.31994,14.11984],[107.35456,14.0024],[107.43073,13.98447],[107.44324,13.78347],[107.59692,13.53507],[107.57491,13.29363],[107.46913,13.3311],[107.37989,13.27818],[107.25395,13.37009],[107.20253,13.31539],[107.08238,13.31846],[107.0382,13.16816],[106.78695,13.191],[106.60898,13.33557],[106.5542,13.56204],[106.66453,13.82637],[106.58743,14.12438],[106.62009,14.45421],[106.8069,14.31293],[106.94611,14.32352],[107.02724,14.43527],[107.10078,14.40762],[107.28728,14.59852],[107.41492,14.54343],[107.52039,14.70458]]]}},{"type":"Feature","properties":{"id":"kh-17","lat":13.60079,"lng":103.97675},"geometry":{"type":"Polygon","coordinates":[[[104.17703,14.40421],[104.45851,14.35704],[104.43903,14.25564],[104.49846,14.19265],[104.35325,13.85791],[104.42306,13.7542],[104.40958,13.62945],[104.68206,13.57212],[104.38353,12.91753],[104.19171,12.74912],[103.66957,13.3287],[103.42467,13.40528],[103.40354,13.64834],[103.4332,13.88716],[104.07378,14.24456],[104.04506,14.35697],[104.17703,14.40421]]]}},{"type":"Feature","properties":{"id":"kh-18","lat":10.74249,"lng":103.7832},"geometry":{"type":"MultiPolygon","coordinates":[[[[103.76043,10.51382],[103.79469,10.45356],[103.75196,10.46459],[103.76043,10.51382]]],[[[103.91627,10.6186],[103.86638,10.69937],[103.82057,10.54401],[103.70191,10.56281],[103.74708,10.50898],[103.63738,10.49453],[103.50196,10.61713],[103.56739,10.72651],[103.71567,10.75846],[103.79292,10.90014],[103.94201,10.98889],[103.91627,10.6186]]]]}},{"type":"Feature","properties":{"id":"kh-19","lat":13.84826,"lng":106.13516},"geometry":{"type":"Polygon","coordinates":[[[106.5125,14.59035],[106.62205,14.45759],[106.58743,14.12438],[106.66453,13.82637],[106.5542,13.56204],[106.60898,13.33557],[106.43891,13.42068],[106.30843,13.41531],[106.11211,13.35247],[106.02524,13.20746],[105.88029,13.11607],[105.57772,13.26981],[105.52946,13.83978],[105.69348,13.85675],[105.72541,13.91202],[106.06916,13.91654],[106.14947,14.05356],[106.01247,14.22577],[105.97397,14.36584],[106.17324,14.36967],[106.23008,14.49046],[106.30646,14.44548],[106.41922,14.46646],[106.5125,14.59035]]]}},{"type":"Feature","properties":{"id":"kh-2","lat":12.87392,"lng":103.19553},"geometry":{"type":"Polygon","coordinates":[[[102.76375,12.42526],[102.49588,12.65415],[102.73914,12.7417],[102.74053,13.04295],[102.64989,13.11553],[102.57697,13.00639],[102.47316,13.00613],[102.3282,13.27516],[102.32953,13.4846],[102.70777,13.41727],[102.76254,13.46714],[102.96382,13.40817],[103.16087,13.45838],[103.4055,13.42822],[103.68394,13.3164],[103.80873,13.14524],[103.6812,13.02716],[103.59567,12.58864],[103.3192,12.58515],[102.76375,12.42526]]]}},{"type":"Feature","properties":{"id":"kh-20","lat":11.1731,"lng":105.7918},"geometry":{"type":"Polygon","coordinates":[[[105.79318,11.58288],[105.85781,11.53563],[105.84442,11.28988],[106.08663,11.05633],[106.16032,11.05351],[106.18786,10.97631],[106.12182,10.92523],[106.17732,10.76686],[105.93134,10.89636],[105.87868,10.82807],[105.7529,11.01561],[105.61724,10.97084],[105.58919,11.00884],[105.67823,11.51532],[105.79318,11.58288]]]}},{"type":"Feature","properties":{"id":"kh-21","lat":10.96336,"lng":104.7933},"geometry":{"type":"Polygon","coordinates":[[[105.02654,11.17012],[105.06674,10.71395],[104.85441,10.53132],[104.70063,10.52423],[104.67633,10.6956],[104.73917,10.79275],[104.70253,10.8891],[104.54703,10.90114],[104.53665,11.02558],[104.44399,11.06416],[104.43764,11.12126],[104.67364,11.10007],[104.71338,11.32763],[104.92303,11.33864],[105.02654,11.17012]]]}},{"type":"Feature","properties":{"id":"kh-22","lat":14.17911,"lng":103.53072},"geometry":{"type":"Polygon","coordinates":[[[103.64719,14.44398],[103.68223,14.3838],[104.04506,14.35697],[104.07378,14.24456],[103.4332,13.88716],[103.33006,14.06359],[103.26381,14.0009],[103.18417,14.05392],[103.19301,14.11934],[103.01693,14.23887],[103.11803,14.31324],[103.64719,14.44398]]]}},{"type":"Feature","properties":{"id":"kh-23","lat":10.5233,"lng":104.34237},"geometry":{"type":"Polygon","coordinates":[[[104.42419,10.45105],[104.2977,10.48086],[104.28307,10.57597],[104.37557,10.56574],[104.42419,10.45105]]]}},{"type":"Feature","properties":{"id":"kh-24","lat":12.86854,"lng":102.61473},"geometry":{"type":"Polygon","coordinates":[[[102.49588,12.65415],[102.46721,12.96947],[102.67407,13.11336],[102.75247,12.99993],[102.75355,12.76762],[102.49588,12.65415]]]}},{"type":"Feature","properties":{"id":"kh-3","lat":12.105,"lng":105.49506},"geometry":{"type":"Polygon","coordinates":[[[106.43459,11.67843],[106.27411,11.67681],[106.01542,11.7705],[105.93408,11.64286],[105.82099,11.64147],[105.82597,11.69507],[105.46005,11.77331],[105.32942,11.86879],[105.15454,11.74706],[105.05305,11.77215],[105.07419,11.82158],[104.9991,11.88897],[104.92562,11.81641],[104.8464,11.82388],[104.81875,11.89175],[104.91187,11.98619],[104.88738,12.23507],[105.19893,12.19249],[105.16788,12.38997],[105.34699,12.35175],[105.3999,12.48371],[105.75197,12.50756],[105.74996,12.26421],[106.01423,12.17851],[106.16564,12.03149],[106.16254,11.95974],[106.3954,11.96581],[106.43459,11.67843]]]}},{"type":"Feature","properties":{"id":"kh-4","lat":12.17351,"lng":104.53566},"geometry":{"type":"Polygon","coordinates":[[[104.19853,12.10779],[104.19155,12.23923],[104.34209,12.34385],[104.40508,12.55133],[104.50404,12.51939],[104.66703,12.5907],[104.83038,12.53257],[104.86402,12.37718],[104.91218,12.38599],[104.85229,12.29979],[104.91187,11.98619],[104.76103,11.82256],[104.51789,11.73613],[104.37356,11.79137],[104.19853,12.10779]]]}},{"type":"Feature","properties":{"id":"kh-5","lat":11.58937,"lng":104.31524},"geometry":{"type":"Polygon","coordinates":[[[104.0727,11.51943],[103.80253,11.65931],[103.78377,11.88897],[103.9448,11.98237],[104.07053,11.97529],[104.12034,12.08453],[104.19853,12.10779],[104.37356,11.79137],[104.51789,11.73613],[104.76103,11.82256],[104.65085,11.44563],[104.78743,11.41104],[104.70527,11.31879],[104.67364,11.10007],[104.16101,11.14692],[104.0927,11.27587],[104.0727,11.51943]]]}},{"type":"Feature","properties":{"id":"kh-6","lat":12.83333,"lng":104.98486},"geometry":{"type":"Polygon","coordinates":[[[104.50404,12.51939],[104.19171,12.74912],[104.38353,12.91753],[104.48745,13.22656],[104.72718,13.35859],[104.885,13.33869],[104.8943,13.15129],[104.99734,13.11548],[105.54584,13.46869],[105.75197,12.50756],[105.3999,12.48371],[105.34699,12.35175],[105.16788,12.38997],[105.19893,12.19249],[104.88738,12.23507],[104.85229,12.29979],[104.91466,12.37524],[104.86402,12.37718],[104.83038,12.53257],[104.62977,12.60104],[104.50404,12.51939]]]}},{"type":"Feature","properties":{"id":"kh-7","lat":10.74418,"lng":104.32596},"geometry":{"type":"Polygon","coordinates":[[[104.70063,10.52423],[104.56683,10.52807],[104.46957,10.41577],[104.35356,10.57419],[103.94557,10.58812],[103.94201,10.98889],[104.11058,11.15345],[104.43764,11.12126],[104.44399,11.06416],[104.53665,11.02558],[104.54703,10.90114],[104.70253,10.8891],[104.73917,10.79275],[104.67633,10.6956],[104.70063,10.52423]]]}},{"type":"Feature","properties":{"id":"kh-8","lat":11.37674,"lng":105.03549},"geometry":{"type":"Polygon","coordinates":[[[105.20915,10.89165],[105.03398,10.92977],[105.02654,11.17012],[104.9314,11.33453],[104.77017,11.33825],[104.78413,11.41522],[104.65085,11.44563],[104.78723,11.88152],[104.89482,11.81006],[104.98039,11.8932],[105.07062,11.82551],[105.05305,11.77215],[105.15702,11.73747],[105.13687,11.54436],[105.295,11.42649],[105.29045,11.23309],[105.19387,11.02238],[105.20915,10.89165]],[[104.9235,11.44625],[104.96758,11.55095],[104.92412,11.67316],[104.86004,11.67825],[104.78898,11.59826],[104.78092,11.45884],[104.9235,11.44625]]]}},{"type":"Feature","properties":{"id":"kh-9","lat":11.43671,"lng":103.62963},"geometry":{"type":"MultiPolygon","coordinates":[[[[103.31951,10.61734],[103.3235,10.54515],[103.28907,10.61274],[103.31951,10.61734]]],[[[103.31007,10.7259],[103.27735,10.67267],[103.1985,10.76236],[103.24513,10.77798],[103.31007,10.7259]]],[[[103.04689,11.33812],[102.99806,11.2602],[102.98927,11.42617],[103.02418,11.41718],[103.04689,11.33812]]],[[[102.9546,11.57022],[102.76501,12.04456],[103.14609,11.9795],[103.40375,12.1336],[103.52612,12.13089],[103.86351,11.90845],[103.78377,11.88897],[103.79974,11.6649],[104.0727,11.51943],[104.14468,11.1609],[103.79292,10.90014],[103.68873,10.74299],[103.72438,10.85602],[103.67457,11.06367],[103.53297,11.16275],[103.46852,11.1518],[103.40211,10.88434],[103.27735,10.93268],[103.12672,10.88129],[103.11769,11.14912],[103.05763,11.22077],[103.15211,11.3181],[103.06446,11.44725],[103.17433,11.42617],[103.14015,11.50873],[103.1128,11.46776],[103.06446,11.50361],[103.03712,11.60493],[103.03028,11.54287],[102.9546,11.55711],[103.00294,11.54971],[102.99383,11.63573],[103.04331,11.62482],[102.98927,11.67324],[102.96876,11.6385],[102.98634,11.70287],[103.06666,11.7082],[103.08497,11.72785],[102.98243,11.71418],[102.89308,11.83027],[102.96876,11.71418],[102.9546,11.57022]]],[[[103.03028,11.51557],[103.02036,11.42695],[103.00912,11.52924],[103.03028,11.51557]]]]}}]}
