{"type":"FeatureCollection","source":"geoBoundaries / OpenStreetMap contributors","license":"https://opendatacommons.org/licenses/odbl/1-0/","features":[{"type":"Feature","properties":{"id":"ki-g","lat":0.21068,"lng":173.4302},"geometry":{"type":"MultiPolygon","coordinates":[[[[173.62524,0.12457],[173.62159,0.12414],[173.62243,0.12213],[173.61922,0.12239],[173.61673,0.11931],[173.61261,0.11832],[173.61067,0.12099],[173.61494,0.12768],[173.61696,0.12865],[173.61753,0.13406],[173.62014,0.13417],[173.62197,0.13254],[173.62795,0.13955],[173.63727,0.16174],[173.63728,0.17465],[173.62939,0.18518],[173.63259,0.1905],[173.6347,0.19071],[173.63397,0.18948],[173.63568,0.18809],[173.63717,0.19342],[173.6348,0.19703],[173.63094,0.19662],[173.63236,0.19773],[173.63056,0.19887],[173.63329,0.19912],[173.63085,0.20345],[173.63017,0.19948],[173.62866,0.20056],[173.62658,0.19965],[173.62959,0.20469],[173.63454,0.20029],[173.64033,0.18872],[173.64425,0.17627],[173.64412,0.16804],[173.63035,0.13009],[173.62524,0.12457]]],[[[173.58684,0.17255],[173.58193,0.17139],[173.56914,0.17176],[173.56337,0.16976],[173.54422,0.17692],[173.53641,0.18299],[173.53847,0.18619],[173.54413,0.18906],[173.56718,0.18617],[173.56756,0.18249],[173.5757,0.1767],[173.57222,0.17701],[173.56909,0.18027],[173.57159,0.1761],[173.58684,0.17255]]],[[[173.44352,0.22025],[173.45201,0.21627],[173.45298,0.21355],[173.43928,0.20781],[173.4273,0.19811],[173.42728,0.196],[173.42528,0.19468],[173.42054,0.19498],[173.42074,0.20044],[173.41498,0.20599],[173.41109,0.23195],[173.41817,0.23173],[173.42407,0.2287],[173.42568,0.23011],[173.43133,0.22697],[173.43289,0.22784],[173.44352,0.22025]]],[[[173.38746,0.27124],[173.40455,0.25876],[173.40278,0.25661],[173.40987,0.23914],[173.41042,0.23204],[173.40442,0.24138],[173.37923,0.26127],[173.38746,0.27124]]],[[[173.94176,0.33926],[173.94278,0.33772],[173.94112,0.33721],[173.94176,0.33618],[173.9392,0.33592],[173.93856,0.33412],[173.93997,0.32974],[173.94048,0.33566],[173.94457,0.33643],[173.94355,0.33437],[173.94483,0.33283],[173.94176,0.33463],[173.94278,0.33154],[173.94457,0.33205],[173.94534,0.32871],[173.94431,0.33102],[173.94342,0.33051],[173.94367,0.31969],[173.93983,0.30939],[173.93587,0.30566],[173.93177,0.30476],[173.92461,0.30541],[173.92308,0.30747],[173.91771,0.30657],[173.91703,0.31284],[173.9264,0.31481],[173.92973,0.31416],[173.93638,0.31841],[173.9351,0.32021],[173.93638,0.32124],[173.93536,0.32279],[173.93703,0.33566],[173.93562,0.34184],[173.93664,0.33334],[173.93498,0.33463],[173.93485,0.3421],[173.93702,0.3449],[173.94253,0.34313],[173.94406,0.34493],[173.94253,0.34235],[173.94432,0.34235],[173.94457,0.33798],[173.94329,0.3372],[173.94406,0.34055],[173.94278,0.34184],[173.94176,0.33926]]],[[[173.76228,0.38562],[173.76076,0.38905],[173.76533,0.39355],[173.77343,0.39353],[173.7787,0.38805],[173.78553,0.38655],[173.78675,0.38407],[173.79288,0.38089],[173.79388,0.37902],[173.7865,0.37874],[173.78221,0.38052],[173.76859,0.38194],[173.76228,0.38562]]],[[[173.92285,0.41571],[173.9228,0.41377],[173.9206,0.41352],[173.92054,0.4113],[173.92496,0.41015],[173.92569,0.40709],[173.92381,0.40817],[173.92274,0.40732],[173.92546,0.4054],[173.92054,0.40276],[173.91529,0.40964],[173.91184,0.42125],[173.90553,0.42975],[173.85652,0.47598],[173.85499,0.47685],[173.85043,0.4739],[173.85548,0.47784],[173.84157,0.48743],[173.83325,0.48726],[173.82461,0.48148],[173.81443,0.46477],[173.80633,0.45574],[173.80488,0.45198],[173.80563,0.44999],[173.80405,0.44957],[173.80056,0.45658],[173.80354,0.45755],[173.80418,0.46112],[173.80317,0.46204],[173.81056,0.47152],[173.81147,0.4747],[173.80987,0.47772],[173.81577,0.48641],[173.82466,0.4924],[173.83764,0.49539],[173.85573,0.48437],[173.87,0.47093],[173.88118,0.46318],[173.89611,0.44941],[173.91389,0.43564],[173.92285,0.41571]]],[[[173.05157,0.99839],[173.06206,0.9855],[173.06999,0.97982],[173.07216,0.9708],[173.07024,0.96024],[173.06575,0.95406],[173.0582,0.94852],[173.04719,0.94351],[173.03412,0.93011],[173.02836,0.91929],[173.02413,0.90538],[173.01823,0.89302],[173.00464,0.85592],[172.9944,0.84329],[172.98646,0.83918],[172.98467,0.83995],[172.9839,0.83827],[172.9798,0.84047],[172.97443,0.8464],[172.97315,0.85104],[172.97853,0.85438],[172.97763,0.85103],[172.97469,0.84949],[172.97981,0.8482],[172.97981,0.84253],[172.98185,0.8415],[172.98339,0.84278],[172.983,0.83969],[172.98416,0.83943],[172.98544,0.84201],[172.99158,0.84304],[172.99082,0.84587],[172.99491,0.84561],[172.99799,0.84999],[172.99901,0.84948],[172.99773,0.85244],[172.99555,0.85257],[172.99492,0.85515],[172.99748,0.85618],[172.99697,0.85798],[173.00106,0.85746],[173.00157,0.86056],[173.00081,0.86056],[173.00055,0.86313],[173.00183,0.86494],[172.9985,0.86082],[172.9985,0.85978],[172.99569,0.85927],[172.99518,0.86262],[172.9939,0.86185],[172.99441,0.8652],[172.99646,0.86159],[172.99825,0.8621],[172.99671,0.86571],[173.00388,0.87215],[173.01067,0.88271],[173.01554,0.89379],[173.0212,0.91434],[173.02749,0.92863],[173.04693,0.94531],[173.05646,0.95151],[173.06162,0.95776],[173.06358,0.96617],[173.06216,0.97183],[173.0584,0.97549],[173.05609,0.98067],[173.04585,0.99194],[173.02649,1.00279],[173.02393,1.00743],[173.02163,1.00846],[173.02214,1.01129],[173.02406,1.01077],[173.02317,1.01413],[173.02061,1.01451],[173.01344,1.01117],[173.01062,1.01284],[173.00832,1.01774],[173.00883,1.01078],[173.00739,1.01329],[173.00809,1.01855],[173.00699,1.01932],[173.00761,1.01496],[173.00556,1.01483],[173.00294,1.01182],[173.00537,1.01517],[173.00397,1.02006],[173.00358,1.0144],[173.00013,1.01311],[172.9936,1.02316],[172.99745,1.02728],[172.99681,1.02909],[173.00218,1.03037],[173.00782,1.02857],[173.01089,1.02547],[173.01728,1.02379],[173.03827,1.00561],[173.05157,0.99839]]],[[[172.98687,1.8824],[172.98828,1.87768],[172.98771,1.87265],[172.99163,1.86364],[173.00331,1.84884],[173.01792,1.82635],[173.04026,1.80483],[173.04611,1.79662],[173.04533,1.79527],[173.04832,1.77972],[173.04792,1.77062],[173.04629,1.76004],[173.04101,1.74457],[173.03675,1.73772],[173.02891,1.73079],[173.02155,1.71882],[173.01412,1.71329],[173.00467,1.71197],[172.99295,1.71411],[172.98429,1.72024],[172.98503,1.72277],[172.99003,1.72707],[172.9929,1.72183],[172.99797,1.71787],[173.00555,1.71579],[173.01198,1.71627],[173.02011,1.72087],[173.03053,1.73403],[173.03854,1.74814],[173.04459,1.76648],[173.04473,1.78056],[173.04071,1.79362],[173.00598,1.8379],[172.9996,1.84964],[172.99107,1.85894],[172.9878,1.86423],[172.98418,1.87826],[172.97602,1.89015],[172.97121,1.89451],[172.96589,1.89684],[172.95964,1.9052],[172.95065,1.90663],[172.94743,1.90953],[172.94506,1.91219],[172.94546,1.91781],[172.94373,1.92243],[172.93684,1.92687],[172.93362,1.93238],[172.92672,1.93752],[172.91747,1.94841],[172.91441,1.94959],[172.90815,1.94843],[172.90843,1.95412],[172.91228,1.95418],[172.91834,1.95065],[172.93697,1.93291],[172.95296,1.91354],[172.96746,1.90446],[172.97834,1.89468],[172.98687,1.8824]]],[[[173.30058,1.98178],[173.29686,1.98796],[173.29082,1.99224],[173.28946,1.99588],[173.29751,1.99676],[173.3042,1.98534],[173.30734,1.98303],[173.30851,1.97883],[173.30782,1.97486],[173.30411,1.9715],[173.29838,1.97012],[173.26727,1.97267],[173.26669,1.97404],[173.25667,1.97501],[173.2524,1.98108],[173.251,1.98852],[173.25186,1.99812],[173.25456,1.99831],[173.25878,1.99647],[173.25767,1.98625],[173.26111,1.98066],[173.26835,1.97724],[173.27496,1.97651],[173.28417,1.97343],[173.28754,1.97427],[173.28888,1.97263],[173.28749111155537,1.972130399840063],[173.29721,1.97263],[173.30204,1.97776],[173.30206,1.98115],[173.3012,1.98156],[173.30065,1.97799],[173.30058,1.98178]],[[173.28748999416362,1.97213034240046],[173.28749,1.97213],[173.28749111155537,1.972130399840063],[173.28748999416362,1.97213034240046]],[[173.28746,1.97389],[173.28304,1.9725],[173.28411,1.97307],[173.27717,1.97542],[173.26894,1.97614],[173.25814,1.98118],[173.25873,1.97885],[173.26353,1.97649],[173.28262,1.97188],[173.28748999416362,1.97213034240046],[173.28746,1.97389]]],[[[173.28958,1.99751],[173.29149,1.99848],[173.29167,2.001],[173.28949,2.00899],[173.28587,2.01453],[173.28259,2.02918],[173.28335,2.03162],[173.28344,2.02676],[173.2866,2.01943],[173.287,2.02186],[173.28112,2.03859],[173.27805,2.04306],[173.27497,2.04248],[173.27315,2.04366],[173.26979,2.0411],[173.26325,2.04009],[173.26156,2.03819],[173.26032,2.02597],[173.26239,2.02385],[173.26133,2.02303],[173.2616,2.01869],[173.26352,2.01683],[173.2619,2.00898],[173.25626,2.00265],[173.25774,2.00316],[173.25707,2.00141],[173.25551,2.00121],[173.25824,2.00102],[173.25838,2.00244],[173.25849,1.99905],[173.25439,1.99861],[173.25252,1.99999],[173.25928,2.01203],[173.25704,2.02832],[173.25936,2.04685],[173.26656,2.05896],[173.27,2.06097],[173.27379,2.05955],[173.27754,2.05668],[173.28202,2.0499],[173.29709,2.00013],[173.29708,1.99815],[173.29442,1.99668],[173.28958,1.99751]]],[[[172.86029,3.09894],[172.82531,3.09196],[172.82305,3.09398],[172.82147,3.08994],[172.80208,3.08007],[172.79287,3.06945],[172.77476,3.06173],[172.76809,3.05376],[172.76501,3.05363],[172.76346,3.04565],[172.76541,3.04566],[172.76589,3.04384],[172.76435,3.04075],[172.76086,3.03935],[172.75845,3.03973],[172.76025,3.05168],[172.7549,3.06241],[172.75379,3.0677],[172.74287,3.07944],[172.74528,3.08029],[172.75146,3.07571],[172.75145,3.07353],[172.75556,3.07231],[172.75538,3.0692],[172.75725,3.06658],[172.76207,3.06734],[172.76395,3.06546],[172.76657,3.06536],[172.79042,3.07111],[172.79042,3.07266],[172.79234,3.07369],[172.78978,3.07608],[172.79251,3.07506],[172.80007,3.08278],[172.80711,3.08694],[172.81506,3.08947],[172.8202,3.09658],[172.82482,3.09824],[172.83901,3.09949],[172.84277,3.10234],[172.84635,3.10065],[172.85661,3.10154],[172.85974,3.10384],[172.86302,3.10256],[172.86995,3.10422],[172.87361,3.10192],[172.88993,3.10263],[172.89231,3.10599],[172.893,3.10421],[172.89533,3.10364],[172.89429,3.10269],[172.89686,3.10263],[172.89758,3.09644],[172.90057,3.09592],[172.89977,3.09164],[172.87047,3.09807],[172.86029,3.09894]]],[[[172.89807,3.10988],[172.89284,3.11104],[172.89842,3.11048],[172.89375,3.11256],[172.89855,3.11129],[172.89704,3.11281],[172.89868,3.11252],[172.89755,3.1134],[172.89932,3.11382],[172.89614,3.11698],[172.89726,3.11846],[172.90011,3.1185],[172.90002,3.11997],[172.89667,3.1191],[172.8914,3.1102],[172.89148,3.11346],[172.90897,3.13675],[172.94358,3.15629],[172.95762,3.17084],[172.96367,3.18136],[172.96357,3.17769],[172.97006,3.17696],[172.97173,3.18031],[172.97017,3.18571],[172.97098,3.1883],[172.97232,3.17938],[172.9712,3.17697],[172.94458,3.15486],[172.9154,3.13787],[172.90749,3.13105],[172.89982,3.11533],[172.89892,3.10804],[172.89807,3.10988]]],[[[172.77549,3.22206],[172.775,3.21975],[172.77403,3.22163],[172.77297,3.21727],[172.77349,3.22062],[172.77195,3.22164],[172.76963,3.21857],[172.76802,3.22034],[172.76665,3.21847],[172.76668,3.22088],[172.76556,3.21882],[172.76564,3.22137],[172.75386,3.22569],[172.73931,3.23358],[172.72801,3.24468],[172.71958,3.25736],[172.70335,3.26599],[172.69755,3.27171],[172.69586,3.27144],[172.69591,3.27007],[172.69666,3.26787],[172.69769,3.26833],[172.69811,3.26522],[172.69573,3.26288],[172.69255,3.26312],[172.6896,3.25916],[172.68792,3.25917],[172.68825,3.25642],[172.68701,3.2566],[172.68116,3.27333],[172.68609,3.26571],[172.68997,3.26251],[172.69517,3.26785],[172.69424,3.27791],[172.70561,3.2668],[172.72036,3.25867],[172.72902,3.24704],[172.74436,3.23433],[172.76108,3.22499],[172.77131,3.22193],[172.77549,3.22206]]],[[[173.00621,3.37874],[173.00365,3.3806],[172.99537,3.37847],[172.99378,3.38025],[172.99721,3.38215],[172.99637,3.3865],[172.99511,3.38678],[172.9922,3.38559],[172.98716,3.37895],[172.98646,3.37671],[172.98804,3.37471],[172.99078,3.3753],[172.99432,3.3786],[172.99691,3.37587],[172.98784,3.36661],[172.98207,3.35191],[172.98261,3.36457],[172.97704,3.37333],[172.97737,3.37614],[172.99455,3.39267],[172.99953,3.39361],[173.0032,3.3926],[173.00609,3.39528],[173.00898,3.39295],[173.00956,3.39114],[173.00785,3.39191],[173.00693,3.39027],[173.00889,3.38428],[173.00621,3.37874]]],[[[176.84534,-2.67176],[176.82982,-2.65339],[176.82082,-2.6385],[176.81234,-2.62936],[176.79075,-2.61445],[176.79028,-2.61318],[176.79152,-2.61275],[176.80951,-2.61733],[176.81998,-2.62416],[176.8434,-2.6556],[176.84761,-2.6686],[176.84718,-2.6717],[176.84534,-2.67176]]],[[[175.97171,-2.48388],[175.97751,-2.48672],[175.9994,-2.5089],[175.99995,-2.51114],[175.99923,-2.5154],[175.99033,-2.51425],[175.98063,-2.5018],[175.96566,-2.49156],[175.96565,-2.48458],[175.97171,-2.48388]]],[[[175.59146,-1.94095],[175.58913,-1.94179],[175.58757,-1.94491],[175.5888,-1.94602],[175.593,-1.94535],[175.58646,-1.94954],[175.58492,-1.94674],[175.58688,-1.9462],[175.58717,-1.94522],[175.58515,-1.94605],[175.58623,-1.9441],[175.58732,-1.94483],[175.58763,-1.94302],[175.58445,-1.94465],[175.58454,-1.9433],[175.58701,-1.94268],[175.58358,-1.94246],[175.5831,-1.94378],[175.58185,-1.94163],[175.58238,-1.94332],[175.5843,-1.94476],[175.58095,-1.94543],[175.57991,-1.9474],[175.58614,-1.95079],[175.58085,-1.95425],[175.5698,-1.95219],[175.5683,-1.94991],[175.56861,-1.94501],[175.57428,-1.94251],[175.57558,-1.9381],[175.57816,-1.94039],[175.57641,-1.93954],[175.57557,-1.94103],[175.57666,-1.94177],[175.58008,-1.94037],[175.58429,-1.94189],[175.59146,-1.94095]]],[[[175.5549,-1.82878],[175.55408,-1.83726],[175.55533,-1.84056],[175.55381,-1.8419],[175.5647,-1.85577],[175.5676,-1.85832],[175.5699,-1.85701],[175.57097,-1.86143],[175.57413,-1.85871],[175.57575,-1.86177],[175.58182,-1.86557],[175.59382,-1.86985],[175.59567,-1.86867],[175.60536,-1.87312],[175.61742,-1.88701],[175.61944,-1.89421],[175.61899,-1.90136],[175.61397,-1.91806],[175.59595,-1.943],[175.59337,-1.93979],[175.59699,-1.93891],[175.60112,-1.93569],[175.60356,-1.92907],[175.61073,-1.91937],[175.613,-1.91365],[175.61489,-1.9017],[175.61351,-1.88988],[175.61042,-1.88435],[175.60409,-1.87824],[175.58071,-1.86936],[175.56886,-1.86181],[175.55371,-1.84348],[175.54968,-1.83582],[175.55045,-1.82844],[175.55406,-1.81911],[175.55279,-1.81519],[175.54991,-1.81197],[175.54011,-1.81015],[175.53328,-1.80631],[175.52612,-1.79772],[175.52168,-1.7947],[175.52301,-1.79257],[175.52823,-1.79569],[175.52837,-1.79372],[175.52379,-1.79173],[175.5202,-1.79132],[175.5215,-1.79723],[175.52688,-1.80015],[175.51882,-1.80307],[175.52064,-1.80185],[175.5191,-1.79943],[175.51773,-1.7995],[175.51849,-1.7919],[175.51906,-1.79066],[175.52203,-1.79061],[175.53038,-1.7943],[175.5365,-1.79928],[175.54733,-1.80184],[175.55691,-1.80671],[175.5593,-1.81496],[175.5549,-1.82878]]],[[[175.07394,-1.53101],[175.07737,-1.52677],[175.07858,-1.53422],[175.07771,-1.53579],[175.07547,-1.53572],[175.07236,-1.53967],[175.06961,-1.54047],[175.0645,-1.53607],[175.06438,-1.53201],[175.06127,-1.5238],[175.0682,-1.51713],[175.06568,-1.52044],[175.06767,-1.52827],[175.06683,-1.53295],[175.07067,-1.5385],[175.07297,-1.53798],[175.07524,-1.53525],[175.07375,-1.5352],[175.07698,-1.53455],[175.07728,-1.52966],[175.07394,-1.53101]]],[[[175.06827,-1.49666],[175.06923,-1.49878],[175.07472,-1.49762],[175.07383,-1.5058],[175.07696,-1.52005],[175.0768,-1.52533],[175.07133,-1.52349],[175.0749,-1.51863],[175.06751,-1.49673],[175.0723,-1.48402],[175.07131,-1.48285],[175.06891,-1.48372],[175.06665,-1.4819],[175.06424,-1.48329],[175.05879,-1.482],[175.04925,-1.4716],[175.05608,-1.46918],[175.05748,-1.46747],[175.06478,-1.46861],[175.06904,-1.46772],[175.06864,-1.47202],[175.07452,-1.47845],[175.07878,-1.47926],[175.07501,-1.4959],[175.06982,-1.49432],[175.06827,-1.49666]]],[[[175.0361,-1.44749],[175.03865,-1.45039],[175.03666,-1.45098],[175.03785,-1.45368],[175.04155,-1.45241],[175.04332,-1.45443],[175.03646,-1.45989],[175.0374,-1.46261],[175.02824,-1.45222],[175.02051,-1.44798],[175.02504,-1.44867],[175.02267,-1.44697],[175.02489,-1.44748],[175.03238,-1.44174],[175.03417,-1.44562],[175.03313,-1.44872],[175.0313,-1.4497],[175.03138,-1.44743],[175.02918,-1.44679],[175.03107,-1.45183],[175.0361,-1.44749]]],[[[175.02658,-1.44018],[175.02524,-1.44329],[175.02614,-1.44403],[175.02372,-1.44672],[175.0209,-1.44444],[175.0066,-1.44288],[175.00909,-1.44109],[175.01103,-1.43411],[175.0132,-1.43374],[175.01348,-1.43582],[175.01532,-1.436],[175.01525,-1.43405],[175.01656,-1.43422],[175.02165,-1.43845],[175.02658,-1.44018]]],[[[176.48221,-1.37857],[176.48778,-1.38471],[176.49442,-1.40164],[176.49281,-1.40449],[176.48955,-1.40436],[176.47679,-1.39444],[176.4734,-1.37968],[176.46959,-1.37274],[176.45551,-1.36161],[176.44785,-1.35299],[176.43701,-1.34526],[176.41616,-1.32493],[176.40541,-1.31817],[176.40287,-1.31437],[176.40444,-1.31259],[176.4121,-1.31179],[176.43962,-1.31521],[176.44904,-1.32393],[176.45985,-1.35599],[176.4661,-1.36627],[176.47171,-1.37169],[176.48221,-1.37857]]],[[[176.02948,-1.36882],[176.02436,-1.37455],[176.01937,-1.37379],[176.0069,-1.362],[175.9946,-1.35677],[175.99425,-1.35448],[175.99273,-1.35593],[175.99365,-1.35286],[175.99205,-1.35206],[175.99226,-1.3501],[175.99029,-1.34959],[175.98363,-1.33958],[175.98608,-1.33692],[175.99418,-1.33712],[175.99337,-1.34446],[176.00023,-1.35356],[175.99869,-1.34372],[175.99583,-1.3396],[175.99422,-1.32782],[175.98449,-1.30789],[175.97863,-1.30107],[175.96915,-1.29669],[175.96359,-1.29611],[175.96131,-1.29814],[175.95895,-1.29639],[175.9585,-1.29289],[175.96034,-1.29264],[175.9621,-1.28864],[175.96252,-1.28145],[175.95747,-1.27949],[175.95497,-1.27646],[175.95149,-1.28717],[175.95234,-1.28938],[175.9542,-1.2896],[175.95343,-1.29287],[175.95523,-1.29465],[175.9566,-1.29425],[175.95625,-1.29588],[175.94793,-1.29362],[175.94589,-1.29524],[175.94494,-1.2939],[175.94433,-1.28683],[175.95274,-1.2768],[175.95294,-1.27089],[175.95661,-1.27066],[175.96229,-1.27571],[175.96554,-1.28058],[175.98172,-1.29443],[175.99832,-1.32197],[176.00527,-1.33729],[176.02588,-1.36143],[176.02948,-1.36882]]],[[[174.79749,-1.29694],[174.79556,-1.30341],[174.79747,-1.29183],[174.79766,-1.27793],[174.79628,-1.27049],[174.79136,-1.26311],[174.79087,-1.2594],[174.79206,-1.26205],[174.79461,-1.26165],[174.79808,-1.2696],[174.80184,-1.29005],[174.80078,-1.29264],[174.80271,-1.29438],[174.79749,-1.29694]]],[[[174.69092,-1.13641],[174.69044,-1.13505],[174.68889,-1.13654],[174.68958,-1.13877],[174.6933,-1.13486],[174.69308,-1.13748],[174.69146,-1.13882],[174.69254,-1.14045],[174.69802,-1.14344],[174.70186,-1.14045],[174.70904,-1.14694],[174.71262,-1.14594],[174.71548,-1.1486],[174.71894,-1.14883],[174.72384,-1.157],[174.72756,-1.15893],[174.7342,-1.17422],[174.74101,-1.18231],[174.7443,-1.1825],[174.74697,-1.1883],[174.74494,-1.19045],[174.74559,-1.1919],[174.74731,-1.19382],[174.74947,-1.19166],[174.74742,-1.19388],[174.7485,-1.19486],[174.75106,-1.19355],[174.74826,-1.19524],[174.74992,-1.19907],[174.75513,-1.19854],[174.75806,-1.20016],[174.76026,-1.20547],[174.76749,-1.21393],[174.7659,-1.21729],[174.7699,-1.21491],[174.77144,-1.21607],[174.78068,-1.22751],[174.77775,-1.22899],[174.77813,-1.23094],[174.78303,-1.22919],[174.78999,-1.23931],[174.79154,-1.23977],[174.79282,-1.25358],[174.78922,-1.25455],[174.78892,-1.25601],[174.79053,-1.2568],[174.78822,-1.25658],[174.78862,-1.2493],[174.78623,-1.24235],[174.77841,-1.2329],[174.7734,-1.22407],[174.75792,-1.21459],[174.73128,-1.18701],[174.7276,-1.18136],[174.72635,-1.17334],[174.72367,-1.16894],[174.70787,-1.15683],[174.69355,-1.14997],[174.67825,-1.13875],[174.6727,-1.13595],[174.66613,-1.13549],[174.65866,-1.12726],[174.66133,-1.12073],[174.65986,-1.11665],[174.66078,-1.11278],[174.66432,-1.104],[174.67009,-1.10848],[174.68324,-1.12653],[174.6849,-1.12671],[174.6863,-1.13088],[174.68754,-1.12997],[174.68793,-1.13546],[174.6916,-1.13425],[174.69092,-1.13641]]],[[[174.33859,-0.57676],[174.33905,-0.57945],[174.34094,-0.57612],[174.34493,-0.57699],[174.35284,-0.57579],[174.36424,-0.58092],[174.36238,-0.58309],[174.36297,-0.58471],[174.36148,-0.58502],[174.36072,-0.58366],[174.36075,-0.58554],[174.35922,-0.58566],[174.3601,-0.58726],[174.36391,-0.58763],[174.36478,-0.58623],[174.3621,-0.58622],[174.36545,-0.58389],[174.36511,-0.5816],[174.37757,-0.59271],[174.38325,-0.5953],[174.39556,-0.6052],[174.41507,-0.62725],[174.4333,-0.6396],[174.43787,-0.6408],[174.4418,-0.64442],[174.4447,-0.65044],[174.44957,-0.6535],[174.45238,-0.66148],[174.4529,-0.67209],[174.45605,-0.68741],[174.45288,-0.70674],[174.45304,-0.71689],[174.45496,-0.72353],[174.4661,-0.74494],[174.47188,-0.75934],[174.47092,-0.76066],[174.47173,-0.76692],[174.4762,-0.782],[174.47631,-0.79395],[174.47587,-0.79595],[174.47331,-0.79652],[174.47299,-0.7978],[174.47619,-0.79897],[174.47683,-0.79806],[174.47525,-0.80682],[174.47359,-0.80881],[174.46926,-0.8095],[174.46483,-0.81443],[174.46117,-0.81031],[174.45404,-0.80617],[174.4513,-0.80706],[174.45241,-0.80484],[174.45053,-0.80255],[174.44924,-0.80316],[174.45249,-0.8006],[174.45222,-0.79451],[174.45364,-0.79217],[174.4602,-0.78846],[174.46033,-0.79217],[174.45691,-0.79723],[174.45738,-0.80071],[174.45991,-0.80016],[174.46965,-0.80635],[174.46844,-0.79839],[174.46892,-0.7972],[174.47022,-0.79785],[174.47013,-0.79638],[174.47294,-0.79691],[174.47049,-0.79588],[174.4725,-0.78385],[174.46956,-0.7781],[174.47115,-0.77522],[174.46844,-0.77147],[174.46729,-0.76096],[174.46334,-0.75315],[174.45405,-0.74062],[174.45044,-0.73097],[174.44916,-0.71776],[174.452,-0.68872],[174.44999,-0.67837],[174.44617,-0.6699],[174.44556,-0.65474],[174.44244,-0.6555],[174.43611,-0.65035],[174.43496,-0.65101],[174.43627,-0.64402],[174.42964,-0.64082],[174.42283,-0.64036],[174.41428,-0.63179],[174.40981,-0.62986],[174.40592,-0.62605],[174.40628,-0.62429],[174.40277,-0.61888],[174.40046,-0.61646],[174.39898,-0.61715],[174.40023,-0.61548],[174.3991,-0.61328],[174.39229,-0.60646],[174.38512,-0.60551],[174.38236,-0.60213],[174.37627,-0.59904],[174.36894,-0.59101],[174.35805,-0.5879],[174.35449,-0.58411],[174.34788,-0.58072],[174.34459,-0.58296],[174.34159,-0.58135],[174.33204,-0.58156],[174.33021,-0.5799],[174.33156,-0.57847],[174.33086,-0.57688],[174.32594,-0.57495],[174.32182,-0.57584],[174.3205,-0.57767],[174.32088,-0.57453],[174.32407,-0.57229],[174.33294,-0.57512],[174.3331,-0.57949],[174.33635,-0.5758],[174.33743,-0.57611],[174.33673,-0.5792],[174.33859,-0.57676]]],[[[173.92796,0.38665],[173.93103,0.38716],[173.93998,0.3645],[173.94215,0.3627],[173.94279,0.35317],[173.94483,0.35265],[173.9447,0.35085],[173.94291,0.34982],[173.94278,0.34557],[173.93997,0.34635],[173.93562,0.34442],[173.93448,0.36399],[173.92476,0.38408],[173.92055,0.40082],[173.92541,0.40365],[173.92784,0.39953],[173.92592,0.39618],[173.92822,0.39618],[173.93154,0.39025],[173.92847,0.38858],[173.92796,0.38665]]]]}},{"type":"Feature","properties":{"id":"ki-p","lat":-0.8601,"lng":169.53639},"geometry":{"type":"MultiPolygon","coordinates":[[[[188.29438,-2.76762],[188.28326,-2.76462],[188.27917,-2.76666],[188.27943,-2.78405],[188.27659,-2.78778],[188.27937,-2.79329],[188.28107,-2.79389],[188.27975,-2.7959],[188.28283,-2.79703],[188.28327,-2.8004],[188.28068,-2.80273],[188.28352,-2.81029],[188.28434,-2.81089],[188.28573,-2.80862],[188.2837,-2.80333],[188.28516,-2.79982],[188.2838,-2.7996],[188.28417,-2.79476],[188.28165,-2.79201],[188.28134,-2.78725],[188.28265,-2.78527],[188.28604,-2.78659],[188.28782,-2.78257],[188.28377,-2.78014],[188.28387,-2.77073],[188.28719,-2.76865],[188.29679,-2.77235],[188.29996,-2.77165],[188.30957,-2.77375],[188.31406,-2.77651],[188.31577,-2.77967],[188.33016,-2.78916],[188.33796,-2.79732],[188.34499,-2.80142],[188.35289,-2.80309],[188.35476,-2.80699],[188.35885,-2.80751],[188.36226,-2.80993],[188.37069,-2.83221],[188.37127,-2.84117],[188.38075,-2.85741],[188.37885,-2.86534],[188.38154,-2.86702],[188.37976,-2.86827],[188.37713,-2.86685],[188.37696,-2.86341],[188.37474,-2.86438],[188.37248,-2.86329],[188.3578,-2.84838],[188.34501,-2.8397],[188.32138,-2.83191],[188.31115,-2.83095],[188.29782,-2.83226],[188.29003,-2.82006],[188.29014,-2.81504],[188.28635,-2.81487],[188.28746,-2.82333],[188.29385,-2.83346],[188.29622,-2.83467],[188.30825,-2.83252],[188.31937,-2.83299],[188.32807,-2.83457],[188.34016,-2.83917],[188.35522,-2.84874],[188.36857,-2.8632],[188.37916,-2.87032],[188.38343,-2.8699],[188.38488,-2.86539],[188.38357,-2.85767],[188.37541,-2.84418],[188.37304,-2.82818],[188.36709,-2.81798],[188.36216,-2.80516],[188.33945,-2.79433],[188.31791,-2.77622],[188.30221,-2.76829],[188.29438,-2.76762]]],[[[169.54925,-0.86342],[169.54977,-0.8563],[169.54804,-0.85119],[169.54074,-0.84559],[169.5302,-0.8448],[169.52473,-0.84751],[169.52107,-0.85289],[169.5215,-0.85678],[169.52642,-0.86586],[169.52785,-0.86685],[169.53261,-0.86583],[169.53788,-0.8677],[169.54217,-0.87424],[169.54383,-0.87426],[169.54631,-0.87054],[169.54925,-0.86342]]],[[[172.93313,1.36588],[172.9311,1.35925],[172.9301,1.36038],[172.93153,1.36311],[172.92838,1.35844],[172.92504,1.35754],[172.91956,1.35965],[172.91858,1.35334],[172.93121,1.35409],[172.93783,1.35304],[172.95037,1.34721],[172.95782,1.34166],[172.95372,1.34584],[172.9326,1.35972],[172.93494,1.36473],[172.93323,1.36422],[172.93313,1.36588]]],[[[173.13795,1.38985],[173.13927,1.39338],[173.13797,1.39143],[173.13756,1.39326],[173.13608,1.39242],[173.13358,1.3881],[173.13787,1.3895],[173.13615,1.38559],[173.13725,1.38108],[173.13328,1.37768],[173.13775,1.38117],[173.14106,1.37934],[173.14378,1.38098],[173.14583,1.37394],[173.14526,1.36187],[173.14476,1.36566],[173.14314,1.364],[173.14065,1.36583],[173.13807,1.36417],[173.13038,1.36658],[173.12799,1.36909],[173.12406,1.36945],[173.11637,1.36436],[173.11052,1.36564],[173.10532,1.36435],[173.09684,1.36594],[173.09165,1.36473],[173.0871,1.36567],[173.07998,1.36371],[173.07663,1.36113],[173.05876,1.35687],[173.04585,1.35826],[173.03796,1.35361],[173.03914,1.35353],[173.04003,1.35066],[173.03911,1.34927],[173.02407,1.34006],[173.01041,1.33407],[172.99407,1.33018],[172.98679,1.32973],[172.97557,1.3314],[172.97447,1.33271],[172.97392,1.33128],[172.97109,1.33174],[172.9603,1.33893],[172.96735,1.3327],[172.97404,1.33041],[172.97266,1.32745],[172.97478,1.32672],[172.97801,1.3282],[172.99835,1.32925],[173.00547,1.33235],[173.00697,1.3293],[173.00993,1.33064],[173.0097,1.33288],[173.01131,1.33124],[173.01356,1.33168],[173.03216,1.34106],[173.04503,1.35231],[173.04298,1.35545],[173.04471,1.3561],[173.04688,1.35279],[173.04524,1.35614],[173.048,1.3579],[173.05216,1.35716],[173.05242,1.35525],[173.05851,1.35574],[173.07353,1.35773],[173.08937,1.36378],[173.11226,1.36202],[173.12685,1.36491],[173.13374,1.36414],[173.13709,1.36177],[173.15893,1.35869],[173.16287,1.36149],[173.16471,1.36547],[173.16494,1.37082],[173.16301,1.37524],[173.15991,1.37889],[173.15565,1.38173],[173.15411,1.38135],[173.14528,1.38882],[173.14114,1.39003],[173.1412,1.39269],[173.13795,1.38985]]],[[[173.12591,1.40166],[173.11913,1.39518],[173.1282,1.39214],[173.13205,1.38781],[173.13451,1.3902],[173.13513,1.39354],[173.13261,1.39651],[173.12705,1.39858],[173.1262,1.39943],[173.12728,1.40139],[173.12591,1.40166]]],[[[172.99082,1.3968],[172.99231,1.40096],[172.98928,1.40293],[172.98883,1.40173],[172.99068,1.39985],[172.9869,1.39817],[172.98668,1.39369],[172.98361,1.39298],[172.98296,1.39058],[172.98304,1.38942],[172.98817,1.3881],[172.98869,1.38373],[172.99434,1.38693],[173.00008,1.38517],[173.00634,1.38633],[173.00863,1.39124],[173.00615,1.39437],[173.00261,1.38998],[172.99317,1.38775],[172.99235,1.38903],[172.99549,1.39036],[172.99459,1.39178],[172.99069,1.39225],[172.99082,1.3968]]],[[[173.09815,1.42553],[173.09089,1.4276],[173.10445,1.41916],[173.10897,1.41082],[173.11312,1.41346],[173.11371,1.41158],[173.11405,1.41459],[173.1108,1.41633],[173.10643,1.42292],[173.10159,1.42683],[173.09815,1.42553]]],[[[173.09244,1.43519],[173.08801,1.44051],[173.08023,1.43375],[173.08967,1.42824],[173.08994,1.42964],[173.08808,1.43013],[173.09061,1.43008],[173.09573,1.43397],[173.09244,1.43519]]],[[[173.03384,1.48204],[173.02687,1.49507],[173.02323,1.49298],[173.02091,1.49506],[173.01716,1.49422],[173.02582,1.48747],[173.02982,1.48042],[173.02811,1.47894],[173.03017,1.47435],[173.03508,1.47105],[173.03618,1.47116],[173.03657,1.47408],[173.04022,1.47161],[173.04053,1.47517],[173.04349,1.47485],[173.0415,1.47704],[173.04006,1.47539],[173.0388,1.47599],[173.03693,1.47761],[173.0375,1.47942],[173.03274,1.47563],[173.03122,1.47596],[173.03104,1.47748],[173.03342,1.47857],[173.03384,1.48204]]],[[[173.0099,1.52183],[173.01049,1.52272],[173.00717,1.52211],[173.00588,1.51942],[173.00243,1.51998],[173.00921,1.5125],[173.01248,1.5003],[173.01703,1.49446],[173.01752,1.49732],[173.02085,1.49768],[173.02146,1.4995],[173.01902,1.49756],[173.02047,1.5002],[173.01866,1.49857],[173.01573,1.50295],[173.01323,1.51004],[173.01396,1.5192],[173.01255,1.52152],[173.0099,1.52183]]],[[[172.96026,1.63613],[172.95475,1.63686],[172.9572,1.6325],[172.96067,1.63152],[172.95756,1.63355],[172.95979,1.63598],[172.95986,1.6344],[172.96291,1.63292],[172.96562,1.62725],[172.96591,1.62435],[172.96238,1.6186],[172.96442,1.62324],[172.96122,1.63128],[172.96245,1.62696],[172.96176,1.62349],[172.95528,1.61469],[172.95252,1.60745],[172.95809,1.60836],[172.96534,1.60042],[172.96972,1.58771],[172.97037,1.58063],[172.96892,1.57173],[172.97006,1.56907],[172.97817,1.55648],[172.98325,1.55488],[172.985,1.55012],[172.98865,1.55404],[172.99193,1.55487],[172.98916,1.55407],[172.98648,1.54961],[172.98902,1.5498],[172.99318,1.54703],[172.99698,1.53448],[173.00193,1.52402],[173.00544,1.52102],[173.00768,1.52497],[172.99902,1.53948],[172.99786,1.54777],[172.9945,1.55015],[172.99417,1.55515],[172.98951,1.55771],[172.98651,1.55692],[172.98198,1.55993],[172.98129,1.56251],[172.97946,1.56065],[172.97457,1.57206],[172.97154,1.57415],[172.97468,1.57627],[172.97544,1.58528],[172.9733,1.58593],[172.9699,1.59521],[172.96945,1.59825],[172.97093,1.60082],[172.9681,1.60362],[172.96773,1.6127],[172.96542,1.61269],[172.96478,1.61432],[172.96631,1.61546],[172.96575,1.62905],[172.96397,1.6322],[172.96026,1.63613]]]]}},{"type":"Feature","properties":{"id":"ki-l","lat":1.87109,"lng":202.56497},"geometry":{"type":"MultiPolygon","coordinates":[[[[202.54761,2.0484],[202.51823,2.04728],[202.50865,2.04473],[202.50439,2.03904],[202.50318,2.03141],[202.51752,1.99955],[202.52141,1.98099],[202.5252,1.98218],[202.52811,1.98025],[202.53134,1.9822],[202.52834,1.98191],[202.52919,1.99005],[202.52654,1.99068],[202.52672,1.98926],[202.5231,1.9915],[202.52207,1.99086],[202.52047,1.99416],[202.52095,1.99982],[202.51533,2.01443],[202.51725,2.02042],[202.51941,2.02235],[202.53184,2.02696],[202.53519,2.02207],[202.53296,2.02207],[202.5339,2.0207],[202.53772,2.01834],[202.54141,2.01858],[202.54152,2.02326],[202.54383,2.02638],[202.54965,2.02029],[202.55246,2.02036],[202.55296,2.01836],[202.54929,2.01667],[202.54238,2.01718],[202.53946,2.01596],[202.54221,2.01682],[202.5424,2.0148],[202.54435,2.01405],[202.54764,2.01613],[202.55195,2.01465],[202.55538,2.01536],[202.55587,2.01433],[202.55527,2.01257],[202.55274,2.01268],[202.55444,2.0106],[202.55274,2.00773],[202.5501,2.01114],[202.5465,2.01129],[202.54566,2.00972],[202.54918,2.00374],[202.55103,2.00449],[202.55583,1.99996],[202.55723,2.00076],[202.55887,2.01508],[202.56117,2.01183],[202.55946,2.01157],[202.56038,2.00848],[202.56467,2.00509],[202.5629,2.00282],[202.56555,2.0028],[202.56874,2.00506],[202.5709,2.0032],[202.56903,1.99254],[202.57098,1.97355],[202.56729,1.97033],[202.56991,1.97183],[202.57184,1.96588],[202.57098,1.96187],[202.57465,1.95931],[202.5713,1.95535],[202.57204,1.95032],[202.57952,1.94361],[202.57257,1.93467],[202.57172,1.92983],[202.57378,1.91953],[202.56477,1.9174],[202.56241,1.91859],[202.56074,1.93013],[202.55478,1.91882],[202.5569,1.91553],[202.55312,1.90906],[202.54953,1.90913],[202.54773,1.91276],[202.54628,1.91161],[202.54679,1.90986],[202.54297,1.91073],[202.54033,1.91624],[202.53989,1.9139],[202.54184,1.91099],[202.53958,1.90847],[202.54214,1.90969],[202.54483,1.90656],[202.54329,1.9049],[202.5427,1.90032],[202.5383,1.89683],[202.5368,1.88835],[202.52914,1.88149],[202.52465,1.87944],[202.52311,1.88105],[202.52008,1.88011],[202.51036,1.88384],[202.50857,1.88712],[202.50682,1.88422],[202.50021,1.87993],[202.49968,1.88122],[202.49328,1.8794],[202.48864,1.88026],[202.47622,1.87895],[202.47693,1.87777],[202.47508,1.87603],[202.47716,1.87594],[202.47269,1.87456],[202.46909,1.8708],[202.47247,1.87278],[202.47369,1.87215],[202.47296,1.8681],[202.46788,1.86759],[202.46115,1.86398],[202.45908,1.864],[202.45312,1.8682],[202.45196,1.87056],[202.44559,1.87138],[202.44606,1.87627],[202.44817,1.87963],[202.45175,1.87568],[202.45209,1.87475],[202.44944,1.87613],[202.45059,1.8734],[202.45755,1.87196],[202.45996,1.86995],[202.46297,1.87394],[202.46153,1.88466],[202.46629,1.89838],[202.47321,1.9038],[202.47473,1.90263],[202.49241,1.91261],[202.49808,1.92378],[202.5092,1.92858],[202.51004,1.93343],[202.50829,1.93502],[202.49899,1.92733],[202.49555,1.92634],[202.48076,1.91507],[202.46815,1.90796],[202.46629,1.90204],[202.45913,1.89219],[202.43838,1.87618],[202.43774,1.87328],[202.43889,1.87059],[202.44718,1.85867],[202.45698,1.84905],[202.46316,1.8463],[202.47928,1.85401],[202.48974,1.85605],[202.49204,1.855],[202.49183,1.85706],[202.49393,1.85811],[202.49795,1.85603],[202.49665,1.85733],[202.49732,1.85839],[202.49978,1.85776],[202.50294,1.85464],[202.5129,1.8502],[202.51899,1.84455],[202.52792,1.82177],[202.53418,1.81147],[202.56342,1.78783],[202.57851,1.78281],[202.59564,1.78053],[202.61318,1.77599],[202.63284,1.77697],[202.64014,1.77433],[202.65136,1.7728],[202.66963,1.76359],[202.68575,1.75829],[202.69158,1.7546],[202.69757,1.7478],[202.72338,1.73043],[202.74552,1.71903],[202.75791,1.70395],[202.76257,1.70088],[202.78873,1.69328],[202.79433,1.69348],[202.80923,1.69792],[202.82578,1.69786],[202.83083,1.69963],[202.83396,1.70401],[202.83631,1.71413],[202.83553,1.73213],[202.83187,1.7506],[202.82865,1.75683],[202.82135,1.76407],[202.81523,1.76659],[202.80843,1.76694],[202.79351,1.77094],[202.78315,1.77649],[202.76754,1.77913],[202.75505,1.78717],[202.7512,1.79134],[202.73478,1.79682],[202.7243,1.80496],[202.71257,1.80601],[202.70153,1.81034],[202.68838,1.81834],[202.68118,1.82791],[202.67078,1.82986],[202.65988,1.84472],[202.65596,1.87468],[202.65689,1.891],[202.65421,1.90419],[202.66601,1.93313],[202.67024,1.93896],[202.67552,1.94263],[202.69283,1.94974],[202.69582,1.95359],[202.69804,1.96039],[202.6977,1.96899],[202.6885,1.98406],[202.6858,1.98628],[202.67753,1.98848],[202.6413,1.99193],[202.62034,1.99858],[202.59022,2.01889],[202.58509,2.02394],[202.57537,2.03928],[202.54761,2.0484]]],[[[200.75856,3.85639],[200.75489,3.86403],[200.75254,3.86147],[200.75037,3.86268],[200.74903,3.86123],[200.75054,3.8601],[200.74987,3.85795],[200.75293,3.85454],[200.75351,3.84647],[200.75054,3.84744],[200.7492,3.84508],[200.75143,3.84396],[200.75137,3.84165],[200.74332,3.83325],[200.72914,3.83075],[200.73101,3.83006],[200.73079,3.82889],[200.72886,3.82872],[200.72579,3.82448],[200.72212,3.82391],[200.72247,3.82107],[200.71838,3.82069],[200.72108,3.81786],[200.72125,3.81605],[200.72009,3.81581],[200.71823,3.81658],[200.71751,3.81924],[200.71325,3.81758],[200.70679,3.81806],[200.70282,3.81511],[200.69292,3.81435],[200.67898,3.81924],[200.66994,3.82045],[200.66545,3.82355],[200.65922,3.82532],[200.65149,3.83657],[200.64848,3.84461],[200.64822,3.84985],[200.64313,3.85289],[200.64078,3.85751],[200.6383,3.85894],[200.63647,3.85505],[200.64369,3.83702],[200.66282,3.81318],[200.67246,3.80794],[200.67994,3.80594],[200.69001,3.80564],[200.71414,3.80855],[200.72182,3.81112],[200.74969,3.829],[200.75558,3.83546],[200.75831,3.84328],[200.75856,3.85639]]],[[[200.66709,3.93628],[200.6685,3.93357],[200.66834,3.93453],[200.66972,3.9336],[200.67092,3.93469],[200.67266,3.93296],[200.67401,3.93363],[200.67825,3.92858],[200.67649,3.92747],[200.67859,3.92692],[200.67607,3.92496],[200.67698,3.92037],[200.67389,3.91745],[200.67575,3.90687],[200.67458,3.90461],[200.67327,3.9084],[200.67306,3.90566],[200.67433,3.89992],[200.68432,3.88642],[200.69674,3.87945],[200.70201,3.87813],[200.70897,3.87252],[200.72867,3.86883],[200.73252,3.87074],[200.73933,3.86939],[200.74271,3.86428],[200.74519,3.86351],[200.74813,3.86556],[200.74903,3.868],[200.74809,3.87017],[200.74606,3.87066],[200.74494,3.87325],[200.73433,3.87723],[200.7336,3.87895],[200.73474,3.87939],[200.70745,3.88213],[200.69107,3.89115],[200.68265,3.9023],[200.68063,3.92694],[200.67434,3.93355],[200.66709,3.93628]]],[[[200.65023,3.9397],[200.63974,3.9372],[200.6181,3.92371],[200.61162,3.91517],[200.60542,3.90046],[200.60726,3.89106],[200.61208,3.88282],[200.61705,3.87709],[200.62613,3.8708],[200.6348,3.8594],[200.63807,3.86124],[200.63524,3.86009],[200.63333,3.8635],[200.63658,3.87052],[200.63569,3.87565],[200.61802,3.88527],[200.61538,3.89014],[200.61591,3.90797],[200.61492,3.91121],[200.61967,3.91946],[200.6271,3.92435],[200.63058,3.92558],[200.63756,3.92462],[200.64375,3.92563],[200.64931,3.92966],[200.65625,3.92937],[200.65669,3.93108],[200.65443,3.93296],[200.65226,3.93811],[200.66037,3.93512],[200.66113,3.93244],[200.66019,3.93737],[200.65023,3.9397]]],[[[199.60016,4.69934],[199.59069,4.69468],[199.5897,4.68925],[199.59152,4.68614],[199.60504,4.67721],[199.62121,4.67024],[199.62901,4.66894],[199.64215,4.66946],[199.64875,4.67439],[199.64967,4.67771],[199.64803,4.68464],[199.64487,4.68721],[199.62873,4.69141],[199.61881,4.69665],[199.60839,4.69909],[199.60016,4.69934]]]]}}]}
