{"type":"FeatureCollection","features":[{"type":"Feature","properties":{"id":"km-a","lat":-12.2066,"lng":44.39485},"geometry":{"type":"Polygon","coordinates":[[[44.52906,-12.23284],[44.51149,-12.3803],[44.20639,-12.16058],[44.37355,-12.18035],[44.46705,-12.06439],[44.52906,-12.23284]]]}},{"type":"Feature","properties":{"id":"km-g","lat":-11.67767,"lng":43.31909},"geometry":{"type":"Polygon","coordinates":[[[43.37713,-11.60508],[43.4983,-11.88201],[43.43767,-11.93157],[43.21778,-11.75026],[43.27654,-11.37957],[43.39487,-11.40016],[43.37713,-11.60508]]]}},{"type":"Feature","properties":{"id":"km-m","lat":-12.29469,"lng":43.69091},"geometry":{"type":"Polygon","coordinates":[[[43.63575,-12.23691],[43.85816,-12.37135],[43.66521,-12.35247],[43.63575,-12.23691]]]}}]}
