{"type":"FeatureCollection","features":[{"type":"Feature","properties":{"id":"kn-01","lat":17.34044,"lng":-62.75381},"geometry":{"type":"Polygon","coordinates":[[[-62.78751,17.34985],[-62.73051,17.36461],[-62.74534,17.33103],[-62.78751,17.34985]]]}},{"type":"Feature","properties":{"id":"kn-02","lat":17.37357,"lng":-62.84522},"geometry":{"type":"Polygon","coordinates":[[[-62.80762,17.36671],[-62.86107,17.36229],[-62.85664,17.38042],[-62.80762,17.36671]]]}},{"type":"Feature","properties":{"id":"kn-03","lat":17.28846,"lng":-62.6922},"geometry":{"type":"Polygon","coordinates":[[[-62.73431,17.31871],[-62.63683,17.25821],[-62.62474,17.22529],[-62.73431,17.31871]]]}},{"type":"Feature","properties":{"id":"kn-04","lat":17.12719,"lng":-62.56723},"geometry":{"type":"Polygon","coordinates":[[[-62.57862,17.1455],[-62.54357,17.10887],[-62.56574,17.10053],[-62.57862,17.1455]]]}},{"type":"Feature","properties":{"id":"kn-05","lat":17.16731,"lng":-62.57208},"geometry":{"type":"Polygon","coordinates":[[[-62.61255,17.18913],[-62.56037,17.19672],[-62.53696,17.13839],[-62.57862,17.1455],[-62.61255,17.18913]]]}},{"type":"Feature","properties":{"id":"kn-06","lat":17.38075,"lng":-62.79428},"geometry":{"type":"Polygon","coordinates":[[[-62.82234,17.4101],[-62.76942,17.387],[-62.78751,17.34985],[-62.81475,17.3745],[-62.82234,17.4101]]]}},{"type":"Feature","properties":{"id":"kn-07","lat":17.11624,"lng":-62.59356},"geometry":{"type":"Polygon","coordinates":[[[-62.56574,17.10053],[-62.61217,17.10415],[-62.62157,17.12833],[-62.57862,17.1455],[-62.56574,17.10053]]]}},{"type":"Feature","properties":{"id":"kn-08","lat":17.348,"lng":-62.73251},"geometry":{"type":"Polygon","coordinates":[[[-62.74145,17.35439],[-62.70356,17.3416],[-62.74534,17.33103],[-62.74145,17.35439]]]}},{"type":"Feature","properties":{"id":"kn-09","lat":17.39619,"lng":-62.82457},"geometry":{"type":"Polygon","coordinates":[[[-62.8407,17.38228],[-62.82234,17.4101],[-62.80762,17.36671],[-62.8407,17.38228]]]}},{"type":"Feature","properties":{"id":"kn-10","lat":17.13661,"lng":-62.59863},"geometry":{"type":"Polygon","coordinates":[[[-62.59224,17.13252],[-62.62637,17.14069],[-62.57862,17.1455],[-62.59224,17.13252]]]}},{"type":"Feature","properties":{"id":"kn-11","lat":17.30905,"lng":-62.69649},"geometry":{"type":"Polygon","coordinates":[[[-62.73431,17.31871],[-62.69546,17.33324],[-62.68116,17.2994],[-62.73431,17.31871]]]}},{"type":"Feature","properties":{"id":"kn-12","lat":17.16415,"lng":-62.6076},"geometry":{"type":"Polygon","coordinates":[[[-62.62637,17.14069],[-62.61864,17.18281],[-62.61255,17.18913],[-62.57862,17.1455],[-62.62637,17.14069]]]}},{"type":"Feature","properties":{"id":"kn-13","lat":17.34887,"lng":-62.80017},"geometry":{"type":"Polygon","coordinates":[[[-62.75442,17.33103],[-62.83161,17.33015],[-62.80762,17.36671],[-62.75442,17.33103]]]}},{"type":"Feature","properties":{"id":"kn-14","lat":17.3142,"lng":-62.74769},"geometry":{"type":"Polygon","coordinates":[[[-62.7238,17.29169],[-62.77163,17.29802],[-62.75442,17.33103],[-62.73821,17.33038],[-62.7238,17.29169]]]}}]}
