{"type":"FeatureCollection","features":[{"type":"Feature","properties":{"id":"kp-01","lat":39.01807,"lng":125.95655},"geometry":{"type":"Polygon","coordinates":[[[125.72187,39.28318],[125.86139,39.16089],[125.89674,39.22931],[126.04536,39.23368],[126.22995,39.15733],[126.38725,38.93052],[126.13455,38.974],[126.11833,38.91341],[126.2192,38.78337],[126.09952,38.70945],[125.80145,38.83843],[125.5751,38.7805],[125.52219,38.84613],[125.60394,38.93848],[125.57697,39.06214],[125.66585,39.12273],[125.61965,39.23536],[125.72187,39.28318]]]}},{"type":"Feature","properties":{"id":"kp-02","lat":39.50091,"lng":126.04668},"geometry":{"type":"Polygon","coordinates":[[[125.63009,38.65901],[125.44777,38.77725],[125.27768,38.70332],[125.24098,38.79312],[125.18812,38.73861],[125.13722,38.80353],[125.19864,38.98606],[125.2708,39.08061],[125.33505,39.08344],[125.28407,39.08956],[125.28736,39.15233],[125.4109,39.21381],[125.44492,39.31061],[125.40463,39.36465],[125.45924,39.38508],[125.34254,39.43354],[125.41367,39.53872],[125.76672,39.66086],[126.01539,39.85878],[126.10066,39.82044],[126.36286,39.89372],[126.36007,40.01745],[126.54631,40.03577],[126.91094,40.33472],[127.10473,40.2848],[127.11041,40.19703],[127.17821,40.14194],[127.05853,40.01962],[127.10907,39.87346],[127.0083,39.82612],[126.93533,39.86571],[126.78216,39.83987],[126.67261,39.53735],[126.73793,39.46446],[126.70909,39.30907],[126.90887,39.28484],[126.92944,39.21549],[127.0606,39.15552],[126.92582,39.06346],[126.5769,39.1665],[126.65959,38.98584],[126.50735,39.00093],[126.45774,38.91197],[126.38725,38.93052],[126.22995,39.15733],[126.04536,39.23368],[125.89674,39.22931],[125.86139,39.16089],[125.71287,39.28117],[125.62017,39.23711],[125.66585,39.12273],[125.57697,39.06214],[125.60394,38.93848],[125.52219,38.84613],[125.63009,38.65901]]]}},{"type":"Feature","properties":{"id":"kp-03","lat":40.08596,"lng":125.26043},"geometry":{"type":"MultiPolygon","coordinates":[[[[124.59604,39.43024],[124.61256,39.45714],[124.61907,39.43301],[124.59604,39.43024]]],[[[124.69362,39.53508],[124.69777,39.50259],[124.68015,39.50773],[124.69362,39.53508]]],[[[124.67555,39.53852],[124.59588,39.53791],[124.69809,39.56289],[124.67555,39.53852]]],[[[124.88047,39.61245],[124.93361,39.55054],[124.81856,39.49544],[124.88047,39.61245]]],[[[124.21166,39.79516],[124.23002,39.82117],[124.24163,39.80186],[124.21166,39.79516]]],[[[125.41516,40.65268],[125.59092,40.57068],[125.57583,40.42381],[125.62502,40.32477],[125.80703,40.22362],[125.97694,40.21623],[126.14427,40.07363],[126.36007,40.01745],[126.36875,39.89922],[126.10066,39.82044],[126.01539,39.85878],[125.76672,39.66086],[125.28598,39.52119],[125.22519,39.59121],[125.11695,39.56586],[124.9131,39.65624],[124.7461,39.78294],[124.74391,39.64435],[124.63745,39.59048],[124.64698,39.69758],[124.58481,39.72358],[124.56406,39.81428],[124.41773,39.82453],[124.32154,39.91266],[124.40577,40.02778],[124.4996,40.02253],[124.36996,40.09829],[124.89551,40.48363],[125.04129,40.4611],[125.02511,40.53437],[125.41516,40.65268]]]]}},{"type":"Feature","properties":{"id":"kp-04","lat":40.89249,"lng":126.59495},"geometry":{"type":"Polygon","coordinates":[[[126.9298,41.80104],[126.99962,41.75203],[126.96841,41.58751],[126.82588,41.51266],[126.82071,41.45806],[126.92913,41.44768],[127.06452,41.14503],[127.20488,41.10196],[127.37727,41.16374],[127.38709,41.03414],[127.29882,40.90546],[127.36445,40.77824],[127.22038,40.71813],[127.16591,40.61367],[126.99228,40.54799],[126.80046,40.20062],[126.42591,39.99112],[126.18851,40.05133],[125.97694,40.21623],[125.80703,40.22362],[125.62502,40.32477],[125.57583,40.42381],[125.59516,40.56375],[125.41889,40.66656],[125.57175,40.7849],[125.68264,40.76888],[125.64482,40.81059],[125.76093,40.88567],[126.00784,40.89931],[126.12375,41.07553],[126.27475,41.15258],[126.44089,41.34838],[126.52213,41.35195],[126.56703,41.61415],[126.72795,41.70125],[126.67948,41.73598],[126.78862,41.69591],[126.9298,41.80104]]]}},{"type":"Feature","properties":{"id":"kp-05","lat":38.20847,"lng":125.43183},"geometry":{"type":"MultiPolygon","coordinates":[[[[125.33774,37.7687],[125.24684,37.69986],[125.22055,37.70376],[125.33774,37.7687]]],[[[125.15626,37.78669],[125.18385,37.81883],[125.19288,37.8111],[125.15626,37.78669]]],[[[125.03045,37.83617],[125.02564,37.8083],[124.99773,37.80842],[125.03045,37.83617]]],[[[126.41102,37.90758],[126.15821,37.82966],[126.15821,37.73347],[126.11036,37.74091],[126.05576,37.87059],[125.95948,37.91218],[125.98618,37.82282],[125.92164,37.84488],[125.79933,37.99291],[125.59693,38.03221],[125.73976,37.92524],[125.63063,37.92524],[125.62013,37.76533],[125.5276,37.79613],[125.3475,37.6756],[125.36378,37.76089],[125.44492,37.7744],[125.3899,37.79613],[125.52418,37.81782],[125.4791,37.85761],[125.5101,37.89427],[125.42441,37.91218],[125.38356,37.89175],[125.44492,37.84333],[125.34938,37.86441],[125.30836,37.80915],[125.23951,37.82282],[125.30836,37.87808],[125.26002,37.93268],[125.17661,37.86762],[124.9795,37.92524],[125.17539,37.96992],[125.1067,38.03461],[125.24635,38.02009],[125.2649,38.07795],[125.01352,38.0624],[124.88527,38.13166],[124.66725,38.12572],[124.85597,38.22695],[124.92091,38.18936],[124.99301,38.22695],[124.86964,38.28213],[125.01637,38.49795],[124.98395,38.59194],[125.12801,38.58028],[125.12338,38.66633],[125.1566,38.63173],[125.46266,38.70726],[125.65241,38.62439],[125.70399,38.36011],[125.83297,38.31655],[125.92764,38.17661],[126.24979,38.24028],[126.40575,38.19],[126.41102,37.90758]]],[[[124.90398,38.49437],[124.79949,38.50849],[124.79444,38.53392],[124.84425,38.55516],[124.90398,38.49437]]]]}},{"type":"Feature","properties":{"id":"kp-06","lat":38.41697,"lng":126.22692},"geometry":{"type":"Polygon","coordinates":[[[126.94013,38.17417],[126.66579,37.93763],[126.65162,37.79926],[126.57618,37.77753],[126.40164,37.88902],[126.37485,38.1115],[126.43945,38.13713],[126.39428,38.19837],[126.24979,38.24028],[125.93632,38.17263],[125.83297,38.31655],[125.74388,38.31079],[125.5751,38.7805],[125.80145,38.83843],[126.10779,38.71218],[126.2192,38.78337],[126.11833,38.91341],[126.13455,38.974],[126.46921,38.91124],[126.50735,39.00093],[126.65959,38.98584],[126.5769,39.1665],[126.98174,39.06911],[127.00024,38.93522],[126.8819,38.88918],[126.80015,38.68568],[126.67788,38.61764],[126.70692,38.47876],[126.78929,38.35518],[126.88428,38.33484],[126.87342,38.22632],[126.94013,38.17417]]]}},{"type":"Feature","properties":{"id":"kp-07","lat":38.80661,"lng":127.47033},"geometry":{"type":"Polygon","coordinates":[[[128.36492,38.62434],[128.28109,38.58442],[128.24874,38.42577],[128.10849,38.3235],[127.15749,38.30722],[126.94013,38.17417],[126.87342,38.22632],[126.88428,38.33484],[126.78929,38.35518],[126.70692,38.47876],[126.67788,38.61764],[126.80015,38.68568],[126.8819,38.88918],[127.00861,38.94801],[126.98174,39.06911],[127.06339,39.16053],[127.02907,39.25799],[127.11455,39.39103],[127.24735,39.4139],[127.43807,39.40517],[127.37843,39.37885],[127.4734,39.34756],[127.39194,39.34186],[127.3934,39.20173],[127.75929,39.11701],[128.01466,38.85814],[128.21022,38.72773],[128.28281,38.75507],[128.36492,38.62434]]]}},{"type":"Feature","properties":{"id":"kp-08","lat":40.16861,"lng":127.86358},"geometry":{"type":"Polygon","coordinates":[[[129.16061,40.5646],[129.07756,40.47257],[128.63649,40.31322],[128.66456,40.20124],[128.36477,40.09689],[128.32775,40.02822],[128.26344,40.07711],[128.15512,40.0163],[128.00685,40.04515],[127.90666,39.98394],[127.8746,39.89281],[127.57602,39.79629],[127.50131,39.70722],[127.57456,39.59504],[127.52044,39.51047],[127.55445,39.30598],[127.48292,39.437],[127.13873,39.40796],[127.02525,39.2044],[126.92944,39.21549],[126.90887,39.28484],[126.7001,39.32],[126.73793,39.46446],[126.67261,39.53735],[126.77627,39.83315],[127.09501,39.85398],[127.05853,40.01962],[127.17769,40.13597],[127.05688,40.32072],[126.91197,40.33475],[126.97977,40.53112],[127.36445,40.77824],[127.30647,40.94153],[127.39174,41.07129],[127.49406,41.06711],[127.53168,41.1455],[127.67462,41.10483],[127.65477,41.00892],[127.58542,40.98985],[127.61777,40.92215],[127.51742,40.84063],[127.69549,40.59618],[127.77156,40.58],[127.72919,40.4041],[127.97258,40.56701],[128.20161,40.5721],[128.35354,40.76945],[128.35871,40.99236],[128.50774,41.01832],[128.61957,41.10144],[128.63022,41.17232],[128.92333,41.08829],[128.92446,40.81544],[129.07339,40.57887],[129.16061,40.5646]]]}},{"type":"Feature","properties":{"id":"kp-09","lat":41.78573,"lng":129.32099},"geometry":{"type":"Polygon","coordinates":[[[129.92068,43.01027],[129.99571,42.9619],[130.12149,42.98185],[130.09876,42.92152],[130.23901,42.90224],[130.24304,42.74336],[130.42773,42.59936],[130.433,42.4527],[130.26178,42.41768],[130.19931,42.1013],[130.07304,42.07846],[129.96469,41.89875],[129.89674,41.90426],[129.85246,41.76492],[129.77476,41.75942],[129.69082,41.64972],[129.6594,41.46465],[129.80616,41.37604],[129.71193,41.12263],[129.76489,40.94441],[129.71656,40.83459],[129.57177,40.83972],[129.35169,40.74534],[129.30323,40.67365],[129.23348,40.70571],[129.17262,40.56891],[129.08972,40.57122],[128.91785,40.83128],[128.93862,41.25402],[128.82845,41.42026],[128.91361,41.54504],[128.7807,41.62139],[128.78318,41.80654],[128.73367,41.81083],[128.70494,41.91899],[129.21116,42.21996],[129.1939,42.31824],[129.34015,42.44547],[129.53517,42.36956],[129.59171,42.44795],[129.70333,42.44237],[129.78756,42.67685],[129.76131,42.74605],[129.92068,43.01027]]]}},{"type":"Feature","properties":{"id":"kp-10","lat":41.21551,"lng":127.97678},"geometry":{"type":"Polygon","coordinates":[[[128.02147,41.97982],[128.88317,42.03041],[128.70494,41.91899],[128.73367,41.81083],[128.78318,41.80654],[128.7807,41.62139],[128.91361,41.54504],[128.82845,41.42026],[128.93862,41.25402],[128.92333,41.08829],[128.63022,41.17232],[128.61957,41.10144],[128.50774,41.01832],[128.35871,40.99236],[128.35354,40.76945],[128.20161,40.5721],[127.97258,40.56701],[127.75864,40.40554],[127.72247,40.46037],[127.77156,40.58],[127.69549,40.59618],[127.51742,40.84063],[127.61777,40.92215],[127.58542,40.98985],[127.66252,41.02013],[127.66149,41.12922],[127.53168,41.1455],[127.47452,41.06199],[127.39174,41.07129],[127.35556,41.17563],[127.21831,41.10325],[127.12219,41.1161],[127.03331,41.177],[126.92913,41.44768],[126.81472,41.47344],[126.95962,41.5725],[126.99962,41.75203],[127.05899,41.6433],[127.17971,41.58516],[127.13465,41.52201],[127.54289,41.49132],[127.63834,41.42988],[128.00142,41.47086],[128.01516,41.41329],[128.14611,41.37634],[128.303,41.58341],[128.05764,41.84985],[128.02147,41.97982]]]}},{"type":"Feature","properties":{"id":"kp-13","lat":42.37673,"lng":130.45021},"geometry":{"type":"Polygon","coordinates":[[[130.50142,42.61078],[130.69996,42.29511],[130.59754,42.26278],[130.51019,42.33578],[130.40745,42.32458],[130.40089,42.2425],[130.20227,42.17355],[130.26178,42.41768],[130.433,42.4527],[130.50142,42.61078]]]}}]}
