{"type":"FeatureCollection","features":[{"type":"Feature","properties":{"id":"kr-11","lat":37.55864,"lng":126.96514},"geometry":{"type":"Polygon","coordinates":[[[127.05429,37.68313],[127.10742,37.65739],[127.11589,37.55058],[127.19475,37.54324],[127.14462,37.45777],[126.92076,37.42947],[126.84252,37.47751],[126.80872,37.57722],[126.89254,37.5667],[127.05429,37.68313]]]}},{"type":"Feature","properties":{"id":"kr-26","lat":35.15663,"lng":129.08046},"geometry":{"type":"Polygon","coordinates":[[[129.19927,35.16364],[129.12026,35.14962],[129.12347,35.10084],[129.06384,35.12085],[128.95845,35.05039],[129.04425,35.26384],[129.19927,35.16364]]]}},{"type":"Feature","properties":{"id":"kr-27","lat":35.86118,"lng":128.61842},"geometry":{"type":"Polygon","coordinates":[[[128.69316,36.00933],[128.76178,35.89463],[128.71104,35.79911],[128.56242,35.76828],[128.48129,35.82774],[128.52965,35.96799],[128.69316,36.00933]]]}},{"type":"Feature","properties":{"id":"kr-28","lat":37.45766,"lng":126.69286},"geometry":{"type":"MultiPolygon","coordinates":[[[[126.79581,37.44304],[126.61509,37.37974],[126.59502,37.47227],[126.64416,37.50438],[126.60379,37.5493],[126.75953,37.50706],[126.79581,37.44304]]],[[[126.56723,37.51123],[126.44341,37.42063],[126.35551,37.46622],[126.51483,37.53435],[126.56723,37.51123]]]]}},{"type":"Feature","properties":{"id":"kr-29","lat":35.21356,"lng":126.91991},"geometry":{"type":"Polygon","coordinates":[[[126.93399,35.25459],[127.00582,35.19305],[126.96644,35.15008],[126.82288,35.23408],[126.93399,35.25459]]]}},{"type":"Feature","properties":{"id":"kr-30","lat":36.33264,"lng":127.36956},"geometry":{"type":"Polygon","coordinates":[[[127.31659,36.23321],[127.21899,36.45624],[127.35257,36.47907],[127.48228,36.3745],[127.44982,36.29078],[127.31659,36.23321]]]}},{"type":"Feature","properties":{"id":"kr-31","lat":35.48537,"lng":129.19},"geometry":{"type":"Polygon","coordinates":[[[129.45906,35.61078],[129.4546,35.51325],[129.41285,35.47207],[129.37355,35.53278],[129.36044,35.35358],[129.29272,35.31605],[128.98771,35.49866],[129.00849,35.57951],[129.14088,35.67793],[129.45906,35.61078]]]}},{"type":"Feature","properties":{"id":"kr-41","lat":37.54627,"lng":127.43936},"geometry":{"type":"MultiPolygon","coordinates":[[[[126.12159,37.21092],[126.10475,37.26752],[126.15919,37.23192],[126.12159,37.21092]]],[[[126.61354,37.23282],[126.53932,37.19806],[126.54078,37.28294],[126.57667,37.28766],[126.61354,37.23282]]],[[[126.46119,37.28059],[126.46949,37.23347],[126.43572,37.23843],[126.46119,37.28059]]],[[[126.69633,37.94619],[126.96607,38.21304],[127.17677,38.0738],[127.20023,38.13933],[127.30709,38.13788],[127.29676,38.08362],[127.44496,38.06553],[127.47866,37.96375],[127.60216,37.90978],[127.62067,37.84053],[127.53788,37.79165],[127.53974,37.60458],[127.83109,37.50849],[127.51773,37.01428],[127.25996,36.87894],[127.13088,36.92581],[126.96169,36.90511],[127.042,36.9936],[126.96909,36.93203],[126.87338,36.94798],[126.82441,37.00262],[126.91098,37.01411],[126.87916,37.1],[126.84913,37.0373],[126.75522,37.04881],[126.76445,37.11766],[126.8707,37.17548],[126.69215,37.12499],[126.66529,37.17548],[126.719,37.21288],[126.65846,37.2543],[126.78199,37.22016],[126.8707,37.26789],[126.68979,37.33249],[126.79581,37.44304],[126.70062,37.55202],[126.60379,37.5493],[126.53102,37.75471],[126.64853,37.76504],[126.66147,37.67243],[126.75522,37.63788],[126.6788,37.68626],[126.69633,37.94619]],[[127.10742,37.65739],[127.02308,37.67721],[126.91373,37.57693],[126.79374,37.55166],[126.92076,37.42947],[127.11868,37.44552],[127.19475,37.54324],[127.11589,37.55058],[127.10742,37.65739]]],[[[125.70623,37.67231],[125.68458,37.65729],[125.68043,37.67829],[125.70623,37.67231]]],[[[126.32,37.74722],[126.34986,37.65738],[126.28199,37.69929],[126.32,37.74722]]],[[[126.542,37.63105],[126.37013,37.63105],[126.41668,37.65184],[126.36695,37.72724],[126.40707,37.8207],[126.51637,37.76724],[126.542,37.63105]]],[[[126.34254,37.79214],[126.31821,37.76227],[126.22047,37.77131],[126.26051,37.81477],[126.34254,37.79214]]],[[[124.70916,37.84756],[124.68458,37.79999],[124.67351,37.81704],[124.70916,37.84756]]],[[[124.74366,37.96967],[124.68491,37.91999],[124.61362,37.94505],[124.74366,37.96967]]]]}},{"type":"Feature","properties":{"id":"kr-42","lat":37.64172,"lng":128.31429},"geometry":{"type":"Polygon","coordinates":[[[127.97175,38.30004],[128.22559,38.39978],[128.28109,38.58442],[128.36492,38.62434],[128.64283,38.1293],[129.06422,37.67886],[129.33106,37.28217],[129.43409,37.0611],[129.47389,36.73062],[129.42262,36.61664],[129.27793,36.63229],[129.28609,36.81956],[129.16837,36.84163],[129.0981,36.91873],[129.10089,36.97593],[129.18946,36.99681],[129.14853,37.0349],[128.88167,37.02611],[128.80385,37.09288],[128.73047,36.99795],[128.2753,37.10688],[128.32191,37.17543],[128.19107,37.20279],[128.038,37.15081],[127.98757,37.21827],[127.88845,37.1144],[127.81042,37.11779],[127.819,37.16605],[127.60702,37.13135],[127.83109,37.50849],[127.53974,37.60458],[127.53788,37.79165],[127.62583,37.8811],[127.47866,37.96375],[127.44496,38.06553],[127.29676,38.08362],[127.30709,38.13788],[127.20023,38.13933],[127.17677,38.0738],[126.96607,38.21304],[127.15749,38.30722],[127.97175,38.30004]]]}},{"type":"Feature","properties":{"id":"kr-43","lat":36.61975,"lng":127.55724},"geometry":{"type":"Polygon","coordinates":[[[127.49261,37.00027],[127.60702,37.13135],[127.819,37.16605],[127.81042,37.11779],[127.88845,37.1144],[127.98757,37.21827],[128.038,37.15081],[128.19107,37.20279],[128.32191,37.17543],[128.2753,37.10688],[128.65027,37.02226],[128.46506,36.91043],[128.42537,36.78897],[128.34166,36.76075],[128.23789,36.83189],[128.20244,36.77631],[128.05712,36.77574],[128.0595,36.67466],[127.95046,36.69698],[127.78872,36.56485],[127.88814,36.4794],[127.83688,36.24471],[128.00007,36.22934],[128.03408,36.16371],[127.96462,36.15159],[127.927,36.02382],[127.75368,35.97522],[127.61901,36.02951],[127.55834,36.18603],[127.46574,36.2036],[127.53891,36.39018],[127.37158,36.42574],[127.36135,36.54366],[127.2117,36.53565],[127.33934,36.76481],[127.25996,36.87894],[127.49261,37.00027]]]}},{"type":"Feature","properties":{"id":"kr-44","lat":36.52808,"lng":126.78313},"geometry":{"type":"MultiPolygon","coordinates":[[[[126.34118,36.60413],[126.43214,36.40794],[126.36378,36.41136],[126.32814,36.47109],[126.34118,36.60413]]],[[[127.06473,36.13263],[126.69248,35.9999],[126.58945,36.13081],[126.49342,36.13081],[126.60328,36.17182],[126.53492,36.21963],[126.58261,36.29466],[126.51376,36.32266],[126.58261,36.35301],[126.49878,36.42011],[126.61744,36.47346],[126.49765,36.44839],[126.47958,36.74714],[126.42424,36.60658],[126.36715,36.62906],[126.34303,36.74038],[126.30152,36.69937],[126.34303,36.61001],[126.29526,36.58271],[126.27418,36.71988],[126.17775,36.67325],[126.21339,36.72671],[126.15821,36.76081],[126.12892,36.7119],[126.16562,36.81607],[126.24,36.81607],[126.19223,36.88593],[126.27524,36.87474],[126.28566,36.96113],[126.3235,36.88325],[126.28598,36.79458],[126.3567,36.78876],[126.3287,36.84699],[126.40455,36.857],[126.4192,36.92231],[126.35304,36.99999],[126.4454,37.0034],[126.4839,36.8415],[126.51914,36.9479],[126.58261,36.89802],[126.50074,37.055],[126.6261,36.9961],[126.63111,36.91161],[126.68154,36.9947],[126.79623,36.95576],[126.85084,36.75397],[126.86329,36.82909],[126.9048,36.82225],[126.8602,36.86957],[126.96169,36.90511],[127.13088,36.92581],[127.25996,36.87894],[127.32756,36.72344],[127.24653,36.64603],[127.10424,36.69157],[127.05977,36.45563],[127.21899,36.45624],[127.31659,36.23321],[127.53891,36.39018],[127.46574,36.2036],[127.55834,36.18603],[127.61901,36.02951],[127.43246,35.98708],[127.30647,36.12116],[127.11403,36.05571],[127.06473,36.13263]]]]}},{"type":"Feature","properties":{"id":"kr-45","lat":35.68723,"lng":127.10859},"geometry":{"type":"MultiPolygon","coordinates":[[[[126.25367,35.57437],[126.27613,35.61286],[126.3073,35.61664],[126.30567,35.60322],[126.25367,35.57437]]],[[[126.42311,35.38337],[126.49266,35.52533],[126.64289,35.57278],[126.69248,35.53437],[126.67018,35.58869],[126.51316,35.5769],[126.46756,35.63964],[126.66215,35.793],[126.78199,35.76024],[126.70338,35.84846],[126.83749,35.8933],[126.61229,35.89022],[126.52142,35.97052],[126.74448,35.98957],[126.86891,36.04751],[126.81208,36.0473],[126.85709,36.09222],[127.06473,36.13263],[127.11403,36.05571],[127.30647,36.12116],[127.43246,35.98708],[127.61901,36.02951],[127.75368,35.97522],[127.8776,36.00736],[127.91853,35.95075],[127.86758,35.8342],[127.70655,35.73482],[127.62914,35.52217],[127.69425,35.41381],[127.61746,35.27663],[127.49644,35.33311],[127.12674,35.28444],[127.06628,35.4297],[126.98008,35.3826],[126.8851,35.46096],[126.79126,35.43021],[126.75136,35.33978],[126.59499,35.29438],[126.58373,35.39185],[126.42311,35.38337]]]]}},{"type":"Feature","properties":{"id":"kr-46","lat":34.86945,"lng":127.02192},"geometry":{"type":"MultiPolygon","coordinates":[[[[125.12281,34.05117],[125.11329,34.09284],[125.13738,34.05134],[125.12281,34.05117]]],[[[126.08871,34.30793],[126.02866,34.28734],[126.02573,34.31078],[126.08871,34.30793]]],[[[126.34588,34.409],[126.15642,34.35261],[126.10328,34.40278],[126.26832,34.52204],[126.26393,34.57575],[126.38006,34.49844],[126.34588,34.409]]],[[[126.09938,34.55866],[126.05763,34.53254],[126.03159,34.53905],[126.08131,34.58076],[126.06764,34.62547],[126.09938,34.55866]]],[[[126.01661,34.60615],[126.06039,34.5843],[126.02858,34.56586],[126.01661,34.60615]]],[[[125.41285,34.69196],[125.40854,34.62861],[125.39877,34.63199],[125.41285,34.69196]]],[[[125.97674,34.72826],[125.95973,34.65668],[125.91603,34.68765],[125.97674,34.72826]]],[[[126.16358,34.75495],[126.10426,34.72199],[126.06959,34.76968],[126.16358,34.75495]]],[[[126.00074,34.79011],[125.91814,34.71817],[125.89259,34.73664],[126.00074,34.79011]]],[[[126.15903,34.80459],[126.12159,34.77652],[126.09254,34.78758],[126.15903,34.80459]]],[[[126.06414,34.8426],[126.15203,34.87116],[126.10523,34.79816],[126.06414,34.8426]]],[[[126.06031,34.92691],[126.0691,34.86274],[125.9865,34.86274],[126.06031,34.92691]]],[[[126.22535,34.9134],[126.25318,34.9335],[126.25017,34.91885],[126.22535,34.9134]]],[[[126.17416,35.05317],[126.13356,35.03974],[126.12965,35.05268],[126.17416,35.05317]]],[[[126.26108,35.02456],[126.16481,35.10228],[126.23601,35.09837],[126.26108,35.02456]]],[[[126.11061,35.05117],[126.0691,35.10236],[126.16521,35.1435],[126.11061,35.05117]]],[[[127.32472,34.01069],[127.29322,34.01724],[127.28004,34.05744],[127.32472,34.01069]]],[[[126.60581,34.15615],[126.53688,34.12645],[126.50709,34.13886],[126.53289,34.1791],[126.60581,34.15615]]],[[[126.67075,34.18989],[126.63868,34.12812],[126.64527,34.19717],[126.67075,34.18989]]],[[[126.91358,34.15766],[126.8532,34.159],[126.86085,34.20185],[126.89926,34.20966],[126.91358,34.15766]]],[[[126.61622,34.21328],[126.54981,34.19123],[126.55641,34.23212],[126.61622,34.21328]]],[[[126.89332,34.34125],[126.78875,34.32095],[126.75758,34.33613],[126.89332,34.34125]]],[[[126.75831,34.29092],[126.65187,34.32978],[126.65366,34.39521],[126.72185,34.38129],[126.75831,34.29092]]],[[[127.07244,34.34211],[127.03883,34.31289],[126.99147,34.35627],[127.0254,34.38133],[127.07244,34.34211]]],[[[126.7684,34.41136],[126.83546,34.43806],[126.8611,34.39277],[126.77573,34.35472],[126.7684,34.41136]]],[[[127.49464,34.41425],[127.45216,34.45303],[127.45338,34.47061],[127.53191,34.45059],[127.49464,34.41425]]],[[[127.24187,34.44546],[127.153,34.41958],[127.11052,34.46491],[127.22055,34.48575],[127.24187,34.44546]]],[[[127.77117,34.48819],[127.73219,34.50849],[127.7129,34.54243],[127.76108,34.54312],[127.77117,34.48819]]],[[[127.81813,34.61616],[127.78663,34.57901],[127.74,34.61367],[127.76254,34.71284],[127.81813,34.61616]]],[[[126.33766,34.83173],[126.30616,34.8559],[126.23072,34.85456],[126.31471,34.91413],[126.33766,34.83173]]],[[[127.73658,34.97289],[127.64112,34.89912],[127.58066,34.93366],[127.64601,34.81607],[127.77564,34.84907],[127.74155,34.72557],[127.62428,34.69823],[127.64072,34.61799],[127.5608,34.66218],[127.58448,34.74624],[127.52125,34.88984],[127.36533,34.82404],[127.42555,34.80073],[127.35792,34.75971],[127.50359,34.59132],[127.34938,34.58584],[127.43922,34.54068],[127.3436,34.44501],[127.22348,34.54682],[127.12452,34.54068],[127.21339,34.63687],[127.19288,34.57477],[127.24667,34.58373],[127.27475,34.70515],[127.31446,34.65192],[127.35792,34.69823],[127.24806,34.76655],[127.19972,34.69147],[127.01027,34.61249],[126.89796,34.41771],[126.80983,34.45124],[126.77784,34.58649],[126.76148,34.47919],[126.63364,34.3957],[126.60328,34.30044],[126.52125,34.29418],[126.47958,34.34882],[126.51759,34.41376],[126.47031,34.49649],[126.54176,34.51333],[126.53964,34.56297],[126.39088,34.53384],[126.27109,34.64248],[126.29843,34.75348],[126.38233,34.60273],[126.45314,34.58381],[126.47275,34.60204],[126.38613,34.63584],[126.37861,34.71118],[126.53571,34.62318],[126.62363,34.62995],[126.36402,34.74916],[126.53492,34.74604],[126.54444,34.79572],[126.66529,34.80809],[126.57578,34.82176],[126.56764,34.90143],[126.51328,34.78229],[126.37355,34.79072],[126.43637,34.98139],[126.3152,34.93789],[126.37412,35.01683],[126.25424,35.12344],[126.34303,35.15697],[126.42506,35.01976],[126.4524,35.10029],[126.36354,35.23949],[126.30893,35.2333],[126.37729,35.25259],[126.41139,35.36986],[126.58373,35.39185],[126.59499,35.29438],[126.75136,35.33978],[126.86691,35.46202],[126.98008,35.3826],[127.06628,35.4297],[127.12674,35.28444],[127.56041,35.31423],[127.80499,34.95715],[127.73658,34.97289]],[[126.82288,35.23408],[126.90474,35.15814],[127.00582,35.19305],[126.93399,35.25459],[126.82288,35.23408]]]]}},{"type":"Feature","properties":{"id":"kr-47","lat":36.32633,"lng":128.63622},"geometry":{"type":"MultiPolygon","coordinates":[[[[129.42286,36.61498],[129.44093,36.40794],[129.38234,36.20185],[129.43051,36.0974],[129.38086,36.04149],[129.45333,35.99329],[129.5548,36.08248],[129.58725,36.01691],[129.45906,35.61078],[129.26925,35.61622],[129.17551,35.68219],[128.98048,35.57189],[128.61492,35.5438],[128.55012,35.6403],[128.42144,35.57928],[128.21959,35.61276],[128.2165,35.70511],[128.1243,35.79363],[127.92194,35.86484],[127.8776,36.00736],[127.96462,36.15159],[128.03408,36.16371],[128.00007,36.22934],[127.83688,36.24471],[127.88814,36.4794],[127.78872,36.56485],[127.95046,36.69698],[128.0595,36.67466],[128.05712,36.77574],[128.20244,36.77631],[128.23789,36.83189],[128.34166,36.76075],[128.42537,36.78897],[128.50475,36.94072],[128.65027,37.02226],[128.756,36.99604],[128.75848,37.06497],[128.83113,37.09117],[128.88167,37.02611],[129.17974,37.01986],[129.0981,36.91873],[129.16837,36.84163],[129.28609,36.81956],[129.27793,36.63229],[129.42286,36.61498]],[[128.75693,35.86189],[128.73326,35.9855],[128.64034,36.00654],[128.52965,35.96799],[128.47529,35.84621],[128.56242,35.76828],[128.68871,35.78813],[128.75693,35.86189]]],[[[130.92067,37.53559],[130.89674,37.46312],[130.81105,37.48701],[130.83229,37.53213],[130.92067,37.53559]]]]}},{"type":"Feature","properties":{"id":"kr-48","lat":35.36477,"lng":128.42763},"geometry":{"type":"MultiPolygon","coordinates":[[[[128.29461,34.63955],[128.23626,34.61046],[128.22877,34.64785],[128.29461,34.63955]]],[[[128.42823,34.82745],[128.42308,34.76325],[128.33205,34.8257],[128.35183,34.83542],[128.42823,34.82745]]],[[[128.22731,34.83857],[128.23845,34.79694],[128.20582,34.81562],[128.22731,34.83857]]],[[[128.06625,34.78303],[128.05592,34.69823],[127.97527,34.69994],[127.93767,34.76703],[127.87713,34.71695],[127.82936,34.86896],[127.91725,34.93618],[127.91993,34.83543],[128.06625,34.78303]]],[[[128.70289,35.03294],[128.74171,34.79072],[128.68637,34.80809],[128.65724,34.75699],[128.69386,34.73615],[128.58399,34.70515],[128.61818,34.72557],[128.56039,34.78181],[128.6045,34.83543],[128.52882,34.80809],[128.48845,34.86896],[128.64552,34.89069],[128.61061,34.9549],[128.70289,35.03294]]],[[[128.07179,34.8334],[127.98731,34.83808],[127.96363,34.85977],[128.01783,34.91657],[128.07179,34.8334]]],[[[128.82667,34.99238],[128.80161,35.04914],[128.81495,35.06126],[128.84327,35.04719],[128.82667,34.99238]]],[[[128.91842,35.08188],[128.89793,35.1213],[128.88219,35.08149],[128.70045,35.09614],[128.60206,35.21393],[128.65211,35.06135],[128.51124,35.10423],[128.38917,35.04902],[128.37143,35.00678],[128.48813,35.05117],[128.4996,35.00922],[128.42001,34.98273],[128.43295,34.89069],[128.47446,34.89069],[128.41293,34.83763],[128.32651,34.88907],[128.33505,34.94733],[128.30226,34.90803],[128.22413,34.93789],[128.20704,34.89069],[128.05568,34.93163],[128.06935,35.08246],[128.00685,34.99177],[127.92579,35.01976],[127.8912,34.94668],[127.80499,34.95715],[127.61209,35.25482],[127.69425,35.41381],[127.62914,35.52217],[127.70655,35.73482],[127.91388,35.88706],[128.14332,35.77683],[128.2165,35.70511],[128.21959,35.61276],[128.42144,35.57928],[128.55012,35.6403],[128.5836,35.55995],[128.75248,35.53106],[129.00849,35.57951],[129.0027,35.47396],[129.26884,35.31572],[129.19927,35.16364],[129.06781,35.27157],[128.91842,35.08188]]]]}},{"type":"Feature","properties":{"id":"kr-49","lat":33.38734,"lng":126.56462},"geometry":{"type":"Polygon","coordinates":[[[126.94606,33.47801],[126.84059,33.31021],[126.60692,33.24061],[126.27003,33.19758],[126.16114,33.30077],[126.31057,33.46448],[126.48493,33.52076],[126.79236,33.5638],[126.94606,33.47801]]]}},{"type":"Feature","properties":{"id":"kr-50","lat":36.59485,"lng":127.15819},"geometry":{"type":"Polygon","coordinates":[[[127.10424,36.69157],[127.24653,36.64603],[127.2117,36.53565],[127.36135,36.54366],[127.35257,36.47907],[127.05977,36.45563],[127.10424,36.69157]]]}}]}
