{"type":"FeatureCollection","features":[{"type":"Feature","properties":{"id":"kw-ah","lat":28.93534,"lng":47.84947},"geometry":{"type":"Polygon","coordinates":[[[47.66813,28.53351],[47.44632,28.97624],[47.76993,29.0558],[47.84166,29.26625],[47.87721,29.18504],[48.10613,29.21353],[48.17604,28.98379],[48.27947,28.89444],[48.32879,28.75996],[48.39357,28.74339],[48.35182,28.64053],[48.38673,28.654],[48.43278,28.54048],[47.66813,28.53351]]]}},{"type":"Feature","properties":{"id":"kw-fa","lat":29.25935,"lng":47.94331},"geometry":{"type":"Polygon","coordinates":[[[47.86486,29.30997],[47.99178,29.33036],[48.03457,29.20873],[47.87721,29.18504],[47.86486,29.30997]]]}},{"type":"Feature","properties":{"id":"kw-ha","lat":29.33019,"lng":48.0528},"geometry":{"type":"Polygon","coordinates":[[[48.00836,29.36915],[48.10027,29.34995],[48.09383,29.31042],[48.00872,29.29537],[48.00836,29.36915]]]}},{"type":"Feature","properties":{"id":"kw-ja","lat":29.50339,"lng":47.37535},"geometry":{"type":"MultiPolygon","coordinates":[[[[47.73143,30.08855],[47.94801,29.99404],[47.99562,29.8277],[48.18092,29.56222],[47.96553,29.5763],[47.71839,29.39419],[47.85115,29.3802],[47.81643,29.33756],[47.86486,29.30997],[47.78409,29.20367],[47.76993,29.0558],[47.44632,28.97624],[46.53244,29.09575],[46.85345,29.44456],[47.1447,30.00334],[47.35822,30.09212],[47.73143,30.08855]]],[[[48.30307,29.64521],[48.1858,29.60395],[48.04607,29.80044],[48.11329,29.8391],[48.09506,29.89472],[48.1937,29.91645],[48.13356,29.98969],[48.34449,29.79059],[48.30307,29.64521]]],[[[48.10613,30.01765],[48.00929,29.98688],[48.10922,30.02798],[48.10613,30.01765]]]]}},{"type":"Feature","properties":{"id":"kw-ku","lat":29.34976,"lng":47.95613},"geometry":{"type":"MultiPolygon","coordinates":[[[[47.87695,29.32867],[47.98574,29.39376],[48.00836,29.36915],[47.99178,29.33036],[47.87695,29.32867]]],[[[48.2811,29.4711],[48.39736,29.3875],[48.26924,29.42968],[48.2811,29.4711]]]]}},{"type":"Feature","properties":{"id":"kw-mu","lat":29.25445,"lng":48.06093},"geometry":{"type":"Polygon","coordinates":[[[48.09383,29.31042],[48.10613,29.21353],[48.03457,29.20873],[48.00872,29.29537],[48.09383,29.31042]]]}}]}
