{"type":"FeatureCollection","features":[{"type":"Feature","properties":{"id":"kz-akm","lat":51.86049,"lng":69.88824},"geometry":{"type":"Polygon","coordinates":[[[65.444,51.75475],[65.70806,51.78948],[65.86051,51.89407],[65.95663,52.11992],[66.03724,52.17826],[66.05295,52.40212],[66.23547,52.36869],[66.3102,52.29634],[66.64103,52.32125],[66.69126,52.25061],[67.14797,52.20844],[67.45287,52.23518],[67.46578,52.38264],[67.57327,52.39597],[68.02627,52.26358],[68.22501,52.40641],[68.14698,52.51212],[68.45983,52.5772],[68.57517,52.69647],[68.85361,52.79854],[68.81547,52.96222],[68.89216,53.00307],[68.92265,53.11149],[68.58241,53.40069],[68.77516,53.48436],[68.73516,53.53425],[68.89877,53.55632],[68.86136,53.6236],[69.12201,53.61668],[69.2296,53.66802],[69.49626,53.50185],[69.45646,53.56624],[69.50184,53.62339],[69.83763,53.68768],[69.9293,53.63443],[69.96961,53.48635],[70.2006,53.47891],[70.11317,53.36295],[70.3053,53.36604],[70.53567,53.23939],[70.6722,53.39514],[71.05967,53.41338],[71.09802,53.32796],[71.31341,53.28951],[71.60837,53.37979],[71.8251,53.19688],[71.73105,53.01149],[71.78676,52.94199],[72.23893,52.90718],[72.44254,52.99284],[72.83972,53.04136],[72.96261,52.76184],[73.47637,52.668],[73.65724,52.58196],[73.96782,52.56767],[74.02786,52.46806],[74.05236,51.90655],[73.90115,51.82691],[73.83625,51.62336],[74.0259,51.63594],[74.27364,51.53722],[73.85227,51.40994],[73.71388,51.25651],[73.29148,51.25889],[73.36155,51.08647],[73.46997,51.14075],[73.60959,51.09727],[73.07102,50.84434],[72.90039,50.86888],[72.77616,50.73365],[72.54279,50.67644],[72.51271,50.61918],[72.55498,50.56459],[72.49979,50.52955],[72.37722,50.56154],[72.29185,50.5202],[72.27552,50.41501],[71.85652,50.39791],[71.94034,50.6504],[71.63649,50.7615],[71.4181,50.59857],[70.95033,50.41449],[70.89286,50.21686],[70.80915,50.26918],[70.67417,50.23512],[70.61443,50.07276],[70.29104,49.98708],[70.2499,50.06506],[70.32628,50.14857],[70.24711,50.22159],[69.82998,50.17262],[69.57367,50.34075],[69.5008,50.33104],[69.39486,50.20412],[69.31291,50.22138],[69.32779,50.16187],[69.27094,50.13642],[68.82095,50.18696],[68.99541,50.69928],[68.77805,50.75359],[68.38397,50.61567],[68.03123,50.61391],[68.09665,50.50555],[68.02234,50.46937],[67.33411,50.33248],[67.18818,50.43248],[67.23314,50.56275],[67.12462,50.61787],[66.83492,50.58663],[66.47701,50.66409],[66.3135,50.77313],[66.17553,50.79116],[66.06019,50.89746],[65.72088,50.7938],[65.70837,50.97379],[65.50332,51.26201],[65.62001,51.35294],[65.6445,51.55696],[65.43015,51.694],[65.444,51.75475]],[[71.46955,50.9747],[71.57529,51.03655],[71.60722,51.16025],[71.42566,51.29991],[71.31392,51.28794],[71.25008,51.15626],[71.46955,50.9747]]]}},{"type":"Feature","properties":{"id":"kz-akt","lat":48.25921,"lng":59.34388},"geometry":{"type":"Polygon","coordinates":[[[59.05513,45.32402],[58.53144,45.55872],[56.70761,45.16191],[56.54118,45.95378],[56.27122,46.45717],[55.4938,46.65963],[55.16669,46.91729],[54.9975,47.15226],[55.06055,47.76282],[54.97321,48.01232],[54.87286,48.09076],[54.79369,48.42766],[54.84878,48.62887],[54.80051,48.74121],[54.57758,48.8134],[54.4426,48.65763],[54.07177,48.71677],[54.08179,48.89469],[53.97886,49.12775],[53.90516,49.05825],[53.67324,49.18444],[53.71345,49.46274],[54.00593,49.61715],[54.29263,49.6501],[54.51402,49.93168],[54.55122,50.03137],[54.42379,50.15012],[54.39154,50.35827],[54.67628,50.60254],[54.63825,50.88573],[54.50296,50.92826],[54.53376,51.00324],[54.68579,51.02355],[55.04773,50.88423],[55.08401,50.7969],[55.30539,50.66497],[55.46776,50.65696],[55.65999,50.53004],[56.07888,50.72476],[56.15836,50.90552],[56.31546,50.88382],[56.47834,51.07303],[56.68835,50.96914],[56.71605,51.07247],[57.15447,51.09996],[57.33431,50.89741],[57.46763,50.8585],[57.5559,50.91875],[57.7224,50.90873],[57.7688,51.11967],[58.16764,51.05518],[58.30841,51.15003],[58.37797,51.07066],[58.59501,51.02337],[58.55015,50.89328],[58.641,50.86341],[58.66436,50.78992],[58.74776,50.79509],[58.92594,50.67815],[59.43764,50.63112],[59.56342,50.57986],[59.4517,50.53728],[59.52281,50.47465],[59.81571,50.56291],[60.02128,50.85406],[60.1362,50.8445],[60.17672,50.74218],[60.30043,50.68466],[60.71849,50.65267],[61.3721,50.78248],[61.53416,51.20607],[61.64626,51.26319],[61.87326,51.29586],[62.03015,51.06515],[62.15438,51.11037],[62.2939,51.03965],[62.23913,50.9457],[62.37524,50.85064],[62.31375,50.69603],[62.44573,50.67484],[62.5342,50.43904],[62.88973,50.02421],[62.91309,49.89716],[62.71403,49.90827],[62.61058,49.85512],[62.41286,49.6009],[62.45286,49.52049],[62.27912,49.4884],[62.485,49.22808],[62.27757,49.18607],[62.37328,49.167],[62.66453,48.87826],[63.03091,48.86304],[63.02967,48.69191],[63.66147,48.46973],[64.20355,47.87853],[62.84209,47.18386],[62.44986,47.2482],[62.46723,47.29184],[62.31954,47.44553],[62.04844,47.57069],[61.859,47.77646],[61.32714,47.73347],[60.76469,47.09992],[60.53784,47.11201],[60.44058,47.04628],[60.41143,46.9238],[60.16907,46.88455],[59.92092,46.75978],[59.1126,46.06603],[59.02723,45.81813],[59.05513,45.32402]]]}},{"type":"Feature","properties":{"id":"kz-ala","lat":44.76081,"lng":77.38947},"geometry":{"type":"Polygon","coordinates":[[[82.12504,45.58766],[82.63199,45.41583],[82.53975,45.12365],[82.24529,45.23181],[81.95012,45.14448],[81.79364,45.19564],[81.76517,45.30773],[81.66523,45.34798],[80.85385,45.1265],[80.69712,45.14365],[80.44535,45.10422],[80.39006,45.04578],[80.10336,45.03219],[79.8582,44.90372],[79.86864,44.84936],[79.99174,44.79365],[80.24474,44.81597],[80.49228,44.72797],[80.35585,44.65288],[80.3389,44.12149],[80.71273,43.45887],[80.64286,43.32622],[80.74849,43.27516],[80.79345,43.14946],[80.36815,43.02846],[80.37383,42.97518],[80.55449,42.89893],[80.24826,42.8162],[80.14377,42.64476],[80.26841,42.23797],[80.21033,42.18952],[79.91794,42.42444],[79.42567,42.46961],[79.20636,42.65647],[79.14827,42.79098],[78.99294,42.75713],[78.42956,42.88067],[77.32813,42.89756],[76.95688,42.98851],[76.41407,42.8855],[75.5826,42.98027],[75.65112,43.01707],[75.36535,43.15778],[75.29714,43.29772],[75.42819,43.46848],[75.01798,43.56272],[75.27296,43.87712],[75.32649,44.07834],[75.14883,44.22076],[74.75867,44.31342],[74.61057,44.41287],[74.53956,44.65534],[74.15561,44.9076],[74.09463,45.05994],[73.89981,45.07764],[73.8132,45.17218],[73.84679,45.25832],[74.09411,45.26933],[74.03045,45.53583],[74.05639,45.77679],[74.18434,45.95585],[74.76188,46.39952],[75.40277,46.67948],[76.16096,46.68126],[76.52022,46.61359],[76.54802,46.66095],[76.72238,46.68371],[76.73013,46.63142],[76.93528,46.56021],[76.8402,46.69074],[77.06272,46.6356],[77.14819,46.54718],[77.22767,46.55855],[77.59964,46.67576],[77.58093,47.17485],[77.85109,47.17981],[78.04622,47.25965],[78.1101,47.21386],[78.27525,47.3043],[78.80463,47.06873],[79.30847,47.03103],[79.49141,46.86202],[80.01871,46.87954],[80.77949,46.59199],[81.37326,46.49391],[81.60477,46.39019],[82.08453,45.80573],[82.12504,45.58766]]]}},{"type":"Feature","properties":{"id":"kz-ast","lat":51.07545,"lng":71.45235},"geometry":{"type":"Polygon","coordinates":[[[71.37777,51.3059],[71.60722,51.16025],[71.52741,50.99265],[71.42566,50.99465],[71.25008,51.15626],[71.25208,51.23607],[71.37777,51.3059]]]}},{"type":"Feature","properties":{"id":"kz-aty","lat":47.56579,"lng":51.67245},"geometry":{"type":"MultiPolygon","coordinates":[[[[49.83839,46.28587],[49.8047,46.21052],[49.71998,46.35676],[49.79217,46.33906],[49.83839,46.28587]]],[[[47.37425,47.68582],[47.11948,47.81977],[47.15534,47.87744],[47.04424,47.98622],[47.19203,48.0718],[47.10356,48.1012],[47.11212,48.2422],[48.90754,48.06009],[49.43205,47.93811],[49.45675,48.01392],[49.91089,48.041],[50.94803,48.48226],[51.15567,48.63021],[51.36992,48.66297],[51.83025,48.6146],[51.81134,48.50471],[51.96833,48.46479],[52.17545,48.48329],[52.52509,48.40568],[52.58907,48.42619],[52.62183,48.58817],[52.77107,48.7425],[52.76353,48.86206],[52.91339,48.98543],[53.43398,48.9951],[53.67324,49.18444],[53.90516,49.05825],[53.97886,49.12775],[54.08179,48.89469],[54.07177,48.71677],[54.4426,48.65763],[54.57758,48.8134],[54.80051,48.74121],[54.84878,48.62887],[54.79369,48.42766],[54.87286,48.09076],[54.97321,48.01232],[55.06055,47.76282],[54.9975,47.15226],[55.29133,46.79115],[55.4938,46.65963],[56.27122,46.45717],[56.47317,46.08447],[55.83156,46.23511],[55.8266,46.33195],[55.74433,46.38771],[55.67529,46.35805],[55.47685,46.48042],[55.24658,46.34601],[53.94909,46.18752],[53.69422,45.97156],[53.75758,45.92144],[53.53609,45.82573],[53.03896,45.73845],[52.86189,45.76746],[53.0818,46.00511],[53.15675,46.27228],[53.12827,46.39395],[53.03256,46.47089],[53.10206,46.44355],[53.08172,46.51244],[52.99838,46.48457],[53.04005,46.57392],[53.07179,46.54474],[53.10825,46.62173],[53.2046,46.65583],[53.18816,46.718],[53.1058,46.73725],[53.06039,46.89232],[52.91993,46.95746],[52.61476,46.95002],[52.4559,47.00117],[52.35719,46.89362],[52.18881,46.88377],[52.24488,46.81005],[52.11256,46.81273],[52.00001,46.89057],[52.01889,46.937],[51.94142,46.87995],[51.85385,46.89545],[51.89552,46.93081],[51.74391,46.92683],[51.67579,46.97858],[51.68019,47.05703],[51.5923,46.98725],[51.52719,47.05297],[51.21258,47.12092],[50.84653,47.03677],[50.74057,46.90615],[50.75213,46.97468],[50.61606,46.93561],[50.5691,46.82905],[50.57814,46.87836],[50.43019,46.89672],[50.23097,46.72602],[50.16879,46.74909],[49.81739,46.54043],[49.70265,46.56025],[49.70265,46.51927],[49.62257,46.58283],[49.57895,46.49885],[49.46909,46.59439],[49.49285,46.49958],[49.30535,46.58759],[49.39422,46.47834],[49.27809,46.51927],[49.37143,46.39936],[49.2234,46.47089],[49.29176,46.39643],[49.16822,46.40941],[49.22713,46.32788],[48.70502,46.55044],[48.53939,46.56796],[48.53004,46.63819],[48.45511,46.6608],[48.55671,46.76175],[48.67659,46.75803],[48.76403,46.68284],[49.00629,46.76911],[48.69727,47.10098],[48.52508,47.41023],[48.41108,47.44576],[48.17435,47.71285],[48.04449,47.76969],[47.64973,47.76559],[47.41217,47.83587],[47.37425,47.68582]]]]}},{"type":"Feature","properties":{"id":"kz-kar","lat":48.63331,"lng":70.93008},"geometry":{"type":"Polygon","coordinates":[[[65.5242,48.83278],[66.15909,49.00238],[66.62025,49.2342],[66.66955,49.33156],[67.52521,49.83401],[67.7621,50.02992],[67.75559,50.18934],[68.10885,50.26458],[68.27287,50.41191],[68.09665,50.50555],[68.03123,50.61391],[68.38397,50.61567],[68.77805,50.75359],[68.99541,50.69928],[68.82095,50.18696],[69.27094,50.13642],[69.32779,50.16187],[69.31291,50.22138],[69.39486,50.20412],[69.5008,50.33104],[69.57367,50.34075],[69.82998,50.17262],[70.24711,50.22159],[70.32628,50.14857],[70.2499,50.06506],[70.29104,49.98708],[70.61443,50.07276],[70.67417,50.23512],[70.80915,50.26918],[70.89286,50.21686],[70.95033,50.41449],[71.4181,50.59857],[71.63649,50.7615],[71.94034,50.6504],[71.85652,50.39791],[72.27552,50.41501],[72.29185,50.5202],[72.37722,50.56154],[72.49979,50.52955],[72.55498,50.56459],[72.51271,50.61918],[72.54279,50.67644],[72.77616,50.73365],[72.90039,50.86888],[73.07102,50.84434],[73.24156,50.91638],[73.22388,50.94945],[73.55554,51.05621],[73.60959,51.09727],[73.46997,51.14075],[73.36155,51.08647],[73.26915,51.22431],[73.52629,51.27302],[74.03417,51.17832],[74.09442,51.03725],[73.97371,50.6442],[74.08223,50.57748],[74.45006,50.63856],[74.66018,50.57428],[74.64819,50.49377],[74.71557,50.44578],[74.80828,50.49865],[75.00083,50.38979],[75.01106,50.32907],[75.16185,50.22815],[74.88983,50.08867],[74.94998,50.02211],[75.03917,50.00274],[75.37548,50.15022],[76.1775,50.22433],[76.29873,50.19125],[76.4734,50.29094],[76.70543,50.26815],[76.7632,50.48924],[76.98004,50.63533],[77.62382,50.461],[77.67198,50.23037],[77.73286,50.20257],[77.44843,49.98604],[77.19408,49.89951],[77.16917,49.64496],[76.7693,49.49163],[76.63008,49.35234],[77.04659,49.05318],[76.88547,48.98259],[76.88826,48.86255],[76.97166,48.80475],[77.3613,48.8165],[77.34725,48.61295],[77.02096,48.48614],[76.9266,48.3833],[77.05569,48.28114],[77.24803,48.24961],[77.14891,48.22321],[77.17134,48.14828],[77.40926,48.07115],[77.27108,48.0196],[77.07181,47.62572],[77.15997,47.42855],[76.982,47.39426],[76.96422,47.30148],[76.87637,47.24469],[77.05765,47.12728],[77.26426,47.08896],[77.31624,47.16394],[77.58093,47.17485],[77.59964,46.67576],[77.15966,46.54662],[77.06272,46.6356],[76.8402,46.69074],[76.93528,46.56021],[76.73013,46.63142],[76.72238,46.68371],[76.54802,46.66095],[76.52022,46.61359],[76.16096,46.68126],[75.40277,46.67948],[74.76188,46.39952],[74.18434,45.95585],[67.27572,45.95766],[67.24781,46.05709],[66.97889,46.0561],[65.55314,46.29077],[65.10004,46.51132],[63.78808,46.86887],[63.20982,46.96117],[62.9504,47.08012],[62.65223,47.04798],[64.20355,47.87853],[63.97049,48.15117],[64.20914,48.29907],[64.21678,48.40221],[64.5472,48.50226],[64.50597,48.65367],[64.62461,48.65677],[64.7413,48.84053],[65.07141,48.87681],[65.5242,48.83278]]]}},{"type":"Feature","properties":{"id":"kz-kus","lat":51.45424,"lng":63.44188},"geometry":{"type":"Polygon","coordinates":[[[65.97745,54.61171],[66.09778,54.63716],[66.22855,54.29725],[66.11207,54.26584],[66.3719,54.10243],[66.01977,53.99391],[66.09512,53.81093],[66.23082,53.74414],[66.2117,53.64019],[66.11992,53.57968],[66.15889,53.49534],[66.28767,53.47953],[66.32456,53.25623],[66.47401,53.13903],[66.16323,53.07934],[66.10587,53.00958],[66.18204,52.90078],[66.16974,52.77905],[66.09202,52.72753],[66.03724,52.17826],[65.95663,52.11992],[65.86051,51.89407],[65.70806,51.78948],[65.444,51.75475],[65.43015,51.694],[65.6445,51.55696],[65.62001,51.35294],[65.50332,51.26201],[65.70837,50.97379],[65.72088,50.7938],[66.06019,50.89746],[66.17553,50.79116],[66.3135,50.77313],[66.47701,50.66409],[66.83492,50.58663],[67.12462,50.61787],[67.23314,50.56275],[67.18818,50.43248],[67.33411,50.33248],[68.09665,50.50555],[68.27287,50.41191],[68.10885,50.26458],[67.75559,50.18934],[67.7621,50.02992],[67.52521,49.83401],[66.66955,49.33156],[66.62025,49.2342],[65.73483,48.86193],[64.7413,48.84053],[64.62461,48.65677],[64.50597,48.65367],[64.5472,48.50226],[64.21678,48.40221],[64.20914,48.29907],[63.97049,48.15117],[63.66147,48.46973],[63.02967,48.69191],[63.03091,48.86304],[62.66453,48.87826],[62.37328,49.167],[62.27757,49.18607],[62.485,49.22808],[62.27912,49.4884],[62.45286,49.52049],[62.41286,49.6009],[62.61058,49.85512],[62.71403,49.90827],[62.91309,49.89716],[62.88973,50.02421],[62.5342,50.43904],[62.44573,50.67484],[62.31375,50.69603],[62.37524,50.85064],[62.23913,50.9457],[62.2939,51.03965],[62.15438,51.11037],[62.03015,51.06515],[61.87326,51.29586],[61.64626,51.26319],[61.4738,51.4258],[61.02938,51.48267],[60.9374,51.61117],[60.37588,51.66253],[60.47975,51.78426],[60.13806,51.88887],[60.06076,51.85867],[59.98727,51.96885],[60.20276,51.99274],[60.50652,52.15165],[60.67219,52.14434],[61.03992,52.335],[60.93647,52.48858],[60.81492,52.52191],[60.80314,52.62774],[60.67261,52.67216],[60.69617,52.73492],[61.05842,52.92217],[60.9746,52.97124],[61.44827,53.02142],[61.60557,52.94832],[61.81982,52.97824],[61.95925,52.93494],[62.09417,52.99248],[62.11603,53.06459],[62.05066,53.12477],[61.76422,53.16947],[61.64309,53.24334],[61.51431,53.20867],[61.16271,53.29915],[61.13718,53.37313],[61.23526,53.50304],[61.4123,53.43576],[61.55534,53.50573],[61.50305,53.58898],[61.28073,53.54242],[60.88024,53.6328],[61.00757,53.63575],[61.19909,53.79713],[60.97801,53.8826],[60.9961,53.94141],[61.21077,53.90767],[61.19351,54.01825],[61.33768,54.06316],[61.5818,53.94766],[61.7913,54.00079],[61.85641,53.9427],[62.00364,53.93201],[62.0026,54.01738],[62.41271,54.02663],[62.44402,53.99231],[62.38997,53.94157],[62.52526,53.87185],[62.58655,53.96983],[62.55058,54.02683],[62.62913,54.07117],[63.08465,54.08564],[63.12377,54.17411],[63.36831,54.16284],[63.70865,54.25044],[63.89747,54.19416],[64.00786,54.22868],[64.0045,54.31974],[64.57852,54.38557],[64.72016,54.33384],[64.91064,54.40273],[65.18422,54.31043],[65.19817,54.51616],[65.44901,54.55662],[65.44978,54.62747],[65.74398,54.60085],[65.9328,54.70255],[65.97745,54.61171]]]}},{"type":"Feature","properties":{"id":"kz-kzy","lat":44.72724,"lng":63.95553},"geometry":{"type":"Polygon","coordinates":[[[62.02611,43.48063],[61.16167,44.16811],[61.0363,44.38282],[59.05513,45.32402],[59.02723,45.81813],[59.1126,46.06603],[59.92092,46.75978],[60.16907,46.88455],[60.41143,46.9238],[60.44058,47.04628],[60.53784,47.11201],[60.76469,47.09992],[61.32714,47.73347],[61.57384,47.776],[61.859,47.77646],[62.04844,47.57069],[62.31954,47.44553],[62.46723,47.29184],[62.44986,47.2482],[62.84209,47.18386],[62.65223,47.04798],[62.9504,47.08012],[63.20982,46.96117],[63.78808,46.86887],[65.10004,46.51132],[65.55314,46.29077],[66.97889,46.0561],[67.24781,46.05709],[67.28915,45.86092],[67.39654,45.80067],[67.43612,45.6984],[67.35923,45.60848],[67.29215,45.25346],[67.59353,45.07167],[67.60727,44.31042],[67.86369,44.21358],[68.20228,43.97305],[68.2029,43.90802],[68.04477,43.8496],[68.08042,43.74299],[68.04105,43.66462],[67.93862,43.70723],[67.83527,43.42262],[67.74814,43.36237],[67.76344,43.26516],[67.82948,43.3604],[67.87362,43.2517],[67.97128,43.19566],[67.43457,42.98541],[66.73611,42.60892],[66.64754,42.63474],[66.49664,42.57869],[66.18431,42.35289],[66.01316,42.37287],[66.10127,42.99032],[65.79524,42.8772],[65.51691,43.29723],[65.27145,43.41701],[64.92294,43.71912],[64.42674,43.54703],[63.20801,43.62747],[62.02611,43.48063]],[[63.38391,45.56582],[63.61093,45.59825],[63.83396,45.71594],[63.94093,45.8557],[63.96408,46.0205],[63.8967,46.17496],[63.70994,46.32038],[63.26635,46.38244],[62.90027,46.20896],[62.80364,45.93616],[62.87103,45.7817],[63.01293,45.66],[63.38391,45.56582]]]}},{"type":"Feature","properties":{"id":"kz-man","lat":43.74392,"lng":53.53225},"geometry":{"type":"MultiPolygon","coordinates":[[[[55.45029,41.27888],[54.95068,41.79556],[54.90707,41.93214],[54.12262,42.3376],[53.41227,42.25817],[52.97871,42.12663],[52.43767,41.74888],[52.49098,41.90205],[52.40203,42.09251],[52.59409,42.33527],[52.67628,42.53848],[52.56381,42.74226],[52.71046,42.58539],[52.73634,42.70136],[52.47088,42.82624],[52.27296,42.79877],[52.1692,42.88703],[51.91245,42.84235],[51.67579,43.09992],[51.65105,43.19139],[51.27573,43.15449],[51.31471,43.46247],[50.86085,44.02538],[50.84718,44.18928],[50.27768,44.33649],[50.22462,44.56769],[50.31121,44.66234],[50.87289,44.62885],[51.14332,44.48477],[51.36622,44.56021],[51.56031,44.51138],[51.43897,44.61005],[51.31935,44.59638],[51.23439,44.71906],[50.96241,44.86367],[50.95932,44.97883],[51.19654,45.06562],[51.27296,45.02464],[51.24439,45.16181],[51.4157,45.38996],[51.54371,45.33491],[51.75831,45.45726],[51.94011,45.36734],[52.5193,45.40888],[52.90968,45.31269],[53.24545,45.33381],[52.73846,45.52558],[52.74562,45.63915],[52.86189,45.76746],[53.03896,45.73845],[53.53609,45.82573],[53.75758,45.92144],[53.69422,45.97156],[53.94909,46.18752],[55.24658,46.34601],[55.47685,46.48042],[55.67529,46.35805],[55.74433,46.38771],[55.8266,46.33195],[55.83156,46.23511],[56.47317,46.08447],[56.70761,45.16191],[55.97584,44.99441],[55.97842,41.32172],[55.45029,41.27888]]],[[[50.76075,44.86494],[50.69776,44.85786],[50.62794,44.96703],[50.71372,44.9538],[50.76075,44.86494]]],[[[50.18922,44.86148],[50.06397,44.84414],[49.98618,44.968],[50.04184,45.05752],[50.11346,45.0799],[50.01783,44.96015],[50.07342,44.86176],[50.18922,44.86148]]],[[[50.27711,45.07152],[50.35369,45.07306],[50.28151,44.95551],[50.2566,44.98599],[50.27711,45.07152]]],[[[52.70249,45.40522],[52.62794,45.41022],[52.55201,45.47834],[52.65504,45.52139],[52.70249,45.40522]]]]}},{"type":"Feature","properties":{"id":"kz-pav","lat":52.18731,"lng":76.44519},"geometry":{"type":"Polygon","coordinates":[[[76.67277,54.43647],[76.90355,54.4326],[76.75297,54.37668],[76.83772,54.29689],[76.6646,54.13406],[76.37666,54.15427],[76.49521,53.99231],[77.8668,53.27233],[79.30432,51.68638],[79.0411,51.46027],[78.81672,51.43789],[78.75802,51.29684],[78.36176,51.21507],[78.1072,51.08998],[78.28249,50.88764],[78.68846,50.70109],[78.71771,50.46392],[78.82023,50.35119],[78.67089,50.1558],[78.47276,50.02718],[77.73286,50.20257],[77.67198,50.23037],[77.62382,50.461],[76.98004,50.63533],[76.7632,50.48924],[76.70543,50.26815],[76.4734,50.29094],[76.29873,50.19125],[76.1775,50.22433],[75.37548,50.15022],[75.03917,50.00274],[74.94998,50.02211],[74.88983,50.08867],[75.16185,50.22815],[74.94967,50.43046],[74.80828,50.49865],[74.71557,50.44578],[74.64819,50.49377],[74.66018,50.57428],[74.45006,50.63856],[74.08223,50.57748],[73.97371,50.6442],[74.08533,51.08339],[74.03417,51.17832],[73.71388,51.25651],[73.85227,51.40994],[74.27364,51.53722],[74.0259,51.63594],[73.83625,51.62336],[73.90115,51.82691],[74.05236,51.90655],[74.02786,52.46806],[73.96782,52.56767],[73.76256,52.63604],[73.7361,52.71911],[73.90766,52.6388],[74.03159,52.85473],[73.95459,52.91227],[73.8408,52.89538],[73.76721,52.81096],[73.64484,52.82825],[73.68442,52.95442],[73.54107,52.94132],[73.76876,53.19257],[73.65424,53.22182],[73.48598,53.12862],[73.45312,53.25918],[73.57611,53.29259],[73.4507,53.44856],[73.6529,53.60918],[73.90415,53.63916],[74.05804,53.62458],[74.07685,53.56619],[74.2233,53.59461],[74.38836,53.46222],[74.45688,53.56976],[74.43848,53.67342],[74.61646,53.6807],[74.772,53.83088],[75.02791,53.80793],[75.43398,53.98653],[75.3607,54.05954],[75.42923,54.09009],[75.64038,54.09887],[76.1838,54.25157],[76.23424,54.34743],[76.4765,54.32314],[76.62305,54.35591],[76.67277,54.43647]]]}},{"type":"Feature","properties":{"id":"kz-sev","lat":53.80971,"lng":69.76627},"geometry":{"type":"Polygon","coordinates":[[[68.90244,55.41248],[69.12258,55.39786],[69.18614,55.32577],[69.33456,55.38515],[69.67387,55.33404],[70.21368,55.13199],[70.44116,55.28334],[70.82036,55.29415],[70.79318,55.23317],[70.97714,55.07798],[70.94593,54.88792],[71.00598,54.77423],[71.26467,54.66173],[71.14122,54.56375],[71.19062,54.31818],[70.97084,54.30501],[71.16127,54.10197],[71.32059,54.20103],[71.45314,54.18135],[71.47711,54.10967],[71.64723,54.10858],[71.76247,54.24765],[71.98365,54.23157],[72.09951,54.13189],[72.17764,54.13597],[72.16999,54.19685],[72.06674,54.22238],[72.10302,54.31157],[72.04318,54.37803],[72.18477,54.35684],[72.3244,54.25348],[72.29856,54.1784],[72.48295,54.13561],[72.35841,54.09298],[72.41866,54.01603],[72.3922,53.90823],[72.55684,53.97722],[72.70019,53.95764],[72.65616,54.04254],[72.5031,54.05086],[72.62423,54.13499],[72.94204,54.12176],[73.06275,53.97908],[73.36031,53.93841],[73.51802,53.95604],[73.60153,54.07122],[73.74065,54.05794],[73.68287,53.87413],[73.43183,53.86545],[73.39121,53.82824],[73.43782,53.8085],[73.22967,53.66241],[73.2306,53.57234],[73.39121,53.52025],[73.34718,53.45937],[73.4507,53.44856],[73.57611,53.29259],[73.45312,53.25918],[73.48598,53.12862],[73.65424,53.22182],[73.76876,53.19257],[73.54107,52.94132],[73.68442,52.95442],[73.64484,52.82825],[73.76721,52.81096],[73.8408,52.89538],[73.95459,52.91227],[74.03159,52.85473],[73.90766,52.6388],[73.7361,52.71911],[73.76256,52.63604],[73.96782,52.56767],[73.65724,52.58196],[73.47637,52.668],[72.96261,52.76184],[72.83972,53.04136],[72.44254,52.99284],[72.23893,52.90718],[71.78676,52.94199],[71.73105,53.01149],[71.8251,53.19688],[71.60837,53.37979],[71.31341,53.28951],[71.09802,53.32796],[71.05967,53.41338],[70.6722,53.39514],[70.53567,53.23939],[70.3053,53.36604],[70.11317,53.36295],[70.2006,53.47891],[69.96961,53.48635],[69.9293,53.63443],[69.83763,53.68768],[69.50184,53.62339],[69.45646,53.56624],[69.49626,53.50185],[69.2296,53.66802],[69.12201,53.61668],[68.86136,53.6236],[68.89877,53.55632],[68.73516,53.53425],[68.77516,53.48436],[68.58241,53.40069],[68.92265,53.11149],[68.89216,53.00307],[68.81547,52.96222],[68.85361,52.79854],[68.57517,52.69647],[68.45983,52.5772],[68.14698,52.51212],[68.22501,52.40641],[68.02627,52.26358],[67.57327,52.39597],[67.46578,52.38264],[67.45287,52.23518],[67.14797,52.20844],[66.69126,52.25061],[66.64103,52.32125],[66.3102,52.29634],[66.23547,52.36869],[66.05295,52.40212],[66.09202,52.72753],[66.1809,52.85424],[66.10587,53.00958],[66.16323,53.07934],[66.47401,53.13903],[66.32456,53.25623],[66.28767,53.47953],[66.15889,53.49534],[66.11992,53.57968],[66.2117,53.64019],[66.23082,53.74414],[66.09512,53.81093],[66.01977,53.99391],[66.3719,54.10243],[66.11207,54.26584],[66.22855,54.29725],[66.09778,54.63716],[67.21334,54.79717],[67.31132,54.85991],[67.69848,54.86792],[67.88224,54.97044],[68.16605,54.95613],[68.30816,55.07281],[68.17711,55.17054],[68.6053,55.1956],[68.70059,55.3605],[68.9706,55.27864],[68.97727,55.3467],[68.90244,55.41248]]]}},{"type":"Feature","properties":{"id":"kz-vos","lat":48.66344,"lng":82.03033},"geometry":{"type":"Polygon","coordinates":[[[87.3238,49.08527],[87.11632,49.12977],[86.85948,49.10532],[86.70942,48.95422],[86.78946,48.83914],[86.752,48.71543],[86.56508,48.52732],[86.19203,48.41823],[85.78368,48.40759],[85.71867,48.35883],[85.51538,47.92028],[85.58457,47.49294],[85.67036,47.38434],[85.67899,47.27489],[85.49864,47.05183],[85.22584,47.04157],[84.91604,46.85055],[84.73961,46.81477],[84.7516,46.91799],[84.66354,46.98385],[83.90535,46.97396],[83.15036,47.21154],[83.02147,47.20591],[82.98551,46.94251],[82.83895,46.73245],[82.56827,46.19651],[82.47582,45.87317],[82.2746,45.54838],[82.12504,45.58766],[82.08453,45.80573],[81.60477,46.39019],[81.37326,46.49391],[80.77949,46.59199],[80.01871,46.87954],[79.49141,46.86202],[79.30847,47.03103],[78.80463,47.06873],[78.27525,47.3043],[78.1101,47.21386],[78.04622,47.25965],[77.85109,47.17981],[77.31624,47.16394],[77.26426,47.08896],[77.05765,47.12728],[76.87637,47.24469],[76.96422,47.30148],[76.982,47.39426],[77.15997,47.42855],[77.07181,47.62572],[77.27108,48.0196],[77.40926,48.07115],[77.17134,48.14828],[77.14891,48.22321],[77.24803,48.24961],[77.05569,48.28114],[76.9266,48.3833],[77.02096,48.48614],[77.25754,48.54427],[77.34725,48.61295],[77.3734,48.71393],[77.3613,48.8165],[76.97166,48.80475],[76.88826,48.86255],[76.88547,48.98259],[77.04659,49.05318],[76.63008,49.35234],[76.7693,49.49163],[77.16917,49.64496],[77.19408,49.89951],[77.44843,49.98604],[77.73286,50.20257],[78.47276,50.02718],[78.67089,50.1558],[78.82023,50.35119],[78.71771,50.46392],[78.68846,50.70109],[78.28249,50.88764],[78.1072,51.08998],[78.36176,51.21507],[78.75802,51.29684],[78.81672,51.43789],[79.0411,51.46027],[79.30432,51.68638],[80.05499,50.75287],[80.01541,50.83948],[80.14274,50.81711],[80.18129,50.87566],[80.43905,50.95813],[80.42199,51.18757],[80.59924,51.20855],[80.68275,51.30201],[80.90574,51.28356],[80.92424,51.21607],[81.02211,51.17739],[81.15203,51.18654],[81.05152,50.9557],[81.4008,50.95911],[81.46023,50.73034],[81.74414,50.78491],[82.14732,50.70161],[82.32839,50.7521],[82.47582,50.71401],[82.67276,50.78977],[82.72645,50.90072],[82.9759,50.88191],[83.10757,50.99265],[83.43396,50.99265],[83.95056,50.78042],[83.97584,50.68637],[84.19562,50.51144],[84.24998,50.25993],[84.98673,50.06697],[85.02544,50.00408],[84.95479,49.99049],[84.95459,49.90693],[85.05629,49.87334],[85.22361,49.59573],[85.61486,49.61713],[85.6733,49.56044],[85.94057,49.55961],[85.94626,49.48137],[86.07049,49.52628],[86.17725,49.46334],[86.27213,49.58364],[86.6102,49.79552],[86.74838,49.78296],[86.77587,49.695],[86.64709,49.65366],[86.59934,49.57351],[86.82434,49.50923],[86.82899,49.43332],[86.93307,49.39011],[86.91302,49.3387],[87.03663,49.24273],[87.27176,49.20511],[87.3238,49.08527]]]}},{"type":"Feature","properties":{"id":"kz-yuz","lat":43.29335,"lng":68.76458},"geometry":{"type":"Polygon","coordinates":[[[70.88882,42.33857],[70.85813,42.29106],[70.94779,42.24815],[70.73427,42.1973],[70.61024,42.02741],[70.45542,42.09374],[70.35791,42.06224],[69.9124,41.71286],[69.62457,41.66831],[69.39378,41.54496],[69.40236,41.47483],[69.03618,41.37401],[69.03122,41.20875],[68.77377,41.08726],[68.68938,40.96494],[68.57088,40.91352],[68.55977,40.75131],[68.62742,40.66713],[68.593,40.59949],[68.46174,40.58466],[67.99092,40.8111],[68.08058,40.87296],[68.13132,41.02964],[68.03438,41.04272],[67.93743,41.20038],[67.83491,41.15687],[66.81528,41.14188],[66.68821,41.19919],[66.50414,41.99348],[66.00866,42.00266],[66.01316,42.37287],[66.18431,42.35289],[66.49664,42.57869],[66.64754,42.63474],[66.73611,42.60892],[67.43457,42.98541],[67.92436,43.16036],[67.97128,43.19566],[67.87362,43.2517],[67.8671,43.32154],[67.7931,43.34823],[67.76344,43.26516],[67.74814,43.36237],[67.83527,43.42262],[67.93862,43.70723],[68.04105,43.66462],[68.08042,43.74299],[68.04477,43.8496],[68.2029,43.90802],[68.20228,43.97305],[67.86369,44.21358],[67.60727,44.31042],[67.59353,45.07167],[67.29215,45.25346],[67.35923,45.60848],[67.43612,45.6984],[67.39654,45.80067],[67.28915,45.86092],[67.27572,45.95766],[69.1708,45.93689],[69.5162,45.38875],[69.80466,44.66332],[69.91122,44.17053],[69.64239,43.53331],[69.53098,43.41249],[69.61997,43.37133],[69.67423,43.26413],[70.10325,43.15659],[70.25621,42.98322],[70.26789,42.76028],[70.32318,42.70112],[70.43718,42.6738],[70.88882,42.33857]]]}},{"type":"Feature","properties":{"id":"kz-zap","lat":49.84254,"lng":51.49498},"geometry":{"type":"Polygon","coordinates":[[[52.30779,51.77454],[52.54581,51.45952],[52.77976,51.50812],[52.94429,51.45288],[53.18107,51.5143],[53.59748,51.39717],[53.59407,51.28943],[53.67386,51.21987],[53.93586,51.18561],[54.11156,51.096],[54.14536,50.99265],[54.27579,50.90428],[54.47857,50.85349],[54.38358,50.59991],[54.54552,50.53052],[54.39154,50.35827],[54.42379,50.15012],[54.55122,50.03137],[54.45325,49.81469],[54.29263,49.6501],[54.00593,49.61715],[53.71345,49.46274],[53.67324,49.18444],[53.46571,49.00864],[52.91339,48.98543],[52.76353,48.86206],[52.77107,48.7425],[52.62183,48.58817],[52.58907,48.42619],[51.96833,48.46479],[51.81134,48.50471],[51.83025,48.6146],[51.75491,48.63093],[51.15567,48.63021],[50.94803,48.48226],[49.91089,48.041],[49.45675,48.01392],[49.43205,47.93811],[48.90754,48.06009],[47.11212,48.2422],[46.47828,48.41056],[46.75382,48.91407],[46.93003,49.00404],[47.04,49.15033],[46.97923,49.24428],[46.77511,49.33255],[46.89991,49.82032],[47.30872,50.0448],[47.29477,50.27543],[47.5115,50.43692],[47.5993,50.45268],[47.73495,50.37005],[48.07456,50.10526],[48.23931,49.86476],[48.42989,49.80967],[48.7846,49.93339],[48.88568,50.01989],[48.86552,50.08619],[48.78284,50.11146],[48.67339,50.57955],[48.56828,50.63655],[48.83044,50.59603],[49.14406,50.78171],[49.36942,50.82677],[49.42373,50.88206],[49.34735,50.96428],[49.43655,51.11233],[49.77906,51.10218],[49.98685,51.22982],[50.32538,51.30346],[50.35959,51.41332],[50.52723,51.47009],[50.5817,51.6353],[50.6942,51.61117],[50.67089,51.56753],[50.79068,51.59729],[50.76701,51.7594],[50.92545,51.67969],[51.23385,51.68548],[51.37193,51.62959],[51.35896,51.56148],[51.23654,51.5359],[51.30424,51.47164],[51.58432,51.53492],[51.64737,51.45123],[51.7823,51.49285],[51.76473,51.59331],[51.86916,51.67307],[52.09179,51.65871],[52.30779,51.77454]]]}},{"type":"Feature","properties":{"id":"kz-zha","lat":44.12444,"lng":72.58038},"geometry":{"type":"Polygon","coordinates":[[[75.20464,42.84519],[74.71392,42.99988],[74.17876,43.2617],[74.2139,43.20264],[73.96533,43.21692],[73.90167,43.13096],[73.57094,43.03192],[73.41271,42.62732],[73.50511,42.40294],[73.3262,42.42868],[73.27835,42.5134],[72.87455,42.54399],[72.72582,42.65288],[71.84774,42.83405],[71.58357,42.75964],[71.40461,42.79488],[71.24545,42.74713],[71.14902,42.67794],[71.14277,42.60254],[71.00319,42.56353],[71.06417,42.47033],[70.96195,42.46811],[70.8849,42.33902],[70.43718,42.6738],[70.32318,42.70112],[70.26789,42.76028],[70.25621,42.98322],[70.10325,43.15659],[69.67423,43.26413],[69.61997,43.37133],[69.53098,43.41249],[69.64239,43.53331],[69.91122,44.17053],[69.80466,44.66332],[69.5162,45.38875],[69.1708,45.93689],[74.18434,45.95585],[74.05639,45.77679],[74.03045,45.53583],[74.09411,45.26933],[73.84679,45.25832],[73.8132,45.17218],[73.89981,45.07764],[74.09463,45.05994],[74.15561,44.9076],[74.53956,44.65534],[74.61057,44.41287],[74.75867,44.31342],[75.14883,44.22076],[75.32649,44.07834],[75.27296,43.87712],[75.01798,43.56272],[75.42819,43.46848],[75.29714,43.29772],[75.33559,43.19509],[75.65112,43.01707],[75.5826,42.98027],[75.80706,42.93677],[75.64616,42.8061],[75.20464,42.84519]]]}}]}
