{"type":"FeatureCollection","features":[{"type":"Feature","properties":{"id":"la-at","lat":14.79425,"lng":107.11142},"geometry":{"type":"Polygon","coordinates":[[[107.50239,15.04404],[107.44557,15.02539],[107.45394,14.96787],[107.55817,14.88672],[107.42784,14.55371],[107.28728,14.59852],[107.13142,14.42754],[107.02724,14.43527],[106.93361,14.32016],[106.8069,14.31293],[106.54376,14.51211],[106.5125,14.59035],[106.41922,14.46646],[106.34,14.44899],[106.34103,14.52811],[106.17598,14.75339],[106.17329,14.82692],[106.34207,15.00565],[106.50216,14.96224],[106.50536,14.80235],[106.6913,14.78615],[106.81925,14.8946],[106.81201,15.06611],[106.68076,15.13089],[106.79072,15.25468],[107.16858,15.2763],[107.34666,15.16554],[107.46066,15.18148],[107.50239,15.04404]]]}},{"type":"Feature","properties":{"id":"la-bk","lat":20.31508,"lng":100.76222},"geometry":{"type":"Polygon","coordinates":[[[100.36481,20.82819],[100.60778,20.83988],[100.71761,20.76116],[100.83202,20.49983],[100.96596,20.47617],[101.04389,20.32186],[101.22858,20.3083],[101.24398,20.13601],[101.17504,20.07381],[101.04327,20.11151],[100.93651,19.99723],[100.74169,19.95703],[100.74851,19.85799],[100.48279,19.77859],[100.40766,19.79426],[100.48398,19.8807],[100.5465,20.16792],[100.46103,20.19071],[100.34435,20.38997],[100.24037,20.37281],[100.15252,20.23915],[100.09707,20.34837],[100.22161,20.70959],[100.36481,20.82819]]]}},{"type":"Feature","properties":{"id":"la-bl","lat":18.4825,"lng":103.964},"geometry":{"type":"Polygon","coordinates":[[[103.46994,18.42198],[103.28256,18.41557],[103.23368,18.34927],[103.29538,18.28777],[103.0139,18.12003],[102.9955,18.25093],[102.90393,18.29351],[102.82166,18.51065],[103.28933,18.53295],[103.43816,18.59003],[103.49873,18.66891],[103.48415,18.93037],[103.53759,18.94768],[103.7754,18.82717],[103.88547,18.87714],[104.12163,18.82585],[104.25331,18.98437],[104.2596,19.10413],[104.71028,18.79609],[105.11268,18.69834],[105.16948,18.61486],[105.07997,18.45435],[105.25692,18.24746],[105.13222,17.99115],[105.03972,17.94082],[104.83125,18.00384],[104.54972,18.22953],[104.43293,18.18489],[104.28198,17.86149],[104.00004,18.31844],[103.87395,18.28323],[103.46994,18.42198]]]}},{"type":"Feature","properties":{"id":"la-ch","lat":14.6751,"lng":105.87431},"geometry":{"type":"Polygon","coordinates":[[[105.56397,15.27253],[105.48625,15.3749],[105.6341,15.45389],[106.07273,15.45988],[106.13412,15.29948],[106.37349,15.39994],[106.562,15.30261],[106.66618,15.22233],[106.67166,15.1375],[106.81201,15.06611],[106.81925,14.8946],[106.6913,14.78615],[106.50536,14.80235],[106.50216,14.96224],[106.37142,15.00562],[106.17329,14.82692],[106.35168,14.47506],[106.30646,14.44548],[106.23008,14.49046],[106.17324,14.36967],[105.97397,14.36584],[106.01247,14.22577],[106.14947,14.05356],[106.06916,13.91654],[105.89966,13.92261],[105.74402,14.08695],[105.53317,14.16433],[105.33779,14.10999],[105.18798,14.29101],[105.18431,14.34574],[105.41597,14.42816],[105.50754,14.56405],[105.48915,14.78633],[105.59307,14.99079],[105.44362,15.11135],[105.56397,15.27253]]]}},{"type":"Feature","properties":{"id":"la-ho","lat":20.26673,"lng":103.93211},"geometry":{"type":"Polygon","coordinates":[[[104.09228,20.9612],[104.27894,20.89154],[104.61519,20.64649],[104.54264,20.5357],[104.44497,20.53461],[104.35981,20.43973],[104.58936,20.40682],[104.68465,20.33305],[104.65705,20.2127],[104.81916,20.22099],[104.96443,20.07609],[104.94949,19.9955],[104.7618,19.88551],[104.805,19.79089],[104.67597,19.72469],[104.61427,19.60743],[104.2002,19.69859],[104.20494,19.90222],[104.17393,19.84889],[104.08267,19.86427],[103.93849,19.78763],[103.87452,19.84618],[103.88754,19.94974],[103.79514,20.02834],[103.6953,19.99222],[103.68662,19.92958],[103.47051,19.86843],[103.13823,19.91506],[103.16862,20.09963],[103.11415,20.17637],[103.23559,20.31248],[103.24531,20.4141],[103.1773,20.47518],[103.2266,20.707],[103.42659,20.82069],[103.68543,20.65765],[103.78532,20.84596],[104.09228,20.9612]]]}},{"type":"Feature","properties":{"id":"la-kh","lat":17.53195,"lng":105.25866},"geometry":{"type":"Polygon","coordinates":[[[104.74634,16.94353],[104.81446,17.19404],[104.7927,17.42348],[104.4812,17.64042],[104.28198,17.86149],[104.43293,18.18489],[104.54972,18.22953],[104.83125,18.00384],[105.03972,17.94082],[105.13222,17.99115],[105.25692,18.24746],[105.36833,18.14995],[105.45142,18.19271],[105.72309,17.6735],[106.18543,17.2574],[106.28455,17.28479],[106.40402,17.01464],[106.12627,17.10743],[105.99325,17.04485],[105.69094,17.1172],[105.63389,17.04335],[105.48434,17.1004],[105.22823,17.0557],[105.16478,17.11138],[104.84025,17.07661],[104.79415,16.99361],[104.83218,16.90721],[104.74634,16.94353]]]}},{"type":"Feature","properties":{"id":"la-lm","lat":20.91263,"lng":101.07109},"geometry":{"type":"Polygon","coordinates":[[[101.15902,21.55269],[101.25974,21.17948],[101.51761,21.24263],[101.58396,21.22439],[101.58179,21.17566],[101.78017,21.14158],[101.73088,20.99867],[101.61998,20.93877],[101.62349,20.8702],[101.52593,20.85465],[101.40852,20.73181],[101.56065,20.63321],[101.54029,20.47565],[101.45523,20.35566],[101.1274,20.29949],[101.00699,20.35095],[100.93806,20.49609],[100.83202,20.49983],[100.78892,20.66194],[100.60778,20.83988],[100.65213,20.88276],[100.5157,20.88648],[100.54345,21.0274],[100.63756,21.06967],[100.72541,21.31167],[100.85134,21.31477],[101.15902,21.55269]]]}},{"type":"Feature","properties":{"id":"la-lp","lat":20.02856,"lng":102.57346},"geometry":{"type":"Polygon","coordinates":[[[102.92588,21.14064],[103.13002,20.8549],[103.39021,20.78871],[103.21399,20.66636],[103.1773,20.47518],[103.24531,20.4141],[103.23559,20.31248],[103.11415,20.17637],[103.16862,20.09963],[103.13823,19.91506],[102.95251,19.81879],[102.94424,19.72464],[102.86683,19.71921],[102.67108,19.5263],[102.7459,19.31438],[102.70384,19.27368],[102.57579,19.22425],[102.45962,19.3681],[102.12723,19.40174],[101.95681,19.15348],[101.81035,19.04992],[101.82431,19.27908],[101.90627,19.40321],[101.8209,19.46711],[101.82431,19.64963],[101.74679,19.68081],[101.7717,19.85328],[101.70762,19.9308],[101.86523,19.95749],[102.19503,20.14533],[102.14315,20.4094],[102.23565,20.6298],[102.35368,20.72148],[102.30944,20.96249],[102.50892,20.86904],[102.78704,21.03158],[102.81401,21.13964],[102.92588,21.14064]]]}},{"type":"Feature","properties":{"id":"la-ou","lat":20.55273,"lng":101.87678},"geometry":{"type":"Polygon","coordinates":[[[101.79604,21.20294],[102.25012,21.00936],[102.34262,20.89503],[102.33859,20.67468],[102.23565,20.6298],[102.14315,20.4094],[102.19503,20.14533],[101.55941,19.82347],[101.25793,19.8213],[101.13133,19.88866],[101.00937,19.83398],[100.76318,19.87067],[100.74169,19.95703],[100.93651,19.99723],[101.04327,20.11151],[101.17504,20.07381],[101.2292,20.11102],[101.22744,20.31879],[101.45523,20.35566],[101.54029,20.47565],[101.56065,20.63321],[101.40852,20.73181],[101.73088,20.99867],[101.79604,21.20294]]]}},{"type":"Feature","properties":{"id":"la-ph","lat":21.69268,"lng":102.20746},"geometry":{"type":"Polygon","coordinates":[[[101.75062,22.49604],[101.8426,22.38334],[101.90937,22.43589],[102.09535,22.42313],[102.20697,22.24541],[102.48287,22.0214],[102.47807,21.95758],[102.59103,21.90135],[102.65066,21.6578],[102.75216,21.6809],[102.80673,21.83608],[102.84719,21.70446],[102.95602,21.72395],[102.97411,21.57532],[102.84967,21.42541],[102.91804,21.45011],[102.8752,21.30532],[102.8013,21.25483],[102.87814,21.23762],[102.92588,21.14064],[102.81401,21.13964],[102.78704,21.03158],[102.50892,20.86904],[102.1477,21.01523],[101.7225,21.30423],[101.7362,21.57088],[101.80384,21.62592],[101.51575,22.24536],[101.60122,22.27699],[101.65455,22.44612],[101.75062,22.49604]]]}},{"type":"Feature","properties":{"id":"la-sl","lat":15.89977,"lng":106.33185},"geometry":{"type":"Polygon","coordinates":[[[105.46238,15.76281],[105.36063,15.91939],[105.42323,16.00504],[105.89321,15.88014],[106.14022,15.99091],[106.1211,16.14281],[106.16389,16.17653],[106.30403,16.09982],[106.31489,16.14194],[106.63032,16.19315],[106.66463,16.32017],[106.77863,16.34342],[106.7546,16.44427],[106.82286,16.53098],[106.95655,16.30707],[107.11685,16.25462],[107.13599,16.18478],[107.06905,16.07757],[106.80116,16.02305],[106.65202,15.77601],[106.69936,15.71591],[106.6791,15.54518],[106.3278,15.50412],[106.31654,15.42009],[106.37349,15.39994],[106.16068,15.28842],[106.075,15.36232],[106.07273,15.45988],[105.59224,15.42755],[105.64092,15.68199],[105.46238,15.76281]]]}},{"type":"Feature","properties":{"id":"la-sv","lat":16.48667,"lng":105.72993},"geometry":{"type":"Polygon","coordinates":[[[104.75451,16.52892],[104.74634,16.94353],[104.83218,16.90721],[104.79529,17.0116],[104.8634,17.08583],[105.16478,17.11138],[105.30719,17.05289],[105.48434,17.1004],[105.63389,17.04335],[105.69094,17.1172],[105.99325,17.04485],[106.15427,17.10363],[106.25453,17.03224],[106.52454,16.98925],[106.54975,16.6378],[106.64019,16.58664],[106.67068,16.44442],[106.78297,16.42254],[106.79155,16.36841],[106.66463,16.32017],[106.58205,16.1724],[106.31489,16.14194],[106.30403,16.09982],[106.16389,16.17653],[106.12038,15.97394],[105.79006,15.88544],[105.05811,16.12119],[105.01548,16.27673],[104.75451,16.52892]]]}},{"type":"Feature","properties":{"id":"la-vi","lat":18.58657,"lng":102.59215},"geometry":{"type":"Polygon","coordinates":[[[102.0785,18.2138],[101.9043,18.03712],[101.79041,18.07358],[101.72907,17.91219],[101.57755,17.86811],[101.56401,17.82031],[101.55115,17.87511],[101.42361,17.92888],[101.42082,18.2147],[101.81067,18.62176],[101.86172,18.79332],[101.80322,18.88557],[101.81035,19.04992],[101.95681,19.15348],[102.12723,19.40174],[102.45962,19.3681],[102.57579,19.22425],[102.7459,19.31438],[103.09224,19.14826],[103.50823,19.14935],[103.88578,19.00894],[103.88547,18.87714],[103.7754,18.82717],[103.57076,18.9498],[103.48415,18.93037],[103.49873,18.66891],[103.3683,18.55137],[102.82166,18.51065],[102.90393,18.29351],[102.9955,18.25093],[103.00491,18.12538],[103.0877,18.13867],[103.07307,18.03552],[102.83804,17.96376],[102.67299,17.86537],[102.68291,17.81008],[102.59527,17.84082],[102.59961,17.95518],[102.41223,17.9942],[102.17193,18.20029],[102.0785,18.2138]]]}},{"type":"Feature","properties":{"id":"la-xa","lat":18.7109,"lng":101.53209},"geometry":{"type":"Polygon","coordinates":[[[100.46196,19.5371],[100.40766,19.79426],[100.66882,19.81499],[100.79212,19.89101],[101.00937,19.83398],[101.11861,19.88923],[101.25793,19.8213],[101.55941,19.82347],[101.70762,19.9308],[101.7717,19.85328],[101.74679,19.68081],[101.82431,19.64963],[101.8209,19.46711],[101.90627,19.40321],[101.82431,19.27908],[101.80322,18.88557],[101.85428,18.76335],[101.74255,18.5022],[101.40325,18.18217],[101.42361,17.92888],[101.55115,17.87511],[101.55626,17.79215],[101.46831,17.72037],[101.388,17.72931],[101.13231,17.46167],[100.88566,17.59588],[101.00084,17.8848],[101.16517,18.05342],[101.15541,18.32289],[101.0303,18.42779],[101.23473,18.65845],[101.22491,18.87477],[101.3264,19.02055],[101.23571,19.12811],[101.17236,19.37639],[101.25106,19.56031],[100.87982,19.61358],[100.753,19.48243],[100.63327,19.54217],[100.54929,19.49455],[100.46196,19.5371]]]}},{"type":"Feature","properties":{"id":"la-xe","lat":15.63054,"lng":106.97582},"geometry":{"type":"Polygon","coordinates":[[[107.13599,16.18478],[107.29896,16.06419],[107.43564,16.06884],[107.37554,15.91908],[107.18625,15.85939],[107.14879,15.77346],[107.36934,15.49606],[107.48748,15.48141],[107.65759,15.28243],[107.57801,15.04725],[107.50239,15.04404],[107.46066,15.18148],[107.34666,15.16554],[107.16858,15.2763],[106.79072,15.25468],[106.67166,15.1375],[106.66618,15.22233],[106.31654,15.42009],[106.35116,15.51303],[106.6791,15.54518],[106.69936,15.71591],[106.65202,15.77601],[106.81759,16.04925],[106.9843,16.03879],[107.13599,16.18478]]]}},{"type":"Feature","properties":{"id":"la-xi","lat":19.38667,"lng":103.33486},"geometry":{"type":"Polygon","coordinates":[[[104.2002,19.69859],[104.08872,19.6519],[104.00097,19.68074],[104.08996,19.48367],[103.84842,19.29991],[104.2596,19.10413],[104.25331,18.98437],[104.08929,18.81368],[103.88547,18.87714],[103.86108,19.03122],[103.58151,19.08591],[103.50823,19.14935],[103.26319,19.12199],[102.90507,19.20196],[102.75893,19.29053],[102.66064,19.47344],[103.03147,19.86416],[103.22836,19.93072],[103.47051,19.86843],[103.68662,19.92958],[103.7414,20.02493],[103.84868,19.9978],[103.87452,19.84618],[103.95214,19.78257],[104.20494,19.90222],[104.2002,19.69859]]]}}]}
