{"type":"FeatureCollection","features":[{"type":"Feature","properties":{"id":"lb-as","lat":34.33747,"lng":35.94311},"geometry":{"type":"Polygon","coordinates":[[[36.30893,34.68755],[36.43626,34.59784],[36.24516,34.45728],[36.03954,34.15559],[35.64496,34.21766],[35.80543,34.46491],[35.98316,34.53864],[35.9699,34.64985],[36.26159,34.62724],[36.30893,34.68755]]]}},{"type":"Feature","properties":{"id":"lb-ba","lat":33.88909,"lng":35.52565},"geometry":{"type":"Polygon","coordinates":[[[35.53631,33.87199],[35.47584,33.90998],[35.54809,33.9062],[35.53631,33.87199]]]}},{"type":"Feature","properties":{"id":"lb-bi","lat":33.96981,"lng":36.12388},"geometry":{"type":"Polygon","coordinates":[[[35.87009,33.43124],[35.71615,33.48072],[35.63486,33.43331],[35.61357,33.50974],[35.80756,33.78094],[35.77015,33.80807],[35.95313,33.99312],[36.01132,34.15223],[36.24516,34.45728],[36.43347,34.49433],[36.53062,34.41418],[36.6041,34.1991],[36.28856,33.94651],[36.26893,33.90677],[36.3575,33.82378],[36.13829,33.85062],[35.99401,33.76071],[35.92156,33.6403],[36.03525,33.5678],[35.87009,33.43124]]]}},{"type":"Feature","properties":{"id":"lb-ja","lat":33.35838,"lng":35.28171},"geometry":{"type":"Polygon","coordinates":[[[35.28883,33.0992],[35.09962,33.10126],[35.20476,33.2248],[35.27101,33.45751],[35.37705,33.58949],[35.59636,33.60622],[35.63486,33.43331],[35.5914,33.38613],[35.54298,33.34861],[35.5236,33.50126],[35.29659,33.36814],[35.43017,33.31391],[35.28883,33.0992]]]}},{"type":"Feature","properties":{"id":"lb-jl","lat":33.73569,"lng":35.59335},"geometry":{"type":"Polygon","coordinates":[[[35.483,33.86517],[35.64088,33.99942],[35.64496,34.21766],[36.01132,34.15223],[35.61357,33.50974],[35.59636,33.60622],[35.37705,33.58949],[35.483,33.86517]]]}},{"type":"Feature","properties":{"id":"lb-na","lat":33.26269,"lng":35.46969},"geometry":{"type":"Polygon","coordinates":[[[35.59775,33.24435],[35.54949,33.28102],[35.48014,33.08739],[35.34516,33.05558],[35.28883,33.0992],[35.43017,33.31391],[35.29659,33.36814],[35.36764,33.37915],[35.41033,33.47186],[35.52871,33.50002],[35.54298,33.34861],[35.71615,33.48072],[35.84512,33.41874],[35.59775,33.24435]]]}}]}
