{"type":"FeatureCollection","features":[{"type":"Feature","properties":{"id":"lc-01","lat":13.94351,"lng":-61.02033},"geometry":{"type":"Polygon","coordinates":[[[-61.06688,13.909],[-61.0266,13.98737],[-60.99191,13.97802],[-60.99065,13.86648],[-61.06688,13.909]]]}},{"type":"Feature","properties":{"id":"lc-02","lat":13.93319,"lng":-60.97221},"geometry":{"type":"Polygon","coordinates":[[[-61.0266,13.98737],[-60.97997,14.04352],[-60.93559,14.01796],[-60.96057,13.87901],[-61.0266,13.98737]]]}},{"type":"Feature","properties":{"id":"lc-03","lat":13.81149,"lng":-61.01028},"geometry":{"type":"Polygon","coordinates":[[[-61.01892,13.75625],[-61.06811,13.79218],[-60.98158,13.83577],[-60.98094,13.8308],[-61.01892,13.75625]]]}},{"type":"Feature","properties":{"id":"lc-04","lat":14.01692,"lng":-60.91981},"geometry":{"type":"Polygon","coordinates":[[[-60.92799,14.05321],[-60.88296,13.98062],[-60.94052,13.97927],[-60.92799,14.05321]]]}},{"type":"Feature","properties":{"id":"lc-05","lat":13.94387,"lng":-60.91809},"geometry":{"type":"Polygon","coordinates":[[[-60.88296,13.98062],[-60.89023,13.90847],[-60.96057,13.90032],[-60.94052,13.97927],[-60.88296,13.98062]]]}},{"type":"Feature","properties":{"id":"lc-06","lat":14.0729,"lng":-60.94297},"geometry":{"type":"Polygon","coordinates":[[[-60.97997,14.04352],[-60.94762,14.10228],[-60.91413,14.1057],[-60.93559,14.01796],[-60.97997,14.04352]]]}},{"type":"Feature","properties":{"id":"lc-07","lat":13.8033,"lng":-60.98368},"geometry":{"type":"Polygon","coordinates":[[[-60.96709,13.73064],[-61.01892,13.75625],[-60.98094,13.8308],[-60.96386,13.77579],[-60.96709,13.73064]]]}},{"type":"Feature","properties":{"id":"lc-08","lat":13.8036,"lng":-60.92455},"geometry":{"type":"Polygon","coordinates":[[[-60.8922,13.8332],[-60.91804,13.774],[-60.97522,13.83923],[-60.96433,13.84517],[-60.8922,13.8332]]]}},{"type":"Feature","properties":{"id":"lc-09","lat":13.87274,"lng":-60.92681},"geometry":{"type":"Polygon","coordinates":[[[-60.89023,13.90847],[-60.8922,13.8332],[-60.96433,13.84517],[-60.96057,13.90032],[-60.89023,13.90847]]]}},{"type":"Feature","properties":{"id":"lc-10","lat":13.86209,"lng":-61.01491},"geometry":{"type":"Polygon","coordinates":[[[-61.06811,13.79218],[-61.06688,13.909],[-60.96057,13.87901],[-60.96433,13.84517],[-61.06811,13.79218]]]}},{"type":"Feature","properties":{"id":"lc-11","lat":13.80488,"lng":-60.95996},"geometry":{"type":"Polygon","coordinates":[[[-60.91804,13.774],[-60.95507,13.71467],[-60.98158,13.83577],[-60.97522,13.83923],[-60.91804,13.774]]]}}]}
