{"type":"FeatureCollection","features":[{"type":"Feature","properties":{"id":"li-01","lat":47.06438,"lng":9.51727},"geometry":{"type":"MultiPolygon","coordinates":[[[[9.53313,47.05553],[9.47589,47.07323],[9.52215,47.0868],[9.53313,47.05553]]],[[[9.56052,47.08903],[9.57053,47.07568],[9.55441,47.08291],[9.56052,47.08903]]],[[[9.58182,47.1549],[9.5989,47.12128],[9.56711,47.16083],[9.58182,47.1549]]]]}},{"type":"Feature","properties":{"id":"li-02","lat":47.20266,"lng":9.54118},"geometry":{"type":"Polygon","coordinates":[[[9.51993,47.22527],[9.56188,47.19061],[9.50825,47.2147],[9.51993,47.22527]]]}},{"type":"Feature","properties":{"id":"li-03","lat":47.21181,"lng":9.50621},"geometry":{"type":"Polygon","coordinates":[[[9.49991,47.1919],[9.49704,47.22893],[9.53105,47.19468],[9.49991,47.1919]]]}},{"type":"Feature","properties":{"id":"li-04","lat":47.21844,"lng":9.54301},"geometry":{"type":"Polygon","coordinates":[[[9.51993,47.22527],[9.54038,47.22911],[9.55433,47.21162],[9.51993,47.22527]]]}},{"type":"Feature","properties":{"id":"li-05","lat":47.1882,"lng":9.53807},"geometry":{"type":"MultiPolygon","coordinates":[[[[9.55206,47.16689],[9.5633,47.14797],[9.54829,47.16076],[9.55206,47.16689]]],[[[9.56188,47.19061],[9.52994,47.18579],[9.53105,47.19468],[9.56188,47.19061]]]]}},{"type":"Feature","properties":{"id":"li-06","lat":47.23633,"lng":9.50579},"geometry":{"type":"Polygon","coordinates":[[[9.50462,47.24373],[9.51993,47.22527],[9.49704,47.22893],[9.50462,47.24373]]]}},{"type":"Feature","properties":{"id":"li-07","lat":47.17772,"lng":9.51518},"geometry":{"type":"MultiPolygon","coordinates":[[[[9.60513,47.07759],[9.58277,47.0868],[9.59778,47.09069],[9.60513,47.07759]]],[[[9.60951,47.12241],[9.5761,47.10849],[9.5633,47.14797],[9.60951,47.12241]]],[[[9.54829,47.16076],[9.49553,47.15595],[9.48643,47.19692],[9.53105,47.19468],[9.54829,47.16076]]]]}},{"type":"Feature","properties":{"id":"li-08","lat":47.22833,"lng":9.52351},"geometry":{"type":"Polygon","coordinates":[[[9.51937,47.23139],[9.54313,47.23482],[9.51993,47.22527],[9.51937,47.23139]]]}},{"type":"Feature","properties":{"id":"li-09","lat":47.10809,"lng":9.53265},"geometry":{"type":"Polygon","coordinates":[[[9.58277,47.0868],[9.53313,47.05553],[9.51185,47.12937],[9.58277,47.0868]]]}},{"type":"Feature","properties":{"id":"li-10","lat":47.14575,"lng":9.547},"geometry":{"type":"MultiPolygon","coordinates":[[[[9.59167,47.11127],[9.6088,47.08077],[9.60513,47.07759],[9.59167,47.11127]]],[[[9.5761,47.10849],[9.52716,47.13073],[9.54829,47.16076],[9.5761,47.10849]]]]}},{"type":"Feature","properties":{"id":"li-11","lat":47.14575,"lng":9.5282},"geometry":{"type":"MultiPolygon","coordinates":[[[[9.56775,47.08847],[9.59167,47.11127],[9.59778,47.09069],[9.56775,47.08847]]],[[[9.52716,47.13073],[9.50547,47.1691],[9.54829,47.16076],[9.52716,47.13073]]]]}}]}
