{"type":"FeatureCollection","features":[{"type":"Feature","properties":{"id":"lk-11","lat":6.8617,"lng":80.03096},"geometry":{"type":"Polygon","coordinates":[[[79.90036,6.71201],[79.84929,6.96495],[80.07194,6.90986],[80.13426,6.9742],[80.21849,6.96758],[80.17963,6.81354],[79.89397,6.77569],[79.90036,6.71201]]]}},{"type":"Feature","properties":{"id":"lk-12","lat":7.05275,"lng":80.01834},"geometry":{"type":"Polygon","coordinates":[[[79.84929,6.96495],[79.82789,7.27599],[80.13354,7.32477],[80.19359,7.25718],[80.14966,7.15315],[80.20733,7.12773],[80.17953,6.97777],[80.07194,6.90986],[79.84929,6.96495]]]}},{"type":"Feature","properties":{"id":"lk-13","lat":6.60836,"lng":80.11235},"geometry":{"type":"Polygon","coordinates":[[[79.98211,6.44103],[79.89397,6.77569],[80.17963,6.81354],[80.3819,6.42581],[80.29281,6.38811],[80.29839,6.32489],[79.98211,6.44103]]]}},{"type":"Feature","properties":{"id":"lk-21","lat":7.23882,"lng":80.6323},"geometry":{"type":"Polygon","coordinates":[[[80.46344,7.02836],[80.44876,7.11207],[80.54592,7.17375],[80.4221,7.35723],[80.46913,7.40273],[80.56555,7.45756],[80.68648,7.38764],[80.72441,7.47182],[80.77639,7.43559],[80.98331,7.48613],[80.98527,7.20545],[80.83014,7.19672],[80.75645,7.27201],[80.76874,7.20563],[80.6841,7.09579],[80.64741,7.09988],[80.5393,7.06189],[80.59966,6.99854],[80.56607,6.94229],[80.46344,7.02836]]]}},{"type":"Feature","properties":{"id":"lk-22","lat":7.70653,"lng":80.65258},"geometry":{"type":"Polygon","coordinates":[[[80.75614,8.0123],[80.85329,7.96267],[80.76678,7.80004],[80.77174,7.6923],[80.98899,7.72077],[80.98331,7.48613],[80.77639,7.43559],[80.72441,7.47182],[80.64968,7.38981],[80.56555,7.45756],[80.5731,7.61579],[80.49445,7.79867],[80.75614,8.0123]]]}},{"type":"Feature","properties":{"id":"lk-23","lat":7.00844,"lng":80.75245},"geometry":{"type":"Polygon","coordinates":[[[80.64255,6.7539],[80.49083,6.79052],[80.43233,6.988],[80.49207,7.02585],[80.56607,6.94229],[80.59966,6.99854],[80.5393,7.06189],[80.6841,7.09579],[80.76874,7.20563],[80.75645,7.27201],[80.83014,7.19672],[80.95116,7.19178],[80.92956,7.01833],[80.78053,6.91934],[80.83861,6.81101],[80.64255,6.7539]]]}},{"type":"Feature","properties":{"id":"lk-31","lat":6.17748,"lng":80.24186},"geometry":{"type":"Polygon","coordinates":[[[80.38499,5.96382],[80.20387,6.02619],[80.09702,6.13239],[79.98211,6.44103],[80.29839,6.32489],[80.34624,6.4177],[80.48669,6.37987],[80.48246,6.28626],[80.37879,6.3276],[80.43708,6.23778],[80.38448,6.22257],[80.43884,6.09363],[80.38499,5.96382]]]}},{"type":"Feature","properties":{"id":"lk-32","lat":6.15504,"lng":80.53294},"geometry":{"type":"Polygon","coordinates":[[[80.7297,5.97564],[80.59083,5.92373],[80.38499,5.96382],[80.43884,6.09363],[80.38448,6.22257],[80.43708,6.23778],[80.37879,6.3276],[80.48246,6.28626],[80.46117,6.3478],[80.54137,6.39103],[80.65216,6.35346],[80.61175,6.18947],[80.69412,6.12061],[80.6624,6.03539],[80.7297,5.97564]]]}},{"type":"Feature","properties":{"id":"lk-33","lat":6.26402,"lng":81.16528},"geometry":{"type":"Polygon","coordinates":[[[81.71205,6.51027],[81.32496,6.20539],[80.7297,5.97564],[80.6624,6.03539],[80.69412,6.12061],[80.61175,6.18947],[80.66064,6.3023],[80.94248,6.23231],[80.91985,6.29574],[81.04904,6.42173],[81.24685,6.34284],[81.46472,6.4116],[81.48043,6.4933],[81.60807,6.5788],[81.71205,6.51027]]]}},{"type":"Feature","properties":{"id":"lk-41","lat":9.72455,"lng":80.09944},"geometry":{"type":"MultiPolygon","coordinates":[[[[79.71469,9.48505],[79.65577,9.50389],[79.6587,9.55537],[79.71925,9.52436],[79.71469,9.48505]]],[[[80.45639,9.52871],[80.24781,9.75507],[80.13673,9.81391],[80.26059,9.81623],[80.40992,9.6175],[80.62598,9.45475],[80.45639,9.52871]]],[[[79.89584,9.6175],[79.88233,9.76089],[79.97787,9.62434],[79.89584,9.6175]]],[[[80.18605,9.64851],[80.19361,9.58641],[80.08741,9.61835],[79.90968,9.7683],[80.12233,9.81892],[80.29067,9.68081],[80.25603,9.61559],[80.18605,9.64851]]]]}},{"type":"Feature","properties":{"id":"lk-42","lat":9.42357,"lng":80.35817},"geometry":{"type":"MultiPolygon","coordinates":[[[[80.11598,9.23383],[80.05299,9.39155],[80.19703,9.47346],[80.05299,9.59638],[80.23341,9.53425],[80.28688,9.4527],[80.42661,9.50019],[80.61476,9.44619],[80.58622,9.36271],[80.5362,9.40095],[80.39915,9.3022],[80.11598,9.23383]]],[[[80.29067,9.68081],[80.44174,9.5769],[80.45639,9.52871],[80.25603,9.61559],[80.29067,9.68081]]]]}},{"type":"Feature","properties":{"id":"lk-43","lat":8.89356,"lng":80.14831},"geometry":{"type":"MultiPolygon","coordinates":[[[[79.91652,8.576],[79.91554,8.93854],[80.04802,9.02627],[80.10979,9.20946],[80.19173,9.23721],[80.21829,9.07371],[80.17498,8.95026],[80.36712,8.94643],[80.39275,8.84858],[80.17777,8.7745],[80.23534,8.68035],[80.04445,8.67319],[80.05034,8.52191],[79.91652,8.576]]],[[[79.70297,9.07998],[79.84164,9.07722],[79.90968,8.97321],[79.79981,9.04898],[79.70297,9.07998]]]]}},{"type":"Feature","properties":{"id":"lk-44","lat":8.83726,"lng":80.46881},"geometry":{"type":"Polygon","coordinates":[[[80.75303,8.90509],[80.59583,8.86982],[80.65051,8.78949],[80.5268,8.66738],[80.42902,8.675],[80.33797,8.54614],[80.17385,8.74665],[80.2465,8.82595],[80.39275,8.84858],[80.34004,8.95904],[80.43223,9.03715],[80.4066,9.11557],[80.51873,9.07859],[80.64762,9.11389],[80.67841,9.03102],[80.78414,9.00454],[80.75303,8.90509]]]}},{"type":"Feature","properties":{"id":"lk-45","lat":9.19119,"lng":80.52999},"geometry":{"type":"Polygon","coordinates":[[[80.62598,9.45475],[80.79884,9.29487],[80.74171,9.29849],[80.8239,9.27049],[80.88217,9.14517],[80.83448,9.14175],[80.95362,9.00385],[80.87534,9.04149],[80.92292,8.98892],[80.76575,8.93682],[80.78414,9.00454],[80.67841,9.03102],[80.64762,9.11389],[80.51873,9.07859],[80.42458,9.11727],[80.38644,8.98793],[80.17498,8.95026],[80.21829,9.07371],[80.19173,9.23721],[80.24154,9.2953],[80.39915,9.3022],[80.5362,9.40095],[80.58622,9.36271],[80.62598,9.45475]]]}},{"type":"Feature","properties":{"id":"lk-51","lat":7.80775,"lng":81.43559},"geometry":{"type":"MultiPolygon","coordinates":[[[[81.80779,7.47919],[81.72511,7.73994],[81.80633,7.59858],[81.80779,7.47919]]],[[[81.41668,8.25377],[81.4485,8.128],[81.40358,8.1918],[81.39625,8.13654],[81.56072,7.99934],[81.58758,7.85529],[81.71314,7.71182],[81.62664,7.7602],[81.59547,7.72626],[81.65903,7.72333],[81.77296,7.56802],[81.7798,7.47236],[81.66823,7.4028],[81.64962,7.52515],[81.49397,7.51621],[81.4363,7.56631],[81.4456,7.64201],[81.24117,7.73911],[81.24334,7.92249],[81.33987,7.9374],[81.31031,8.25743],[81.41668,8.25377]]]]}},{"type":"Feature","properties":{"id":"lk-52","lat":7.10523,"lng":81.723},"geometry":{"type":"Polygon","coordinates":[[[81.77003,7.46084],[81.80779,7.41035],[81.83497,7.46556],[81.88071,7.32709],[81.89031,7.01992],[81.71205,6.51027],[81.60807,6.5788],[81.63412,6.9457],[81.61675,7.05965],[81.49997,7.1508],[81.54875,7.21912],[81.47743,7.45081],[81.37501,7.40932],[81.28716,7.24124],[81.19993,7.37164],[81.20148,7.55832],[81.04635,7.50776],[80.98899,7.72077],[81.22081,7.65359],[81.24117,7.73911],[81.32706,7.72676],[81.4456,7.64201],[81.4363,7.56631],[81.49397,7.51621],[81.64962,7.52515],[81.66823,7.4028],[81.77003,7.46084]]]}},{"type":"Feature","properties":{"id":"lk-53","lat":8.55925,"lng":81.07398},"geometry":{"type":"Polygon","coordinates":[[[80.92292,8.98892],[80.91489,8.94392],[80.97853,8.97997],[81.2317,8.65107],[81.24977,8.5458],[81.21225,8.5727],[81.21062,8.50711],[81.15903,8.53457],[81.13396,8.50129],[81.36573,8.48216],[81.41668,8.25385],[81.2823,8.25735],[81.2266,8.15558],[81.19787,8.22862],[80.92419,8.33686],[80.98713,8.47426],[80.89607,8.62573],[80.91261,8.8368],[80.75303,8.90509],[80.92292,8.98892]]]}},{"type":"Feature","properties":{"id":"lk-61","lat":7.71732,"lng":80.23683},"geometry":{"type":"Polygon","coordinates":[[[80.4221,7.35723],[80.35244,7.38598],[80.33952,7.32503],[80.19359,7.25718],[80.13354,7.32477],[79.9413,7.27444],[79.90213,7.5999],[80.01334,7.83474],[80.14522,7.94789],[80.10253,8.19619],[80.40515,8.05261],[80.46055,7.93753],[80.57372,7.48753],[80.55584,7.42275],[80.4221,7.35723]]]}},{"type":"Feature","properties":{"id":"lk-62","lat":7.89131,"lng":79.91081},"geometry":{"type":"Polygon","coordinates":[[[79.82789,7.27599],[79.69679,8.21906],[79.77858,8.35004],[79.73194,8.01313],[79.81023,7.98652],[79.80665,8.24018],[79.91278,8.57201],[80.03246,8.52708],[79.95505,8.37373],[80.00083,8.22712],[80.09137,8.21051],[80.15318,8.0678],[80.14522,7.94789],[80.01334,7.83474],[79.90213,7.5999],[79.9413,7.27444],[79.82789,7.27599]]]}},{"type":"Feature","properties":{"id":"lk-71","lat":8.35529,"lng":80.44672},"geometry":{"type":"Polygon","coordinates":[[[80.92419,8.33686],[80.80285,8.27358],[80.75614,8.0123],[80.4991,7.815],[80.42024,8.04031],[80.00083,8.22712],[79.95505,8.37373],[80.05034,8.52191],[80.04445,8.67319],[80.23534,8.68035],[80.33797,8.54614],[80.42902,8.675],[80.5268,8.66738],[80.65051,8.78949],[80.59583,8.86982],[80.8106,8.91589],[80.91261,8.8368],[80.89607,8.62573],[80.98713,8.47426],[80.92419,8.33686]]]}},{"type":"Feature","properties":{"id":"lk-72","lat":8.02216,"lng":81.0533},"geometry":{"type":"Polygon","coordinates":[[[80.79231,7.96176],[80.75707,8.08165],[80.80285,8.27358],[80.93917,8.3412],[80.99901,8.27262],[81.19787,8.22862],[81.20148,8.14992],[81.31031,8.25743],[81.33987,7.9374],[81.24334,7.92249],[81.22081,7.65359],[81.0634,7.72759],[80.78166,7.67832],[80.76678,7.80004],[80.85329,7.96267],[80.79231,7.96176]]]}},{"type":"Feature","properties":{"id":"lk-81","lat":7.09679,"lng":81.05853},"geometry":{"type":"Polygon","coordinates":[[[81.27052,7.27684],[81.12862,7.17062],[81.24355,7.02296],[81.21533,6.92599],[81.06495,6.80945],[81.08625,6.60957],[81.02268,6.54213],[80.9399,6.68691],[80.82714,6.67848],[80.85783,6.74142],[80.81215,6.75514],[80.83489,6.84527],[80.78053,6.91934],[80.90734,6.98552],[80.95116,7.19178],[81.01224,7.23036],[80.98806,7.61494],[81.04635,7.50776],[81.20148,7.55832],[81.19993,7.37164],[81.27052,7.27684]]]}},{"type":"Feature","properties":{"id":"lk-82","lat":6.87758,"lng":81.38167},"geometry":{"type":"Polygon","coordinates":[[[80.91985,6.29574],[80.83975,6.40046],[80.88295,6.61515],[80.9399,6.68691],[81.02268,6.54213],[81.06237,6.57841],[81.06495,6.80945],[81.23518,6.97725],[81.23559,7.06884],[81.12862,7.17062],[81.23156,7.26757],[81.32602,7.26175],[81.37501,7.40932],[81.47743,7.45081],[81.54875,7.21912],[81.49997,7.1508],[81.61675,7.05965],[81.63412,6.9457],[81.60807,6.5788],[81.48043,6.4933],[81.46472,6.4116],[81.24685,6.34284],[81.04904,6.42173],[80.91985,6.29574]]]}},{"type":"Feature","properties":{"id":"lk-91","lat":6.58648,"lng":80.58088},"geometry":{"type":"Polygon","coordinates":[[[80.92801,6.68752],[80.82962,6.49449],[80.94248,6.23231],[80.67004,6.30597],[80.60235,6.39692],[80.40773,6.40178],[80.21508,6.69228],[80.17705,6.85912],[80.22562,6.92462],[80.32412,6.84281],[80.496,6.83168],[80.5114,6.77491],[80.80947,6.79191],[80.85783,6.74142],[80.82714,6.67848],[80.92801,6.68752]]]}},{"type":"Feature","properties":{"id":"lk-92","lat":7.1199,"lng":80.33349},"geometry":{"type":"Polygon","coordinates":[[[80.29477,6.85509],[80.17953,6.97777],[80.20733,7.12773],[80.1539,7.18147],[80.39833,7.39149],[80.54592,7.17375],[80.44876,7.11207],[80.43233,6.988],[80.50747,6.8417],[80.29477,6.85509]]]}}]}
