{"type":"FeatureCollection","features":[{"type":"Feature","properties":{"id":"lr-bg","lat":6.92042,"lng":-9.80374},"geometry":{"type":"Polygon","coordinates":[[[-9.4871,7.3732],[-9.32777,7.41707],[-9.11962,7.23796],[-9.18799,6.97978],[-9.1097,6.88558],[-9.1699,6.62799],[-9.32997,6.61567],[-9.44686,6.50836],[-9.6424,6.43808],[-9.58383,6.56795],[-9.65261,6.64151],[-9.74048,6.64507],[-9.72196,6.73391],[-9.77725,6.78713],[-9.88859,6.62691],[-10.4614,6.7831],[-10.50615,6.8361],[-10.45341,6.95526],[-10.34425,6.98257],[-10.19769,7.13385],[-10.11196,7.12277],[-10.08002,7.04487],[-9.81325,7.21176],[-9.66907,7.21305],[-9.4871,7.3732]]]}},{"type":"Feature","properties":{"id":"lr-bm","lat":6.67048,"lng":-10.80689},"geometry":{"type":"Polygon","coordinates":[[[-10.80662,6.40236],[-11.08012,6.60466],[-10.9762,6.72166],[-10.93165,6.99601],[-10.74577,6.96929],[-10.72947,6.8163],[-10.46879,6.87728],[-10.57421,6.77522],[-10.6009,6.61931],[-10.56167,6.56609],[-10.60821,6.5342],[-10.69187,6.57836],[-10.79804,6.52064],[-10.80662,6.40236]]]}},{"type":"Feature","properties":{"id":"lr-cm","lat":7.10948,"lng":-11.08284},"geometry":{"type":"Polygon","coordinates":[[[-11.47619,6.91942],[-11.31721,7.21357],[-10.93703,7.50776],[-10.86402,7.54368],[-10.6056,7.48843],[-10.52581,7.39146],[-10.51989,7.29671],[-10.94359,7.00539],[-10.97374,6.72825],[-11.07707,6.59253],[-11.35318,6.70116],[-11.38195,6.83682],[-11.47619,6.91942]]]}},{"type":"Feature","properties":{"id":"lr-gb","lat":6.13738,"lng":-9.92453},"geometry":{"type":"Polygon","coordinates":[[[-9.73315,5.58119],[-10.05553,5.91177],[-10.36412,6.11567],[-10.21578,6.49097],[-10.24324,6.53102],[-9.96127,6.50495],[-9.84164,6.54157],[-9.74545,6.65205],[-9.66816,6.64693],[-9.5822,6.56267],[-9.63406,6.43808],[-9.32997,6.61567],[-9.09879,6.61389],[-9.14406,6.35506],[-9.44782,6.32199],[-9.46079,6.15908],[-9.65191,6.03229],[-9.67413,5.66167],[-9.73315,5.58119]]]}},{"type":"Feature","properties":{"id":"lr-gg","lat":6.11495,"lng":-8.34178},"geometry":{"type":"Polygon","coordinates":[[[-8.61872,6.49284],[-8.49723,6.43137],[-8.46752,6.48707],[-8.41827,6.45121],[-8.41181,6.34003],[-7.91437,6.27174],[-7.78663,5.95817],[-7.4944,5.80618],[-7.44654,5.84595],[-7.39363,5.52398],[-8.43077,5.47003],[-8.47971,5.53995],[-8.35173,5.63715],[-8.41002,5.75461],[-8.51066,5.78758],[-8.58497,5.70503],[-8.94374,5.91985],[-8.61872,6.49284]]]}},{"type":"Feature","properties":{"id":"lr-gk","lat":4.78622,"lng":-8.29924},"geometry":{"type":"Polygon","coordinates":[[[-7.844,4.45561],[-8.25731,4.57998],[-8.70357,4.82189],[-8.55232,5.01902],[-8.32189,5.16519],[-8.02496,5.11282],[-8.09782,4.86275],[-7.8968,4.75056],[-7.80898,4.59905],[-7.844,4.45561]]]}},{"type":"Feature","properties":{"id":"lr-lo","lat":7.86881,"lng":-9.79054},"geometry":{"type":"Polygon","coordinates":[[[-10.61622,8.02251],[-10.52925,8.12429],[-10.32094,8.18312],[-10.28224,8.48462],[-10.09108,8.5101],[-10.06168,8.42217],[-9.80681,8.50625],[-9.77359,8.56302],[-9.72212,8.43564],[-9.70325,8.48726],[-9.65054,8.46481],[-9.67726,8.39153],[-9.60016,8.41088],[-9.49913,8.34347],[-9.53014,8.1855],[-9.48141,8.1647],[-9.47422,8.02881],[-9.42415,8.02618],[-9.44844,7.90784],[-9.35547,7.74191],[-9.35351,7.62243],[-9.50779,7.33702],[-9.68292,7.20556],[-9.78356,7.19822],[-9.8333,7.32852],[-9.69592,7.73695],[-9.94841,7.84092],[-10.10806,7.80379],[-10.20089,7.93374],[-10.22685,7.89671],[-10.61622,8.02251]]]}},{"type":"Feature","properties":{"id":"lr-mg","lat":6.46895,"lng":-10.30602},"geometry":{"type":"Polygon","coordinates":[[[-10.36704,6.15106],[-10.63681,6.22191],[-10.60961,6.29874],[-10.3836,6.45219],[-10.41145,6.6159],[-10.35686,6.76199],[-9.88859,6.62691],[-9.81092,6.7876],[-9.73248,6.75532],[-9.74545,6.65205],[-9.84164,6.54157],[-10.09775,6.4857],[-10.17821,6.55136],[-10.24324,6.53102],[-10.21578,6.49097],[-10.36704,6.15106]]]}},{"type":"Feature","properties":{"id":"lr-mo","lat":6.52217,"lng":-10.5895},"geometry":{"type":"Polygon","coordinates":[[[-10.63681,6.22191],[-10.80785,6.31086],[-10.75939,6.4042],[-10.80662,6.40236],[-10.80613,6.51015],[-10.69187,6.57836],[-10.60821,6.5342],[-10.56167,6.56609],[-10.59408,6.70466],[-10.55994,6.82134],[-10.50615,6.8361],[-10.35686,6.76199],[-10.41145,6.6159],[-10.38122,6.46229],[-10.60961,6.29874],[-10.63681,6.22191]]]}},{"type":"Feature","properties":{"id":"lr-my","lat":4.67481,"lng":-7.71942},"geometry":{"type":"Polygon","coordinates":[[[-7.606,4.81736],[-7.54067,4.35285],[-7.59325,4.34724],[-7.81233,4.41608],[-7.80898,4.59905],[-7.8968,4.75056],[-8.09604,4.85787],[-8.02496,5.11282],[-7.84698,5.07496],[-7.83388,4.86113],[-7.72497,4.88123],[-7.606,4.81736]]]}},{"type":"Feature","properties":{"id":"lr-ni","lat":6.71623,"lng":-8.77869},"geometry":{"type":"Polygon","coordinates":[[[-8.56741,7.68821],[-8.30261,7.1376],[-8.32499,6.80625],[-8.61921,6.49286],[-8.71933,6.25634],[-8.85382,6.12133],[-8.85364,6.03532],[-8.93986,5.99739],[-8.91795,5.85272],[-9.08639,5.83189],[-9.07053,6.05178],[-9.12052,6.14371],[-9.06135,6.27499],[-9.14406,6.35506],[-9.09114,6.60668],[-9.18437,6.62621],[-9.11047,6.80847],[-9.18778,6.97552],[-9.16031,7.06032],[-9.10609,7.20298],[-8.9572,7.28648],[-8.85783,7.27305],[-8.68657,7.69436],[-8.56741,7.68821]]]}},{"type":"Feature","properties":{"id":"lr-ri","lat":5.79958,"lng":-9.38729},"geometry":{"type":"Polygon","coordinates":[[[-9.41823,5.27123],[-9.73315,5.58119],[-9.67413,5.66167],[-9.65191,6.03229],[-9.46079,6.15908],[-9.44782,6.32199],[-9.14406,6.35506],[-9.06135,6.27499],[-9.12052,6.14371],[-9.07177,5.87884],[-9.14566,5.72032],[-9.35743,5.58297],[-9.3164,5.42277],[-9.41823,5.27123]]]}},{"type":"Feature","properties":{"id":"lr-si","lat":5.35664,"lng":-8.88603},"geometry":{"type":"Polygon","coordinates":[[[-8.70357,4.82189],[-9.10497,5.03156],[-9.42833,5.2905],[-9.3164,5.42277],[-9.35743,5.58297],[-9.15347,5.71288],[-9.08639,5.83189],[-8.90284,5.8752],[-8.58497,5.70503],[-8.45999,5.78502],[-8.36153,5.68487],[-8.35545,5.62684],[-8.44214,5.6079],[-8.4825,5.52721],[-8.3091,5.17007],[-8.55232,5.01902],[-8.70357,4.82189]]]}},{"type":"Feature","properties":{"id":"lr-x1~","lat":7.43307,"lng":-10.17342},"geometry":{"type":"Polygon","coordinates":[[[-10.86402,7.54368],[-10.61519,7.76904],[-10.61622,8.02251],[-10.22685,7.89671],[-10.20089,7.93374],[-10.10806,7.80379],[-9.94841,7.84092],[-9.69592,7.73695],[-9.68478,7.67012],[-9.8333,7.32852],[-9.82733,7.19822],[-10.09548,7.04205],[-10.11196,7.12277],[-10.19769,7.13385],[-10.34425,6.98257],[-10.45341,6.95526],[-10.46879,6.87728],[-10.7235,6.81576],[-10.74577,6.96929],[-10.94651,7.00058],[-10.51989,7.29671],[-10.52248,7.38206],[-10.59552,7.48409],[-10.86402,7.54368]]]}},{"type":"Feature","properties":{"id":"lr-x2~","lat":5.15537,"lng":-7.86037},"geometry":{"type":"Polygon","coordinates":[[[-7.40985,5.51342],[-7.44995,5.42277],[-7.38975,5.31714],[-7.47569,5.26423],[-7.48892,5.14067],[-7.57579,5.07207],[-7.54953,4.91389],[-7.6055,4.89743],[-7.606,4.81736],[-7.72497,4.88123],[-7.83711,4.86425],[-7.85528,5.08194],[-8.3091,5.17007],[-8.43951,5.42052],[-8.43077,5.47003],[-7.40985,5.51342]]]}}]}
