{"type":"FeatureCollection","features":[{"type":"Feature","properties":{"id":"ls-a","lat":-29.58383,"lng":27.76489},"geometry":{"type":"Polygon","coordinates":[[[27.30031,-29.52012],[27.51069,-29.27075],[27.54465,-29.32689],[27.78237,-29.29361],[27.8913,-29.33563],[28.01031,-29.26483],[28.04183,-29.3734],[28.17418,-29.2917],[28.20337,-29.33221],[28.10002,-29.45216],[28.1841,-29.7095],[28.05723,-29.71855],[28.16467,-29.85859],[28.08653,-29.92696],[27.93972,-29.84386],[27.65514,-29.82107],[27.62687,-29.70196],[27.52848,-29.637],[27.42937,-29.6631],[27.35816,-29.53065],[27.30031,-29.52012]]]}},{"type":"Feature","properties":{"id":"ls-b","lat":-28.83418,"lng":28.59349},"geometry":{"type":"Polygon","coordinates":[[[28.6343,-28.57076],[28.69952,-28.68848],[28.82794,-28.75954],[28.82995,-28.86692],[28.67663,-29.03456],[28.50237,-29.07151],[28.48889,-28.88118],[28.26621,-28.80145],[28.21812,-28.70065],[28.6343,-28.57076]]]}},{"type":"Feature","properties":{"id":"ls-c","lat":-28.9865,"lng":28.28405},"geometry":{"type":"Polygon","coordinates":[[[28.16405,-28.70543],[28.24632,-28.71732],[28.26621,-28.80145],[28.48889,-28.88118],[28.50237,-29.07151],[28.67663,-29.03456],[28.7913,-28.88924],[28.75249,-29.07125],[28.56971,-29.21036],[28.61735,-29.33785],[28.41747,-29.29594],[28.33587,-29.11409],[28.23112,-29.11114],[28.01031,-28.93844],[27.89332,-29.05213],[27.63448,-29.09104],[27.74743,-28.90862],[28.01357,-28.87844],[28.16405,-28.70543]]]}},{"type":"Feature","properties":{"id":"ls-d","lat":-29.17675,"lng":27.92525},"geometry":{"type":"Polygon","coordinates":[[[27.51069,-29.27075],[27.63448,-29.09104],[27.89332,-29.05213],[28.00023,-28.93736],[28.26451,-29.1192],[28.28559,-29.23429],[28.20337,-29.33221],[28.16441,-29.28912],[28.04183,-29.3734],[28.01031,-29.26483],[27.8913,-29.33563],[27.78237,-29.29361],[27.54465,-29.32689],[27.51069,-29.27075]]]}},{"type":"Feature","properties":{"id":"ls-e","lat":-29.76152,"lng":27.3531},"geometry":{"type":"MultiPolygon","coordinates":[[[[28.05723,-29.71855],[28.22983,-29.73483],[28.29009,-29.96117],[28.12886,-29.90417],[28.16141,-29.79834],[28.10121,-29.79834],[28.05723,-29.71855]]],[[[27.00215,-29.66651],[27.34694,-29.52388],[27.42937,-29.6631],[27.52848,-29.637],[27.62687,-29.70196],[27.65514,-29.82107],[28.07811,-29.90484],[28.05558,-29.93838],[27.90417,-29.88789],[27.88298,-29.93998],[27.83575,-29.90417],[27.82112,-29.95466],[27.68072,-29.97528],[27.5614,-29.91978],[27.43541,-30.03925],[27.37226,-29.97466],[27.38575,-29.85156],[27.17135,-29.9215],[27.00215,-29.66651]]]]}},{"type":"Feature","properties":{"id":"ls-f","lat":-30.10243,"lng":27.61168},"geometry":{"type":"Polygon","coordinates":[[[27.32203,-30.1348],[27.17135,-29.9215],[27.29216,-29.86593],[27.38575,-29.85156],[27.37226,-29.97466],[27.4427,-30.0408],[27.5614,-29.91978],[27.68072,-29.97528],[27.82112,-29.95466],[27.83575,-29.90417],[27.88298,-29.93998],[27.90417,-29.88789],[28.05558,-29.93838],[28.22007,-29.91068],[28.29009,-29.96117],[28.34058,-29.84877],[28.55467,-29.79989],[28.548,-29.9189],[28.37499,-30.02757],[28.30063,-29.98478],[27.93373,-30.07005],[27.89699,-30.19485],[27.81497,-30.26797],[27.72108,-30.25304],[27.73534,-30.33484],[27.68987,-30.36765],[27.53336,-30.39343],[27.4521,-30.31009],[27.36616,-30.31102],[27.38136,-30.14266],[27.32203,-30.1348]]]}},{"type":"Feature","properties":{"id":"ls-g","lat":-30.31737,"lng":27.97115},"geometry":{"type":"Polygon","coordinates":[[[28.3556,-30.17324],[28.20063,-30.28249],[28.23846,-30.35225],[28.12539,-30.45726],[28.07878,-30.6588],[27.74361,-30.6003],[27.53336,-30.39343],[27.72371,-30.35422],[27.72108,-30.25304],[27.86272,-30.23443],[27.94422,-30.06638],[28.26471,-30.00127],[28.20477,-30.12178],[28.3556,-30.17324]]]}},{"type":"Feature","properties":{"id":"ls-h","lat":-29.95851,"lng":28.76235},"geometry":{"type":"Polygon","coordinates":[[[29.15065,-29.91115],[28.63968,-30.13149],[28.3556,-30.17324],[28.20337,-30.11522],[28.26978,-29.99812],[28.36796,-30.0301],[28.548,-29.9189],[28.55684,-29.77069],[28.66578,-29.80598],[28.6974,-29.87936],[28.78866,-29.81038],[28.95857,-29.85668],[29.01366,-29.74346],[29.1136,-29.75285],[29.15065,-29.91115]]]}},{"type":"Feature","properties":{"id":"ls-j","lat":-29.13998,"lng":29.0096},"geometry":{"type":"Polygon","coordinates":[[[28.85901,-28.77299],[29.05578,-28.96536],[29.31178,-29.0898],[29.43591,-29.34239],[29.2752,-29.52829],[29.1583,-29.57602],[29.02064,-29.49117],[28.78262,-29.48931],[28.80406,-29.35273],[28.67415,-29.31092],[28.70908,-29.19016],[28.56211,-29.25889],[28.75249,-29.07125],[28.85901,-28.77299]]]}},{"type":"Feature","properties":{"id":"ls-k","lat":-29.50973,"lng":28.59204},"geometry":{"type":"Polygon","coordinates":[[[29.2752,-29.52829],[29.26734,-29.6261],[29.1613,-29.66692],[29.1136,-29.75285],[29.01366,-29.74346],[28.95857,-29.85668],[28.78866,-29.81038],[28.6974,-29.87936],[28.66578,-29.80598],[28.55684,-29.77069],[28.28192,-29.8944],[28.10157,-29.42756],[28.2811,-29.26013],[28.24864,-29.15326],[28.30621,-29.10618],[28.4077,-29.28788],[28.56335,-29.34529],[28.62045,-29.33423],[28.56211,-29.25889],[28.70908,-29.19016],[28.67415,-29.31092],[28.80406,-29.35273],[28.78262,-29.48931],[29.02064,-29.49117],[29.1583,-29.57602],[29.2752,-29.52829]]]}}]}
