{"type":"FeatureCollection","features":[{"type":"Feature","properties":{"id":"lt-al","lat":54.18519,"lng":24.10179},"geometry":{"type":"Polygon","coordinates":[[[24.85098,54.14495],[24.7825,54.09287],[24.80637,53.97531],[24.66684,53.99386],[24.37787,53.88684],[24.16962,53.95893],[23.62712,53.89821],[23.48562,53.93929],[23.46299,54.13494],[23.33599,54.22629],[23.36946,54.34035],[23.64102,54.50778],[23.86478,54.459],[24.00177,54.50184],[24.00704,54.54649],[24.24568,54.5608],[24.4128,54.54385],[24.44991,54.43285],[24.65599,54.45009],[24.73697,54.4057],[24.99597,54.4513],[24.9938,54.39461],[24.76989,54.22542],[24.85098,54.14495]]]}},{"type":"Feature","properties":{"id":"lt-kl","lat":55.67491,"lng":21.47337},"geometry":{"type":"MultiPolygon","coordinates":[[[[20.92457,55.28266],[21.08237,55.49763],[21.08522,55.72285],[21.13152,55.65559],[21.10621,55.42121],[20.98943,55.27312],[20.92457,55.28266]]],[[[21.0534,56.07262],[21.19036,56.08446],[21.32762,56.22437],[21.96532,56.38368],[21.90293,56.34493],[21.98701,56.21037],[21.58729,55.99648],[21.61804,55.87855],[21.51515,55.80876],[21.75209,55.75686],[21.88226,55.59296],[21.81415,55.56467],[21.88614,55.43636],[22.04566,55.40564],[21.90309,55.269],[22.05078,55.23337],[22.08416,55.15325],[22.29753,55.1464],[22.26988,55.06954],[22.07682,55.02858],[22.00344,55.09349],[21.50394,55.19441],[21.37485,55.28996],[21.26759,55.24868],[21.25709,55.36937],[21.18336,55.34618],[21.2483,55.41787],[21.22291,55.52021],[21.06056,55.78925],[21.0534,56.07262]]]]}},{"type":"Feature","properties":{"id":"lt-ku","lat":55.00494,"lng":24.04829},"geometry":{"type":"Polygon","coordinates":[[[24.41559,55.39321],[24.42262,55.25162],[24.65212,55.06098],[24.54882,54.98775],[24.79997,54.89035],[24.65646,54.81671],[24.61765,54.72622],[24.47368,54.69377],[24.48996,54.60907],[24.4128,54.54385],[24.02988,54.55099],[23.86478,54.459],[23.75631,54.4698],[23.75956,54.53737],[23.6236,54.63212],[23.6821,54.67162],[23.61384,54.78115],[23.63166,54.86864],[23.39891,54.96362],[23.57534,55.02212],[23.4123,55.07871],[23.47746,55.21503],[23.00881,55.26102],[22.92644,55.33481],[22.86205,55.29476],[22.64573,55.47426],[22.86654,55.48075],[23.17639,55.57862],[23.45617,55.5177],[23.53828,55.54552],[23.63414,55.4746],[23.88648,55.5688],[24.05081,55.48323],[24.05376,55.43566],[24.20972,55.47201],[24.41559,55.39321]]]}},{"type":"Feature","properties":{"id":"lt-mr","lat":54.65187,"lng":23.17561},"geometry":{"type":"Polygon","coordinates":[[[22.92969,54.3803],[22.76722,54.35627],[22.6804,54.45322],[22.70087,54.67956],[22.84835,54.81381],[22.82127,54.88549],[22.63348,54.95794],[22.57117,55.06399],[23.00168,55.10537],[23.56991,55.04021],[23.39891,54.96362],[23.63166,54.86864],[23.61384,54.78115],[23.6821,54.67162],[23.6236,54.63212],[23.77631,54.49021],[23.55704,54.46861],[23.36946,54.34035],[23.33599,54.22629],[23.0501,54.29483],[22.92969,54.3803]]]}},{"type":"Feature","properties":{"id":"lt-pn","lat":55.93447,"lng":24.99906},"geometry":{"type":"Polygon","coordinates":[[[24.87097,56.4426],[25.07313,56.19781],[25.66187,56.14081],[25.96125,55.95846],[25.93974,55.91049],[25.6874,55.73009],[25.37864,55.77455],[25.09343,55.68859],[25.01783,55.73453],[24.68933,55.72125],[24.71279,55.66482],[24.63129,55.65903],[24.68592,55.61232],[24.60075,55.51356],[24.63331,55.48638],[24.41559,55.39321],[24.20972,55.47201],[24.05376,55.43566],[24.05081,55.48323],[23.8671,55.56927],[24.00503,55.64198],[24.0213,55.76257],[23.93738,55.84349],[24.06027,55.90413],[24.00472,56.03741],[24.15773,56.16171],[24.14042,56.2576],[24.31855,56.29858],[24.48133,56.26884],[24.87097,56.4426]]]}},{"type":"Feature","properties":{"id":"lt-sa","lat":55.92511,"lng":23.35984},"geometry":{"type":"Polygon","coordinates":[[[22.92452,56.41211],[23.06229,56.30416],[23.28843,56.37305],[23.85811,56.33439],[24.14042,56.2576],[24.15773,56.16171],[24.00472,56.03741],[24.06027,55.90413],[23.93738,55.84349],[24.0213,55.76257],[24.00503,55.64198],[23.63414,55.4746],[23.53828,55.54552],[23.45617,55.5177],[23.17639,55.57862],[22.86654,55.48075],[22.62139,55.48121],[22.63488,55.52767],[22.45706,55.67795],[22.50512,55.70218],[22.49194,55.79804],[22.69725,55.94609],[22.5846,55.97596],[22.6018,56.05229],[22.70206,56.07963],[22.66387,56.13285],[22.44104,56.11141],[22.37464,56.16412],[22.38859,56.22238],[22.57822,56.387],[22.66635,56.34909],[22.92452,56.41211]]]}},{"type":"Feature","properties":{"id":"lt-ta","lat":55.37023,"lng":22.3955},"geometry":{"type":"Polygon","coordinates":[[[23.4123,55.07871],[22.26988,55.06954],[22.29753,55.1464],[22.08416,55.15325],[22.05078,55.23337],[21.90309,55.269],[22.04566,55.40564],[21.88614,55.43636],[21.81415,55.56467],[22.07393,55.66353],[22.45706,55.67795],[22.86205,55.29476],[22.92644,55.33481],[23.00881,55.26102],[23.47746,55.21503],[23.4123,55.07871]]]}},{"type":"Feature","properties":{"id":"lt-te","lat":56.02438,"lng":22.11635},"geometry":{"type":"Polygon","coordinates":[[[22.09408,56.41741],[22.57822,56.387],[22.55431,56.32705],[22.44584,56.30364],[22.37464,56.16412],[22.46729,56.1036],[22.68423,56.12624],[22.70206,56.07963],[22.6018,56.05229],[22.58072,55.9834],[22.69834,55.9493],[22.49194,55.79804],[22.50512,55.70218],[22.45706,55.67795],[22.17201,55.67975],[21.87761,55.60177],[21.75209,55.75686],[21.51562,55.81406],[21.61804,55.87855],[21.58729,55.99648],[21.98701,56.21037],[21.90603,56.35227],[22.09408,56.41741]]]}},{"type":"Feature","properties":{"id":"lt-ut","lat":55.4848,"lng":25.62745},"geometry":{"type":"Polygon","coordinates":[[[26.59453,55.66699],[26.60518,55.5901],[26.45004,55.32706],[26.76863,55.30024],[26.78966,55.2572],[26.3207,55.22893],[26.15451,55.24867],[26.11709,55.31321],[25.95834,55.27513],[25.73428,55.32701],[25.6379,55.22035],[25.78114,55.13051],[25.73086,55.05426],[25.22237,55.04165],[25.12599,55.10346],[25.25229,55.19495],[25.15209,55.22082],[25.17612,55.26815],[24.78477,55.38259],[24.79314,55.447],[24.63052,55.52261],[24.68592,55.61232],[24.63129,55.65903],[24.71759,55.6719],[24.68933,55.72125],[25.01783,55.73453],[25.09343,55.68859],[25.37864,55.77455],[25.6874,55.73009],[25.80827,55.77603],[25.96125,55.95846],[26.27972,55.74324],[26.59453,55.66699]]]}},{"type":"Feature","properties":{"id":"lt-vl","lat":54.84319,"lng":25.23747},"geometry":{"type":"Polygon","coordinates":[[[26.7399,55.24278],[26.64114,55.20283],[26.60094,55.12082],[26.26442,55.1401],[26.13864,54.96895],[25.87023,54.93882],[25.7827,54.86968],[25.7212,54.76674],[25.74042,54.56851],[25.63087,54.50835],[25.53,54.34614],[25.564,54.30315],[25.69598,54.32097],[25.78662,54.24232],[25.74001,54.14626],[25.51604,54.14476],[25.50168,54.22176],[25.55398,54.23127],[25.45935,54.29891],[25.36975,54.2479],[25.20624,54.25679],[25.07199,54.1322],[24.85098,54.14495],[24.76989,54.22542],[24.9938,54.39461],[24.99597,54.4513],[24.73697,54.4057],[24.42603,54.44701],[24.47368,54.69377],[24.61765,54.72622],[24.65646,54.81671],[24.79997,54.89035],[24.54882,54.98775],[24.64855,55.07163],[24.53683,55.12036],[24.38862,55.31652],[24.41559,55.39321],[24.63331,55.48638],[24.61098,55.51935],[24.79314,55.447],[24.78477,55.38259],[25.17612,55.26815],[25.15209,55.22082],[25.25229,55.19495],[25.12599,55.10346],[25.22237,55.04165],[25.73598,55.05695],[25.78114,55.13051],[25.6379,55.22035],[25.73428,55.32701],[25.95834,55.27513],[26.11709,55.31321],[26.15451,55.24867],[26.3207,55.22893],[26.67897,55.27725],[26.7399,55.24278]]]}}]}
