{"type":"FeatureCollection","features":[{"type":"Feature","properties":{"id":"lu-d","lat":49.93907,"lng":5.97289},"geometry":{"type":"Polygon","coordinates":[[[6.11749,50.12046],[6.12152,49.99628],[6.29557,49.84862],[6.24632,49.79055],[6.05982,49.82962],[5.99403,49.72885],[5.80536,49.72188],[5.71493,49.88187],[5.87244,50.09689],[5.99832,50.17498],[6.11749,50.12046]]]}},{"type":"Feature","properties":{"id":"lu-g","lat":49.63397,"lng":6.35655},"geometry":{"type":"Polygon","coordinates":[[[6.29557,49.84862],[6.39706,49.80859],[6.46248,49.80549],[6.49721,49.79944],[6.50258,49.79567],[6.49969,49.71221],[6.35075,49.56659],[6.34531,49.45535],[6.23484,49.54003],[6.30125,49.59361],[6.28559,49.67433],[6.17464,49.68999],[6.26296,49.74668],[6.29557,49.84862]]]}},{"type":"Feature","properties":{"id":"lu-l","lat":49.63538,"lng":6.08622},"geometry":{"type":"Polygon","coordinates":[[[5.79068,49.53775],[5.88546,49.64353],[5.8564,49.70581],[5.99403,49.72885],[6.04307,49.82445],[6.27458,49.77009],[6.17464,49.68999],[6.31215,49.62723],[6.23391,49.55356],[6.25112,49.48946],[5.9607,49.44132],[5.79068,49.53775]]]}}]}
