{"type":"FeatureCollection","features":[{"type":"Feature","properties":{"id":"lv-001","lat":56.09228,"lng":27.08944},"geometry":{"type":"Polygon","coordinates":[[[26.88847,56.12887],[27.29594,56.20303],[27.339,56.14018],[27.24063,56.1117],[27.26393,56.07287],[27.14744,55.98485],[27.0413,55.98226],[26.88847,56.12887]]]}},{"type":"Feature","properties":{"id":"lv-002","lat":56.64759,"lng":25.22854},"geometry":{"type":"Polygon","coordinates":[[[25.21772,56.70822],[25.29313,56.67603],[25.29337,56.59111],[25.1386,56.61915],[25.21772,56.70822]]]}},{"type":"Feature","properties":{"id":"lv-003","lat":56.70312,"lng":21.58376},"geometry":{"type":"Polygon","coordinates":[[[21.43645,56.86759],[21.73845,56.76413],[21.82299,56.68786],[21.79539,56.57334],[21.58452,56.54995],[21.60798,56.64376],[21.45234,56.64589],[21.33721,56.71838],[21.32015,56.80792],[21.43645,56.86759]]]}},{"type":"Feature","properties":{"id":"lv-004","lat":56.13333,"lng":25.81675},"geometry":{"type":"Polygon","coordinates":[[[25.7955,56.04013],[25.64968,56.14381],[25.69384,56.22857],[25.87639,56.22189],[26.02552,56.07942],[25.94176,56.06172],[25.83127,56.12285],[25.8598,56.08185],[25.7955,56.04013]]]}},{"type":"Feature","properties":{"id":"lv-005","lat":57.79811,"lng":24.80729},"geometry":{"type":"Polygon","coordinates":[[[24.81681,57.97667],[24.90115,57.82552],[25.07726,57.76717],[25.0847,57.62976],[24.88144,57.62467],[24.82859,57.71924],[24.64919,57.7707],[24.5741,57.88195],[24.58244,57.94601],[24.81681,57.97667]]]}},{"type":"Feature","properties":{"id":"lv-006","lat":56.98441,"lng":21.58649},"geometry":{"type":"Polygon","coordinates":[[[21.4934,56.90381],[21.39149,56.93448],[21.472,56.97136],[21.50616,57.07561],[21.57381,57.08561],[21.69234,56.99747],[21.70606,56.95631],[21.4934,56.90381]]]}},{"type":"Feature","properties":{"id":"lv-007","lat":57.42491,"lng":27.07425},"geometry":{"type":"Polygon","coordinates":[[[26.87265,57.62718],[27.08535,57.54943],[27.52817,57.52848],[27.51132,57.4304],[27.68852,57.33257],[27.55556,57.25891],[27.3549,57.28477],[27.15657,57.22638],[26.61815,57.36249],[26.61462,57.41942],[26.80828,57.50372],[26.79576,57.57132],[26.87265,57.62718]]]}},{"type":"Feature","properties":{"id":"lv-008","lat":57.12784,"lng":25.36939},"geometry":{"type":"Polygon","coordinates":[[[25.61663,57.066],[25.39585,56.9373],[25.3437,56.97743],[25.14258,56.95079],[25.16885,57.06756],[25.11249,57.10983],[25.21269,57.14585],[25.09057,57.24761],[25.23148,57.29615],[25.38022,57.18812],[25.5634,57.14741],[25.61663,57.066]]]}},{"type":"Feature","properties":{"id":"lv-009","lat":57.45359,"lng":26.50887},"geometry":{"type":"Polygon","coordinates":[[[26.35132,57.5802],[26.57985,57.51783],[26.79576,57.57132],[26.80828,57.50372],[26.7217,57.49005],[26.68753,57.41714],[26.27615,57.33102],[26.35132,57.5802]]]}},{"type":"Feature","properties":{"id":"lv-010","lat":56.48156,"lng":22.9188},"geometry":{"type":"Polygon","coordinates":[[[23.06229,56.30416],[22.95698,56.40199],[22.72655,56.42454],[22.71207,56.56537],[22.84844,56.53858],[22.96107,56.60115],[23.08801,56.54573],[23.17257,56.35796],[23.06229,56.30416]]]}},{"type":"Feature","properties":{"id":"lv-011","lat":57.14419,"lng":24.4061},"geometry":{"type":"Polygon","coordinates":[[[24.34881,57.18383],[24.46701,57.18244],[24.50874,57.10595],[24.26119,57.04198],[24.34881,57.18383]]]}},{"type":"Feature","properties":{"id":"lv-012","lat":56.90913,"lng":23.71344},"geometry":{"type":"Polygon","coordinates":[[[23.49203,56.93464],[24.00099,56.97926],[23.82281,56.88363],[23.8246,56.80318],[23.49203,56.93464]]]}},{"type":"Feature","properties":{"id":"lv-013","lat":56.73195,"lng":24.36053},"geometry":{"type":"Polygon","coordinates":[[[24.52546,56.7524],[24.37405,56.65959],[24.18817,56.71794],[24.26977,56.74597],[24.25368,56.7853],[24.52546,56.7524]]]}},{"type":"Feature","properties":{"id":"lv-014","lat":56.96684,"lng":27.64548},"geometry":{"type":"Polygon","coordinates":[[[27.74578,57.03146],[27.63716,56.83661],[27.4467,56.85266],[27.41662,56.90222],[27.74578,57.03146]]]}},{"type":"Feature","properties":{"id":"lv-015","lat":57.02753,"lng":27.44787},"geometry":{"type":"Polygon","coordinates":[[[27.3549,57.28477],[27.48709,57.27387],[27.40295,57.15968],[27.66496,56.9888],[27.41662,56.90222],[27.4467,56.85266],[27.34792,56.78431],[26.92846,56.83111],[27.03612,56.88399],[27.20017,56.86121],[27.33232,56.93639],[27.25485,56.99335],[27.32548,57.06171],[27.0081,57.1145],[27.3549,57.28477]]]}},{"type":"Feature","properties":{"id":"lv-016","lat":56.39823,"lng":24.30857},"geometry":{"type":"Polygon","coordinates":[[[24.57277,56.30981],[24.13892,56.25745],[23.98131,56.3124],[24.15535,56.38661],[24.03735,56.42594],[24.01774,56.50201],[24.34486,56.53679],[24.51292,56.45455],[24.5308,56.40985],[24.44677,56.38125],[24.50577,56.36158],[24.48074,56.30974],[24.57277,56.30981]]]}},{"type":"Feature","properties":{"id":"lv-017","lat":57.57249,"lng":25.624},"geometry":{"type":"Polygon","coordinates":[[[25.63073,57.62024],[25.82174,57.52474],[25.39879,57.44125],[25.37709,57.50908],[25.63073,57.62024]]]}},{"type":"Feature","properties":{"id":"lv-018","lat":56.72475,"lng":22.6337},"geometry":{"type":"Polygon","coordinates":[[[22.78892,56.80387],[22.80525,56.67838],[22.85926,56.64424],[22.75513,56.56203],[22.54969,56.57908],[22.44223,56.77113],[22.49085,56.85152],[22.78892,56.80387]]]}},{"type":"Feature","properties":{"id":"lv-019","lat":57.70474,"lng":25.36057},"geometry":{"type":"Polygon","coordinates":[[[25.55289,57.79239],[25.68866,57.73767],[25.5099,57.6462],[25.59123,57.61411],[25.45694,57.53726],[25.18921,57.67348],[25.09374,57.65312],[25.09871,57.73601],[25.01747,57.79647],[25.12814,57.79873],[25.14223,57.84414],[25.27062,57.77838],[25.55289,57.79239]]]}},{"type":"Feature","properties":{"id":"lv-020","lat":57.13628,"lng":24.25806},"geometry":{"type":"Polygon","coordinates":[[[24.11303,57.08872],[24.33085,57.19976],[24.34881,57.18383],[24.24729,57.06006],[24.11303,57.08872]]]}},{"type":"Feature","properties":{"id":"lv-021","lat":57.03595,"lng":26.27411},"geometry":{"type":"Polygon","coordinates":[[[26.32132,57.09791],[26.40574,56.98928],[26.35877,56.93135],[26.17088,56.95327],[26.18319,57.08261],[26.32132,57.09791]]]}},{"type":"Feature","properties":{"id":"lv-022","lat":57.24057,"lng":25.41457},"geometry":{"type":"Polygon","coordinates":[[[25.23148,57.29615],[25.46633,57.27736],[25.57593,57.20378],[25.5634,57.14741],[25.38022,57.18812],[25.23148,57.29615]]]}},{"type":"Feature","properties":{"id":"lv-023","lat":56.62081,"lng":27.80367},"geometry":{"type":"Polygon","coordinates":[[[27.86546,56.74269],[28.12524,56.52714],[27.91889,56.48189],[27.81275,56.55179],[27.75579,56.52072],[27.56114,56.57593],[27.64448,56.68641],[27.80239,56.66569],[27.86546,56.74269]]]}},{"type":"Feature","properties":{"id":"lv-024","lat":56.12594,"lng":27.65749},"geometry":{"type":"Polygon","coordinates":[[[28.0511,56.14067],[27.76006,55.97542],[27.36748,56.02368],[27.37007,56.08063],[27.24063,56.1117],[27.339,56.14018],[27.29594,56.20303],[27.53504,56.26111],[27.83844,56.18231],[28.04803,56.2144],[28.0511,56.14067]]]}},{"type":"Feature","properties":{"id":"lv-026","lat":56.62534,"lng":23.13172},"geometry":{"type":"Polygon","coordinates":[[[23.17174,56.69241],[23.48661,56.81591],[23.52526,56.76367],[23.41741,56.70682],[23.48537,56.66029],[23.40594,56.60644],[23.48025,56.59954],[23.43788,56.49927],[23.35618,56.54573],[23.27394,56.49031],[23.3097,56.45991],[23.1488,56.4331],[23.02186,56.59043],[22.84844,56.53858],[22.77699,56.59179],[22.85926,56.64424],[22.80014,56.69602],[23.17174,56.69241]]]}},{"type":"Feature","properties":{"id":"lv-027","lat":57.56214,"lng":22.42013},"geometry":{"type":"Polygon","coordinates":[[[22.19451,57.65762],[22.61036,57.75462],[22.57026,57.61704],[22.62514,57.50273],[22.5474,57.49816],[22.47653,57.41357],[22.07796,57.42316],[22.2719,57.50724],[22.19451,57.65762]]]}},{"type":"Feature","properties":{"id":"lv-028","lat":56.61604,"lng":21.44159},"geometry":{"type":"Polygon","coordinates":[[[21.29244,56.75676],[21.45234,56.64589],[21.60798,56.64376],[21.61864,56.58833],[21.49924,56.55208],[21.52909,56.51371],[21.39904,56.55848],[21.35427,56.50305],[21.34787,56.54356],[21.2562,56.53076],[21.29244,56.75676]]]}},{"type":"Feature","properties":{"id":"lv-029","lat":57.12716,"lng":23.19485},"geometry":{"type":"Polygon","coordinates":[[[23.16015,57.31861],[23.26092,57.09894],[23.5786,56.98209],[23.37227,56.91045],[23.1488,56.92117],[23.23104,57.06599],[23.10052,57.15538],[23.16015,57.31861]]]}},{"type":"Feature","properties":{"id":"lv-030","lat":56.88229,"lng":25.66002},"geometry":{"type":"Polygon","coordinates":[[[25.48819,56.99445],[25.8137,56.98675],[25.95326,56.92508],[25.77477,56.89064],[25.69221,56.77049],[25.5054,56.8131],[25.48364,56.86718],[25.55568,56.87394],[25.48819,56.99445]]]}},{"type":"Feature","properties":{"id":"lv-031","lat":57.04045,"lng":24.45249},"geometry":{"type":"Polygon","coordinates":[[[24.3202,56.96903],[24.16238,57.05282],[24.32099,57.02807],[24.50874,57.10595],[24.56553,57.06],[24.53179,57.00203],[24.3202,56.96903]]]}},{"type":"Feature","properties":{"id":"lv-032","lat":56.51236,"lng":21.21955},"geometry":{"type":"Polygon","coordinates":[[[21.06324,56.49396],[21.09376,56.56877],[21.02064,56.61505],[21.15386,56.68214],[21.25833,56.65655],[21.2562,56.53076],[21.34787,56.54356],[21.43742,56.40711],[21.37985,56.32822],[21.26259,56.32609],[21.21142,56.43269],[21.06324,56.49396]]]}},{"type":"Feature","properties":{"id":"lv-033","lat":57.18491,"lng":26.60322},"geometry":{"type":"Polygon","coordinates":[[[26.00413,57.24385],[26.42354,57.33216],[26.52022,57.40647],[26.71478,57.30648],[26.98851,57.30441],[27.15657,57.22638],[26.86005,56.98301],[26.56818,56.94841],[26.49728,57.05579],[26.11678,57.07807],[26.16815,57.14344],[26.00413,57.24385]]]}},{"type":"Feature","properties":{"id":"lv-034","lat":56.61545,"lng":24.20108},"geometry":{"type":"Polygon","coordinates":[[[24.24568,56.70367],[24.35536,56.66156],[24.3681,56.61903],[24.3091,56.61188],[24.38062,56.52964],[24.07887,56.53546],[24.11024,56.57494],[24.00673,56.66476],[24.24568,56.70367]]]}},{"type":"Feature","properties":{"id":"lv-035","lat":56.83898,"lng":24.59651},"geometry":{"type":"Polygon","coordinates":[[[24.58766,56.8122],[24.43565,56.88402],[24.7364,56.86575],[24.58766,56.8122]]]}},{"type":"Feature","properties":{"id":"lv-036","lat":56.00893,"lng":26.1141},"geometry":{"type":"Polygon","coordinates":[[[26.2269,55.79693],[25.7955,56.04013],[25.8598,56.08185],[25.83127,56.12285],[26.0463,56.06635],[26.20582,56.1636],[26.30499,56.15347],[26.39297,55.97772],[26.28655,55.92405],[26.34942,55.80989],[26.2269,55.79693]]]}},{"type":"Feature","properties":{"id":"lv-037","lat":57.12055,"lng":24.70945},"geometry":{"type":"Polygon","coordinates":[[[24.75906,57.07814],[24.50874,57.10595],[24.77992,57.13515],[24.75906,57.07814]]]}},{"type":"Feature","properties":{"id":"lv-038","lat":56.53918,"lng":25.28037},"geometry":{"type":"Polygon","coordinates":[[[24.94999,56.57857],[25.39845,56.63072],[25.6072,56.56771],[25.55863,56.51066],[25.59072,56.46084],[25.4762,56.41888],[25.0743,56.4027],[24.94999,56.57857]]]}},{"type":"Feature","properties":{"id":"lv-039","lat":57.15638,"lng":25.96363},"geometry":{"type":"Polygon","coordinates":[[[26.01343,57.22105],[26.16815,57.14344],[26.11678,57.07807],[25.88124,57.09731],[25.76381,57.16933],[26.01343,57.22105]]]}},{"type":"Feature","properties":{"id":"lv-040","lat":56.74653,"lng":22.94931},"geometry":{"type":"Polygon","coordinates":[[[23.12332,56.69881],[22.82603,56.69809],[22.78892,56.80387],[22.94319,56.85502],[22.93247,56.81033],[23.05583,56.79424],[23.12332,56.69881]]]}},{"type":"Feature","properties":{"id":"lv-043","lat":56.94595,"lng":22.6595},"geometry":{"type":"Polygon","coordinates":[[[22.45489,56.9171],[22.50822,57.01383],[22.63581,57.01585],[22.64154,57.09473],[22.95571,57.12678],[22.84129,57.0785],[22.87883,57.01951],[22.81805,56.97481],[22.94319,56.85502],[22.64201,56.80821],[22.49085,56.85152],[22.5292,56.90877],[22.45489,56.9171]]]}},{"type":"Feature","properties":{"id":"lv-044","lat":56.72912,"lng":27.65855},"geometry":{"type":"Polygon","coordinates":[[[27.42781,56.85126],[27.7864,56.87126],[27.91889,56.80589],[27.80239,56.66569],[27.64448,56.68641],[27.58021,56.61944],[27.47205,56.66326],[27.4555,56.77183],[27.33986,56.78268],[27.42781,56.85126]]]}},{"type":"Feature","properties":{"id":"lv-045","lat":57.48322,"lng":25.25251},"geometry":{"type":"Polygon","coordinates":[[[24.91618,57.55579],[24.88144,57.62467],[25.18921,57.67348],[25.37865,57.54979],[25.39321,57.39068],[25.21074,57.41665],[25.02233,57.5553],[24.91618,57.55579]]]}},{"type":"Feature","properties":{"id":"lv-046","lat":56.6649,"lng":25.43207},"geometry":{"type":"Polygon","coordinates":[[[25.5054,56.8131],[25.69221,56.77049],[25.60035,56.76508],[25.61593,56.7161],[25.5202,56.6137],[25.29337,56.59111],[25.29807,56.71933],[25.25709,56.73612],[25.5054,56.8131]]]}},{"type":"Feature","properties":{"id":"lv-047","lat":55.94913,"lng":27.31792},"geometry":{"type":"Polygon","coordinates":[[[27.76006,55.97542],[27.64501,55.92284],[27.59271,55.79424],[27.34963,55.83122],[27.26302,55.78722],[26.9342,55.8739],[26.93265,56.0033],[27.14744,55.98485],[27.18886,56.05475],[27.31571,56.08063],[27.37007,56.08063],[27.36748,56.02368],[27.76006,55.97542]]]}},{"type":"Feature","properties":{"id":"lv-048","lat":57.28317,"lng":24.78752},"geometry":{"type":"Polygon","coordinates":[[[24.83164,57.39552],[24.93314,57.24622],[24.79661,57.14211],[24.66588,57.12542],[24.61582,57.2033],[24.7131,57.22705],[24.63668,57.32012],[24.70204,57.34932],[24.68813,57.38965],[24.83164,57.39552]]]}},{"type":"Feature","properties":{"id":"lv-049","lat":56.53704,"lng":26.20418},"geometry":{"type":"Polygon","coordinates":[[[26.36256,56.45084],[26.29042,56.51789],[26.08852,56.40643],[25.87656,56.49531],[25.91869,56.52911],[25.78688,56.53034],[25.75691,56.61225],[25.98361,56.66564],[26.29135,56.5867],[26.37558,56.63592],[26.59376,56.59515],[26.62776,56.54373],[26.59639,56.4888],[26.36256,56.45084]]]}},{"type":"Feature","properties":{"id":"lv-050","lat":56.92513,"lng":22.02754},"geometry":{"type":"Polygon","coordinates":[[[21.82299,56.68786],[21.43645,56.86759],[21.70606,56.95631],[21.57381,57.08561],[21.64145,57.11421],[22.09517,57.10163],[22.19248,57.12458],[22.20643,57.17785],[22.3489,57.11011],[22.38239,57.01967],[22.50822,57.01383],[22.41778,56.88934],[22.264,56.89394],[22.3413,56.84749],[22.20488,56.79522],[21.9827,56.82142],[21.93469,56.79856],[21.95983,56.73226],[21.82299,56.68786]]]}},{"type":"Feature","properties":{"id":"lv-051","lat":56.69525,"lng":24.7114},"geometry":{"type":"Polygon","coordinates":[[[24.52189,56.71364],[24.5127,56.8171],[24.72486,56.73644],[24.81673,56.83409],[24.92359,56.8007],[24.79976,56.71521],[25.0568,56.60133],[24.65708,56.54358],[24.69713,56.57887],[24.59285,56.64303],[24.63408,56.67685],[24.52189,56.71364]]]}},{"type":"Feature","properties":{"id":"lv-052","lat":56.8148,"lng":24.29717},"geometry":{"type":"Polygon","coordinates":[[[24.1554,56.90239],[24.21792,56.82821],[24.45776,56.83754],[24.5376,56.77038],[24.25368,56.7853],[24.26977,56.74597],[24.18817,56.71794],[24.00813,56.70998],[24.00517,56.76206],[24.11423,56.80139],[24.08815,56.87613],[24.1554,56.90239]]]}},{"type":"Feature","properties":{"id":"lv-053","lat":56.6678,"lng":24.95193},"geometry":{"type":"Polygon","coordinates":[[[25.09747,56.73716],[25.02868,56.72713],[24.99171,56.62039],[24.79976,56.71521],[24.94362,56.8096],[25.09747,56.73716]]]}},{"type":"Feature","properties":{"id":"lv-054","lat":57.48599,"lng":24.79316},"geometry":{"type":"Polygon","coordinates":[[[24.42789,57.29139],[24.39489,57.40001],[24.57827,57.46475],[24.55324,57.54123],[24.43364,57.56766],[24.41834,57.67057],[24.56436,57.67335],[24.64919,57.7707],[24.82859,57.71924],[24.89495,57.56716],[25.08708,57.50724],[24.68813,57.38965],[24.70204,57.34932],[24.63668,57.32012],[24.7131,57.22705],[24.55001,57.31635],[24.42789,57.29139]]]}},{"type":"Feature","properties":{"id":"lv-055","lat":57.18226,"lng":25.06149},"geometry":{"type":"Polygon","coordinates":[[[24.90037,57.21868],[25.15946,57.22726],[25.21269,57.14585],[24.98745,57.12468],[24.90037,57.21868]]]}},{"type":"Feature","properties":{"id":"lv-056","lat":56.33505,"lng":26.33601},"geometry":{"type":"Polygon","coordinates":[[[26.33543,56.18975],[26.19352,56.22608],[26.15699,56.38033],[26.08852,56.40643],[26.25719,56.512],[26.36256,56.45084],[26.54053,56.48968],[26.5764,56.43327],[26.54124,56.37537],[26.4606,56.35883],[26.60121,56.28232],[26.44199,56.26578],[26.35514,56.31127],[26.29311,56.28439],[26.33543,56.18975]]]}},{"type":"Feature","properties":{"id":"lv-057","lat":56.8907,"lng":26.60029},"geometry":{"type":"Polygon","coordinates":[[[26.9851,56.87823],[26.71261,56.90317],[26.53569,56.8014],[26.47306,56.85463],[26.56818,56.94841],[26.75762,56.99296],[26.91188,56.97384],[26.9851,56.87823]]]}},{"type":"Feature","properties":{"id":"lv-058","lat":56.37207,"lng":27.82738},"geometry":{"type":"Polygon","coordinates":[[[28.09325,56.50159],[28.16787,56.42712],[27.97843,56.43271],[28.01208,56.38352],[27.84122,56.32139],[27.9163,56.28515],[28.00432,56.33174],[28.12081,56.27479],[28.06509,56.20329],[27.85285,56.18195],[27.66759,56.24024],[27.7155,56.29848],[27.68992,56.36062],[27.486,56.50885],[27.56114,56.57593],[27.75579,56.52072],[27.81275,56.55179],[27.91889,56.48189],[28.09325,56.50159]]]}},{"type":"Feature","properties":{"id":"lv-059","lat":56.82404,"lng":26.14589},"geometry":{"type":"Polygon","coordinates":[[[26.95332,56.84668],[26.77256,56.68101],[26.70791,56.72311],[26.38851,56.67771],[26.29135,56.5867],[26.13105,56.65391],[25.93209,56.63784],[25.74815,56.86715],[25.94699,56.9063],[25.88636,56.96422],[25.94966,57.10039],[26.18319,57.08261],[26.17088,56.95327],[26.22255,56.92822],[26.35877,56.93135],[26.40574,56.98928],[26.36938,57.04463],[26.49728,57.05579],[26.56818,56.94841],[26.47306,56.85463],[26.53569,56.8014],[26.71261,56.90317],[26.95332,56.84668]]]}},{"type":"Feature","properties":{"id":"lv-060","lat":57.90654,"lng":25.02346},"geometry":{"type":"Polygon","coordinates":[[[24.82742,57.98188],[25.09421,58.06731],[25.24557,57.8003],[24.89572,57.8312],[24.82742,57.98188]]]}},{"type":"Feature","properties":{"id":"lv-061","lat":57.05797,"lng":24.92142},"geometry":{"type":"Polygon","coordinates":[[[24.87866,57.10456],[25.14258,56.95079],[24.80741,56.93389],[24.88978,57.01138],[24.87866,57.10456]]]}},{"type":"Feature","properties":{"id":"lv-062","lat":56.85503,"lng":23.89756},"geometry":{"type":"Polygon","coordinates":[[[23.94265,56.93867],[24.06625,56.88612],[23.85499,56.82642],[23.82281,56.88363],[23.94265,56.93867]]]}},{"type":"Feature","properties":{"id":"lv-063","lat":57.27854,"lng":23.06654},"geometry":{"type":"Polygon","coordinates":[[[23.03142,57.39448],[23.16015,57.31861],[23.08038,57.23847],[22.92006,57.33355],[23.03142,57.39448]]]}},{"type":"Feature","properties":{"id":"lv-064","lat":57.89761,"lng":25.50388},"geometry":{"type":"Polygon","coordinates":[[[25.41973,58.00825],[25.7038,57.92133],[25.65337,57.86365],[25.46946,57.87389],[25.56018,57.80758],[25.49451,57.78934],[25.26123,57.93808],[25.41973,58.00825]]]}},{"type":"Feature","properties":{"id":"lv-065","lat":56.36983,"lng":25.11857},"geometry":{"type":"Polygon","coordinates":[[[25.40856,56.17859],[25.07313,56.19781],[24.87764,56.45455],[25.01351,56.49567],[25.0743,56.4027],[25.29358,56.4079],[25.29621,56.33695],[25.37027,56.32731],[25.31048,56.28737],[25.40344,56.23156],[25.40856,56.17859]]]}},{"type":"Feature","properties":{"id":"lv-066","lat":56.30904,"lng":21.06956},"geometry":{"type":"Polygon","coordinates":[[[20.97104,56.25967],[21.024,56.47136],[21.06178,56.38703],[21.06324,56.49396],[21.21142,56.43269],[21.22635,56.35168],[21.17944,56.35594],[21.0835,56.16619],[21.03447,56.2664],[20.97104,56.25967]]]}},{"type":"Feature","properties":{"id":"lv-067","lat":56.85063,"lng":25.07368},"geometry":{"type":"Polygon","coordinates":[[[25.46876,56.98836],[25.55568,56.87394],[25.48364,56.86718],[25.5054,56.8131],[25.43745,56.77519],[25.26815,56.74522],[25.27839,56.69685],[24.81673,56.83409],[24.72486,56.73644],[24.58766,56.8122],[24.80741,56.93389],[25.3437,56.97743],[25.39585,56.9373],[25.46876,56.98836]]]}},{"type":"Feature","properties":{"id":"lv-068","lat":56.79156,"lng":23.93818},"geometry":{"type":"MultiPolygon","coordinates":[[[[24.2091,56.69347],[24.14858,56.66807],[24.00069,56.69564],[24.14558,56.72821],[24.2091,56.69347]]],[[[24.07081,56.8725],[24.12317,56.82106],[24.08562,56.76206],[23.75631,56.74413],[23.78169,56.82106],[24.07081,56.8725]]]]}},{"type":"Feature","properties":{"id":"lv-069","lat":56.65916,"lng":23.89136},"geometry":{"type":"Polygon","coordinates":[[[23.99634,56.73049],[24.02658,56.60275],[24.11024,56.57494],[24.04291,56.50283],[23.67084,56.71557],[23.99634,56.73049]]]}},{"type":"Feature","properties":{"id":"lv-070","lat":57.36694,"lng":25.08134},"geometry":{"type":"Polygon","coordinates":[[[25.07959,57.50021],[25.21074,57.41665],[25.38685,57.38606],[25.24557,57.34782],[25.20643,57.26484],[24.98097,57.23822],[24.79997,57.41143],[25.07959,57.50021]]]}},{"type":"Feature","properties":{"id":"lv-071","lat":56.82713,"lng":21.20906},"geometry":{"type":"Polygon","coordinates":[[[21.04615,56.65619],[21.0652,56.84634],[21.32819,56.97363],[21.4934,56.90381],[21.32015,56.80792],[21.25833,56.65655],[21.04615,56.65619]]]}},{"type":"Feature","properties":{"id":"lv-072","lat":56.67697,"lng":25.73804},"geometry":{"type":"Polygon","coordinates":[[[25.76549,56.82818],[25.93209,56.63784],[25.49358,56.58906],[25.61593,56.7161],[25.60035,56.76508],[25.76549,56.82818]]]}},{"type":"Feature","properties":{"id":"lv-073","lat":56.3092,"lng":26.63843},"geometry":{"type":"Polygon","coordinates":[[[26.88847,56.12887],[26.61775,56.14998],[26.67151,56.17686],[26.65911,56.25958],[26.4606,56.35883],[26.47921,56.39191],[26.54124,56.37537],[26.62396,56.44981],[26.73355,56.39605],[26.65084,56.33608],[26.78317,56.28232],[26.83901,56.21409],[26.80178,56.18514],[26.88847,56.12887]]]}},{"type":"Feature","properties":{"id":"lv-074","lat":56.44548,"lng":21.5519},"geometry":{"type":"Polygon","coordinates":[[[21.73651,56.32373],[21.48549,56.26579],[21.37985,56.32822],[21.43742,56.40711],[21.35427,56.50305],[21.39904,56.55848],[21.48219,56.51158],[21.52909,56.51371],[21.52909,56.57127],[21.71244,56.54995],[21.73376,56.4732],[21.66554,56.41777],[21.75082,56.38152],[21.73651,56.32373]]]}},{"type":"Feature","properties":{"id":"lv-075","lat":57.34547,"lng":25.40779},"geometry":{"type":"Polygon","coordinates":[[[25.39879,57.44125],[25.65795,57.46461],[25.60254,57.37756],[25.51174,57.36034],[25.59785,57.28519],[25.54618,57.21317],[25.23148,57.3306],[25.37709,57.36974],[25.39879,57.44125]]]}},{"type":"Feature","properties":{"id":"lv-076","lat":57.23223,"lng":25.88746},"geometry":{"type":"MultiPolygon","coordinates":[[[[25.76987,57.27871],[26.0586,57.25129],[25.94543,57.19125],[25.74502,57.21317],[25.76987,57.27871]]],[[[25.66709,57.45251],[25.74513,57.27511],[25.60098,57.26484],[25.51174,57.36034],[25.66709,57.45251]]]]}},{"type":"Feature","properties":{"id":"lv-078","lat":56.36607,"lng":26.82141},"geometry":{"type":"Polygon","coordinates":[[[26.9527,56.47691],[26.89761,56.41131],[26.99115,56.3315],[26.9465,56.30432],[27.03802,56.18011],[26.92849,56.12424],[26.80178,56.18514],[26.83901,56.21409],[26.78317,56.28232],[26.65084,56.33608],[26.73355,56.39605],[26.53711,56.46636],[26.74367,56.55885],[26.9527,56.47691]]]}},{"type":"Feature","properties":{"id":"lv-079","lat":57.54425,"lng":22.67617},"geometry":{"type":"Polygon","coordinates":[[[22.58717,57.66498],[22.6561,57.58576],[22.99459,57.41189],[22.89491,57.3747],[22.70515,57.43643],[22.62514,57.50273],[22.58717,57.66498]]]}},{"type":"Feature","properties":{"id":"lv-080","lat":56.96696,"lng":24.59926},"geometry":{"type":"Polygon","coordinates":[[[24.80741,56.93389],[24.49988,56.87035],[24.37168,56.94442],[24.40128,56.99487],[24.53179,57.00203],[24.52106,57.05208],[24.63012,57.06102],[24.81784,56.98951],[24.80741,56.93389]]]}},{"type":"Feature","properties":{"id":"lv-081","lat":56.21934,"lng":21.23147},"geometry":{"type":"Polygon","coordinates":[[[21.48549,56.26579],[21.25486,56.1852],[21.19036,56.08446],[21.0534,56.07262],[20.96909,56.25348],[21.03447,56.2664],[21.0835,56.16619],[21.17944,56.35594],[21.48549,56.26579]]]}},{"type":"Feature","properties":{"id":"lv-082","lat":56.98818,"lng":27.06388},"geometry":{"type":"Polygon","coordinates":[[[26.86005,56.98301],[27.0081,57.1145],[27.09764,57.11411],[27.32548,57.06171],[27.25485,56.99335],[27.33232,56.93639],[27.20017,56.86121],[26.9851,56.87823],[26.86005,56.98301]]]}},{"type":"Feature","properties":{"id":"lv-083","lat":56.40628,"lng":23.97268},"geometry":{"type":"Polygon","coordinates":[[[23.98131,56.3124],[23.87111,56.33207],[23.8407,56.43418],[24.01774,56.50201],[24.03735,56.42594],[24.15535,56.38661],[23.98131,56.3124]]]}},{"type":"Feature","properties":{"id":"lv-084","lat":57.85979,"lng":25.2805},"geometry":{"type":"Polygon","coordinates":[[[25.2635,58.07514],[25.41973,58.00825],[25.26123,57.93808],[25.45537,57.78934],[25.27062,57.77838],[25.13441,57.93025],[25.09421,58.06731],[25.2325,57.98538],[25.28438,58.00814],[25.2635,58.07514]]]}},{"type":"Feature","properties":{"id":"lv-085","lat":57.72202,"lng":24.46248},"geometry":{"type":"Polygon","coordinates":[[[24.55388,57.94742],[24.64919,57.7707],[24.56436,57.67335],[24.41834,57.67057],[24.43364,57.56766],[24.55324,57.54123],[24.57827,57.46475],[24.39489,57.40001],[24.28883,57.84528],[24.55388,57.94742]]]}},{"type":"Feature","properties":{"id":"lv-086","lat":56.47091,"lng":25.70006},"geometry":{"type":"Polygon","coordinates":[[[25.74404,56.61727],[25.843,56.41334],[25.73392,56.35101],[25.61148,56.43115],[25.55863,56.51066],[25.6072,56.56771],[25.56033,56.57386],[25.74404,56.61727]]]}},{"type":"Feature","properties":{"id":"lv-087","lat":56.87991,"lng":24.35565},"geometry":{"type":"Polygon","coordinates":[[[24.25872,56.87299],[24.23468,56.9304],[24.45735,56.88684],[24.44402,56.83767],[24.31089,56.82463],[24.1768,56.86754],[24.25872,56.87299]]]}},{"type":"Feature","properties":{"id":"lv-088","lat":56.61338,"lng":22.32298},"geometry":{"type":"Polygon","coordinates":[[[22.66635,56.34909],[21.98317,56.38835],[21.95399,56.48782],[22.12607,56.58221],[22.10354,56.67287],[22.18891,56.73566],[22.16266,56.79503],[22.3413,56.84749],[22.264,56.89394],[22.30436,56.91973],[22.52656,56.91296],[22.44223,56.77113],[22.50168,56.63852],[22.57484,56.56765],[22.69372,56.58823],[22.72655,56.42454],[22.8596,56.39707],[22.66635,56.34909]]]}},{"type":"Feature","properties":{"id":"lv-089","lat":57.3031,"lng":24.42076},"geometry":{"type":"Polygon","coordinates":[[[24.33085,57.19976],[24.40065,57.25812],[24.40484,57.34808],[24.48787,57.23806],[24.33085,57.19976]]]}},{"type":"Feature","properties":{"id":"lv-090","lat":57.21318,"lng":24.54247},"geometry":{"type":"Polygon","coordinates":[[[24.55001,57.31635],[24.68157,57.22307],[24.61582,57.2033],[24.66588,57.12542],[24.50874,57.10595],[24.46701,57.18244],[24.37245,57.18244],[24.48787,57.23806],[24.46129,57.29477],[24.55001,57.31635]]]}},{"type":"Feature","properties":{"id":"lv-091","lat":57.09135,"lng":25.0014},"geometry":{"type":"Polygon","coordinates":[[[25.14754,56.98939],[24.87866,57.10456],[24.88978,57.01138],[24.84528,56.98496],[24.72667,56.98951],[24.63012,57.06102],[24.75906,57.07814],[24.90037,57.21868],[24.98745,57.12468],[25.16885,57.06756],[25.14754,56.98939]]]}},{"type":"Feature","properties":{"id":"lv-092","lat":56.67187,"lng":25.10116},"geometry":{"type":"Polygon","coordinates":[[[25.02868,56.72713],[25.1763,56.70333],[25.1796,56.64041],[25.01938,56.60812],[25.02868,56.72713]]]}},{"type":"Feature","properties":{"id":"lv-093","lat":56.64329,"lng":21.95424},"geometry":{"type":"Polygon","coordinates":[[[21.86614,56.52043],[21.77674,56.6137],[21.84095,56.70483],[21.95983,56.73226],[21.93469,56.79856],[22.16266,56.79503],[22.18891,56.73566],[22.10354,56.67287],[22.12607,56.58221],[22.0114,56.55505],[22.05605,56.50906],[21.86614,56.52043]]]}},{"type":"Feature","properties":{"id":"lv-094","lat":57.37327,"lng":25.99138},"geometry":{"type":"Polygon","coordinates":[[[26.3115,57.49933],[26.26199,57.28193],[26.0586,57.26529],[25.74513,57.27511],[25.65795,57.46461],[25.93532,57.47642],[25.97684,57.54968],[26.12335,57.56921],[26.3115,57.49933]]]}},{"type":"Feature","properties":{"id":"lv-095","lat":56.94971,"lng":24.31824},"geometry":{"type":"Polygon","coordinates":[[[24.23468,56.9304],[24.3202,56.96903],[24.40565,56.92654],[24.33592,56.89615],[24.23468,56.9304]]]}},{"type":"Feature","properties":{"id":"lv-096","lat":57.6248,"lng":25.73835},"geometry":{"type":"Polygon","coordinates":[[[25.82174,57.52474],[25.5099,57.6462],[25.62133,57.71888],[25.84742,57.75236],[25.85963,57.68398],[25.98905,57.67177],[25.87672,57.6034],[25.89625,57.53014],[25.95974,57.51549],[25.93532,57.47642],[25.77633,57.49969],[25.82174,57.52474]]]}},{"type":"Feature","properties":{"id":"lv-097","lat":57.26366,"lng":22.6565},"geometry":{"type":"Polygon","coordinates":[[[22.89491,57.3747],[23.03142,57.39448],[22.92006,57.33355],[23.08038,57.23847],[22.91124,57.13719],[22.64154,57.09473],[22.63581,57.01585],[22.38239,57.01967],[22.3489,57.11011],[22.18813,57.19873],[22.30885,57.28885],[22.2822,57.42728],[22.47653,57.41357],[22.5474,57.49816],[22.89491,57.3747]]]}},{"type":"Feature","properties":{"id":"lv-098","lat":56.43488,"lng":23.32829},"geometry":{"type":"Polygon","coordinates":[[[23.46237,56.39795],[23.17257,56.35796],[23.1184,56.40985],[23.3097,56.45991],[23.27394,56.49031],[23.383,56.54573],[23.46237,56.39795]]]}},{"type":"Feature","properties":{"id":"lv-099","lat":56.99716,"lng":23.02019},"geometry":{"type":"Polygon","coordinates":[[[23.49203,56.93464],[23.48661,56.81591],[23.17174,56.69241],[23.03616,56.80675],[22.93247,56.81033],[22.91638,56.91581],[22.81805,56.97481],[22.87883,57.01951],[22.84129,57.0785],[23.11278,57.26529],[23.10052,57.15538],[23.23104,57.06599],[23.1488,56.92117],[23.49203,56.93464]]]}},{"type":"Feature","properties":{"id":"lv-100","lat":56.44548,"lng":21.8305},"geometry":{"type":"Polygon","coordinates":[[[21.96532,56.38368],[21.73651,56.32373],[21.75082,56.38152],[21.66554,56.41777],[21.73376,56.4732],[21.71244,56.54995],[21.79539,56.57334],[21.95693,56.51417],[21.96532,56.38368]]]}},{"type":"Feature","properties":{"id":"lv-101","lat":57.71817,"lng":25.98639},"geometry":{"type":"Polygon","coordinates":[[[25.715,57.92339],[25.79262,57.85598],[26.01451,57.84283],[26.02475,57.77436],[26.35132,57.5802],[26.36178,57.51282],[26.12335,57.56921],[25.89625,57.53014],[25.87672,57.6034],[25.98905,57.67177],[25.85963,57.68398],[25.84742,57.75236],[25.61663,57.75802],[25.46633,57.85979],[25.65337,57.86365],[25.715,57.92339]]]}},{"type":"Feature","properties":{"id":"lv-102","lat":56.62311,"lng":26.60613},"geometry":{"type":"Polygon","coordinates":[[[26.77256,56.68101],[26.7924,56.61029],[26.72228,56.54311],[26.37558,56.63592],[26.38851,56.67771],[26.68286,56.72155],[26.77256,56.68101]]]}},{"type":"Feature","properties":{"id":"lv-103","lat":56.22466,"lng":26.49208},"geometry":{"type":"Polygon","coordinates":[[[26.64791,56.13528],[26.33543,56.18975],[26.29311,56.28439],[26.65911,56.25958],[26.67151,56.17686],[26.60328,56.16653],[26.64791,56.13528]]]}},{"type":"Feature","properties":{"id":"lv-104","lat":57.13802,"lng":25.68025},"geometry":{"type":"Polygon","coordinates":[[[25.74513,57.27511],[25.77477,57.15367],[25.9231,57.09745],[25.91783,56.97523],[25.50399,56.99482],[25.61663,57.066],[25.54148,57.12236],[25.56027,57.22256],[25.74513,57.27511]]]}},{"type":"Feature","properties":{"id":"lv-105","lat":56.51962,"lng":24.7172},"geometry":{"type":"Polygon","coordinates":[[[25.01351,56.49567],[24.48074,56.30974],[24.50577,56.36158],[24.44677,56.38125],[24.5308,56.40985],[24.51292,56.45455],[24.3091,56.61188],[24.60091,56.70703],[24.59967,56.62068],[24.69713,56.57887],[24.65708,56.54358],[24.99563,56.55109],[25.01351,56.49567]]]}},{"type":"Feature","properties":{"id":"lv-107","lat":56.30734,"lng":25.52321},"geometry":{"type":"Polygon","coordinates":[[[25.64968,56.14381],[25.34909,56.15988],[25.40856,56.17859],[25.40344,56.23156],[25.31048,56.28737],[25.37027,56.32731],[25.29621,56.33695],[25.29621,56.42082],[25.59464,56.46715],[25.72724,56.36882],[25.64968,56.14381]]]}},{"type":"Feature","properties":{"id":"lv-108","lat":57.20929,"lng":27.63698},"geometry":{"type":"Polygon","coordinates":[[[27.69441,57.35637],[27.84613,57.26731],[27.82433,57.15907],[27.68222,57.1037],[27.74578,57.03146],[27.55332,57.03892],[27.40295,57.15968],[27.48709,57.27387],[27.55556,57.25891],[27.69441,57.35637]]]}},{"type":"Feature","properties":{"id":"lv-109","lat":56.53655,"lng":26.89479},"geometry":{"type":"Polygon","coordinates":[[[26.83323,56.4948],[26.72925,56.5783],[26.7924,56.61029],[26.77256,56.68101],[26.98175,56.59321],[27.0413,56.46636],[26.83323,56.4948]]]}},{"type":"Feature","properties":{"id":"lv-110","lat":56.28441,"lng":28.15144},"geometry":{"type":"Polygon","coordinates":[[[28.16787,56.42712],[28.21728,56.27073],[28.14891,56.14241],[28.04369,56.15802],[28.09492,56.29809],[27.84122,56.32139],[28.01208,56.38352],[27.97843,56.43271],[28.16787,56.42712]]]}},{"type":"Feature","properties":{"id":"lv-dgv","lat":55.95089,"lng":26.6441},"geometry":{"type":"Polygon","coordinates":[[[26.53748,55.66952],[26.2269,55.79693],[26.34942,55.80989],[26.28655,55.92405],[26.39297,55.97772],[26.3008,56.18334],[26.88847,56.12887],[26.96867,56.0602],[26.9342,55.8739],[26.97943,55.82629],[26.82284,55.70611],[26.53748,55.66952]]]}},{"type":"Feature","properties":{"id":"lv-jel","lat":56.6343,"lng":23.64634},"geometry":{"type":"Polygon","coordinates":[[[23.87111,56.33207],[23.37804,56.35463],[23.46237,56.39795],[23.41509,56.4933],[23.48025,56.59954],[23.40594,56.60644],[23.48537,56.66029],[23.41741,56.70682],[23.52526,56.76367],[23.46196,56.88423],[23.62624,56.88924],[23.76964,56.80005],[23.68336,56.6977],[23.9122,56.6083],[23.99231,56.50255],[23.8407,56.43418],[23.87111,56.33207]]]}},{"type":"Feature","properties":{"id":"lv-jkb","lat":56.34949,"lng":25.94605},"geometry":{"type":"Polygon","coordinates":[[[26.10888,56.40586],[26.19352,56.22608],[26.3283,56.16267],[26.34535,56.09345],[26.21967,56.16603],[26.0463,56.06635],[25.87639,56.22189],[25.69384,56.22857],[25.68049,56.29313],[25.843,56.41334],[25.82643,56.52717],[25.91869,56.52911],[25.87656,56.49531],[26.10888,56.40586]]]}},{"type":"Feature","properties":{"id":"lv-jur","lat":56.97933,"lng":23.8291},"geometry":{"type":"Polygon","coordinates":[[[23.47343,56.94347],[23.69516,56.96727],[23.95445,56.99138],[23.47343,56.94347]]]}},{"type":"Feature","properties":{"id":"lv-lpx","lat":56.55883,"lng":21.04085},"geometry":{"type":"MultiPolygon","coordinates":[[[[21.03582,56.47394],[21.0005,56.51065],[21.00636,56.51996],[21.03582,56.47394]]],[[[21.04811,56.51561],[20.9922,56.5489],[21.02064,56.61505],[21.09376,56.56877],[21.04811,56.51561]]]]}},{"type":"Feature","properties":{"id":"lv-rez","lat":56.52003,"lng":27.26846},"geometry":{"type":"Polygon","coordinates":[[[26.90754,56.81798],[27.4555,56.77183],[27.47205,56.66326],[27.58021,56.61944],[27.49639,56.47792],[27.68992,56.36062],[27.70046,56.25502],[27.03802,56.18011],[26.9465,56.30432],[26.99115,56.3315],[26.89761,56.41131],[27.03353,56.44824],[27.00505,56.56214],[26.77256,56.68101],[26.90754,56.81798]]]}},{"type":"Feature","properties":{"id":"lv-rix","lat":56.9928,"lng":24.12151},"geometry":{"type":"Polygon","coordinates":[[[23.92693,57.00633],[24.11303,57.08872],[24.3202,56.96903],[24.23468,56.9304],[24.25872,56.87299],[24.07081,56.8725],[23.94265,56.93867],[24.00099,56.97926],[23.92693,57.00633]]]}},{"type":"Feature","properties":{"id":"lv-ven","lat":57.33511,"lng":21.88261},"geometry":{"type":"Polygon","coordinates":[[[21.32819,56.97363],[21.41359,57.07319],[21.4214,57.28872],[21.69923,57.55533],[22.19451,57.65762],[22.23562,57.61974],[22.2719,57.50724],[22.07796,57.42316],[22.28213,57.38136],[22.30885,57.28885],[22.19403,57.21237],[22.19248,57.12458],[21.64145,57.11421],[21.50616,57.07561],[21.44668,56.94965],[21.32819,56.97363]]]}},{"type":"Feature","properties":{"id":"lv-vmr","lat":57.54196,"lng":25.40461},"geometry":{"type":"Polygon","coordinates":[[[25.41153,57.55605],[25.43189,57.50595],[25.37239,57.52787],[25.41153,57.55605]]]}}]}
