{"type":"FeatureCollection","features":[{"type":"Feature","properties":{"id":"ly-aj","lat":28.8334,"lng":20.7836},"geometry":{"type":"Polygon","coordinates":[[[24.98125,28.0967],[24.98125,27.04924],[19.16982,27.01287],[19.17219,28.34742],[18.49926,28.50209],[18.51363,29.16471],[18.73315,29.66602],[18.78053,30.37592],[18.96803,30.27774],[19.14601,30.26472],[19.61638,30.42137],[20.03647,30.81908],[20.14666,31.04556],[20.13286,31.2607],[20.29905,31.23169],[20.41749,31.08831],[20.59371,31.007],[21.65525,31.04314],[22.25893,31.14515],[22.61922,30.82902],[23.05702,30.76996],[23.06209,28.13927],[24.98125,28.0967]]]}},{"type":"Feature","properties":{"id":"ly-ba","lat":31.7632,"lng":20.19584},"geometry":{"type":"Polygon","coordinates":[[[20.14165,31.22386],[19.95484,31.55947],[19.94011,31.95775],[20.07154,32.17642],[20.57603,32.56271],[20.56467,32.43706],[20.31104,32.10905],[20.35042,31.9287],[20.54855,31.57973],[21.14644,31.59771],[21.21538,31.54105],[21.31904,31.03506],[20.59371,31.007],[20.41749,31.08831],[20.29905,31.23169],[20.13286,31.2607],[20.14165,31.22386]]]}},{"type":"Feature","properties":{"id":"ly-bu","lat":29.71085,"lng":23.94527},"geometry":{"type":"Polygon","coordinates":[[[25.15089,31.65648],[24.84895,31.34863],[24.88265,31.03909],[24.99489,30.7851],[24.90766,30.49866],[24.68865,30.18276],[24.97432,29.23894],[24.98125,28.0967],[23.06209,28.13927],[23.05702,30.76996],[22.96886,30.79936],[22.95656,31.23334],[23.25136,32.21673],[23.31218,32.16275],[23.29908,32.22419],[23.84034,32.14912],[24.09067,32.00576],[24.73373,32.03315],[24.9817,31.96792],[25.15089,31.65648]]]}},{"type":"Feature","properties":{"id":"ly-gd","lat":30.44879,"lng":10.77505},"geometry":{"type":"Polygon","coordinates":[[[10.68356,31.95702],[10.87322,32.1367],[11.52609,32.41786],[11.64315,32.32245],[11.86267,32.30756],[11.83672,31.33594],[11.96302,31.08089],[11.58992,30.54243],[11.72934,29.08701],[11.89739,28.85919],[11.95186,28.59505],[11.89791,28.52901],[11.72479,28.6103],[11.32389,28.5449],[11.01631,28.64156],[10.90986,28.84465],[10.44074,28.62458],[10.13791,28.71727],[9.82728,28.61865],[9.82615,29.12853],[9.66771,29.60832],[9.28654,30.11713],[9.87131,30.35515],[10.19223,30.73125],[10.27015,30.91563],[10.11688,31.49441],[10.26395,31.6805],[10.48254,31.7331],[10.58455,31.84028],[10.60595,31.95361],[10.68356,31.95702]]]}},{"type":"Feature","properties":{"id":"ly-gt","lat":25.95908,"lng":10.42921},"geometry":{"type":"Polygon","coordinates":[[[10.41051,24.47329],[10.24225,24.59511],[10.19336,24.74994],[10.04453,24.82962],[10.00795,25.33143],[9.3778,26.16895],[9.4826,26.35255],[9.85457,26.52438],[9.91059,26.84312],[9.82553,26.92058],[9.72187,27.30846],[9.93127,27.81864],[10.27258,27.66705],[11.10685,27.43623],[11.35892,26.35767],[11.30367,25.74922],[11.39954,25.55144],[11.33257,25.38933],[11.33402,24.79678],[11.45546,24.5939],[11.46724,24.32634],[10.69907,24.55613],[10.41051,24.47329]]]}},{"type":"Feature","properties":{"id":"ly-ja","lat":32.1129,"lng":21.74554},"geometry":{"type":"Polygon","coordinates":[[[21.35704,32.78034],[21.62322,32.93675],[21.98618,32.91309],[21.96934,32.7564],[22.03321,32.55261],[21.95931,32.31947],[22.00055,31.78834],[21.91776,31.28202],[22.11248,31.11988],[21.71716,31.06562],[21.71178,31.28179],[21.61494,31.4733],[21.66176,31.90632],[21.36441,32.32697],[21.33186,32.51171],[21.46156,32.63346],[21.35704,32.78034]]]}},{"type":"Feature","properties":{"id":"ly-ji","lat":32.52811,"lng":13.03267},"geometry":{"type":"Polygon","coordinates":[[[13.2508,32.31738],[12.81961,32.2602],[12.82333,32.40699],[12.96927,32.66896],[13.07634,32.72121],[13.16316,32.64922],[13.18755,32.38981],[13.2508,32.31738]]]}},{"type":"Feature","properties":{"id":"ly-ju","lat":27.88558,"lng":17.50411},"geometry":{"type":"Polygon","coordinates":[[[14.41982,29.2091],[14.75241,29.40534],[14.7366,29.68331],[14.85421,29.86195],[15.05193,29.70196],[15.56745,29.5875],[15.74057,29.39399],[15.87968,29.37676],[16.13558,29.49996],[16.55334,29.39123],[16.98122,29.4305],[17.08808,29.34715],[17.33386,29.28261],[17.58015,29.39456],[17.89847,28.98479],[17.98209,28.73305],[18.08782,28.63962],[18.22548,28.55534],[19.17219,28.34742],[19.16806,26.00376],[18.51497,26.14977],[18.20409,26.37645],[17.95418,26.29411],[17.77796,26.15747],[17.40982,26.05229],[16.9405,26.16342],[16.62072,26.42578],[16.51995,26.70147],[16.27842,26.84622],[16.25795,27.15173],[16.02324,27.30588],[15.79483,27.69198],[15.87885,28.07919],[15.58967,28.21484],[15.01762,28.14485],[14.95871,28.40772],[14.527,28.71949],[14.42251,28.8785],[14.41982,29.2091]]]}},{"type":"Feature","properties":{"id":"ly-kf","lat":24.43852,"lng":22.0794},"geometry":{"type":"Polygon","coordinates":[[[23.98131,19.49612],[19.18584,21.86418],[19.16982,27.01287],[24.98125,27.04924],[24.98052,20.00206],[23.98131,19.99542],[23.98131,19.49612]]]}},{"type":"Feature","properties":{"id":"ly-mb","lat":32.35845,"lng":14.03309},"geometry":{"type":"Polygon","coordinates":[[[13.95444,32.75824],[14.18531,32.7145],[14.44939,32.52538],[14.75582,32.44967],[14.755,32.17935],[14.66673,31.96776],[14.36505,31.97714],[14.12206,32.14256],[13.99163,32.07401],[13.39766,32.05078],[13.36325,32.20163],[13.23643,32.33374],[13.38485,32.38317],[13.4513,32.52861],[13.8089,32.62085],[13.95444,32.75824]]]}},{"type":"Feature","properties":{"id":"ly-mi","lat":30.88516,"lng":15.14412},"geometry":{"type":"Polygon","coordinates":[[[14.75582,32.44967],[15.11476,32.41279],[15.26971,32.32884],[15.37045,32.15908],[15.37045,31.92939],[15.51441,31.62836],[15.76149,31.38813],[16.13738,31.26124],[16.11564,31.04927],[16.53122,29.63295],[16.41856,29.4088],[16.13558,29.49996],[15.87968,29.37676],[15.74057,29.39399],[15.56745,29.5875],[15.05193,29.70196],[14.85421,29.86195],[14.97969,30.01711],[14.95013,30.4092],[14.21167,30.72105],[13.93417,31.24321],[13.63238,31.50828],[13.39766,32.05078],[13.99163,32.07401],[14.12206,32.14256],[14.36505,31.97714],[14.66673,31.96776],[14.755,32.17935],[14.75582,32.44967]]]}},{"type":"Feature","properties":{"id":"ly-mj","lat":31.95274,"lng":21.01091},"geometry":{"type":"Polygon","coordinates":[[[20.57603,32.56271],[21.09669,32.78107],[21.38736,32.78056],[21.45805,32.6979],[21.46156,32.63346],[21.33186,32.51171],[21.33485,32.42882],[21.46198,32.13163],[21.6321,31.99916],[21.66176,31.90632],[21.61494,31.4733],[21.71178,31.28179],[21.71716,31.06562],[21.31904,31.03506],[21.21538,31.54105],[21.14644,31.59771],[20.68373,31.55924],[20.50627,31.63117],[20.31104,32.10905],[20.56467,32.43706],[20.57603,32.56271]]]}},{"type":"Feature","properties":{"id":"ly-mq","lat":24.46012,"lng":15.31802},"geometry":{"type":"Polygon","coordinates":[[[19.18584,21.86418],[15.9851,23.44472],[14.21622,22.6163],[13.48226,23.17967],[11.96886,23.51735],[11.56713,24.26684],[11.46724,24.32634],[11.45546,24.5939],[11.33402,24.79678],[11.33257,25.38933],[11.39954,25.55144],[11.59405,25.65198],[11.85843,25.5478],[12.15991,25.57591],[12.36362,25.73225],[12.62489,25.72086],[12.96555,25.86139],[13.20543,25.87677],[13.4819,26.11799],[14.42437,26.37627],[14.82755,26.7579],[16.27966,27.07517],[16.27842,26.84622],[16.51995,26.70147],[16.62072,26.42578],[16.9405,26.16342],[17.40982,26.05229],[17.77796,26.15747],[17.95418,26.29411],[18.20409,26.37645],[18.51497,26.14977],[19.16806,26.00376],[19.18584,21.86418]]]}},{"type":"Feature","properties":{"id":"ly-mz","lat":30.21316,"lng":13.29318},"geometry":{"type":"Polygon","coordinates":[[[12.64898,32.23261],[13.2508,32.31738],[13.3002,32.27043],[13.63238,31.50828],[13.93417,31.24321],[14.21167,30.72105],[14.95013,30.4092],[14.97969,30.01711],[14.7366,29.68331],[14.75944,29.45673],[14.712,29.35573],[14.41982,29.2091],[14.37032,29.32188],[14.1818,29.46657],[13.99205,29.55246],[13.82472,29.54587],[13.59724,29.35681],[13.10445,28.73931],[12.84948,28.60916],[12.68846,28.43031],[12.58903,28.42697],[12.50159,28.46555],[12.4924,28.54345],[11.98328,28.64724],[11.95186,28.59505],[11.89739,28.85919],[11.72934,29.08701],[11.58992,30.54243],[11.96302,31.08089],[11.83672,31.33594],[11.86267,32.30756],[12.40155,32.30371],[12.64898,32.23261]]]}},{"type":"Feature","properties":{"id":"ly-nq","lat":32.72526,"lng":11.9931},"geometry":{"type":"Polygon","coordinates":[[[11.52609,32.41786],[11.56062,32.50758],[11.44993,32.63796],[11.50511,33.18122],[11.84702,33.08283],[12.30388,32.84309],[12.57322,32.81257],[12.46211,32.6008],[12.09759,32.35441],[11.70071,32.30573],[11.52609,32.41786]]]}},{"type":"Feature","properties":{"id":"ly-qb","lat":32.03237,"lng":22.58324},"geometry":{"type":"Polygon","coordinates":[[[21.98618,32.91309],[22.14959,32.94794],[22.2068,32.88813],[23.11866,32.62934],[23.10385,32.51634],[23.14894,32.4781],[23.08058,32.33405],[23.25136,32.21673],[23.11841,31.84801],[23.07139,31.51218],[22.9854,31.40364],[22.96886,30.79936],[22.61922,30.82902],[22.25893,31.14515],[22.11248,31.11988],[21.91776,31.28202],[22.00055,31.78834],[21.95931,32.31947],[22.03321,32.55261],[21.96934,32.7564],[21.98618,32.91309]]]}},{"type":"Feature","properties":{"id":"ly-sb","lat":26.96583,"lng":14.8975},"geometry":{"type":"Polygon","coordinates":[[[15.79586,27.7212],[16.02324,27.30588],[16.25795,27.15173],[16.27966,27.07517],[14.82755,26.7579],[14.42437,26.37627],[13.93448,26.24501],[13.97199,26.46151],[14.14625,26.67119],[14.03762,26.8565],[13.98316,27.12891],[14.42117,27.17271],[14.84905,27.46047],[14.92129,27.5738],[15.06847,27.63201],[15.56415,27.74115],[15.79586,27.7212]]]}},{"type":"Feature","properties":{"id":"ly-sr","lat":30.02097,"lng":17.5871},"geometry":{"type":"Polygon","coordinates":[[[16.13738,31.26124],[16.72804,31.22382],[17.3659,31.08661],[18.1753,30.78608],[18.78053,30.37592],[18.73315,29.66602],[18.51363,29.16471],[18.49926,28.48462],[18.22548,28.55534],[17.98209,28.73305],[17.89847,28.98479],[17.58015,29.39456],[17.33386,29.28261],[17.08808,29.34715],[16.98122,29.4305],[16.41856,29.4088],[16.53122,29.63295],[16.11564,31.04927],[16.13738,31.26124]]]}},{"type":"Feature","properties":{"id":"ly-tn","lat":32.63504,"lng":13.49519},"geometry":{"type":"Polygon","coordinates":[[[13.1032,32.87742],[13.25709,32.91865],[13.57146,32.8028],[13.95444,32.75824],[13.8089,32.62085],[13.4513,32.52861],[13.38485,32.38317],[13.23643,32.33374],[13.16316,32.64922],[13.07634,32.72121],[13.1032,32.87742]]]}},{"type":"Feature","properties":{"id":"ly-wd","lat":26.35419,"lng":12.77235},"geometry":{"type":"Polygon","coordinates":[[[13.98316,27.12891],[14.03762,26.8565],[14.14625,26.67119],[13.97199,26.46151],[13.93437,26.24687],[13.4819,26.11799],[13.20543,25.87677],[12.96555,25.86139],[12.62489,25.72086],[12.36362,25.73225],[12.15991,25.57591],[11.85843,25.5478],[11.59405,25.65198],[11.39954,25.55144],[11.33464,25.6377],[11.31606,25.94127],[11.37474,26.21747],[13.01236,27.25035],[13.19054,27.29218],[13.98316,27.12891]]]}},{"type":"Feature","properties":{"id":"ly-ws","lat":27.90746,"lng":12.88154},"geometry":{"type":"Polygon","coordinates":[[[9.93127,27.81864],[9.77695,28.26758],[9.82728,28.61865],[10.13791,28.71727],[10.44074,28.62458],[10.90986,28.84465],[11.01631,28.64156],[11.32389,28.5449],[11.72479,28.6103],[11.89791,28.52901],[11.98328,28.64724],[12.4924,28.54345],[12.50159,28.46555],[12.68846,28.43031],[12.79046,28.56324],[13.20842,28.84263],[13.65904,29.42195],[13.9105,29.56755],[14.1818,29.46657],[14.4222,29.26436],[14.42251,28.8785],[14.527,28.71949],[14.95871,28.40772],[15.01762,28.14485],[15.58967,28.21484],[15.79214,28.15637],[15.89405,27.99628],[15.79586,27.7212],[15.56415,27.74115],[14.92129,27.5738],[14.84905,27.46047],[14.42117,27.17271],[13.98316,27.12891],[13.19054,27.29218],[13.01236,27.25035],[11.37474,26.21747],[11.10685,27.43623],[10.27258,27.66705],[9.93127,27.81864]]]}},{"type":"Feature","properties":{"id":"ly-za","lat":32.5375,"lng":12.63515},"geometry":{"type":"Polygon","coordinates":[[[12.57322,32.81257],[12.82439,32.80435],[13.1032,32.87742],[13.07324,32.7157],[12.96927,32.66896],[12.82333,32.40699],[12.81961,32.2602],[12.64898,32.23261],[12.40155,32.30371],[11.86267,32.30756],[12.09759,32.35441],[12.28641,32.47419],[12.46211,32.6008],[12.57322,32.81257]]]}}]}
