{"type":"FeatureCollection","features":[{"type":"Feature","properties":{"id":"ma-01","lat":35.42231,"lng":-5.55267},"geometry":{"type":"Polygon","coordinates":[[[-5.39886,35.9245],[-5.24942,35.58462],[-4.81062,35.26],[-4.49543,35.18077],[-4.46422,35.0791],[-4.50504,35.01996],[-4.83246,34.84568],[-5.19017,34.71643],[-5.34951,34.71468],[-5.78171,34.93068],[-6.24921,35.0014],[-5.92723,35.78075],[-5.59899,35.82233],[-5.39886,35.9245]]]}},{"type":"Feature","properties":{"id":"ma-02","lat":34.47309,"lng":-5.94925},"geometry":{"type":"Polygon","coordinates":[[[-6.72265,34.18244],[-6.24921,35.0014],[-5.78171,34.93068],[-5.4201,34.73772],[-5.19017,34.71643],[-5.19707,34.57613],[-5.49069,34.37005],[-5.42052,34.28065],[-5.45051,34.1783],[-5.57123,34.12944],[-5.78881,34.21187],[-5.91713,34.10515],[-6.36284,34.16856],[-6.5551,34.12029],[-6.72265,34.18244]]]}},{"type":"Feature","properties":{"id":"ma-03","lat":34.37316,"lng":-4.31225},"geometry":{"type":"Polygon","coordinates":[[[-4.49543,35.18077],[-4.34765,35.15013],[-3.91934,35.26683],[-3.9039,35.21417],[-3.82193,35.20677],[-3.81064,34.93094],[-3.61138,34.84085],[-3.63251,34.6631],[-3.54476,34.59264],[-3.27212,34.77328],[-2.9856,34.70669],[-2.94909,34.62094],[-3.025,34.60988],[-3.06934,34.49826],[-3.19396,34.4016],[-3.06955,34.14572],[-3.21032,33.99601],[-3.10244,33.7851],[-3.4989,33.90754],[-3.79808,33.64399],[-3.85085,33.51604],[-4.02773,33.54839],[-4.18524,33.9048],[-4.47657,33.9038],[-4.97393,34.29134],[-5.38228,34.26974],[-5.47901,34.34473],[-5.19707,34.57613],[-5.19017,34.71643],[-5.13061,34.76775],[-4.5401,34.98892],[-4.46422,35.0791],[-4.49543,35.18077]]]}},{"type":"Feature","properties":{"id":"ma-04","lat":33.62841,"lng":-2.42222},"geometry":{"type":"Polygon","coordinates":[[[-2.96858,35.44644],[-2.85607,35.13129],[-2.74812,35.11595],[-2.87841,35.24632],[-2.66674,35.10822],[-2.41674,35.14916],[-2.27526,35.10957],[-2.19379,35.0036],[-1.76953,34.74134],[-1.87112,34.59665],[-1.70297,34.47968],[-1.80963,34.37245],[-1.66963,34.07921],[-1.74679,33.70239],[-1.61734,33.55444],[-1.67423,33.23797],[-1.49952,33.06021],[-1.55879,32.93365],[-1.42335,32.7424],[-1.032,32.4944],[-1.24413,32.35692],[-1.30955,32.16744],[-1.19561,32.14605],[-1.21033,32.08967],[-2.51615,32.1322],[-2.88119,32.07629],[-2.93873,32.04864],[-2.82784,31.79459],[-3.16172,31.73255],[-3.15226,31.83875],[-3.23987,31.95764],[-3.2292,32.15432],[-3.68458,32.15308],[-3.99918,32.61734],[-3.59825,33.08723],[-3.03376,33.14862],[-2.92612,33.211],[-2.98297,33.342],[-3.23737,33.54387],[-3.05069,33.75432],[-3.21032,33.99601],[-3.06955,34.14572],[-3.19396,34.4016],[-3.06934,34.49826],[-3.025,34.60988],[-2.94909,34.62094],[-2.97038,34.6862],[-3.27212,34.77328],[-3.54476,34.59264],[-3.63251,34.6631],[-3.61138,34.84085],[-3.81064,34.93094],[-3.82446,35.12835],[-3.82193,35.20677],[-3.69957,35.29084],[-3.31924,35.20181],[-3.07706,35.28791],[-2.96858,35.44644]]]}},{"type":"Feature","properties":{"id":"ma-05","lat":33.46647,"lng":-4.05439},"geometry":{"type":"Polygon","coordinates":[[[-5.17539,34.31072],[-4.9121,34.2654],[-4.47657,33.9038],[-4.18524,33.9048],[-4.02773,33.54839],[-3.85085,33.51604],[-3.79808,33.64399],[-3.4989,33.90754],[-3.06994,33.76972],[-3.06061,33.71748],[-3.23737,33.54387],[-2.98297,33.342],[-2.92612,33.211],[-3.03376,33.14862],[-3.59825,33.08723],[-3.99918,32.61734],[-4.2371,32.62909],[-4.49349,32.88448],[-4.7549,32.95039],[-4.86407,33.12707],[-4.99413,33.4169],[-4.90414,33.59407],[-5.14844,33.71789],[-5.08788,33.83628],[-5.24766,34.10887],[-5.32939,34.10218],[-5.42052,34.28065],[-5.17539,34.31072]]]}},{"type":"Feature","properties":{"id":"ma-06","lat":32.31756,"lng":-4.64887},"geometry":{"type":"Polygon","coordinates":[[[-3.16172,31.73255],[-3.65951,31.64782],[-3.67348,31.38923],[-3.81519,31.33716],[-3.83932,31.15283],[-3.73142,31.17634],[-3.55467,30.95593],[-3.65951,30.83712],[-3.64553,30.71132],[-3.83423,30.62745],[-4.27452,30.55756],[-4.77073,30.22909],[-5.21913,30.49788],[-5.20588,30.65307],[-5.36315,30.87153],[-5.21378,31.4124],[-5.45411,31.60887],[-5.73564,31.63843],[-5.57185,31.8748],[-5.58854,31.93802],[-5.80592,31.93025],[-5.85961,32.01342],[-5.82106,32.1021],[-5.63787,32.21473],[-5.47612,32.24519],[-5.52728,32.38994],[-5.43731,32.50794],[-6.04167,32.79306],[-6.05745,32.89717],[-6.15355,32.9259],[-6.13272,33.01183],[-6.40345,33.19544],[-6.39929,33.38246],[-6.32863,33.47543],[-6.21303,33.43811],[-6.19752,33.36587],[-6.02417,33.31559],[-5.78809,33.35026],[-5.78902,33.6196],[-5.72453,33.78796],[-5.78654,33.88599],[-5.77186,33.98067],[-5.88506,34.11673],[-5.78881,34.21187],[-5.67859,34.13358],[-5.46865,34.16536],[-5.42052,34.28065],[-5.32939,34.10218],[-5.24766,34.10887],[-5.08788,33.83628],[-5.14844,33.71789],[-4.90414,33.59407],[-4.99413,33.4169],[-4.7549,32.95039],[-4.49349,32.88448],[-4.2371,32.62909],[-3.99918,32.61734],[-3.68458,32.15308],[-3.2292,32.15432],[-3.23987,31.95764],[-3.15226,31.83875],[-3.16172,31.73255]]]}},{"type":"Feature","properties":{"id":"ma-07","lat":33.70378,"lng":-6.39582},"geometry":{"type":"Polygon","coordinates":[[[-7.11701,33.83487],[-6.92736,33.94416],[-6.72265,34.18244],[-6.5551,34.12029],[-6.36284,34.16856],[-5.88506,34.11673],[-5.77186,33.98067],[-5.78654,33.88599],[-5.72453,33.78796],[-5.78902,33.6196],[-5.78809,33.35026],[-6.02417,33.31559],[-6.19752,33.36587],[-6.21303,33.43811],[-6.32863,33.47543],[-6.41978,33.23831],[-6.55556,33.18795],[-6.73152,33.2428],[-6.82038,33.33008],[-6.78808,33.55247],[-6.97869,33.61412],[-7.11701,33.83487]]]}},{"type":"Feature","properties":{"id":"ma-08","lat":33.57089,"lng":-7.55072},"geometry":{"type":"Polygon","coordinates":[[[-7.88602,33.50915],[-7.52912,33.63264],[-7.40636,33.727],[-7.34114,33.73111],[-7.42631,33.4723],[-7.58142,33.36249],[-7.59028,33.44581],[-7.88602,33.50915]]]}},{"type":"Feature","properties":{"id":"ma-09","lat":33.0898,"lng":-7.16342},"geometry":{"type":"Polygon","coordinates":[[[-7.34114,33.73111],[-7.1146,33.83313],[-6.97869,33.61412],[-6.78808,33.55247],[-6.8071,33.2828],[-6.55556,33.18795],[-6.41978,33.23831],[-6.13272,33.01183],[-6.15355,32.9259],[-6.03707,32.85712],[-6.06324,32.76076],[-6.29209,32.7018],[-6.85761,32.69059],[-6.9791,32.63891],[-7.12667,32.3466],[-7.37177,32.45892],[-7.64581,32.50453],[-8.03444,32.88024],[-8.11792,33.16777],[-7.96847,33.3351],[-8.01157,33.46643],[-7.88602,33.50915],[-7.59028,33.44581],[-7.58142,33.36249],[-7.42631,33.4723],[-7.34114,33.73111]]]}},{"type":"Feature","properties":{"id":"ma-10","lat":32.685,"lng":-8.5961},"geometry":{"type":"Polygon","coordinates":[[[-9.45877,31.94462],[-9.27774,32.1966],[-9.25992,32.57689],[-8.86779,32.8819],[-8.52916,33.2687],[-8.01157,33.46643],[-7.96847,33.3351],[-8.11792,33.16777],[-7.9902,32.83404],[-8.05108,32.78738],[-8.09146,32.58261],[-8.45046,32.335],[-8.39155,32.2009],[-8.2637,32.11176],[-8.44953,31.77359],[-8.85715,31.76501],[-8.96903,31.79827],[-9.05562,31.90893],[-9.45877,31.94462]]]}},{"type":"Feature","properties":{"id":"ma-11","lat":31.84006,"lng":-7.73182},"geometry":{"type":"Polygon","coordinates":[[[-9.82361,30.95995],[-9.80663,31.34345],[-9.84752,31.40241],[-9.66731,31.73115],[-9.4838,31.92255],[-9.05562,31.90893],[-8.96903,31.79827],[-8.85715,31.76501],[-8.44953,31.77359],[-8.2637,32.11176],[-8.39155,32.2009],[-8.45046,32.335],[-8.09146,32.58261],[-8.05108,32.78738],[-7.9902,32.83404],[-7.62113,32.48921],[-7.37177,32.45892],[-7.12667,32.3466],[-7.0276,31.88185],[-7.08052,31.78586],[-7.28443,31.69693],[-7.14995,31.5621],[-7.18645,31.44718],[-7.32634,31.34059],[-7.8251,31.14014],[-8.03382,30.94641],[-8.7507,30.87778],[-8.8201,30.96878],[-9.04846,30.8554],[-9.54768,30.88194],[-9.69038,30.82936],[-9.82361,30.95995]]]}},{"type":"Feature","properties":{"id":"ma-12","lat":32.05776,"lng":-6.45953},"geometry":{"type":"Polygon","coordinates":[[[-6.04167,32.79306],[-5.43731,32.50794],[-5.52728,32.38994],[-5.47612,32.24519],[-5.82106,32.1021],[-5.85961,32.01342],[-5.80592,31.93025],[-5.86095,31.86831],[-6.70256,31.49472],[-6.80387,31.39227],[-6.98368,31.3731],[-7.18645,31.44718],[-7.14995,31.5621],[-7.28443,31.69693],[-7.04078,31.82914],[-7.12667,32.3466],[-6.9791,32.63891],[-6.57861,32.721],[-6.21504,32.71426],[-6.04167,32.79306]]]}},{"type":"Feature","properties":{"id":"ma-13","lat":30.5203,"lng":-7.45148},"geometry":{"type":"Polygon","coordinates":[[[-4.77073,30.22909],[-5.17608,29.97749],[-5.5395,29.52322],[-5.72121,29.52322],[-5.75616,29.61407],[-6.34391,29.57207],[-6.49477,29.88942],[-6.41493,30.04809],[-6.51122,30.07085],[-6.56882,30.20332],[-6.52665,30.35244],[-6.71563,30.48703],[-6.91087,30.37642],[-7.17718,30.39225],[-7.32474,30.19066],[-7.62725,30.21901],[-7.76001,30.12951],[-7.96731,30.11581],[-8.1003,29.98127],[-8.64409,29.96331],[-8.70088,29.79234],[-8.66985,29.42689],[-8.9818,29.45074],[-9.14897,29.33302],[-9.50988,29.32095],[-9.63116,29.2693],[-9.72527,29.30116],[-9.87187,29.16613],[-10.09791,29.07892],[-10.39906,29.16125],[-9.82022,29.83893],[-9.65514,30.1269],[-9.61164,30.40436],[-9.70006,30.54271],[-9.88854,30.64826],[-9.81371,30.81468],[-9.82361,30.95995],[-9.69038,30.82936],[-9.54768,30.88194],[-9.04846,30.8554],[-8.8201,30.96878],[-8.7507,30.87778],[-8.03382,30.94641],[-7.8251,31.14014],[-7.32634,31.34059],[-7.18645,31.44718],[-6.98368,31.3731],[-6.80387,31.39227],[-6.70256,31.49472],[-5.65854,31.96973],[-5.57185,31.8748],[-5.73564,31.63843],[-5.45411,31.60887],[-5.21378,31.4124],[-5.36315,30.87153],[-5.20588,30.65307],[-5.21913,30.49788],[-4.77073,30.22909]]]}},{"type":"Feature","properties":{"id":"ma-14","lat":28.26788,"lng":-10.1539},"geometry":{"type":"Polygon","coordinates":[[[-8.81704,27.66146],[-8.75287,27.19049],[-8.7939,27.12018],[-9.41206,27.08796],[-9.81686,26.84968],[-10.03171,26.91022],[-10.25046,26.86043],[-10.75678,27.01959],[-11.39157,26.88291],[-11.31587,26.74421],[-11.3369,26.6329],[-11.51069,26.46981],[-11.71724,26.10358],[-12.05623,25.99529],[-12.44502,25.99261],[-12.57344,26.42459],[-12.52876,26.61711],[-12.26175,26.91146],[-11.92699,27.57514],[-11.54366,27.79009],[-11.7823,28.21014],[-11.48559,28.32563],[-11.0631,28.75239],[-10.5738,28.99042],[-10.39906,29.16125],[-10.09791,29.07892],[-9.87187,29.16613],[-9.72527,29.30116],[-9.63116,29.2693],[-9.50988,29.32095],[-9.14897,29.33302],[-8.9818,29.45074],[-8.66985,29.42689],[-8.70088,29.79234],[-8.64409,29.96331],[-8.1003,29.98127],[-7.96731,30.11581],[-7.76001,30.12951],[-7.62725,30.21901],[-7.32474,30.19066],[-7.17718,30.39225],[-6.91087,30.37642],[-6.71563,30.48703],[-6.58225,30.41634],[-6.52665,30.35244],[-6.57334,30.24616],[-6.53941,30.1055],[-6.41493,30.04809],[-6.49477,29.88942],[-6.34391,29.57207],[-6.69965,29.51623],[-6.78352,29.44634],[-7.07006,29.51623],[-7.25875,29.4673],[-7.34961,29.38344],[-7.61945,29.38942],[-8.66761,28.71168],[-8.68239,27.66144],[-8.81704,27.66146]]]}},{"type":"Feature","properties":{"id":"ma-15","lat":26.30931,"lng":-13.42894},"geometry":{"type":"Polygon","coordinates":[[[-12.05623,25.99529],[-12.39988,24.87995],[-12.94688,24.49675],[-13.2335,24.51982],[-13.68482,24.39399],[-14.14221,24.48445],[-14.63285,24.40585],[-14.7856,24.52605],[-15.01225,24.59155],[-14.89562,24.70572],[-14.81924,25.33023],[-14.5139,25.93696],[-14.46613,26.19424],[-14.18025,26.42438],[-13.92374,26.50088],[-13.56111,26.74909],[-13.17125,27.685],[-13.04515,27.75983],[-12.96809,27.91462],[-12.06143,28.08902],[-11.7823,28.21014],[-11.54366,27.79009],[-11.81317,27.6622],[-12.03404,27.44055],[-12.26175,26.91146],[-12.48654,26.68212],[-12.57737,26.45999],[-12.44502,25.99261],[-12.05623,25.99529]]]}},{"type":"Feature","properties":{"id":"ma-16","lat":23.03785,"lng":-15.13543},"geometry":{"type":"Polygon","coordinates":[[[-12.94688,24.49675],[-13.06002,24.40048],[-13.31001,23.98055],[-13.76998,23.79012],[-13.89013,23.69049],[-14.10007,23.09968],[-14.22019,22.30965],[-14.62985,21.86042],[-14.60983,21.75007],[-14.74997,21.50008],[-14.97017,21.4405],[-16.04002,21.50008],[-17.01374,21.41997],[-16.92101,21.9313],[-16.70678,22.27546],[-16.52184,22.31489],[-16.46662,22.37739],[-16.35729,22.58308],[-16.28962,22.89981],[-16.16324,22.99323],[-16.15954,23.08246],[-16.21312,23.09443],[-15.77261,23.78783],[-15.77514,23.91193],[-16.00316,23.6721],[-15.84093,23.90265],[-15.62011,24.02627],[-15.17186,24.49413],[-15.01225,24.59155],[-14.7856,24.52605],[-14.63285,24.40585],[-14.14221,24.48445],[-13.68482,24.39399],[-13.2335,24.51982],[-12.94688,24.49675]]]}}]}
