{"type":"FeatureCollection","features":[{"type":"Feature","properties":{"id":"md-an","lat":46.95018,"lng":29.16873},"geometry":{"type":"Polygon","coordinates":[[[29.24037,46.97631],[29.29225,47.13578],[29.38206,47.04178],[29.29499,46.99225],[29.31592,46.95874],[29.47064,46.94163],[29.45043,46.82417],[29.19339,46.7679],[29.04963,46.86009],[29.06172,46.91455],[28.90814,46.96111],[29.0566,47.04248],[29.24037,46.97631]]]}},{"type":"Feature","properties":{"id":"md-ba","lat":47.76648,"lng":27.96362},"geometry":{"type":"Polygon","coordinates":[[[27.95279,47.8162],[28.04452,47.78223],[28.04566,47.71983],[27.86014,47.75073],[27.95279,47.8162]]]}},{"type":"Feature","properties":{"id":"md-bd","lat":46.73429,"lng":29.77447},"geometry":{"type":"Polygon","coordinates":[[[29.56063,46.96126],[29.92818,46.80975],[29.9381,46.55734],[29.72762,46.59437],[29.75832,46.65883],[29.45043,46.82417],[29.4617,46.95104],[29.56063,46.96126]]]}},{"type":"Feature","properties":{"id":"md-br","lat":48.27308,"lng":26.96309},"geometry":{"type":"Polygon","coordinates":[[[27.04796,48.12141],[26.61789,48.25897],[26.6798,48.33018],[26.77436,48.28718],[26.77752,48.36617],[26.84278,48.39374],[26.94324,48.35126],[27.0374,48.39968],[27.25193,48.37831],[27.31154,48.30289],[27.27547,48.23354],[27.12577,48.23894],[27.04796,48.12141]]]}},{"type":"Feature","properties":{"id":"md-bs","lat":46.35863,"lng":28.83145},"geometry":{"type":"Polygon","coordinates":[[[29.05591,46.49874],[28.92545,46.43277],[28.93351,46.25899],[28.9841,46.22121],[28.9162,46.16664],[28.80375,46.29614],[28.70464,46.29986],[28.76339,46.4174],[28.9315,46.54589],[29.04585,46.5555],[29.05591,46.49874]]]}},{"type":"Feature","properties":{"id":"md-ca","lat":45.76364,"lng":28.23917},"geometry":{"type":"Polygon","coordinates":[[[28.10782,46.0961],[28.45866,46.08794],[28.46816,45.92386],[28.29665,45.71008],[28.40088,45.66223],[28.51493,45.80268],[28.56764,45.7246],[28.474,45.65794],[28.53689,45.5798],[28.28048,45.58528],[28.1995,45.46177],[28.06214,45.5936],[28.16797,45.63246],[28.08271,46.01471],[28.10782,46.0961]]]}},{"type":"Feature","properties":{"id":"md-cam","lat":48.05448,"lng":28.66438},"geometry":{"type":"Polygon","coordinates":[[[28.5416,48.15595],[28.79925,48.11179],[28.94214,47.88323],[28.78479,47.98281],[28.63704,47.84215],[28.47798,47.88855],[28.46661,47.99717],[28.5416,48.15595]]]}},{"type":"Feature","properties":{"id":"md-cl","lat":47.31077,"lng":28.33561},"geometry":{"type":"Polygon","coordinates":[[[28.57958,47.33189],[28.32693,47.15717],[28.09103,47.25091],[28.15769,47.29365],[28.08669,47.32789],[28.26513,47.43385],[28.49245,47.44049],[28.57958,47.33189]]]}},{"type":"Feature","properties":{"id":"md-cm","lat":46.61173,"lng":28.85433},"geometry":{"type":"Polygon","coordinates":[[[29.18306,46.53804],[29.05591,46.49874],[29.06461,46.5461],[28.95232,46.55494],[28.76339,46.4174],[28.58563,46.50259],[28.58371,46.66852],[28.73559,46.82329],[28.97124,46.8036],[29.18306,46.53804]]]}},{"type":"Feature","properties":{"id":"md-cr","lat":47.15071,"lng":28.95621},"geometry":{"type":"Polygon","coordinates":[[[28.94927,47.0269],[28.78473,47.13857],[28.80184,47.23882],[29.02167,47.33313],[29.17892,47.19707],[29.06906,47.10152],[29.1243,47.07418],[29.1876,47.16286],[29.29225,47.13578],[29.24037,46.97631],[29.0566,47.04248],[28.97444,47.01036],[28.96736,47.05945],[28.94927,47.0269]]]}},{"type":"Feature","properties":{"id":"md-cs","lat":46.60199,"lng":29.2944},"geometry":{"type":"Polygon","coordinates":[[[29.20068,46.35712],[29.1675,46.59814],[29.07264,46.63694],[28.97124,46.8036],[29.08802,46.85197],[29.19339,46.7679],[29.45043,46.82417],[29.55332,46.76709],[29.57332,46.6663],[29.42986,46.60584],[29.45672,46.48437],[29.37472,46.41619],[29.30672,46.472],[29.20068,46.35712]]]}},{"type":"Feature","properties":{"id":"md-ct","lat":46.28024,"lng":28.31918},"geometry":{"type":"Polygon","coordinates":[[[28.11051,46.10149],[28.14472,46.18323],[28.10896,46.23413],[28.21293,46.38869],[28.47214,46.42636],[28.51292,46.32635],[28.44057,46.09688],[28.11051,46.10149]]]}},{"type":"Feature","properties":{"id":"md-cu","lat":47.04749,"lng":28.83481},"geometry":{"type":"Polygon","coordinates":[[[28.66185,47.13924],[28.94927,47.0269],[28.96736,47.05945],[28.97444,47.01036],[28.90814,46.96111],[28.7776,46.98811],[28.78752,47.03553],[28.66185,47.13924]]]}},{"type":"Feature","properties":{"id":"md-do","lat":48.22319,"lng":27.74333},"geometry":{"type":"Polygon","coordinates":[[[27.88537,48.37844],[28.01641,48.28318],[27.95202,48.19551],[27.85306,48.2091],[27.88985,48.13148],[27.7756,48.12575],[27.70878,48.04885],[27.54615,48.12042],[27.50993,48.23729],[27.59163,48.35669],[27.88537,48.37844]]]}},{"type":"Feature","properties":{"id":"md-dr","lat":48.02952,"lng":27.86544},"geometry":{"type":"Polygon","coordinates":[[[28.0684,47.90111],[27.92169,47.85323],[27.82536,47.9634],[27.6847,47.95271],[27.68826,48.05464],[27.7756,48.12575],[27.88985,48.13148],[27.85306,48.2091],[27.95202,48.19551],[28.0992,48.11603],[28.02731,48.00441],[28.0684,47.90111]]]}},{"type":"Feature","properties":{"id":"md-ed","lat":48.14396,"lng":27.31318},"geometry":{"type":"Polygon","coordinates":[[[27.17827,47.9421],[27.0343,48.10177],[27.15005,48.2555],[27.27547,48.23354],[27.31154,48.30289],[27.56181,48.18615],[27.55726,48.06068],[27.47717,48.02105],[27.30395,48.0241],[27.17827,47.9421]]]}},{"type":"Feature","properties":{"id":"md-fa","lat":47.56347,"lng":27.68962},"geometry":{"type":"Polygon","coordinates":[[[27.43134,47.57264],[27.81239,47.77362],[27.96458,47.73623],[27.94168,47.67601],[28.01708,47.61932],[27.93104,47.55431],[28.00571,47.50325],[27.97584,47.46305],[27.58872,47.36739],[27.57587,47.46041],[27.47313,47.49178],[27.43134,47.57264]]]}},{"type":"Feature","properties":{"id":"md-fl","lat":47.90604,"lng":28.27862},"geometry":{"type":"Polygon","coordinates":[[[28.46661,47.99717],[28.43902,47.80592],[28.5341,47.75559],[28.40533,47.68794],[28.13868,47.827],[28.06886,47.98508],[28.46661,47.99717]]]}},{"type":"Feature","properties":{"id":"md-ga","lat":46.23139,"lng":28.67148},"geometry":{"type":"MultiPolygon","coordinates":[[[[28.49824,45.55872],[28.48093,45.50198],[28.27042,45.52147],[28.28048,45.58528],[28.49824,45.55872]]],[[[28.29665,45.71008],[28.39168,45.86552],[28.51493,45.80268],[28.40088,45.66223],[28.29665,45.71008]]],[[[28.58563,46.50259],[28.76339,46.4174],[28.70464,46.29986],[28.80375,46.29614],[28.9162,46.16664],[28.8283,46.00965],[28.62221,45.96665],[28.57126,46.06437],[28.44057,46.09688],[28.51292,46.32635],[28.45897,46.38965],[28.58563,46.50259]]]]}},{"type":"Feature","properties":{"id":"md-gl","lat":47.64655,"lng":27.46681},"geometry":{"type":"Polygon","coordinates":[[[27.4294,47.57813],[27.27201,47.71497],[27.3812,47.83796],[27.76268,47.83636],[27.85859,47.76941],[27.4294,47.57813]]]}},{"type":"Feature","properties":{"id":"md-gri","lat":47.12356,"lng":29.41882},"geometry":{"type":"Polygon","coordinates":[[[29.37088,47.30443],[29.57006,47.30678],[29.54484,47.13557],[29.47787,47.11154],[29.52014,47.05992],[29.59486,47.0746],[29.56063,46.96126],[29.37565,46.93517],[29.303,46.97496],[29.38206,47.04178],[29.27659,47.1964],[29.37088,47.30443]]]}},{"type":"Feature","properties":{"id":"md-hi","lat":46.86434,"lng":28.41123},"geometry":{"type":"Polygon","coordinates":[[[28.24508,46.63145],[28.10499,46.92018],[28.22322,46.90538],[28.34249,47.0423],[28.42403,46.93657],[28.48682,47.04907],[28.73559,46.82329],[28.58371,46.66852],[28.57653,46.70803],[28.39851,46.72351],[28.3859,46.62914],[28.32554,46.61261],[28.24508,46.63145]]]}},{"type":"Feature","properties":{"id":"md-ia","lat":46.89426,"lng":28.84613},"geometry":{"type":"Polygon","coordinates":[[[28.66092,46.86174],[28.48682,47.04907],[28.62779,47.01227],[28.77182,47.0532],[28.7776,46.98811],[29.0412,46.92677],[29.08802,46.85197],[28.94617,46.78934],[28.66092,46.86174]]]}},{"type":"Feature","properties":{"id":"md-le","lat":46.55352,"lng":28.40789},"geometry":{"type":"Polygon","coordinates":[[[28.22937,46.39334],[28.24508,46.63145],[28.37659,46.62108],[28.39851,46.72351],[28.57653,46.70803],[28.57555,46.48595],[28.37649,46.38864],[28.22937,46.39334]]]}},{"type":"Feature","properties":{"id":"md-ni","lat":47.07142,"lng":28.21904},"geometry":{"type":"Polygon","coordinates":[[[28.10499,46.92018],[27.96918,47.13934],[28.00044,47.23683],[28.09103,47.25091],[28.32693,47.15717],[28.349,47.07914],[28.5046,47.06369],[28.42403,46.93657],[28.34249,47.0423],[28.22322,46.90538],[28.10499,46.92018]]]}},{"type":"Feature","properties":{"id":"md-oc","lat":48.36757,"lng":27.51125},"geometry":{"type":"Polygon","coordinates":[[[27.583,48.48603],[27.88537,48.37844],[27.59163,48.35669],[27.50993,48.23729],[27.26974,48.33118],[27.30601,48.42366],[27.583,48.48603]]]}},{"type":"Feature","properties":{"id":"md-or","lat":47.39047,"lng":28.78562},"geometry":{"type":"Polygon","coordinates":[[[29.02167,47.33313],[28.82701,47.26476],[28.7899,47.20255],[28.52072,47.4176],[28.60278,47.50563],[28.90488,47.59906],[29.1105,47.46398],[28.98188,47.36334],[29.02167,47.33313]]]}},{"type":"Feature","properties":{"id":"md-re","lat":47.73652,"lng":28.95954},"geometry":{"type":"Polygon","coordinates":[[[28.793,47.53302],[28.61121,47.6666],[28.63704,47.71704],[28.96302,47.84173],[28.93609,47.94216],[29.11004,47.97966],[29.23602,47.87072],[29.17773,47.8007],[29.23861,47.756],[29.12683,47.46563],[28.92984,47.59446],[28.793,47.53302]]]}},{"type":"Feature","properties":{"id":"md-ri","lat":47.93722,"lng":27.51812},"geometry":{"type":"Polygon","coordinates":[[[27.28811,47.75068],[27.1607,47.92173],[27.30395,48.0241],[27.55726,48.06068],[27.54615,48.12042],[27.68826,48.05464],[27.6847,47.95271],[27.82536,47.9634],[27.95099,47.84804],[27.84841,47.78458],[27.48352,47.86452],[27.28811,47.75068]]]}},{"type":"Feature","properties":{"id":"md-sd","lat":47.85554,"lng":28.78697},"geometry":{"type":"Polygon","coordinates":[[[28.63704,47.71704],[28.42744,47.84615],[28.53054,47.89294],[28.63704,47.84215],[28.78479,47.98281],[28.95537,47.86493],[28.84147,47.83207],[28.76639,47.73554],[28.63704,47.71704]]]}},{"type":"Feature","properties":{"id":"md-si","lat":47.65363,"lng":28.19895},"geometry":{"type":"Polygon","coordinates":[[[27.95099,47.84804],[28.0684,47.90111],[28.40533,47.68794],[28.41266,47.61035],[28.17092,47.55379],[28.15134,47.45796],[27.97584,47.46305],[28.00571,47.50325],[27.93104,47.55431],[28.01708,47.61932],[27.94577,47.70748],[28.05486,47.73179],[27.95099,47.84804]]]}},{"type":"Feature","properties":{"id":"md-sn","lat":47.27537,"lng":29.19819},"geometry":{"type":"Polygon","coordinates":[[[29.17892,47.19707],[29.07366,47.24632],[28.98188,47.36334],[29.13719,47.48401],[29.37088,47.30443],[29.27659,47.1964],[29.29881,47.13779],[29.1876,47.16286],[29.1243,47.07418],[29.06906,47.10152],[29.17892,47.19707]]]}},{"type":"Feature","properties":{"id":"md-so","lat":48.15303,"lng":28.1775},"geometry":{"type":"Polygon","coordinates":[[[28.00318,48.32588],[28.09284,48.30207],[28.09325,48.23744],[28.35773,48.23861],[28.31742,48.13536],[28.41158,48.1707],[28.45938,48.07446],[28.5434,48.08797],[28.43726,47.98684],[28.06886,47.98508],[28.02731,48.00441],[28.0992,48.11603],[27.95202,48.19551],[28.0161,48.24057],[28.00318,48.32588]]]}},{"type":"Feature","properties":{"id":"md-st","lat":47.18535,"lng":28.58382},"geometry":{"type":"Polygon","coordinates":[[[28.65513,47.33117],[28.84251,47.09529],[28.66185,47.13924],[28.77182,47.0532],[28.74965,47.01651],[28.33391,47.1055],[28.32693,47.15717],[28.46641,47.21353],[28.45556,47.28156],[28.51565,47.31887],[28.65513,47.33117]]]}},{"type":"Feature","properties":{"id":"md-sv","lat":46.5152,"lng":29.67592},"geometry":{"type":"Polygon","coordinates":[[[29.72762,46.59437],[30.13158,46.42283],[29.82813,46.3394],[29.71413,46.47117],[29.59859,46.36306],[29.48087,46.42515],[29.41674,46.55923],[29.57332,46.6663],[29.57011,46.72382],[29.75832,46.65883],[29.72762,46.59437]]]}},{"type":"Feature","properties":{"id":"md-ta","lat":45.98402,"lng":28.7921},"geometry":{"type":"Polygon","coordinates":[[[28.9841,46.22121],[29.01536,46.18261],[28.93878,46.08928],[28.95687,46.00138],[28.74024,45.95322],[28.74505,45.85048],[28.66975,45.77731],[28.54992,45.73741],[28.39168,45.86552],[28.46816,45.92386],[28.45866,46.08794],[28.60072,46.043],[28.62221,45.96665],[28.8283,46.00965],[28.9841,46.22121]]]}},{"type":"Feature","properties":{"id":"md-te","lat":47.5866,"lng":28.54175},"geometry":{"type":"Polygon","coordinates":[[[28.5341,47.75559],[28.63704,47.71704],[28.61121,47.6666],[28.71849,47.60459],[28.5772,47.43462],[28.32269,47.41215],[28.15134,47.45796],[28.17092,47.55379],[28.3552,47.56862],[28.41266,47.61035],[28.40533,47.68794],[28.5341,47.75559]]]}},{"type":"Feature","properties":{"id":"md-un","lat":47.25623,"lng":27.89912},"geometry":{"type":"Polygon","coordinates":[[[28.0083,47.0263],[27.80655,47.14462],[27.73327,47.27562],[27.58872,47.36739],[27.92706,47.46664],[28.2258,47.41935],[28.08669,47.32789],[28.15769,47.29365],[28.00044,47.23683],[27.96918,47.13934],[28.06478,47.04204],[28.0083,47.0263]]]}}]}
