{"type":"FeatureCollection","features":[{"type":"Feature","properties":{"id":"me-01","lat":42.72628,"lng":19.76391},"geometry":{"type":"Polygon","coordinates":[[[19.74688,42.58893],[19.62814,42.66507],[19.64395,42.82219],[19.87763,42.76328],[19.90941,42.68928],[19.74688,42.58893]]]}},{"type":"Feature","properties":{"id":"me-02","lat":42.13678,"lng":19.16952},"geometry":{"type":"Polygon","coordinates":[[[19.04698,42.32194],[19.37,42.10651],[19.21452,42.10162],[19.2418,42.01147],[19.14118,42.01981],[18.98162,42.16706],[18.92255,42.30215],[19.04698,42.32194]]]}},{"type":"Feature","properties":{"id":"me-03","lat":42.84754,"lng":19.87956},"geometry":{"type":"Polygon","coordinates":[[[20.12946,42.9736],[20.03701,42.70736],[19.90941,42.68928],[19.87763,42.76328],[19.67573,42.82529],[19.67113,42.86979],[20.05634,43.0208],[20.12946,42.9736]]]}},{"type":"Feature","properties":{"id":"me-04","lat":43.0698,"lng":19.7297},"geometry":{"type":"Polygon","coordinates":[[[19.54784,43.21881],[19.80513,43.08996],[19.92915,43.11391],[20.05634,43.0208],[19.69878,42.90751],[19.6485,42.99895],[19.45946,43.04965],[19.54784,43.21881]]]}},{"type":"Feature","properties":{"id":"me-05","lat":42.24883,"lng":18.94467},"geometry":{"type":"Polygon","coordinates":[[[18.97144,42.18327],[18.886,42.28437],[18.78874,42.27602],[18.79713,42.36003],[18.91417,42.32005],[18.99587,42.22163],[18.97144,42.18327]]]}},{"type":"Feature","properties":{"id":"me-06","lat":42.53314,"lng":18.8621},"geometry":{"type":"Polygon","coordinates":[[[18.72736,42.71812],[18.93252,42.6407],[19.00569,42.55885],[18.9596,42.49433],[19.14258,42.37088],[19.10951,42.30031],[18.79356,42.35421],[18.76054,42.50743],[18.6483,42.62934],[18.72736,42.71812]]]}},{"type":"Feature","properties":{"id":"me-07","lat":42.64855,"lng":19.13055},"geometry":{"type":"Polygon","coordinates":[[[19.17788,42.69499],[19.21074,42.75951],[19.30097,42.67688],[19.19881,42.48743],[18.98533,42.50635],[19.00569,42.55885],[18.93717,42.62022],[19.04998,42.7038],[19.17788,42.69499]]]}},{"type":"Feature","properties":{"id":"me-08","lat":42.50551,"lng":18.53145},"geometry":{"type":"MultiPolygon","coordinates":[[[[18.65317,42.36628],[18.57065,42.39297],[18.55014,42.43513],[18.64495,42.41836],[18.65317,42.36628]]],[[[18.49782,42.43116],[18.43736,42.55921],[18.5068,42.59849],[18.65414,42.45181],[18.49782,42.43116]]]]}},{"type":"Feature","properties":{"id":"me-09","lat":42.82058,"lng":19.44114},"geometry":{"type":"Polygon","coordinates":[[[19.21074,42.75951],[19.2278,42.91051],[19.67899,42.88165],[19.62814,42.66507],[19.53507,42.73907],[19.44685,42.67515],[19.31017,42.67212],[19.21074,42.75951]]]}},{"type":"Feature","properties":{"id":"me-10","lat":42.45743,"lng":18.73756},"geometry":{"type":"Polygon","coordinates":[[[18.5068,42.59849],[18.6483,42.62934],[18.76054,42.50743],[18.78874,42.27602],[18.69361,42.35322],[18.70928,42.46304],[18.65414,42.45181],[18.5068,42.59849]]]}},{"type":"Feature","properties":{"id":"me-11","lat":42.94881,"lng":19.53055},"geometry":{"type":"Polygon","coordinates":[[[19.33167,42.99012],[19.5145,43.04171],[19.6485,42.99895],[19.69878,42.90751],[19.44908,42.89924],[19.33167,42.99012]]]}},{"type":"Feature","properties":{"id":"me-12","lat":42.90657,"lng":18.74028},"geometry":{"type":"Polygon","coordinates":[[[18.639,43.02024],[18.62113,43.12458],[18.73739,43.09515],[18.85015,42.95516],[19.20857,42.85894],[19.21312,42.70822],[19.04998,42.7038],[18.93717,42.62022],[18.72736,42.71812],[18.66959,42.63104],[18.54283,42.62643],[18.43353,42.9542],[18.48304,43.01464],[18.639,43.02024]]]}},{"type":"Feature","properties":{"id":"me-13","lat":42.56784,"lng":19.9103},"geometry":{"type":"Polygon","coordinates":[[[20.03701,42.70736],[20.10392,42.65311],[20.06496,42.54676],[19.8196,42.46648],[19.75159,42.4934],[19.74688,42.58893],[20.03701,42.70736]]]}},{"type":"Feature","properties":{"id":"me-14","lat":43.30269,"lng":19.25246},"geometry":{"type":"Polygon","coordinates":[[[19.19534,43.5328],[19.19224,43.45453],[19.37229,43.38423],[19.54784,43.21881],[19.45946,43.04965],[19.04802,43.2156],[19.02254,43.29655],[19.06967,43.30883],[18.90565,43.49063],[18.97748,43.54623],[19.19534,43.5328]]]}},{"type":"Feature","properties":{"id":"me-15","lat":43.18703,"lng":18.82933},"geometry":{"type":"Polygon","coordinates":[[[18.89914,43.3519],[18.98951,43.27202],[19.02518,43.11114],[18.93092,43.03011],[18.9781,42.9334],[18.85015,42.95516],[18.73739,43.09515],[18.62113,43.12458],[18.67951,43.24948],[18.89914,43.3519]]]}},{"type":"Feature","properties":{"id":"me-16","lat":42.42916,"lng":19.27146},"geometry":{"type":"Polygon","coordinates":[[[19.65804,42.63461],[19.28336,42.19805],[19.13597,42.26724],[19.14258,42.37088],[18.95598,42.50454],[19.19881,42.48743],[19.30097,42.67688],[19.44685,42.67515],[19.53507,42.73907],[19.65804,42.63461]]]}},{"type":"Feature","properties":{"id":"me-17","lat":42.8672,"lng":20.21163},"geometry":{"type":"Polygon","coordinates":[[[20.34535,42.82744],[20.21761,42.80274],[20.1834,42.74251],[20.04759,42.7899],[20.12946,42.9736],[20.33708,42.90697],[20.34535,42.82744]]]}},{"type":"Feature","properties":{"id":"me-18","lat":42.9823,"lng":19.12932},"geometry":{"type":"Polygon","coordinates":[[[19.02471,43.09422],[19.21147,43.04776],[19.37229,42.93449],[19.2278,42.91051],[19.20857,42.85894],[18.9781,42.9334],[18.93092,43.03011],[19.02471,43.09422]]]}},{"type":"Feature","properties":{"id":"me-19","lat":42.40567,"lng":18.70989},"geometry":{"type":"Polygon","coordinates":[[[18.69361,42.35758],[18.64495,42.41836],[18.70045,42.39297],[18.68566,42.47675],[18.73465,42.42819],[18.69361,42.35758]]]}},{"type":"Feature","properties":{"id":"me-20","lat":41.91883,"lng":19.30894},"geometry":{"type":"Polygon","coordinates":[[[19.37,42.10651],[19.36508,41.85236],[19.13795,41.9853],[19.2418,42.01147],[19.21452,42.10162],[19.37,42.10651]]]}},{"type":"Feature","properties":{"id":"me-21","lat":43.1176,"lng":19.16425},"geometry":{"type":"Polygon","coordinates":[[[18.99401,43.1632],[19.02254,43.29655],[19.07199,43.19767],[19.18749,43.18884],[19.41115,43.04518],[19.33167,42.99012],[19.06621,43.072],[18.99401,43.1632]]]}}]}
