{"type":"FeatureCollection","features":[{"type":"Feature","properties":{"id":"mg-a","lat":-17.7073,"lng":48.74518},"geometry":{"type":"MultiPolygon","coordinates":[[[[49.50961,-17.72772],[49.35922,-18.42401],[49.07691,-19.06561],[48.61622,-20.41977],[48.40462,-20.3847],[48.37052,-20.31566],[48.17497,-20.22156],[48.08216,-20.43792],[47.9939,-20.40547],[47.77464,-20.44718],[47.68554,-20.36299],[47.67903,-20.27189],[47.94594,-19.39437],[47.90605,-19.09641],[48.03364,-18.35645],[47.97075,-17.97368],[47.90279,-17.90025],[47.99297,-17.68688],[48.0541,-17.65577],[48.11616,-17.48141],[48.08578,-17.41733],[48.20417,-17.16365],[47.94796,-16.73381],[47.93044,-16.33089],[47.98087,-16.25167],[48.2898,-16.24113],[48.62559,-16.46659],[48.6906,-16.7628],[48.83772,-16.67314],[48.98205,-16.66322],[49.03931,-16.4715],[49.12758,-16.42623],[49.21915,-16.24387],[49.19987,-16.17865],[49.00453,-16.1107],[49.10634,-15.90435],[49.05636,-15.74131],[49.12137,-15.46025],[49.03404,-15.44045],[49.01632,-15.36123],[49.36064,-15.24191],[49.37087,-15.1474],[49.45546,-15.13318],[49.46306,-14.96126],[49.5785,-14.94048],[49.71818,-15.07727],[49.9421,-15.04187],[50.03827,-15.17287],[49.98287,-15.22605],[50.04995,-15.44422],[50.01734,-15.59414],[50.13087,-15.91937],[49.97022,-15.71803],[49.90113,-15.4223],[49.69549,-15.46649],[49.63844,-15.54461],[49.73374,-15.90569],[49.68312,-16.05364],[49.84571,-16.21209],[49.86313,-16.44451],[49.72495,-16.754],[49.84034,-16.82757],[49.60841,-16.89658],[49.43133,-17.28387],[49.50961,-17.72772]]],[[[49.85727,-16.91969],[50.0241,-16.69036],[49.82618,-17.09442],[49.85727,-16.91969]]]]}},{"type":"Feature","properties":{"id":"mg-d","lat":-13.97845,"lng":49.17474},"geometry":{"type":"MultiPolygon","coordinates":[[[[49.65333,-12.69476],[49.6548,-12.80486],[49.74415,-12.74342],[49.94215,-13.03387],[49.94215,-13.2195],[49.9769,-13.34612],[50.03289,-13.36053],[50.14291,-13.78314],[50.16424,-14.22308],[50.2129,-14.28721],[50.20973,-14.75066],[50.4983,-15.25205],[50.48341,-15.44346],[50.34327,-15.79803],[50.23015,-15.97096],[50.16814,-15.98463],[50.01734,-15.59414],[50.04995,-15.44422],[49.98287,-15.22605],[50.03827,-15.17287],[49.93698,-15.03955],[49.69689,-15.06058],[49.47314,-14.79228],[49.36451,-14.56216],[49.39386,-14.49328],[49.11316,-14.20006],[48.97084,-14.14343],[48.82687,-14.24544],[48.52224,-14.07351],[48.37641,-14.12007],[48.18148,-14.01393],[48.24701,-13.86499],[47.99968,-14.05316],[47.94109,-14.00408],[48.0171,-13.95281],[47.91749,-13.89764],[47.87582,-13.78427],[47.9275,-13.70924],[47.90431,-13.6032],[47.98487,-13.50677],[48.01531,-13.58017],[48.03126,-13.51718],[48.08367,-13.52874],[48.19239,-13.76686],[48.27036,-13.80535],[48.34116,-13.75555],[48.33334,-13.54632],[48.39357,-13.58571],[48.42758,-13.52418],[48.53419,-13.52077],[48.48227,-13.36045],[48.60499,-13.44549],[48.80502,-13.35296],[48.82097,-13.1596],[48.95533,-12.8117],[48.8659,-12.64723],[48.88697,-12.56463],[48.72999,-12.43499],[48.85271,-12.41375],[48.94581,-12.47991],[48.98463,-12.33343],[49.15122,-12.25075],[49.20151,-12.14666],[49.09303,-12.09857],[49.16139,-12.05071],[49.2234,-12.10605],[49.18189,-12.04388],[49.26002,-11.94362],[49.37306,-12.19818],[49.26385,-12.14023],[49.22967,-12.2221],[49.34938,-12.29852],[49.38136,-12.22283],[49.45623,-12.37347],[49.5394,-12.37819],[49.49041,-12.407],[49.58644,-12.48203],[49.56544,-12.63983],[49.65333,-12.69476]]],[[[48.35328,-13.37737],[48.21599,-13.39463],[48.18873,-13.26426],[48.26922,-13.26832],[48.2693,-13.2011],[48.31837,-13.20029],[48.35328,-13.37737]]]]}},{"type":"Feature","properties":{"id":"mg-f","lat":-22.02767,"lng":46.67944},"geometry":{"type":"Polygon","coordinates":[[[47.90064,-22.48113],[47.73805,-23.25547],[47.61948,-23.59059],[47.57496,-23.59873],[47.62013,-23.6404],[47.49676,-24.01637],[47.42806,-24.12479],[47.12227,-23.98236],[47.1139,-24.06695],[47.01659,-24.07874],[47.04532,-24.19697],[46.93143,-24.28746],[46.86239,-24.11868],[46.75206,-24.09326],[46.70938,-23.98298],[46.52164,-23.91363],[46.41642,-23.81116],[46.5019,-23.62895],[46.41673,-23.43779],[46.4743,-23.35227],[46.47244,-23.19889],[46.37033,-23.1235],[46.20259,-22.8016],[45.99552,-22.68378],[45.85057,-22.67402],[45.41524,-22.8601],[45.34527,-23.12489],[45.03801,-22.99431],[45.04111,-22.67784],[45.25882,-22.34396],[45.31778,-22.14614],[45.23184,-21.90921],[45.41199,-21.82673],[45.44175,-21.6856],[45.5681,-21.59713],[45.55053,-21.42861],[45.59818,-21.33265],[45.75863,-21.2294],[45.78287,-20.82043],[45.84803,-20.70747],[45.7839,-19.88271],[46.0842,-19.95888],[46.16269,-20.08368],[46.23566,-20.01351],[46.27845,-20.03872],[46.27612,-20.17298],[46.38645,-20.24693],[46.7994,-20.2799],[46.97551,-20.1614],[47.18888,-20.14874],[47.2418,-20.05195],[47.52044,-20.07226],[47.66213,-20.00637],[47.71784,-20.07521],[47.68554,-20.36299],[47.78115,-20.45095],[47.9939,-20.40547],[48.08216,-20.43792],[48.16598,-20.22187],[48.34768,-20.29948],[48.40462,-20.3847],[48.61622,-20.41977],[48.3567,-21.35369],[47.90064,-22.48113]]]}},{"type":"Feature","properties":{"id":"mg-m","lat":-16.61579,"lng":46.18048},"geometry":{"type":"Polygon","coordinates":[[[44.2718,-19.14605],[44.25733,-18.80389],[44.04176,-18.39691],[44.00099,-17.93792],[44.03565,-17.76946],[43.924,-17.54648],[44.1517,-17.09442],[44.43068,-16.70037],[44.41179,-16.57301],[44.4629,-16.48545],[44.3982,-16.34043],[44.45281,-16.1867],[44.86834,-16.22088],[45.26637,-15.92392],[45.29786,-16.11199],[45.40626,-16.05486],[45.3794,-15.97381],[45.57008,-15.94305],[45.60475,-16.05185],[45.6609,-15.80381],[45.94858,-15.77418],[45.95875,-15.83994],[46.06609,-15.86191],[46.07097,-15.77858],[46.0158,-15.79225],[46.14422,-15.70371],[46.23553,-15.71746],[46.20737,-15.81951],[46.33107,-15.97723],[46.38559,-15.90211],[46.46876,-15.95672],[46.44435,-15.88104],[46.299,-15.81569],[46.35564,-15.73252],[46.30372,-15.71022],[46.33269,-15.63014],[46.94947,-15.19842],[47.07472,-15.32399],[46.95826,-15.54957],[46.99724,-15.49472],[47.23211,-15.43328],[47.05592,-15.19362],[47.37184,-14.89056],[47.36834,-14.84661],[47.3086,-14.87518],[47.2837,-14.84694],[47.44483,-14.67156],[47.5171,-14.81959],[47.42066,-14.96559],[47.42775,-15.1076],[47.56251,-14.98504],[47.79713,-14.56634],[47.92066,-14.70973],[47.9144,-14.6408],[47.9686,-14.62217],[48.00026,-14.7623],[48.01303,-14.63006],[47.94483,-14.57635],[47.85377,-14.5945],[47.80388,-14.54559],[47.74684,-14.59271],[47.70948,-14.36956],[47.79086,-14.22324],[47.94353,-14.23252],[47.9201,-14.08603],[48.01368,-14.14056],[47.99627,-14.32562],[48.04061,-14.01806],[48.24184,-13.86505],[48.19109,-14.02224],[48.38865,-14.12343],[48.52224,-14.07351],[48.82687,-14.24544],[48.94449,-14.1519],[49.039,-14.16554],[49.39386,-14.49328],[49.36451,-14.56216],[49.58595,-14.9411],[49.46306,-14.96126],[49.45546,-15.13318],[49.37087,-15.1474],[49.36064,-15.24191],[49.01632,-15.36123],[49.03404,-15.44045],[49.12137,-15.46025],[49.05636,-15.74131],[49.10634,-15.90435],[49.00453,-16.1107],[49.19987,-16.17865],[49.21915,-16.24387],[49.12758,-16.42623],[49.03931,-16.4715],[48.98577,-16.65857],[48.83772,-16.67314],[48.6906,-16.7628],[48.62559,-16.46659],[48.2898,-16.24113],[47.98087,-16.25167],[47.93044,-16.33089],[47.94796,-16.73381],[48.20417,-17.16365],[48.08578,-17.41733],[48.11616,-17.48141],[48.0541,-17.65577],[47.99297,-17.68688],[47.90279,-17.90025],[47.61061,-17.94733],[47.2697,-17.7493],[47.04548,-17.85198],[46.91019,-17.81468],[46.89107,-17.72248],[46.55109,-17.73406],[46.17592,-17.88191],[45.96999,-17.81064],[45.77026,-18.25945],[45.62396,-18.22752],[45.52526,-18.31439],[45.03723,-18.19041],[44.82153,-18.36451],[45.00638,-18.80805],[45.03522,-19.14658],[45.10736,-19.2427],[44.94147,-19.24172],[44.84112,-19.30812],[44.58878,-19.26632],[44.48109,-19.16948],[44.2718,-19.14605]]]}},{"type":"Feature","properties":{"id":"mg-t","lat":-19.01396,"lng":46.73983},"geometry":{"type":"Polygon","coordinates":[[[45.7839,-19.88271],[45.85858,-19.72918],[45.79977,-19.54584],[45.83589,-19.32006],[45.80116,-19.22596],[45.68045,-19.19831],[45.50526,-18.93151],[45.49886,-18.72666],[45.62226,-18.59401],[45.63172,-18.35614],[45.57477,-18.28772],[45.62396,-18.22752],[45.80814,-18.23206],[45.96999,-17.81064],[46.17592,-17.88191],[46.55109,-17.73406],[46.88301,-17.72212],[46.91019,-17.81468],[47.04548,-17.85198],[47.2697,-17.7493],[47.61061,-17.94733],[47.90279,-17.90025],[47.96641,-17.96407],[48.03364,-18.35645],[47.90605,-19.09641],[47.94594,-19.39437],[47.87442,-19.54289],[47.85923,-19.77218],[47.71784,-20.07521],[47.66213,-20.00637],[47.52044,-20.07226],[47.24893,-20.04973],[47.18888,-20.14874],[46.97551,-20.1614],[46.8703,-20.25907],[46.54411,-20.27049],[46.34418,-20.23194],[46.27612,-20.17298],[46.27845,-20.03872],[46.23566,-20.01351],[46.16269,-20.08368],[46.0842,-19.95888],[45.83155,-19.91796],[45.7839,-19.88271]]]}},{"type":"Feature","properties":{"id":"mg-u","lat":-21.88474,"lng":44.30779},"geometry":{"type":"Polygon","coordinates":[[[45.91407,-25.33733],[45.56121,-25.55999],[45.16261,-25.59857],[44.83473,-25.34401],[44.36948,-25.25677],[44.2964,-25.1535],[44.38404,-25.22088],[44.40496,-25.18817],[44.02882,-24.99896],[43.9183,-24.61907],[43.67286,-24.33489],[43.62477,-23.76189],[43.64161,-23.63893],[43.7483,-23.57008],[43.76124,-23.4638],[43.63103,-23.34482],[43.58318,-23.07586],[43.36118,-22.84319],[43.22291,-22.25482],[43.30177,-22.21885],[43.24684,-22.03509],[43.30209,-21.86444],[43.32928,-21.90504],[43.33619,-21.76881],[43.47267,-21.67205],[43.5075,-21.3095],[43.81276,-21.2243],[43.90154,-20.88291],[44.47389,-19.98626],[44.47185,-19.87949],[44.37086,-19.77402],[44.47975,-19.48398],[44.2718,-19.14605],[44.47365,-19.16669],[44.56537,-19.26084],[44.82944,-19.30843],[44.94147,-19.24172],[45.11407,-19.23619],[45.03522,-19.14658],[45.00638,-18.80805],[44.81642,-18.3826],[45.03723,-18.19041],[45.39044,-18.29764],[45.57477,-18.28772],[45.62753,-18.34467],[45.62226,-18.59401],[45.50041,-18.71999],[45.50227,-18.92608],[45.68696,-19.20586],[45.8083,-19.23206],[45.84054,-19.36915],[45.80039,-19.5539],[45.85858,-19.72918],[45.76732,-19.94664],[45.81605,-20.00043],[45.78483,-20.11453],[45.84803,-20.70747],[45.78287,-20.82043],[45.75863,-21.2294],[45.59818,-21.33265],[45.55053,-21.42861],[45.5681,-21.59713],[45.44175,-21.6856],[45.41199,-21.82673],[45.23184,-21.90921],[45.31778,-22.14614],[45.25882,-22.34396],[45.04111,-22.67784],[45.03243,-22.98516],[45.34527,-23.12489],[45.41524,-22.8601],[45.80209,-22.68347],[45.99552,-22.68378],[46.20259,-22.8016],[46.37033,-23.1235],[46.46794,-23.18437],[46.4743,-23.35227],[46.41673,-23.43779],[46.50252,-23.62114],[46.42588,-23.82392],[46.70938,-23.98298],[46.75206,-24.09326],[46.86239,-24.11868],[46.91329,-24.28761],[47.00698,-24.25687],[47.04812,-24.1871],[47.01659,-24.07874],[47.1139,-24.06695],[47.12227,-23.98236],[47.42806,-24.12479],[47.37078,-24.27012],[47.32472,-24.26963],[47.31227,-24.48594],[47.08725,-24.96836],[46.76979,-25.1535],[46.38657,-25.16481],[45.91407,-25.33733]]]}}]}
