{"type":"FeatureCollection","features":[{"type":"Feature","properties":{"id":"mh-l","lat":7.32803,"lng":168.69799},"geometry":{"type":"MultiPolygon","coordinates":[[[[168.10109,5.59931],[168.12566,5.6057],[168.12452,5.63105],[168.10109,5.59931]]],[[[167.40772,8.30728],[167.39967,8.31078],[167.4017,8.31782],[167.40772,8.30728]]],[[[167.73032,8.73526],[167.74,8.73322],[167.73162,8.7246],[167.73032,8.73526]]],[[[166.89422,11.15518],[166.83578,11.15925],[166.90414,11.17292],[166.89422,11.15518]]],[[[165.55372,11.61982],[165.54021,11.63377],[165.54689,11.63101],[165.55372,11.61982]]],[[[165.28891,11.70596],[165.28224,11.70844],[165.28679,11.71088],[165.28891,11.70596]]],[[[168.76808,4.62906],[168.74138,4.58584],[168.68539,4.5738],[168.73504,4.59052],[168.76808,4.62906]]],[[[169.11647,5.64924],[169.12062,5.64741],[169.11451,5.63813],[169.11647,5.64924]]],[[[169.59034,5.80093],[169.65553,5.94286],[169.73455,6.01313],[169.61524,5.79877],[169.59034,5.80093]]],[[[168.83009,7.30793],[168.67506,7.32087],[168.67921,7.33519],[168.83009,7.30793]]],[[[168.55519,7.43032],[168.57252,7.41779],[168.57683,7.40412],[168.55519,7.43032]]],[[[168.96811,7.5845],[168.93849,7.59638],[168.9686,7.57123],[168.96811,7.5845]]]]}},{"type":"Feature","properties":{"id":"mh-t","lat":7.01069,"lng":171.65287},"geometry":{"type":"MultiPolygon","coordinates":[[[[172.00831,6.05622],[171.94842,6.06778],[172.0298,6.05415],[172.00831,6.05622]]],[[[171.73243,6.09211],[171.72283,6.08344],[171.72462,6.10171],[171.73243,6.09211]]],[[[171.75668,6.97211],[171.61394,7.00609],[171.59262,7.01529],[171.57732,7.04719],[171.68946,7.01992],[171.75668,6.97211]]],[[[171.79591,7.06021],[171.78598,7.03824],[171.76417,7.01952],[171.79591,7.06021]]],[[[171.8921,7.09081],[171.92888,7.11831],[171.92384,7.1044],[171.8921,7.09081]]],[[[171.26319,7.06769],[171.20216,7.07245],[171.06088,7.1354],[171.03565,7.1551],[171.22641,7.07575],[171.39356,7.10993],[171.26319,7.06769]]],[[[170.84474,8.8865],[170.84132,8.89859],[170.85011,8.90143],[170.84474,8.8865]]],[[[170.24391,9.46638],[170.24024,9.44977],[170.23878,9.4667],[170.24391,9.46638]]],[[[170.87875,10.27509],[170.87452,10.28661],[170.87859,10.28718],[170.87875,10.27509]]],[[[168.99692,14.59309],[168.9983,14.59903],[169.01368,14.6105],[168.99692,14.59309]]]]}}]}
