{"type":"FeatureCollection","features":[{"type":"Feature","properties":{"id":"mk-01","lat":41.95209,"lng":21.50257},"geometry":{"type":"Polygon","coordinates":[[[21.53608,41.91868],[21.4656,41.9763],[21.55427,41.92788],[21.53608,41.91868]]]}},{"type":"Feature","properties":{"id":"mk-02","lat":42.02582,"lng":21.57531},"geometry":{"type":"Polygon","coordinates":[[[21.54001,41.98736],[21.54094,42.07025],[21.63241,42.05136],[21.58796,42.00028],[21.54001,41.98736]]]}},{"type":"Feature","properties":{"id":"mk-03","lat":41.62564,"lng":22.81453},"geometry":{"type":"Polygon","coordinates":[[[22.98543,41.6772],[22.9436,41.5232],[22.85331,41.51705],[22.67627,41.57408],[22.62087,41.72738],[22.67441,41.80716],[22.98543,41.6772]]]}},{"type":"Feature","properties":{"id":"mk-04","lat":40.99442,"lng":21.30364},"geometry":{"type":"Polygon","coordinates":[[[21.50573,40.9009],[21.24582,40.86323],[21.24525,40.9421],[21.07378,41.04675],[21.09662,41.12571],[21.31398,41.21025],[21.50573,40.9009]]]}},{"type":"Feature","properties":{"id":"mk-05","lat":41.19499,"lng":22.57624},"geometry":{"type":"Polygon","coordinates":[[[22.65718,41.17699],[22.58663,41.12409],[22.5046,41.21299],[22.5477,41.25301],[22.65718,41.17699]]]}},{"type":"Feature","properties":{"id":"mk-06","lat":41.95787,"lng":20.86395},"geometry":{"type":"Polygon","coordinates":[[[20.75105,41.91022],[20.84744,41.98762],[20.98759,41.92811],[20.95545,41.87328],[20.75105,41.91022]]]}},{"type":"Feature","properties":{"id":"mk-07","lat":41.46881,"lng":22.76438},"geometry":{"type":"Polygon","coordinates":[[[22.85807,41.51705],[22.78624,41.39727],[22.68598,41.42057],[22.72805,41.56943],[22.85807,41.51705]]]}},{"type":"Feature","properties":{"id":"mk-08","lat":41.90454,"lng":20.99983},"geometry":{"type":"Polygon","coordinates":[[[21.02004,41.95269],[21.07079,41.85657],[21.17838,41.85458],[21.18375,41.83905],[21.07906,41.7773],[20.95007,41.85122],[20.95792,41.9525],[21.02004,41.95269]]]}},{"type":"Feature","properties":{"id":"mk-09","lat":42.06277,"lng":21.44201},"geometry":{"type":"Polygon","coordinates":[[[21.38167,42.02183],[21.44213,42.10371],[21.48626,42.14182],[21.46063,41.99857],[21.39924,42.00266],[21.38167,42.02183]]]}},{"type":"Feature","properties":{"id":"mk-10","lat":41.36471,"lng":22.46399},"geometry":{"type":"Polygon","coordinates":[[[22.76229,41.3225],[22.50222,41.21299],[22.46822,41.31345],[22.32518,41.41207],[22.44073,41.44719],[22.53199,41.39964],[22.53623,41.32978],[22.76229,41.3225]]]}},{"type":"Feature","properties":{"id":"mk-11","lat":41.54941,"lng":22.6604},"geometry":{"type":"Polygon","coordinates":[[[22.70025,41.48377],[22.50749,41.4676],[22.49964,41.5294],[22.6,41.52703],[22.59659,41.62922],[22.72805,41.56943],[22.70025,41.48377]]]}},{"type":"Feature","properties":{"id":"mk-12","lat":41.23001,"lng":20.58782},"geometry":{"type":"Polygon","coordinates":[[[20.59489,41.22125],[20.49544,41.25026],[20.62663,41.23876],[20.59489,41.22125]]]}},{"type":"Feature","properties":{"id":"mk-13","lat":41.75861,"lng":21.72854},"geometry":{"type":"Polygon","coordinates":[[[21.59716,41.70392],[21.62248,41.81869],[21.72119,41.80525],[21.7369,41.88664],[21.80325,41.9116],[21.86144,41.71198],[21.80594,41.62273],[21.74082,41.60707],[21.59716,41.70392]]]}},{"type":"Feature","properties":{"id":"mk-14","lat":41.83432,"lng":22.56952},"geometry":{"type":"Polygon","coordinates":[[[22.44621,41.77016],[22.45427,41.95147],[22.59689,41.98568],[22.60857,41.92747],[22.71317,41.89848],[22.65374,41.73399],[22.44621,41.77016]]]}},{"type":"Feature","properties":{"id":"mk-15","lat":41.4989,"lng":21.05046},"geometry":{"type":"Polygon","coordinates":[[[21.10221,41.58046],[21.1483,41.52832],[21.04267,41.46948],[21.07079,41.41933],[21.00464,41.41199],[20.96578,41.46548],[21.10221,41.58046]]]}},{"type":"Feature","properties":{"id":"mk-16","lat":41.88896,"lng":20.79874},"geometry":{"type":"Polygon","coordinates":[[[20.7144,41.85916],[20.77499,41.91876],[20.95586,41.84949],[20.84651,41.80443],[20.7144,41.85916]]]}},{"type":"Feature","properties":{"id":"mk-17","lat":42.04937,"lng":21.50502},"geometry":{"type":"Polygon","coordinates":[[[21.44585,41.99708],[21.51097,42.10167],[21.5829,41.91966],[21.57205,41.91013],[21.44585,41.99708]]]}},{"type":"Feature","properties":{"id":"mk-18","lat":41.24281,"lng":22.37505},"geometry":{"type":"Polygon","coordinates":[[[22.58663,41.12409],[22.30875,41.12498],[22.20819,41.17216],[22.35939,41.37639],[22.46822,41.31345],[22.51752,41.15072],[22.58663,41.12409]]]}},{"type":"Feature","properties":{"id":"mk-19","lat":41.7506,"lng":20.93772},"geometry":{"type":"Polygon","coordinates":[[[20.55014,41.80006],[20.54172,41.86158],[20.64342,41.87365],[20.84651,41.80443],[21.02769,41.83652],[21.07906,41.7773],[21.02996,41.7282],[21.05291,41.64759],[20.985,41.62449],[20.79432,41.77301],[20.55014,41.80006]]]}},{"type":"Feature","properties":{"id":"mk-20","lat":41.60843,"lng":21.88168},"geometry":{"type":"Polygon","coordinates":[[[22.02535,41.54648],[21.81606,41.48786],[21.77658,41.61749],[21.88293,41.719],[21.89999,41.65203],[22.01078,41.65348],[21.97864,41.59937],[22.03073,41.59651],[22.02535,41.54648]]]}},{"type":"Feature","properties":{"id":"mk-21","lat":41.50177,"lng":20.64061},"geometry":{"type":"Polygon","coordinates":[[[20.4816,41.46827],[20.44416,41.54966],[20.53467,41.58732],[20.7289,41.47879],[20.67836,41.42548],[20.56787,41.52475],[20.4816,41.46827]]]}},{"type":"Feature","properties":{"id":"mk-22","lat":41.23456,"lng":20.9771},"geometry":{"type":"Polygon","coordinates":[[[20.66409,41.05915],[20.76021,41.27425],[20.68735,41.42261],[20.88857,41.42202],[21.03151,41.22495],[20.8278,41.24417],[20.66409,41.05915]]]}},{"type":"Feature","properties":{"id":"mk-23","lat":41.97347,"lng":22.73304},"geometry":{"type":"Polygon","coordinates":[[[22.62718,42.07913],[22.83822,42.01948],[22.88209,41.87162],[22.77487,41.78866],[22.67699,41.802],[22.71317,41.89848],[22.60857,41.92747],[22.62718,42.07913]]]}},{"type":"Feature","properties":{"id":"mk-24","lat":41.41201,"lng":22.24962},"geometry":{"type":"Polygon","coordinates":[[[22.1872,41.47297],[22.3319,41.47522],[22.3474,41.3266],[22.20601,41.27683],[22.08313,41.34923],[22.13429,41.35104],[22.1872,41.47297]]]}},{"type":"Feature","properties":{"id":"mk-25","lat":41.27906,"lng":21.11679},"geometry":{"type":"Polygon","coordinates":[[[21.13487,41.38665],[21.29331,41.23573],[21.09704,41.12584],[20.95431,41.32239],[21.13487,41.38665]]]}},{"type":"Feature","properties":{"id":"mk-26","lat":41.19057,"lng":22.67668},"geometry":{"type":"Polygon","coordinates":[[[22.742,41.28703],[22.7049,41.13966],[22.56641,41.24149],[22.66221,41.29415],[22.742,41.28703]]]}},{"type":"Feature","properties":{"id":"mk-27","lat":41.46268,"lng":21.42504},"geometry":{"type":"Polygon","coordinates":[[[21.32824,41.49021],[21.38281,41.59291],[21.60264,41.44352],[21.3548,41.35505],[21.26261,41.40959],[21.30147,41.43073],[21.26013,41.48183],[21.32824,41.49021]]]}},{"type":"Feature","properties":{"id":"mk-28","lat":41.46986,"lng":20.85077},"geometry":{"type":"Polygon","coordinates":[[[20.80951,41.61467],[21.00464,41.41199],[21.08887,41.43272],[21.1391,41.38489],[20.95555,41.32422],[20.88857,41.42202],[20.68735,41.42261],[20.80393,41.507],[20.80951,41.61467]]]}},{"type":"Feature","properties":{"id":"mk-29","lat":42.01829,"lng":21.32839},"geometry":{"type":"Polygon","coordinates":[[[21.25052,42.05175],[21.34198,42.07154],[21.35862,41.98483],[21.25052,42.05175]]]}},{"type":"Feature","properties":{"id":"mk-30","lat":41.91333,"lng":21.12907},"geometry":{"type":"Polygon","coordinates":[[[21.07079,41.85657],[21.02531,42.00632],[21.18737,41.9701],[21.23377,41.81719],[21.07079,41.85657]]]}},{"type":"Feature","properties":{"id":"mk-31","lat":41.59049,"lng":20.89984},"geometry":{"type":"Polygon","coordinates":[[[20.985,41.62449],[20.97384,41.55705],[20.89695,41.52129],[20.78326,41.62392],[20.90832,41.66536],[20.985,41.62449]]]}},{"type":"Feature","properties":{"id":"mk-32","lat":41.78714,"lng":21.54846},"geometry":{"type":"Polygon","coordinates":[[[21.48885,41.74027],[21.47314,41.82437],[21.6323,41.88796],[21.61112,41.74991],[21.48885,41.74027]]]}},{"type":"Feature","properties":{"id":"mk-33","lat":41.81803,"lng":22.42209},"geometry":{"type":"Polygon","coordinates":[[[22.44662,41.78931],[22.3565,41.84675],[22.43546,41.86949],[22.44662,41.78931]]]}},{"type":"Feature","properties":{"id":"mk-34","lat":41.96085,"lng":21.61737},"geometry":{"type":"Polygon","coordinates":[[[21.5829,41.91966],[21.54001,41.98736],[21.63354,42.04002],[21.68563,42.01356],[21.67406,41.93434],[21.5829,41.91966]]]}},{"type":"Feature","properties":{"id":"mk-35","lat":42.09089,"lng":21.15071},"geometry":{"type":"Polygon","coordinates":[[[21.09848,42.19595],[21.2293,42.10382],[21.14964,42.07795],[21.179,42.00563],[21.11192,41.98131],[21.02872,42.01625],[21.1298,42.0735],[21.04094,42.15997],[21.09848,42.19595]]]}},{"type":"Feature","properties":{"id":"mk-36","lat":41.32657,"lng":21.96998},"geometry":{"type":"Polygon","coordinates":[[[22.21364,41.16068],[21.92554,41.10675],[21.77204,41.44266],[21.94887,41.44111],[22.039,41.5016],[22.06928,41.35655],[22.18793,41.27854],[22.28746,41.2966],[22.21364,41.16068]]]}},{"type":"Feature","properties":{"id":"mk-37","lat":41.77974,"lng":22.30019},"geometry":{"type":"Polygon","coordinates":[[[22.16116,41.86571],[22.44662,41.78931],[22.44621,41.77016],[22.40104,41.71273],[22.2981,41.70862],[22.13253,41.79032],[22.16116,41.86571]]]}},{"type":"Feature","properties":{"id":"mk-38","lat":41.97414,"lng":21.39455},"geometry":{"type":"Polygon","coordinates":[[[21.36172,41.9454],[21.35924,42.02906],[21.42797,42.00289],[21.42849,41.9454],[21.36172,41.9454]]]}},{"type":"Feature","properties":{"id":"mk-39","lat":41.94524,"lng":21.47086},"geometry":{"type":"Polygon","coordinates":[[[21.50177,41.89039],[21.43448,41.97181],[21.53608,41.91868],[21.50177,41.89039]]]}},{"type":"Feature","properties":{"id":"mk-40","lat":41.49345,"lng":20.96273},"geometry":{"type":"Polygon","coordinates":[[[20.89695,41.51762],[21.00526,41.52163],[20.97549,41.46928],[20.89695,41.51762]]]}},{"type":"Feature","properties":{"id":"mk-41","lat":41.50801,"lng":22.38053},"geometry":{"type":"Polygon","coordinates":[[[22.33138,41.42295],[22.26007,41.54938],[22.32342,41.59875],[22.42771,41.57408],[22.50894,41.46664],[22.33138,41.42295]]]}},{"type":"Feature","properties":{"id":"mk-42","lat":42.01919,"lng":22.4006},"geometry":{"type":"Polygon","coordinates":[[[22.25635,41.94824],[22.38295,42.10182],[22.45499,42.08549],[22.51773,41.95289],[22.36373,41.84675],[22.25635,41.94824]]]}},{"type":"Feature","properties":{"id":"mk-43","lat":42.0741,"lng":22.13064},"geometry":{"type":"Polygon","coordinates":[[[22.33676,42.02612],[22.24911,42.05134],[22.05894,41.9901],[21.92179,42.05891],[22.01729,42.16414],[22.14173,42.08929],[22.31774,42.10859],[22.33676,42.02612]]]}},{"type":"Feature","properties":{"id":"mk-44","lat":42.2079,"lng":22.31638},"geometry":{"type":"Polygon","coordinates":[[[22.13811,42.31912],[22.27691,42.34124],[22.50694,42.14893],[22.41696,42.09958],[22.2026,42.11655],[22.19232,42.26688],[22.13811,42.31912]]]}},{"type":"Feature","properties":{"id":"mk-45","lat":41.35135,"lng":21.35595},"geometry":{"type":"Polygon","coordinates":[[[21.33465,41.38747],[21.42777,41.31523],[21.38498,41.2479],[21.32183,41.2705],[21.33465,41.38747]]]}},{"type":"Feature","properties":{"id":"mk-46","lat":41.35657,"lng":21.24229},"geometry":{"type":"Polygon","coordinates":[[[21.25568,41.47256],[21.33217,41.31226],[21.31398,41.21025],[21.13104,41.40088],[21.25568,41.47256]]]}},{"type":"Feature","properties":{"id":"mk-47","lat":42.08296,"lng":21.77224},"geometry":{"type":"Polygon","coordinates":[[[21.67689,42.23495],[21.78206,42.23205],[21.78516,42.10441],[21.93461,42.12239],[21.92272,42.05211],[21.98391,41.99087],[21.86733,41.9972],[21.81286,41.94194],[21.69214,41.97891],[21.59882,42.06152],[21.68615,42.16725],[21.67689,42.23495]]]}},{"type":"Feature","properties":{"id":"mk-48","lat":42.18487,"lng":21.56936},"geometry":{"type":"Polygon","coordinates":[[[21.48151,42.24778],[21.67689,42.23495],[21.59665,42.03767],[21.48275,42.13479],[21.48151,42.24778]]]}},{"type":"Feature","properties":{"id":"mk-49","lat":41.78746,"lng":21.88074},"geometry":{"type":"Polygon","coordinates":[[[21.84893,41.83494],[22.01399,41.73291],[21.9405,41.70515],[21.94774,41.65118],[21.82258,41.73998],[21.84893,41.83494]]]}},{"type":"Feature","properties":{"id":"mk-50","lat":41.64423,"lng":20.68084},"geometry":{"type":"Polygon","coordinates":[[[20.53467,41.58732],[20.50038,41.7341],[20.55014,41.80006],[20.79432,41.77301],[20.89736,41.66454],[20.78326,41.62392],[20.81757,41.53938],[20.75618,41.47349],[20.53467,41.58732]]]}},{"type":"Feature","properties":{"id":"mk-51","lat":42.00959,"lng":22.53395},"geometry":{"type":"Polygon","coordinates":[[[22.50694,42.14893],[22.62718,42.07913],[22.53891,41.94005],[22.41696,42.09691],[22.50694,42.14893]]]}},{"type":"Feature","properties":{"id":"mk-52","lat":41.59539,"lng":21.24107},"geometry":{"type":"Polygon","coordinates":[[[21.17972,41.83987],[21.39666,41.65645],[21.32824,41.49021],[21.19522,41.4291],[21.07616,41.46675],[21.14768,41.53434],[21.02996,41.7282],[21.17972,41.83987]]]}},{"type":"Feature","properties":{"id":"mk-53","lat":41.16536,"lng":21.42329},"geometry":{"type":"Polygon","coordinates":[[[21.33713,41.26311],[21.44027,41.19136],[21.59468,41.13935],[21.36906,41.08225],[21.30312,41.2194],[21.33713,41.26311]]]}},{"type":"Feature","properties":{"id":"mk-54","lat":41.49951,"lng":22.14803},"geometry":{"type":"Polygon","coordinates":[[[21.98381,41.50305],[22.01078,41.65348],[22.30007,41.4893],[22.1872,41.47297],[22.13429,41.35104],[22.08478,41.34931],[22.04416,41.49597],[21.98381,41.50305]]]}},{"type":"Feature","properties":{"id":"mk-55","lat":41.03089,"lng":21.65059},"geometry":{"type":"Polygon","coordinates":[[[21.75709,40.92251],[21.55365,40.87043],[21.44131,40.99708],[21.43221,41.08871],[21.54104,41.09294],[21.61515,41.16105],[21.89633,41.0647],[21.75709,40.92251]]]}},{"type":"Feature","properties":{"id":"mk-56","lat":41.42888,"lng":22.87809},"geometry":{"type":"Polygon","coordinates":[[[22.91698,41.33577],[22.79389,41.34071],[22.85807,41.51705],[22.9436,41.5232],[22.91698,41.33577]]]}},{"type":"Feature","properties":{"id":"mk-57","lat":41.542,"lng":21.02637},"geometry":{"type":"Polygon","coordinates":[[[21.05291,41.64759],[21.10148,41.57976],[21.00526,41.50424],[20.98583,41.6286],[21.05291,41.64759]]]}},{"type":"Feature","properties":{"id":"mk-58","lat":41.09052,"lng":20.79279},"geometry":{"type":"Polygon","coordinates":[[[20.7661,40.89373],[20.66409,41.05915],[20.8278,41.24417],[21.03151,41.22495],[20.90449,41.12188],[20.83654,40.9239],[20.7661,40.89373]]]}},{"type":"Feature","properties":{"id":"mk-60","lat":41.76422,"lng":22.87719},"geometry":{"type":"Polygon","coordinates":[[[22.88209,41.87162],[23.00886,41.73993],[22.98543,41.6772],[22.78252,41.73497],[22.75761,41.78851],[22.88209,41.87162]]]}},{"type":"Feature","properties":{"id":"mk-61","lat":41.45177,"lng":21.1086},"geometry":{"type":"Polygon","coordinates":[[[21.14437,41.48057],[21.19522,41.4291],[21.04609,41.43406],[21.04267,41.46948],[21.14437,41.48057]]]}},{"type":"Feature","properties":{"id":"mk-62","lat":41.27583,"lng":21.62589},"geometry":{"type":"Polygon","coordinates":[[[21.88345,41.26456],[21.89633,41.0647],[21.44027,41.19136],[21.36441,41.23952],[21.42777,41.30637],[21.39438,41.34029],[21.7278,41.47251],[21.81658,41.42933],[21.82247,41.28709],[21.88345,41.26456]]]}},{"type":"Feature","properties":{"id":"mk-63","lat":41.90809,"lng":22.16506},"geometry":{"type":"Polygon","coordinates":[[[22.32849,42.03604],[22.18431,41.84422],[22.0113,41.97196],[22.32849,42.03604]]]}},{"type":"Feature","properties":{"id":"mk-64","lat":41.63516,"lng":22.4572},"geometry":{"type":"Polygon","coordinates":[[[22.29459,41.66629],[22.44693,41.77037],[22.62087,41.72712],[22.6,41.52703],[22.45644,41.51514],[22.42771,41.57408],[22.31164,41.60402],[22.29459,41.66629]]]}},{"type":"Feature","properties":{"id":"mk-65","lat":42.2152,"lng":22.11469},"geometry":{"type":"Polygon","coordinates":[[[22.06091,42.30109],[22.13811,42.31912],[22.19232,42.26688],[22.1903,42.09883],[22.0237,42.16352],[22.06091,42.30109]]]}},{"type":"Feature","properties":{"id":"mk-66","lat":41.00202,"lng":20.99163},"geometry":{"type":"Polygon","coordinates":[[[20.96526,40.84939],[20.83338,40.95729],[20.90449,41.12188],[21.04061,41.21363],[21.10799,41.10369],[21.07378,41.04675],[21.25982,40.90019],[20.96526,40.84939]]]}},{"type":"Feature","properties":{"id":"mk-67","lat":41.49444,"lng":21.8992},"geometry":{"type":"Polygon","coordinates":[[[21.80976,41.45654],[21.85141,41.53235],[21.98339,41.5525],[21.95394,41.44266],[21.80976,41.45654]]]}},{"type":"Feature","properties":{"id":"mk-68","lat":42.02007,"lng":21.23168},"geometry":{"type":"Polygon","coordinates":[[[21.2293,42.10382],[21.35986,41.94842],[21.21713,41.87768],[21.13828,41.98881],[21.18913,42.05134],[21.14964,42.07795],[21.2293,42.10382]]]}},{"type":"Feature","properties":{"id":"mk-69","lat":41.84241,"lng":21.97334},"geometry":{"type":"Polygon","coordinates":[[[22.01399,41.73291],[21.814,41.86763],[21.86733,41.9972],[22.02453,42.00087],[22.09408,41.90336],[22.09574,41.81719],[22.01399,41.73291]]]}},{"type":"Feature","properties":{"id":"mk-70","lat":41.79169,"lng":21.32998},"geometry":{"type":"Polygon","coordinates":[[[21.34643,41.728],[21.2223,41.88739],[21.44337,41.94292],[21.43996,41.88832],[21.33661,41.88509],[21.37981,41.85538],[21.34643,41.728]]]}},{"type":"Feature","properties":{"id":"mk-71","lat":42.20036,"lng":21.91479},"geometry":{"type":"Polygon","coordinates":[[[21.92903,42.33512],[22.04541,42.30242],[22.04716,42.16867],[21.95962,42.09883],[21.78516,42.10441],[21.78206,42.23205],[21.71952,42.26096],[21.92903,42.33512]]]}},{"type":"Feature","properties":{"id":"mk-72","lat":41.30571,"lng":20.62184},"geometry":{"type":"Polygon","coordinates":[[[20.49544,41.25026],[20.53905,41.40294],[20.68135,41.42801],[20.72879,41.36117],[20.74119,41.17092],[20.65386,41.07527],[20.57697,41.09351],[20.51268,41.21015],[20.62663,41.23876],[20.49544,41.25026]]]}},{"type":"Feature","properties":{"id":"mk-73","lat":41.42365,"lng":22.60385},"geometry":{"type":"Polygon","coordinates":[[[22.79682,41.33704],[22.53623,41.32978],[22.53199,41.39964],[22.446,41.44765],[22.67431,41.47287],[22.79682,41.33704]]]}},{"type":"Feature","properties":{"id":"mk-74","lat":41.78446,"lng":21.42181},"geometry":{"type":"Polygon","coordinates":[[[21.35377,41.72614],[21.37981,41.85538],[21.33661,41.88509],[21.56016,41.92669],[21.58641,41.89489],[21.47314,41.82437],[21.48306,41.74456],[21.39418,41.66053],[21.35377,41.72614]]]}},{"type":"Feature","properties":{"id":"mk-75","lat":42.09509,"lng":21.0182},"geometry":{"type":"Polygon","coordinates":[[[20.90417,42.11667],[21.04094,42.15997],[21.1298,42.0735],[21.01932,42.01568],[20.90417,42.11667]]]}},{"type":"Feature","properties":{"id":"mk-76","lat":42.03482,"lng":20.88189},"geometry":{"type":"Polygon","coordinates":[[[20.78491,42.08203],[20.92837,42.10996],[21.04743,41.96488],[20.84744,41.98762],[20.75144,41.94034],[20.78491,42.08203]]]}},{"type":"Feature","properties":{"id":"mk-77","lat":41.97558,"lng":21.42981},"geometry":{"type":"Polygon","coordinates":[[[21.40978,41.96837],[21.43831,41.98279],[21.42777,41.95506],[21.40978,41.96837]]]}},{"type":"Feature","properties":{"id":"mk-78","lat":41.44688,"lng":20.57748},"geometry":{"type":"Polygon","coordinates":[[[20.53905,41.40294],[20.4816,41.46827],[20.56787,41.52475],[20.67836,41.42548],[20.53905,41.40294]]]}},{"type":"Feature","properties":{"id":"mk-79","lat":41.99191,"lng":21.44092},"geometry":{"type":"Polygon","coordinates":[[[21.42725,41.98674],[21.44585,41.99708],[21.4443,41.98276],[21.42725,41.98674]]]}},{"type":"Feature","properties":{"id":"mk-80","lat":41.52473,"lng":21.63745},"geometry":{"type":"Polygon","coordinates":[[[21.37433,41.59291],[21.4443,41.73156],[21.57091,41.74035],[21.77338,41.60191],[21.80976,41.45654],[21.63788,41.42631],[21.37433,41.59291]]]}},{"type":"Feature","properties":{"id":"mk-81","lat":41.83622,"lng":22.32752},"geometry":{"type":"Polygon","coordinates":[[[22.2517,41.95036],[22.33004,41.91739],[22.38781,41.78861],[22.18937,41.88383],[22.2517,41.95036]]]}},{"type":"Feature","properties":{"id":"mk-82","lat":42.09109,"lng":21.39966},"geometry":{"type":"Polygon","coordinates":[[[21.46756,42.23512],[21.51293,42.15448],[21.43717,42.0332],[21.35924,42.02906],[21.29496,42.14898],[21.46756,42.23512]]]}},{"type":"Feature","properties":{"id":"mk-83","lat":41.70258,"lng":22.17646},"geometry":{"type":"Polygon","coordinates":[[[22.26028,41.54359],[21.93678,41.69244],[22.04613,41.72136],[22.09863,41.86755],[22.14659,41.86098],[22.141,41.78063],[22.40104,41.71273],[22.29459,41.66629],[22.32342,41.59875],[22.26028,41.54359]]]}},{"type":"Feature","properties":{"id":"mk-84","lat":42.02681,"lng":21.40619},"geometry":{"type":"Polygon","coordinates":[[[21.40462,42.0525],[21.41464,42.00803],[21.38932,42.0456],[21.40462,42.0525]]]}},{"type":"Feature","properties":{"id":"mk-85","lat":41.89642,"lng":21.69274},"geometry":{"type":"Polygon","coordinates":[[[21.57205,41.91013],[21.68667,41.98377],[21.81286,41.94194],[21.71591,41.80396],[21.62755,41.8175],[21.63716,41.88271],[21.57205,41.91013]]]}}]}
