{"type":"FeatureCollection","features":[{"type":"Feature","properties":{"id":"ml-1","lat":13.76694,"lng":-10.27194},"geometry":{"type":"Polygon","coordinates":[[[-11.82255,13.30671],[-12.09763,13.70441],[-11.96291,13.82947],[-12.02533,13.98525],[-11.99758,14.16616],[-12.11561,14.35512],[-12.22173,14.39124],[-12.23643,14.51945],[-12.16502,14.64187],[-12.26413,14.77494],[-12.13887,14.78453],[-12.07039,14.7344],[-11.82038,14.89997],[-11.84566,15.17907],[-11.72706,15.54117],[-11.61487,15.54117],[-11.52733,15.64256],[-11.40956,15.6022],[-10.91517,15.1029],[-10.72536,15.43306],[-10.32265,15.43709],[-10.06762,15.36475],[-9.42389,15.44053],[-9.45169,15.58833],[-9.35645,15.69785],[-9.34922,15.49564],[-9.14138,15.49558],[-8.84901,15.29294],[-8.74104,15.02596],[-8.49201,14.94196],[-8.46304,14.69794],[-8.15006,14.48795],[-8.16203,14.31995],[-8.47203,14.30094],[-8.57102,14.41295],[-8.65001,14.31396],[-8.80935,14.28822],[-8.75791,14.13741],[-8.81873,14.10617],[-8.84659,13.96871],[-8.70386,13.85037],[-8.59265,13.83952],[-8.54601,13.95171],[-8.45258,13.89042],[-8.5549,13.68338],[-8.44881,13.42347],[-8.56069,13.19671],[-8.63365,12.88464],[-8.59815,12.80689],[-8.89103,12.64995],[-9.00304,12.52296],[-9.02777,12.40475],[-9.26586,12.49521],[-9.39815,12.47325],[-9.30917,12.35775],[-9.33682,12.26985],[-9.62817,12.17016],[-9.72299,12.02542],[-10.26694,12.21781],[-10.51163,12.11807],[-10.55948,11.99519],[-10.71136,11.89039],[-10.80494,12.09596],[-10.95212,12.21946],[-11.05232,12.20251],[-11.19117,12.01441],[-11.31514,12.01333],[-11.50779,12.19161],[-11.44723,12.37454],[-11.38863,12.38447],[-11.37778,12.48022],[-11.4678,12.54353],[-11.38884,12.97055],[-11.4387,12.9589],[-11.45028,13.07509],[-11.53306,13.11181],[-11.61311,13.36081],[-11.74122,13.40781],[-11.82255,13.30671]]]}},{"type":"Feature","properties":{"id":"ml-2","lat":13.56766,"lng":-7.648},"geometry":{"type":"Polygon","coordinates":[[[-8.97384,12.18758],[-8.96475,12.34628],[-9.04502,12.44694],[-8.89103,12.64995],[-8.59815,12.80689],[-8.63365,12.88464],[-8.56069,13.19671],[-8.44881,13.42347],[-8.5549,13.68338],[-8.45764,13.82314],[-8.46477,13.92269],[-8.56606,13.94566],[-8.61802,13.83704],[-8.84659,13.96871],[-8.81873,14.10617],[-8.75791,14.13741],[-8.80935,14.28822],[-8.65001,14.31396],[-8.57102,14.41295],[-8.47203,14.30094],[-8.13206,14.33995],[-8.15006,14.48795],[-8.48503,14.73295],[-8.50702,14.96296],[-8.74104,15.02596],[-8.80406,15.24496],[-9.14138,15.49558],[-6.32015,15.49454],[-6.40503,15.16796],[-6.54502,14.94395],[-6.43604,14.78096],[-6.38203,14.53596],[-6.45906,14.44594],[-6.61703,14.46994],[-6.90006,13.99796],[-6.90006,13.74895],[-6.71703,13.45194],[-6.74307,13.38296],[-6.97104,13.30095],[-7.08101,13.01595],[-6.88603,12.90795],[-6.88102,12.76496],[-6.62502,12.80893],[-6.51197,12.76594],[-6.46903,12.68096],[-6.39004,12.69995],[-6.35405,12.59195],[-6.22706,12.50195],[-6.21104,12.40095],[-6.07004,12.30796],[-5.95103,12.29995],[-5.98201,12.12195],[-6.14502,12.09296],[-6.15306,12.01296],[-6.30206,12.07296],[-6.34705,12.02694],[-6.33403,11.90496],[-6.49802,11.64993],[-6.55303,11.74595],[-6.94701,11.86196],[-6.96802,11.97795],[-7.07902,12.01195],[-7.04998,12.17295],[-7.11607,12.43294],[-7.319,12.22695],[-7.47998,12.14794],[-7.57604,11.98095],[-8.07103,11.68595],[-8.20603,11.70495],[-8.43106,11.64195],[-8.53942,11.45631],[-8.65675,11.49643],[-8.72652,11.64947],[-8.84723,11.65795],[-8.79783,11.92511],[-8.81979,12.01265],[-8.92211,12.04536],[-8.9139,12.16985],[-8.97384,12.18758]],[[-7.97814,12.54292],[-7.93859,12.66156],[-8.02795,12.70111],[-8.06456,12.60444],[-7.97814,12.54292]]]}},{"type":"Feature","properties":{"id":"ml-3","lat":11.51615,"lng":-6.86617},"geometry":{"type":"Polygon","coordinates":[[[-4.46437,12.71725],[-4.49132,12.66279],[-4.38725,12.53397],[-4.45164,12.43531],[-4.40613,12.30747],[-4.48817,12.3207],[-4.58553,12.19724],[-4.57023,12.1389],[-4.76128,12.00661],[-5.08932,11.97927],[-5.27515,11.83742],[-5.41235,11.82853],[-5.28714,11.75892],[-5.3076,11.61764],[-5.23391,11.57599],[-5.21831,11.4222],[-5.33251,11.12157],[-5.50423,11.07268],[-5.43142,10.84469],[-5.48165,10.53533],[-5.52258,10.42549],[-5.59405,10.45394],[-5.87806,10.37606],[-5.90473,10.27529],[-5.96302,10.28273],[-6.01593,10.18987],[-6.24,10.25193],[-6.18057,10.42022],[-6.19029,10.49114],[-6.26129,10.51409],[-6.20445,10.62961],[-6.25597,10.72648],[-6.42702,10.68609],[-6.39922,10.59248],[-6.44598,10.55225],[-6.66918,10.65416],[-6.66892,10.36102],[-6.96125,10.34487],[-6.99711,10.25276],[-6.95939,10.1855],[-7.01577,10.14088],[-7.10636,10.20726],[-7.3634,10.25219],[-7.37234,10.34477],[-7.44442,10.3342],[-7.50148,10.45864],[-7.66441,10.43714],[-7.829,10.21165],[-7.9709,10.15507],[-7.99628,10.32826],[-8.11549,10.36025],[-8.13544,10.42732],[-8.22887,10.42342],[-8.29553,10.53745],[-8.32659,11.02385],[-8.50576,11.05279],[-8.55955,10.97161],[-8.69623,10.96274],[-8.49258,11.27779],[-8.37672,11.29466],[-8.42607,11.34047],[-8.37532,11.36765],[-8.53942,11.45631],[-8.43106,11.64195],[-8.20603,11.70495],[-8.07103,11.68595],[-7.57604,11.98095],[-7.47998,12.14794],[-7.319,12.22695],[-7.17103,12.41294],[-7.11607,12.43294],[-7.04998,12.17295],[-7.07902,12.01195],[-6.96802,11.97795],[-6.94701,11.86196],[-6.55303,11.74595],[-6.54303,11.66993],[-6.46903,11.65296],[-6.33403,11.90496],[-6.34705,12.02694],[-6.25202,12.07694],[-6.15306,12.01296],[-6.14502,12.09296],[-5.98201,12.12195],[-5.94501,12.21194],[-5.95103,12.29995],[-6.07004,12.30796],[-6.21104,12.40095],[-6.26101,12.55495],[-6.21104,12.60494],[-5.89602,12.65194],[-5.57903,12.81694],[-5.43403,12.60696],[-5.26903,12.79594],[-5.14498,12.74395],[-5.06501,12.57494],[-4.77603,12.62295],[-4.62901,12.75594],[-4.61201,12.70295],[-4.46437,12.71725]]]}},{"type":"Feature","properties":{"id":"ml-4","lat":14.08445,"lng":-6.02263},"geometry":{"type":"Polygon","coordinates":[[[-3.96547,13.48922],[-4.23878,13.24679],[-4.2348,13.1756],[-4.35107,13.11832],[-4.22131,12.92125],[-4.24397,12.72992],[-4.61201,12.70295],[-4.62901,12.75594],[-4.81303,12.61194],[-5.06501,12.57494],[-5.14498,12.74395],[-5.26903,12.79594],[-5.43403,12.60696],[-5.57903,12.81694],[-5.89602,12.65194],[-5.98105,12.67295],[-6.26101,12.55495],[-6.35405,12.59195],[-6.39004,12.69995],[-6.46903,12.68096],[-6.51197,12.76594],[-6.62502,12.80893],[-6.88102,12.76496],[-6.88603,12.90795],[-7.08101,13.01595],[-6.97104,13.30095],[-6.74307,13.38296],[-6.71703,13.45194],[-6.90006,13.74895],[-6.90006,13.99796],[-6.61703,14.46994],[-6.45906,14.44594],[-6.38203,14.53596],[-6.43604,14.78096],[-6.54502,14.94395],[-6.40503,15.16796],[-6.32015,15.49454],[-5.51173,15.49342],[-5.35706,15.55295],[-5.34303,15.49895],[-5.20203,15.48696],[-5.10002,15.19595],[-5.27202,14.97294],[-5.54601,14.93095],[-5.66404,14.53196],[-5.28303,14.29895],[-5.18702,14.17094],[-5.20805,13.98995],[-4.85399,13.96894],[-4.85502,13.58894],[-4.68302,13.63496],[-4.60302,13.57493],[-4.38701,13.64695],[-4.28304,13.83595],[-4.11401,13.93796],[-3.95802,13.59796],[-3.96547,13.48922]]]}},{"type":"Feature","properties":{"id":"ml-5","lat":14.51404,"lng":-3.65164},"geometry":{"type":"Polygon","coordinates":[[[-1.04314,14.81806],[-1.35027,14.71497],[-1.69692,14.49612],[-1.99706,14.47069],[-2.02341,14.19864],[-2.10434,14.15118],[-2.46168,14.28091],[-2.59738,14.22231],[-2.86729,14.00054],[-2.92806,13.79962],[-2.89525,13.65165],[-3.06751,13.60677],[-3.1251,13.67728],[-3.28695,13.69777],[-3.24863,13.29278],[-3.44854,13.26578],[-3.46159,13.16576],[-3.98404,13.39647],[-3.91797,13.45107],[-4.11401,13.93796],[-4.28304,13.83595],[-4.38701,13.64695],[-4.60302,13.57493],[-4.68302,13.63496],[-4.85502,13.58894],[-4.85399,13.96894],[-5.20805,13.98995],[-5.18702,14.17094],[-5.28303,14.29895],[-5.66404,14.53196],[-5.54601,14.93095],[-5.27202,14.97294],[-5.10002,15.19595],[-5.18402,15.47094],[-5.34303,15.49895],[-5.35706,15.55295],[-5.23004,15.67395],[-5.15105,15.60894],[-4.68803,15.58096],[-4.23901,15.71894],[-4.13506,15.80994],[-3.98303,15.82495],[-3.86901,15.67196],[-3.84503,15.49394],[-3.64202,15.49094],[-3.49001,15.59995],[-3.48206,15.73294],[-3.33002,15.77095],[-3.20202,15.89495],[-3.15603,15.83294],[-2.92403,15.85394],[-2.77202,15.71695],[-2.53204,15.32196],[-1.98902,15.42795],[-1.68604,15.43094],[-1.38601,15.32196],[-1.21403,15.17895],[-0.77127,15.05662],[-1.04314,14.81806]]]}},{"type":"Feature","properties":{"id":"ml-6","lat":20.09867,"lng":-3.85722},"geometry":{"type":"Polygon","coordinates":[[[-4.82161,24.99507],[0.00374,21.8489],[-0.22192,21.15297],[-1.32077,20.28181],[-2.04338,19.91553],[-0.88516,18.95528],[-0.93467,17.88614],[-1.70692,17.51451],[-1.6085,17.03565],[-0.68303,16.93295],[-0.69401,16.04695],[-0.50034,15.07972],[-0.77127,15.05662],[-1.21403,15.17895],[-1.38601,15.32196],[-1.68604,15.43094],[-1.98902,15.42795],[-2.53204,15.32196],[-2.77202,15.71695],[-2.92403,15.85394],[-3.15603,15.83294],[-3.20202,15.89495],[-3.33002,15.77095],[-3.48206,15.73294],[-3.49001,15.59995],[-3.64202,15.49094],[-3.84503,15.49394],[-3.86901,15.67196],[-3.98303,15.82495],[-4.13506,15.80994],[-4.23901,15.71894],[-4.68803,15.58096],[-5.15105,15.60894],[-5.23004,15.67395],[-5.35706,15.55295],[-5.50876,15.5069],[-5.35329,16.31198],[-5.62335,16.52783],[-6.59311,24.99413],[-4.82161,24.99507]]]}},{"type":"Feature","properties":{"id":"ml-7","lat":16.9843,"lng":1.52793},"geometry":{"type":"Polygon","coordinates":[[[-0.39767,15.00214],[-0.50034,15.07972],[-0.69401,16.04695],[-0.68303,16.93295],[-1.6085,17.03565],[-1.70692,17.51451],[-0.93467,17.88614],[-0.88516,18.95528],[0.06522,18.7078],[0.57013,18.13362],[1.20368,17.62874],[1.79765,17.75744],[1.97583,17.97523],[4.23241,17.97523],[4.18396,16.41605],[4.06056,16.29833],[3.87121,15.7148],[3.52653,15.49595],[3.5071,15.35397],[3.03354,15.42645],[3.00016,15.33912],[1.33153,15.28362],[0.97372,14.99126],[0.68381,14.94087],[0.22126,14.99593],[0.21847,14.91098],[-0.2367,15.06562],[-0.39767,15.00214]]]}},{"type":"Feature","properties":{"id":"ml-8","lat":19.68715,"lng":0.7156},"geometry":{"type":"Polygon","coordinates":[[[0.00374,21.8489],[1.14652,21.10171],[1.15458,20.73879],[1.2967,20.73346],[1.36398,20.65771],[1.55973,20.5975],[1.64396,20.52268],[1.65915,20.39752],[1.89139,20.23179],[2.07122,20.21326],[2.20083,20.27391],[2.4004,20.05655],[2.946,19.94165],[3.1988,19.82052],[3.19942,19.55377],[3.26081,19.38833],[3.10413,19.13553],[3.2849,18.99574],[4.22861,19.14224],[4.23241,17.97523],[1.97583,17.97523],[1.79765,17.75744],[1.20368,17.62874],[0.57013,18.13362],[0.06522,18.7078],[-0.88516,18.95528],[-2.04338,19.91553],[-1.32077,20.28181],[-0.22192,21.15297],[0.00374,21.8489]]]}},{"type":"Feature","properties":{"id":"ml-bko","lat":12.62012,"lng":-8.00294},"geometry":{"type":"Polygon","coordinates":[[[-8.00158,12.70405],[-7.93383,12.63581],[-7.97814,12.54292],[-8.06456,12.60444],[-8.06456,12.67035],[-8.00158,12.70405]]]}}]}
