{"type":"FeatureCollection","features":[{"type":"Feature","properties":{"id":"mm-01","lat":24.47989,"lng":95.30113},"geometry":{"type":"Polygon","coordinates":[[[96.68725,27.36174],[96.78916,27.31797],[96.86533,27.17162],[97.05883,27.09208],[96.96517,26.99132],[96.23901,26.959],[96.29286,26.9159],[96.27457,26.85797],[96.04719,26.66607],[96.15168,26.49916],[96.00699,26.41772],[96.15489,26.1422],[96.16377,26.03107],[96.07768,25.87287],[96.18186,25.67166],[96.06083,25.53883],[95.98962,25.56715],[95.96854,25.51565],[95.97722,25.24135],[96.07313,25.07803],[96.06828,24.98594],[96.01588,24.96344],[96.02156,25.05617],[95.84038,24.96499],[95.94787,24.69004],[96.10383,24.63697],[96.23509,24.45871],[96.42474,24.50106],[96.65625,24.41719],[96.60674,24.24984],[96.67361,24.14191],[96.38939,24.02853],[96.40996,23.98306],[96.50804,24.01068],[96.55993,23.84875],[96.38288,23.55967],[96.19302,23.50022],[96.08202,23.62944],[95.90932,23.37906],[95.97516,23.15399],[95.96482,22.76905],[95.90126,22.70719],[95.99025,22.52927],[95.96368,22.39248],[96.01278,22.33179],[96.0412,21.92342],[95.88431,21.8512],[95.77207,21.62607],[95.65714,21.62692],[95.54521,21.74508],[95.39576,21.71888],[95.34222,21.60886],[95.3014,21.62142],[95.11113,21.83363],[94.45339,21.77653],[94.39572,21.82443],[94.40564,22.05566],[94.25619,22.14539],[94.26281,22.47721],[94.11325,22.7081],[94.00701,22.67802],[94.00029,23.33054],[94.04907,23.34795],[94.05031,23.49939],[94.1425,23.49929],[94.13506,23.91901],[94.29536,24.3326],[94.51633,24.70495],[94.58154,24.73012],[94.70856,25.02589],[94.68913,25.13852],[94.55333,25.20415],[94.608,25.39463],[95.0088,25.73714],[95.00064,25.92204],[95.15122,26.04994],[95.04178,26.2876],[95.04064,26.47559],[95.1228,26.61161],[95.41064,26.70163],[95.48981,26.81072],[95.5913,26.82374],[95.77796,26.99515],[95.88886,27.02703],[96.07417,27.22986],[96.68725,27.36174]]]}},{"type":"Feature","properties":{"id":"mm-02","lat":18.18249,"lng":96.29377},"geometry":{"type":"Polygon","coordinates":[[[96.91629,17.61208],[96.82154,17.39472],[96.91066,17.31708],[96.84938,17.21296],[96.9109,17.02481],[96.82715,16.89035],[96.71454,16.97648],[96.39446,16.9894],[96.2939,17.35421],[96.06052,17.75744],[95.74675,17.46219],[95.47348,17.68587],[95.49033,17.91446],[95.3878,18.2199],[95.06751,18.54373],[95.07981,18.66698],[95.20456,18.76785],[95.18502,18.89311],[95.30688,19.05532],[95.52412,19.16255],[95.82374,19.16818],[95.85723,19.30396],[95.80028,19.46359],[95.95221,19.48078],[96.1122,19.41564],[96.1799,19.48488],[96.3989,19.47],[96.53843,19.17994],[96.50577,19.1247],[96.68447,18.92177],[96.61481,18.85663],[96.61563,18.74772],[96.68994,18.60876],[96.93944,18.64494],[96.9784,18.59801],[96.97654,18.41567],[97.07225,18.29258],[97.12237,18.31361],[97.20567,18.14509],[97.13033,17.96565],[97.20288,17.81902],[97.23399,17.54554],[97.12258,17.48198],[97.00693,17.60402],[96.91629,17.61208]]]}},{"type":"Feature","properties":{"id":"mm-03","lat":20.55651,"lng":94.52015},"geometry":{"type":"Polygon","coordinates":[[[94.8366,18.35762],[94.76365,18.46632],[94.74402,18.62357],[94.79187,18.69715],[94.72014,18.78379],[94.80468,18.83717],[94.55953,19.11493],[94.5555,19.2641],[94.43013,19.45134],[94.34135,19.93307],[94.25619,20.11136],[94.01166,20.51795],[93.90396,20.58107],[93.90458,20.70191],[94.02303,20.65156],[94.13827,20.69295],[94.03946,20.91663],[94.11625,21.17723],[94.02799,21.26583],[94.13031,21.573],[94.0037,21.82792],[94.05372,21.95202],[94.00701,22.67802],[94.09775,22.71182],[94.28999,22.4215],[94.25619,22.14539],[94.40564,22.05566],[94.40905,21.80376],[94.49039,21.76733],[94.60191,21.81973],[95.12766,21.8303],[95.34222,21.60886],[95.33023,21.46388],[95.14161,21.31387],[95.02173,21.31121],[94.97501,21.24416],[94.81936,21.20431],[94.81471,20.95299],[95.08167,20.82981],[95.06265,20.60991],[95.10906,20.53195],[95.20042,20.6429],[95.48382,20.7609],[95.6068,20.74866],[95.83139,20.13063],[95.76462,19.97485],[95.81558,19.83305],[95.72535,19.60942],[95.85527,19.3206],[95.82591,19.17105],[95.52412,19.16255],[95.30688,19.05532],[95.18502,18.89311],[95.20456,18.76785],[95.07981,18.66698],[95.06751,18.54373],[95.15336,18.47127],[95.06451,18.36033],[94.93553,18.4182],[94.8366,18.35762]]]}},{"type":"Feature","properties":{"id":"mm-04","lat":21.50082,"lng":95.82674},"geometry":{"type":"Polygon","coordinates":[[[96.10497,23.63153],[96.13856,23.52035],[96.32066,23.50665],[96.3065,23.4295],[96.18899,23.3432],[96.15819,23.15817],[96.21245,23.04978],[96.3465,23.01754],[96.51321,23.06014],[96.71527,22.94937],[96.63527,22.81974],[96.20356,22.7397],[96.33338,22.48783],[96.32438,22.3738],[96.42701,22.33709],[96.48365,22.15984],[96.73635,22.07721],[96.88859,21.75981],[96.70462,21.71705],[96.57595,21.59403],[96.3403,21.53776],[96.28831,21.4597],[96.37368,21.17134],[96.24036,21.14998],[96.21049,21.05954],[96.25793,20.97417],[96.50577,20.91565],[96.58876,20.84524],[96.56871,20.76915],[96.45668,20.72414],[96.5469,20.58941],[96.47642,20.42307],[96.54659,20.21639],[96.45358,20.13239],[96.45285,20.03276],[96.37492,20.01718],[96.45451,19.85664],[96.53709,19.84938],[96.65832,19.70273],[96.55724,19.61154],[96.67878,19.52416],[96.59217,19.43111],[96.50515,19.47997],[96.18372,19.48509],[96.1122,19.41564],[95.7516,19.48889],[95.72535,19.60942],[95.8162,19.83781],[95.76462,19.97485],[95.83139,20.13063],[95.61983,20.73196],[95.48382,20.7609],[95.18554,20.63525],[95.10906,20.53195],[95.06265,20.60991],[95.08167,20.82981],[94.81471,20.95299],[94.81936,21.20431],[94.97501,21.24416],[95.02173,21.31121],[95.14161,21.31387],[95.33023,21.46388],[95.37995,21.70744],[95.54521,21.74508],[95.65714,21.62692],[95.77207,21.62607],[95.88431,21.8512],[96.0412,21.92342],[96.01278,22.33179],[95.96368,22.39248],[95.99025,22.52927],[95.90126,22.70719],[95.96482,22.76905],[95.97516,23.15399],[95.90818,23.35912],[96.10497,23.63153]]]}},{"type":"Feature","properties":{"id":"mm-05","lat":12.53529,"lng":99.03706},"geometry":{"type":"MultiPolygon","coordinates":[[[[98.01832,9.79491],[98.04607,9.82795],[98.05746,9.79686],[98.01832,9.79491]]],[[[98.28102,10.02839],[98.17897,9.93281],[98.13347,9.84561],[98.12745,9.96011],[98.23463,10.05419],[98.28102,10.02839]]],[[[98.17156,10.14814],[98.2409,10.16779],[98.1858,10.04206],[98.17156,10.14814]]],[[[97.89625,10.48753],[97.93189,10.41201],[97.89381,10.40599],[97.89625,10.48753]]],[[[98.20737,10.48347],[98.202,10.52432],[98.23365,10.52936],[98.20737,10.48347]]],[[[98.28688,10.76895],[98.23683,10.69733],[98.19874,10.88166],[98.14674,10.92451],[98.0774,10.88809],[98.14088,10.97744],[98.20574,10.96003],[98.28688,10.76895]]],[[[97.89633,10.91328],[97.92775,10.87198],[97.88356,10.84455],[97.89633,10.91328]]],[[[98.01393,11.86498],[98.08961,11.63227],[98.01173,11.70474],[98.02833,11.71719],[98.00709,11.76195],[98.01393,11.86498]]],[[[97.4629,11.79979],[97.46453,11.78246],[97.44435,11.80024],[97.4629,11.79979]]],[[[97.6644,11.90595],[97.67189,11.83771],[97.64283,11.86766],[97.6644,11.90595]]],[[[98.14015,12.14838],[98.0394,12.20734],[98.07252,12.28954],[98.11948,12.27558],[98.09645,12.18716],[98.14015,12.14838]]],[[[98.09645,12.3653],[98.00025,12.26903],[97.93995,12.36628],[98.01783,12.40265],[98.04176,12.35847],[98.09059,12.42231],[98.09645,12.3653]]],[[[97.82277,12.58747],[97.86183,12.5598],[97.84995,12.53726],[97.82277,12.58747]]],[[[97.85279,12.80654],[97.83692,12.77245],[97.84181,12.80581],[97.85279,12.80654]]],[[[97.92506,13.7836],[97.91432,13.82844],[97.93189,13.85928],[97.93816,13.85179],[97.92506,13.7836]]],[[[98.55323,10.83283],[98.49838,10.79361],[98.49366,10.8911],[98.55323,10.83283]]],[[[98.45143,11.00194],[98.43295,10.96503],[98.44256,11.003],[98.45143,11.00194]]],[[[98.54152,10.9538],[98.47836,10.99335],[98.52467,11.08666],[98.54152,10.9538]]],[[[98.28142,11.27595],[98.24733,11.2145],[98.21998,11.26911],[98.28142,11.27595]]],[[[98.32008,11.72191],[98.27516,11.48078],[98.16529,11.45352],[98.27833,11.79979],[98.32008,11.72191]]],[[[98.53533,11.80362],[98.52849,11.58047],[98.53533,11.52924],[98.43238,11.56672],[98.37941,11.69111],[98.4131,11.77338],[98.37078,11.78925],[98.53533,11.80362]]],[[[98.25652,11.90253],[98.27369,11.85334],[98.25416,11.85814],[98.25652,11.90253]]],[[[98.22706,11.95392],[98.26092,11.97114],[98.26157,11.92617],[98.22706,11.95392]]],[[[98.65919,11.94868],[98.47804,11.89094],[98.43914,12.11201],[98.51987,12.00703],[98.65919,11.94868]]],[[[98.51417,12.42365],[98.47429,12.42499],[98.49985,12.51309],[98.51417,12.42365]]],[[[98.39129,12.36152],[98.30201,12.33796],[98.3156,12.68745],[98.40553,12.63898],[98.42547,12.52973],[98.46632,12.58373],[98.39129,12.36152]]],[[[98.28989,12.52631],[98.23683,12.50609],[98.23365,12.55366],[98.25685,12.5742],[98.28989,12.52631]]],[[[98.19122,14.99321],[98.59319,14.32161],[98.93528,14.0854],[99.09,13.87011],[99.15253,13.71487],[99.19015,13.2295],[99.1021,13.17134],[99.09321,13.03833],[99.16483,12.97551],[99.22446,12.71747],[99.40327,12.57593],[99.45225,12.12939],[99.54166,12.14066],[99.5184,12.02593],[99.63002,11.81577],[99.54259,11.64048],[99.44977,11.61376],[99.21299,11.10826],[99.05507,10.94525],[98.99233,10.94796],[98.97445,10.8242],[98.76672,10.68875],[98.74741,10.35053],[98.54314,9.98745],[98.45932,10.7154],[98.52849,10.6931],[98.63087,10.85082],[98.58155,10.88203],[98.71241,10.92438],[98.72242,11.04487],[98.65821,11.13199],[98.72413,11.1562],[98.75929,11.26895],[98.69801,11.38801],[98.77491,11.45352],[98.71795,11.53189],[98.73561,11.64203],[98.8226,11.70795],[98.89161,11.69367],[98.78297,11.75511],[98.82569,11.82587],[98.80893,11.8513],[98.67416,11.68525],[98.60353,11.80362],[98.70655,11.87865],[98.549,11.87865],[98.66407,11.92036],[98.72145,11.99779],[98.62965,12.13199],[98.7033,12.23778],[98.59669,12.194],[98.53907,12.24177],[98.70655,12.34789],[98.60515,12.42894],[98.61622,12.48574],[98.70973,12.5124],[98.62306,12.55817],[98.69288,12.72529],[98.61785,12.76626],[98.65138,12.79731],[98.58985,12.91958],[98.57846,13.18675],[98.47999,13.28388],[98.47316,13.41303],[98.45281,13.37946],[98.30201,13.701],[98.2448,13.71406],[98.19215,14.06468],[98.18686,13.54385],[98.1443,13.5371],[98.16879,13.68081],[98.10328,13.701],[98.0617,14.01008],[98.11012,14.16779],[97.9935,14.33051],[98.00025,14.46874],[97.96608,14.44831],[97.88551,14.68407],[97.94313,14.7202],[98.0276,14.64753],[97.94988,14.7989],[97.85035,14.72362],[97.79492,14.88015],[97.90227,15.07843],[98.02082,15.09913],[98.10071,14.99906],[98.19122,14.99321]]],[[[98.33644,13.07388],[98.30201,12.91332],[98.24733,13.21503],[98.29566,13.08466],[98.33644,13.07388]]]]}},{"type":"Feature","properties":{"id":"mm-06","lat":17.1306,"lng":96.06722},"geometry":{"type":"Polygon","coordinates":[[[96.82715,16.89035],[96.80104,16.73737],[96.61594,16.518],[96.43626,16.47777],[96.28981,16.56684],[96.22641,16.73941],[96.25758,16.8159],[96.17115,16.77155],[96.33644,16.43944],[96.28534,16.36599],[96.11899,16.32176],[95.88317,16.41771],[95.83232,16.47912],[95.88896,16.55261],[95.90074,16.93269],[95.69197,17.27179],[95.77382,17.51332],[96.06052,17.75744],[96.2939,17.35421],[96.39446,16.9894],[96.71454,16.97648],[96.82715,16.89035]]]}},{"type":"Feature","properties":{"id":"mm-07","lat":17.06487,"lng":95.1295},"geometry":{"type":"MultiPolygon","coordinates":[[[[93.40016,14.09565],[93.37485,14.06468],[93.39031,14.15375],[93.40016,14.09565]]],[[[93.67579,14.8592],[93.70387,14.90445],[93.72438,14.9138],[93.67579,14.8592]]],[[[94.82325,15.94579],[94.80372,15.79658],[94.72486,15.81196],[94.82325,15.94579]]],[[[94.62965,16.07518],[94.47804,15.96613],[94.40268,15.83926],[94.38966,16.00092],[94.64283,16.24551],[94.62965,16.07518]]],[[[96.01881,16.25674],[95.88307,16.20917],[95.8899,16.24396],[95.77662,16.14069],[95.72486,16.22285],[95.66472,15.9492],[95.3965,15.71638],[95.28793,15.74014],[95.36427,15.98456],[95.36158,16.14838],[95.34181,15.98387],[95.25164,15.86823],[95.27296,16.00373],[95.21274,15.78657],[95.12574,15.81761],[95.13754,16.00666],[95.09767,16.02513],[95.13795,16.10033],[95.22592,16.11994],[95.13575,16.14838],[95.07057,16.07486],[95.03395,15.80573],[94.9756,15.76415],[94.84685,15.79059],[94.89633,15.8474],[94.8532,15.84028],[94.83473,15.94916],[94.92408,16.03852],[94.88933,16.0174],[94.86313,16.12775],[94.90008,16.18378],[94.95924,16.20087],[94.99244,16.2508],[94.85467,16.16022],[94.86939,16.04096],[94.7212,15.85668],[94.60133,15.92121],[94.73227,16.0174],[94.79371,16.16201],[94.70533,16.02066],[94.56658,15.93549],[94.67888,16.12128],[94.73227,16.52456],[94.67701,16.53197],[94.68385,16.36408],[94.62794,16.2602],[94.584,16.23652],[94.62973,16.34418],[94.58367,16.27485],[94.52117,16.29548],[94.42807,16.07416],[94.25147,15.96845],[94.21461,16.0148],[94.26832,16.52749],[94.34132,16.54841],[94.38233,16.90127],[94.46469,16.94965],[94.45436,17.18008],[94.53785,17.1874],[94.54615,17.31965],[94.59449,17.2923],[94.56772,17.46288],[94.75435,17.37165],[94.88292,17.72998],[94.89005,18.23654],[94.8366,18.35762],[94.91072,18.41159],[95.06451,18.36033],[95.15336,18.47127],[95.38274,18.23075],[95.49033,17.91446],[95.47348,17.68587],[95.74675,17.46219],[95.70675,17.20639],[95.90426,16.90496],[95.88896,16.55261],[95.83232,16.47912],[96.06658,16.33564],[96.01881,16.25674]]]]}},{"type":"Feature","properties":{"id":"mm-11","lat":26.06448,"lng":97.36467},"geometry":{"type":"Polygon","coordinates":[[[97.2929,27.87755],[97.36225,27.99488],[97.2929,28.09508],[97.3235,28.21748],[97.44783,28.2976],[97.52772,28.52953],[97.61361,28.48198],[97.67045,28.51128],[97.76533,28.35243],[97.89752,28.35533],[98.12696,28.12428],[98.10712,27.97307],[98.17729,27.91292],[98.14009,27.87856],[98.2947,27.53662],[98.38328,27.55579],[98.41025,27.68425],[98.67928,27.57734],[98.67256,27.1756],[98.73778,27.04869],[98.75555,26.62504],[98.64217,26.25452],[98.70553,26.17494],[98.64445,26.09789],[98.61933,26.14574],[98.54554,26.10564],[98.68486,25.8531],[98.61003,25.8006],[98.4981,25.83072],[98.31207,25.55746],[98.14009,25.61146],[98.10836,25.38889],[97.90992,25.20756],[97.82362,25.26161],[97.70363,25.07392],[97.76523,24.83466],[97.53609,24.74503],[97.51325,24.43859],[97.6473,24.43233],[97.68957,24.34647],[97.64451,24.30239],[97.72409,24.24152],[97.70766,24.1253],[97.51646,23.94283],[97.6411,23.83317],[97.03318,23.64484],[96.99452,23.70775],[96.77872,23.75744],[96.89293,23.8234],[96.9168,23.90438],[96.88611,23.98983],[96.83329,23.96549],[96.72984,24.02809],[96.60985,24.2271],[96.65625,24.41719],[96.42474,24.50106],[96.23509,24.45871],[96.10383,24.63697],[95.94787,24.69004],[95.84038,24.96499],[96.02156,25.05617],[96.01588,24.96344],[96.06828,24.98594],[96.07313,25.07803],[95.97722,25.24135],[95.96854,25.51565],[95.98962,25.56715],[96.06083,25.53883],[96.18186,25.67166],[96.07768,25.87287],[96.16377,26.03107],[96.15489,26.1422],[96.00688,26.40888],[96.15168,26.49916],[96.05184,26.6792],[96.27457,26.85797],[96.29286,26.9159],[96.23901,26.959],[96.96517,26.99132],[97.05883,27.09208],[97.11917,27.08729],[97.10129,27.1833],[96.88135,27.44411],[96.86213,27.5993],[97.22293,27.89972],[97.2929,27.87755]]]}},{"type":"Feature","properties":{"id":"mm-12","lat":19.18622,"lng":97.33469},"geometry":{"type":"Polygon","coordinates":[[[97.86912,19.57049],[97.76709,19.39753],[97.8108,19.11222],[97.65784,18.92572],[97.72337,18.85198],[97.75179,18.58248],[97.42747,18.48952],[97.31978,18.67465],[97.12299,18.6893],[97.01173,18.87458],[96.83624,19.26022],[96.92673,19.40535],[96.89892,19.51488],[97.13539,19.72784],[97.16785,19.98873],[97.26345,19.8931],[97.39176,19.95312],[97.44731,19.88199],[97.5193,19.89899],[97.61195,19.68658],[97.83881,19.6472],[97.86912,19.57049]]]}},{"type":"Feature","properties":{"id":"mm-13","lat":17.4033,"lng":97.7675},"geometry":{"type":"Polygon","coordinates":[[[97.31637,18.67767],[97.48648,18.29214],[97.63759,18.30633],[97.61795,18.24168],[97.75406,17.96903],[97.67614,17.83033],[97.75933,17.69148],[97.98278,17.50544],[98.29966,17.06475],[98.4179,17.02904],[98.50947,16.89267],[98.45666,16.72322],[98.63163,16.46313],[98.66326,16.28666],[98.83958,16.47243],[98.90252,16.38164],[98.80723,16.11054],[98.67959,16.12615],[98.54699,16.0475],[98.58378,15.97696],[98.55991,15.35532],[98.40343,15.3601],[98.39227,15.25824],[98.29512,15.29261],[98.20769,15.21922],[97.87075,15.68359],[97.82341,16.13387],[98.07518,16.12421],[98.13492,16.19299],[97.98547,16.42626],[97.65588,16.60338],[97.55769,16.72751],[97.46829,17.01397],[97.53144,17.12518],[97.521,17.30117],[97.38427,17.63195],[97.42127,17.70533],[97.32629,17.59019],[97.21301,17.55947],[97.20288,17.81902],[97.13033,17.96565],[97.2035,18.15266],[97.12237,18.31361],[97.07225,18.29258],[96.97654,18.41567],[96.94988,18.63855],[96.70266,18.60439],[96.66183,18.65328],[96.61481,18.85663],[96.68447,18.92177],[96.50577,19.1247],[96.53843,19.17994],[96.3989,19.47],[96.59217,19.43111],[96.6733,19.49579],[96.82161,19.38298],[96.86368,19.17338],[97.11462,18.70033],[97.31637,18.67767]]]}},{"type":"Feature","properties":{"id":"mm-14","lat":22.31691,"lng":93.60478},"geometry":{"type":"Polygon","coordinates":[[[92.64104,21.30859],[92.57588,21.97757],[92.65091,22.01917],[92.68378,22.15431],[92.87746,21.95701],[92.90619,22.01731],[92.9681,21.98724],[93.02453,22.2019],[93.14173,22.18728],[93.17367,22.25942],[93.07952,22.77272],[93.17553,22.88171],[93.15238,23.04994],[93.27279,23.00591],[93.3749,23.12973],[93.43236,23.64732],[93.30968,24.06398],[93.36829,24.07848],[93.45665,23.95996],[93.71111,24.00546],[94.12886,23.85391],[94.1701,23.69496],[94.1425,23.49929],[94.05031,23.49939],[94.04907,23.34795],[94.00029,23.33054],[93.99254,22.92026],[94.05072,22.3744],[94.00701,21.79009],[94.13031,21.573],[94.02799,21.26583],[94.10602,21.20873],[94.11914,21.11137],[94.03946,20.91663],[94.13827,20.69295],[93.97786,20.65566],[93.68909,20.8919],[93.68031,20.70571],[93.47402,20.6737],[93.24623,20.80677],[93.13264,21.04409],[92.93968,21.07957],[92.85483,21.04326],[92.64104,21.30859]]]}},{"type":"Feature","properties":{"id":"mm-15","lat":17.09709,"lng":97.3623},"geometry":{"type":"MultiPolygon","coordinates":[[[[97.67164,15.54999],[97.6644,15.5041],[97.65089,15.59223],[97.67164,15.54999]]],[[[98.1899,15.30173],[98.19122,14.99321],[98.10071,14.99906],[98.02082,15.09913],[97.90227,15.07843],[97.85494,14.9449],[97.79477,14.88032],[97.82277,15.2093],[97.72641,15.33959],[97.79477,15.4079],[97.72706,15.84321],[97.56886,16.0624],[97.65089,16.27131],[97.63722,16.47736],[97.70314,16.55207],[97.85432,16.53545],[98.13492,16.19299],[98.07518,16.12421],[97.82186,16.12506],[97.87075,15.68359],[98.1899,15.30173]]],[[[97.60629,16.48355],[97.57136,16.22269],[97.51686,16.20982],[97.45927,16.30136],[97.46998,16.49047],[97.60629,16.48355]]],[[[97.63038,16.53197],[97.37029,16.48355],[97.32983,16.67985],[97.25544,16.69787],[97.24049,16.87458],[97.21949,16.82616],[97.18328,16.92154],[97.15724,17.08686],[97.261,17.10733],[97.15805,17.1293],[97.13063,17.07941],[97.06861,17.25137],[96.89552,17.38467],[96.89076,17.6027],[97.00228,17.60675],[97.12258,17.48198],[97.32629,17.59019],[97.4193,17.7084],[97.38427,17.63195],[97.521,17.30117],[97.53144,17.12518],[97.46829,17.01397],[97.49589,16.88546],[97.56286,16.71906],[97.70073,16.59589],[97.63038,16.53197]]]]}},{"type":"Feature","properties":{"id":"mm-16","lat":19.41909,"lng":94.21891},"geometry":{"type":"MultiPolygon","coordinates":[[[[93.74244,18.8723],[93.73194,18.68968],[93.64527,18.67935],[93.48414,18.87499],[93.62175,18.91035],[93.74244,18.8723]]],[[[92.57061,21.24728],[92.66921,21.29692],[92.85483,21.04326],[92.93968,21.07957],[93.13264,21.04409],[93.24623,20.80677],[93.47402,20.6737],[93.67152,20.69827],[93.65581,20.85395],[93.73498,20.88141],[93.90458,20.70191],[93.91378,20.56435],[94.01166,20.51795],[94.25619,20.11136],[94.34135,19.93307],[94.43013,19.45134],[94.5555,19.2641],[94.55953,19.11493],[94.80468,18.83717],[94.72014,18.78379],[94.79187,18.69715],[94.74402,18.62357],[94.76365,18.46632],[94.89005,18.23654],[94.85791,17.94237],[94.90297,17.83374],[94.75435,17.37165],[94.56772,17.46288],[94.56031,17.5821],[94.615,17.54556],[94.44744,17.97333],[94.49057,18.0725],[94.42286,18.2425],[94.32586,18.26773],[94.417,18.31395],[94.14894,18.73102],[94.2116,18.72553],[94.27931,18.73851],[94.21241,18.74185],[94.14894,18.86823],[94.11964,18.81664],[94.0381,18.85912],[94.09425,19.08735],[94.02906,19.0954],[94.06691,19.38898],[94.03338,19.20453],[93.97348,19.14631],[93.91041,19.19099],[93.98439,18.96784],[93.93043,18.85863],[93.67888,19.0196],[93.48707,19.33373],[93.4909,19.40762],[93.55299,19.43057],[93.62135,19.33438],[93.83424,19.23819],[93.92994,19.29975],[93.98731,19.3867],[93.98439,19.46406],[93.73121,19.63255],[93.80006,19.65648],[93.80681,19.74584],[93.76108,19.67487],[93.70948,19.71353],[93.75164,19.76569],[93.60141,19.71857],[93.60646,19.79613],[93.74,19.92512],[93.58074,19.88133],[93.52564,19.99917],[93.42319,19.96532],[93.38233,20.08853],[93.36183,20.02643],[93.34067,20.1022],[93.27247,20.04751],[93.12843,20.09467],[93.23585,19.84724],[93.10914,19.9938],[93.16879,19.80732],[92.97022,20.12946],[93.09425,20.14997],[93.12094,20.21198],[92.99049,20.15493],[93.09132,20.38101],[93.10043,20.4311],[93.05958,20.36225],[93.03102,20.40965],[93.08562,20.53295],[93.07325,20.55463],[93.02263,20.45254],[93.01629,20.32486],[92.86769,20.12202],[92.77817,20.23164],[92.94288,20.32123],[92.84693,20.37735],[92.82691,20.49506],[92.7693,20.45506],[92.72071,20.59223],[92.63502,20.69798],[92.70826,20.57868],[92.73121,20.25918],[92.50701,20.60928],[92.38111,20.70014],[92.27052,21.04902],[92.17497,21.17561],[92.18365,21.3172],[92.32266,21.46189],[92.40028,21.371],[92.52451,21.36113],[92.57061,21.24728]]],[[[93.97234,19.38182],[93.79689,19.27851],[93.64918,19.51313],[93.73121,19.5541],[93.97234,19.38182]]],[[[93.51197,19.74584],[93.44068,19.81094],[93.40284,19.95307],[93.49879,19.88703],[93.51197,19.74584]]],[[[92.95851,20.05488],[93.01856,19.82783],[92.91684,20.08893],[92.95851,20.05488]]]]}},{"type":"Feature","properties":{"id":"mm-17","lat":21.68935,"lng":98.37768},"geometry":{"type":"Polygon","coordinates":[[[100.09929,20.3178],[99.87791,20.43514],[99.78717,20.33408],[99.65193,20.30682],[99.42063,20.37555],[99.51034,20.15381],[99.29568,20.0625],[99.17775,20.1218],[99.07347,20.10123],[99.01683,20.041],[99.00091,19.82101],[98.89932,19.74862],[98.80785,19.80654],[98.53262,19.67585],[98.23755,19.66469],[98.04562,19.80763],[98.00831,19.63911],[97.88584,19.57281],[97.83881,19.6472],[97.61195,19.68658],[97.5193,19.89899],[97.44731,19.88199],[97.39176,19.95312],[97.26345,19.8931],[97.16785,19.98873],[97.13539,19.72784],[96.93758,19.58501],[96.89505,19.50031],[96.92673,19.40535],[96.8399,19.28845],[96.82513,19.37817],[96.70359,19.44662],[96.65646,19.56842],[96.55837,19.5993],[96.6548,19.70833],[96.53709,19.84938],[96.45451,19.85664],[96.37585,20.00746],[96.45285,20.03276],[96.45358,20.13239],[96.54659,20.21639],[96.47642,20.42307],[96.5469,20.58941],[96.45668,20.72414],[96.56871,20.76915],[96.58752,20.8503],[96.25793,20.97417],[96.21049,21.05954],[96.24036,21.14998],[96.37368,21.17134],[96.28831,21.4597],[96.3403,21.53776],[96.58287,21.59698],[96.81128,21.75955],[96.88869,21.744],[96.73635,22.07721],[96.48365,22.15984],[96.42701,22.33709],[96.32438,22.3738],[96.33338,22.48783],[96.20356,22.7397],[96.63527,22.81974],[96.71743,22.93387],[96.51321,23.06014],[96.26082,23.02276],[96.16016,23.14425],[96.19013,23.34788],[96.3065,23.4295],[96.55993,23.84875],[96.50804,24.01068],[96.40996,23.98306],[96.39942,24.04013],[96.67361,24.14191],[96.72984,24.02809],[96.83329,23.96549],[96.88611,23.98983],[96.91226,23.92797],[96.89293,23.8234],[96.78317,23.7507],[97.09757,23.64541],[97.61712,23.81723],[97.88997,24.02262],[98.10505,24.10153],[98.43495,24.13026],[98.58523,24.07571],[98.86573,24.14569],[98.85622,24.0838],[98.65882,23.96112],[98.66367,23.79695],[98.79317,23.75847],[98.85601,23.61001],[98.78087,23.53285],[98.8896,23.40679],[98.85343,23.32488],[98.91069,23.2976],[98.85901,23.17939],[99.02644,23.16045],[99.21661,23.05738],[99.33381,23.12962],[99.49308,23.05738],[99.53804,22.92643],[99.41339,22.93075],[99.41443,22.8569],[99.30797,22.74518],[99.35779,22.49548],[99.24307,22.39316],[99.14447,22.15353],[99.82102,22.01778],[99.94241,22.04553],[99.95026,21.72116],[100.14281,21.65491],[100.08999,21.52892],[100.18715,21.42789],[100.34197,21.53037],[100.45669,21.45502],[100.62174,21.46908],[100.83491,21.65754],[101.0828,21.76674],[101.16884,21.63785],[101.15711,21.51967],[101.00343,21.40598],[100.8146,21.3002],[100.72541,21.31167],[100.68939,21.15933],[100.62552,21.05412],[100.54345,21.0274],[100.51782,20.90632],[100.65213,20.87661],[100.53669,20.80767],[100.38367,20.8317],[100.29019,20.77501],[100.17293,20.6221],[100.09929,20.3178]]]}}]}
