{"type":"FeatureCollection","features":[{"type":"Feature","properties":{"id":"mn-035","lat":49.05122,"lng":104.29552},"geometry":{"type":"Polygon","coordinates":[[[104.51954,49.10553],[104.56306,48.99691],[104.37805,48.89913],[104.00071,48.98678],[104.10303,49.12124],[104.51954,49.10553]]]}},{"type":"Feature","properties":{"id":"mn-037","lat":49.32749,"lng":106.32438},"geometry":{"type":"Polygon","coordinates":[[[106.13588,49.8235],[106.13671,49.73128],[106.04028,49.61718],[106.36574,49.52416],[106.50671,49.60586],[106.77925,49.50905],[106.79889,49.13168],[106.60138,49.08729],[106.35685,49.18599],[106.06488,49.09654],[105.80835,49.13121],[105.89734,49.469],[105.83306,49.63563],[106.13588,49.8235]]]}},{"type":"Feature","properties":{"id":"mn-039","lat":47.76059,"lng":110.49341},"geometry":{"type":"Polygon","coordinates":[[[108.56997,49.32572],[109.28669,49.33854],[109.51624,49.25591],[109.72853,49.26645],[110.18142,49.16196],[110.37117,49.24175],[110.68806,49.13452],[111.33845,49.36474],[112.12641,49.43994],[112.20683,49.3603],[112.17024,49.3205],[112.24858,49.04037],[112.21354,48.94936],[112.54076,48.47208],[112.53859,48.07681],[112.68835,47.81021],[112.1322,47.66216],[112.07216,47.56816],[112.09045,47.38207],[111.80943,47.40124],[111.59084,47.2705],[111.46961,46.92101],[111.26663,46.64005],[111.31179,46.37056],[111.23097,46.23],[111.04008,46.10773],[110.91564,46.07502],[110.63969,46.18183],[110.15455,46.63333],[110.04344,46.62044],[110.07104,46.47944],[109.9897,46.31064],[109.74145,46.18876],[109.39191,46.17855],[109.21776,46.26893],[109.00878,46.49851],[109.11678,46.75255],[109.1018,46.85564],[108.97322,46.82045],[108.94945,46.97419],[108.69407,47.098],[108.3961,47.50924],[108.48488,47.71096],[108.48488,47.91361],[108.883,48.07577],[109.03875,48.32134],[108.85489,48.81645],[108.7381,48.97381],[108.52147,49.12382],[108.56997,49.32572]]]}},{"type":"Feature","properties":{"id":"mn-041","lat":50.17384,"lng":100.24783},"geometry":{"type":"Polygon","coordinates":[[[98.93765,52.12469],[99.32389,51.93422],[99.70965,51.88058],[99.91791,51.74948],[100.5109,51.72689],[101.35017,51.45045],[101.72369,51.45058],[102.18387,51.3239],[102.14651,51.09763],[102.22966,50.97927],[102.21679,50.79886],[102.32939,50.71882],[102.28242,50.59061],[102.5131,50.50369],[102.61953,50.39901],[102.41776,50.30039],[102.10729,49.93013],[102.78476,49.69149],[102.51967,49.63299],[102.34479,49.45313],[101.97789,49.37301],[101.72571,49.23374],[101.63517,49.1139],[101.65398,48.99975],[101.34062,48.97608],[100.71337,49.21446],[100.59027,49.07804],[100.41933,49.06543],[100.42119,49.01727],[100.57074,48.94471],[100.35783,48.79516],[100.34688,48.63414],[100.45643,48.55848],[100.20456,48.49337],[100.1595,48.40139],[99.76283,48.47696],[99.68118,48.31576],[99.35242,48.32227],[99.23759,48.26078],[99.09662,48.33803],[99.019,48.5838],[99.1547,48.85524],[99.05362,49.15581],[98.74243,49.13442],[98.55836,48.98652],[98.18598,49.06042],[97.91664,49.03101],[97.53237,49.20237],[97.15824,49.22697],[96.89882,49.37588],[96.85624,49.45336],[96.88797,49.54641],[97.14986,49.71433],[97.08527,49.80584],[97.20505,49.73407],[97.34334,49.73418],[97.57361,49.8475],[97.56658,49.9168],[97.75634,49.9615],[97.82993,49.92331],[98.10557,50.06387],[98.26246,50.28381],[98.3007,50.49294],[98.03849,50.62296],[97.94403,50.77447],[97.98464,50.84692],[97.80853,50.97048],[97.92904,51.21504],[97.92284,51.31847],[98.05089,51.46642],[98.22039,51.47521],[98.22825,51.58342],[98.33222,51.71832],[98.68269,51.81947],[98.8556,52.10669],[98.93765,52.12469]]]}},{"type":"Feature","properties":{"id":"mn-043","lat":47.02646,"lng":92.77928},"geometry":{"type":"Polygon","coordinates":[[[90.90549,45.18598],[90.65114,45.49314],[90.71077,45.7522],[91.00244,46.02184],[90.89619,46.30203],[91.04533,46.55109],[90.99592,46.59463],[91.01429,46.68984],[91.26867,46.65969],[91.41698,46.56005],[91.50473,46.64206],[91.8399,46.62299],[91.89013,46.68805],[91.41822,46.97507],[91.46876,47.1779],[91.24211,47.38936],[91.25844,47.49697],[91.18454,47.65632],[90.96409,48.032],[90.84152,48.11236],[90.79056,48.31121],[90.84462,48.43214],[90.68959,48.59466],[91.09752,48.70178],[91.39239,48.71312],[91.64157,48.92244],[91.82264,48.97897],[91.9106,48.9351],[91.97902,48.76162],[92.08361,48.75969],[92.20856,48.60515],[92.29393,48.63564],[92.7676,48.56009],[93.02381,48.66912],[93.19124,48.61672],[93.2547,48.50055],[93.50254,48.36304],[93.43361,48.23465],[93.19083,48.08854],[93.27909,47.8485],[93.54006,47.50511],[94.03367,47.2427],[94.08349,47.07785],[94.26601,46.86489],[94.22808,46.78291],[93.78325,46.58558],[93.53417,46.57132],[93.63029,46.35001],[93.40436,46.01125],[93.40932,45.92376],[93.11755,45.70228],[93.07594,45.00519],[92.2189,45.01012],[92.04299,45.07482],[91.53398,45.0711],[91.43848,45.14613],[91.24914,45.1297],[91.0568,45.21755],[90.90549,45.18598]]]}},{"type":"Feature","properties":{"id":"mn-046","lat":49.76009,"lng":92.82891},"geometry":{"type":"Polygon","coordinates":[[[92.36091,50.86837],[92.64978,50.67407],[92.79612,50.78801],[92.9617,50.77788],[93.01141,50.62332],[93.10494,50.59882],[94.23759,50.56524],[94.35448,50.2236],[94.60345,50.01974],[94.92158,50.04589],[95.0764,49.94553],[95.44516,49.91442],[95.46232,49.60576],[95.68969,49.36205],[95.58913,49.16444],[95.55854,48.90534],[95.09521,48.7239],[94.79352,48.68674],[94.13031,48.80297],[93.71545,48.6576],[93.45645,48.39756],[93.07487,48.66282],[92.7676,48.56009],[92.29393,48.63564],[92.20856,48.60515],[92.08361,48.75969],[91.97902,48.76162],[91.85675,48.97417],[91.64157,48.92244],[91.34701,48.70085],[91.29575,48.8734],[91.08501,48.98716],[90.91303,49.20713],[90.89939,49.29849],[90.68318,49.32386],[90.63574,49.42727],[90.30708,49.56974],[90.09779,49.95654],[89.99709,50.00366],[90.05123,50.08418],[90.47523,50.21461],[90.6839,50.21621],[90.72659,50.29187],[90.97515,50.41393],[91.41574,50.46137],[91.74978,50.68409],[92.15885,50.6891],[92.36091,50.86837]]]}},{"type":"Feature","properties":{"id":"mn-047","lat":47.78558,"lng":105.6224},"geometry":{"type":"Polygon","coordinates":[[[108.42876,47.55632],[108.40086,47.49762],[108.69407,47.098],[108.82812,47.01176],[108.75877,46.89507],[108.47992,46.7803],[108.11529,46.81074],[107.85598,46.76107],[107.79676,46.57088],[107.4158,46.42647],[107.1015,46.40352],[106.83392,46.55147],[106.16389,46.57457],[105.80205,46.7335],[105.66004,46.70971],[105.3967,46.43887],[104.96675,46.59041],[104.65328,46.38043],[104.39779,46.54377],[104.38167,46.69247],[104.23439,46.85244],[104.34653,46.90597],[104.35387,46.99796],[104.1793,47.14885],[104.17186,47.35695],[104.06861,47.46832],[104.5275,47.65342],[104.76046,47.66169],[104.70382,47.94488],[104.39335,47.98844],[104.28834,48.14378],[104.51624,48.37483],[104.52823,48.62577],[105.05966,48.50727],[105.49478,48.64442],[105.44486,48.75656],[105.51173,48.79072],[105.8345,48.86513],[106.01403,48.81423],[106.01723,48.66892],[106.17143,48.68713],[106.57244,48.53048],[107.1138,48.61786],[107.25323,48.55807],[107.64607,48.64008],[107.73165,48.83495],[107.53166,48.97582],[107.67511,49.05535],[107.90848,49.07421],[108.08852,49.00869],[108.30091,49.10744],[108.52147,49.12382],[108.7381,48.97381],[108.85489,48.81645],[109.03875,48.32134],[108.883,48.07577],[108.60043,47.93351],[108.353,47.91821],[108.23611,47.82571],[108.22867,47.62221],[108.42876,47.55632]],[[106.88178,48.17189],[106.35669,48.2563],[106.52211,47.74546],[107.03278,47.73238],[107.27658,47.63942],[107.51078,47.65182],[107.55729,47.92674],[107.33198,47.98906],[107.09933,48.21881],[106.88178,48.17189]]]}},{"type":"Feature","properties":{"id":"mn-049","lat":49.48902,"lng":107.52277},"geometry":{"type":"Polygon","coordinates":[[[105.32864,50.47646],[105.98488,50.39977],[106.22228,50.29238],[106.65652,50.32701],[106.97366,50.19637],[107.05711,50.0741],[107.1922,50.00604],[107.94652,49.93349],[107.92745,49.67004],[108.56997,49.32572],[108.52147,49.12382],[108.30091,49.10744],[108.08852,49.00869],[107.90848,49.07421],[107.67511,49.05535],[107.53166,48.97582],[107.73165,48.83495],[107.64607,48.64008],[107.25323,48.55807],[107.1138,48.61786],[106.57244,48.53048],[106.17143,48.68713],[106.01723,48.66892],[106.01403,48.81423],[105.8345,48.86513],[105.51173,48.79072],[105.44486,48.75656],[105.49478,48.64442],[105.05966,48.50727],[104.52823,48.62577],[104.54228,48.78997],[104.37805,48.89913],[104.57039,49.01127],[104.51954,49.10553],[104.67271,49.64565],[104.73348,49.68604],[104.52316,49.87504],[104.51593,49.98243],[104.6167,50.00922],[104.3495,50.27187],[105.10576,50.39005],[105.32864,50.47646]],[[106.36574,49.52416],[106.04028,49.61718],[106.14229,49.76766],[106.13588,49.8235],[106.04307,49.80148],[105.83306,49.63563],[105.89734,49.469],[105.80835,49.13121],[106.06488,49.09654],[106.35685,49.18599],[106.60138,49.08729],[106.79889,49.13168],[106.77925,49.50905],[106.50671,49.60586],[106.36574,49.52416]]]}},{"type":"Feature","properties":{"id":"mn-051","lat":46.27934,"lng":113.90131},"geometry":{"type":"Polygon","coordinates":[[[116.58196,46.29801],[116.21319,45.90816],[116.25164,45.80325],[116.14395,45.69463],[116.00215,45.67556],[115.63783,45.44436],[114.53371,45.3855],[114.41889,45.20148],[114.08929,44.96175],[113.60478,44.7397],[112.7485,44.86527],[112.41281,45.06604],[111.98464,45.08715],[111.97097,45.28489],[111.75435,45.50818],[111.77099,45.80454],[111.61916,46.09719],[111.22518,46.26067],[111.31644,46.39024],[111.26663,46.64005],[111.46961,46.92101],[111.59084,47.2705],[111.80943,47.40124],[112.09045,47.38207],[112.07216,47.56816],[112.1322,47.66216],[112.68835,47.81021],[112.6868,47.59859],[112.94983,47.67107],[113.80352,47.51116],[114.43542,47.19717],[114.47873,47.14637],[114.45568,46.83817],[114.70352,46.72971],[114.91198,46.492],[115.17047,46.56935],[116.24441,46.62106],[116.58196,46.29801]]]}},{"type":"Feature","properties":{"id":"mn-053","lat":43.45425,"lng":103.75803},"geometry":{"type":"Polygon","coordinates":[[[101.6376,42.51544],[100.01698,42.67652],[99.6219,42.59744],[99.5184,43.20114],[99.47789,44.10708],[99.81513,44.17015],[100.32672,43.81629],[101.18621,43.821],[101.75475,44.05659],[102.12393,44.14808],[102.99984,44.1541],[102.9306,44.35187],[103.25926,44.84166],[103.63577,45.01418],[103.77168,45.18835],[104.10076,45.18391],[104.11213,44.92672],[104.20256,44.83034],[105.47721,44.70027],[105.76298,44.30624],[105.99697,44.20255],[106.47467,44.25301],[107.27979,44.49558],[107.44629,44.46411],[107.70808,44.51129],[107.66974,44.31967],[107.9767,43.70736],[108.05225,43.11509],[108.04968,42.43912],[106.76783,42.28662],[105.2009,41.74347],[104.97383,41.58615],[104.89234,41.64477],[104.50492,41.65655],[104.50078,41.8706],[103.69143,41.75923],[103.07348,42.00452],[102.03416,42.18461],[101.6376,42.51544]]]}},{"type":"Feature","properties":{"id":"mn-055","lat":45.87565,"lng":102.69362},"geometry":{"type":"Polygon","coordinates":[[[104.14747,47.29799],[104.1793,47.14885],[104.35387,46.99796],[104.34653,46.90597],[104.23439,46.85244],[104.38167,46.69247],[104.40627,46.52845],[104.60388,46.42047],[104.4197,46.16059],[104.17073,46.11088],[104.05921,45.74377],[103.76869,45.71809],[103.62533,45.62176],[103.63123,45.49655],[103.8122,45.33248],[103.68642,45.05867],[103.23042,44.80383],[102.9306,44.35187],[102.99984,44.1541],[102.12393,44.14808],[101.75475,44.05659],[101.49792,44.70084],[101.56799,44.85199],[101.20502,45.011],[101.14135,45.15208],[101.11024,45.41211],[101.26672,45.58843],[101.29772,46.00753],[101.49978,46.15114],[101.45027,46.32942],[101.56086,46.45287],[101.51921,46.59602],[101.26362,46.81823],[101.80116,46.90132],[102.26976,47.05465],[102.43202,46.9623],[102.51078,46.9731],[102.54271,47.09909],[102.73113,47.28673],[102.63594,47.38786],[102.6564,47.43209],[103.03043,47.35081],[103.19301,47.20611],[103.52508,47.19603],[104.14747,47.29799]]]}},{"type":"Feature","properties":{"id":"mn-057","lat":48.30183,"lng":96.22274},"geometry":{"type":"Polygon","coordinates":[[[95.82788,50.02015],[95.94632,49.9385],[96.05598,49.99881],[96.34629,49.88858],[96.50329,49.92212],[96.58514,49.85753],[96.70193,49.91375],[97.00589,49.86528],[97.14986,49.71433],[96.9013,49.56095],[96.85769,49.43667],[97.15824,49.22697],[97.53237,49.20237],[97.91664,49.03101],[98.18598,49.06042],[98.52032,48.98409],[98.64135,49.01556],[98.74243,49.13442],[99.07946,49.13075],[99.15377,48.84239],[99.0158,48.61336],[99.09662,48.33803],[98.69675,48.2275],[98.56053,48.1181],[98.18701,48.05485],[98.22081,47.8563],[98.17275,47.69683],[98.39103,47.65037],[98.38266,47.57906],[98.15394,47.23877],[97.85928,47.17456],[97.63872,46.60501],[97.39429,46.67338],[97.23875,46.5878],[96.98657,46.60982],[96.83474,46.89305],[96.67951,46.94055],[96.38505,46.8868],[96.31953,47.07976],[96.17959,47.25737],[95.47038,47.57353],[95.11009,47.56242],[94.9684,47.67588],[94.50971,47.68696],[94.14633,47.77827],[93.48797,47.63105],[93.26855,47.86741],[93.19083,48.08854],[93.46637,48.26563],[93.50254,48.36304],[93.45645,48.39756],[93.51587,48.50435],[93.71545,48.6576],[94.13031,48.80297],[94.79352,48.68674],[95.52175,48.85847],[95.68969,49.36205],[95.46232,49.60576],[95.45922,49.87716],[95.82788,50.02015]]]}},{"type":"Feature","properties":{"id":"mn-059","lat":45.45185,"lng":106.12299},"geometry":{"type":"Polygon","coordinates":[[[107.1015,46.40352],[107.4158,46.42647],[107.79676,46.57088],[107.85598,46.76107],[107.95675,46.77441],[108.02072,46.69325],[108.2112,46.67224],[108.07354,46.57292],[108.31538,46.33381],[108.30226,46.00241],[108.41894,45.9004],[108.59237,45.93265],[108.50772,45.63732],[108.61366,45.02221],[108.48271,44.99265],[108.30763,44.85127],[107.85226,44.80584],[107.79045,44.58694],[107.70808,44.51129],[107.44629,44.46411],[107.27979,44.49558],[106.47467,44.25301],[106.02715,44.1972],[105.76298,44.30624],[105.47721,44.70027],[104.20256,44.83034],[104.11213,44.92672],[104.12122,45.16288],[103.77168,45.18835],[103.79948,45.36126],[103.61314,45.54244],[103.62533,45.62176],[103.74347,45.71013],[104.05921,45.74377],[104.18137,46.12328],[104.4197,46.16059],[104.52843,46.27165],[104.55138,46.38074],[104.60388,46.42047],[104.65328,46.38043],[104.96675,46.59041],[105.3967,46.43887],[105.66004,46.70971],[105.80205,46.7335],[106.16389,46.57457],[106.83392,46.55147],[107.1015,46.40352]]]}},{"type":"Feature","properties":{"id":"mn-061","lat":48.3572,"lng":114.17014},"geometry":{"type":"Polygon","coordinates":[[[116.68428,49.82326],[116.03781,48.87015],[116.02819,48.76746],[115.8004,48.53037],[115.79999,48.24233],[115.51422,48.13164],[115.57572,47.90974],[115.91451,47.68391],[116.24389,47.86289],[116.82205,47.8763],[117.36083,47.65087],[117.7669,47.99314],[118.18248,48.02821],[118.4728,47.98945],[118.76741,47.75616],[119.08346,47.66156],[119.1339,47.52754],[119.31011,47.4761],[119.2819,47.41486],[119.69996,47.15953],[119.77014,46.993],[119.89643,46.89859],[119.87266,46.67323],[119.68012,46.59163],[119.06238,46.66095],[118.84652,46.76549],[118.72007,46.67674],[118.26899,46.72294],[117.90064,46.6076],[117.7976,46.52026],[117.67337,46.51602],[117.56815,46.60354],[117.39379,46.57137],[117.33747,46.35728],[116.81461,46.38673],[116.58196,46.29801],[116.24441,46.62106],[115.17047,46.56935],[114.91198,46.492],[114.70352,46.72971],[114.45568,46.83817],[114.47873,47.14637],[114.43542,47.19717],[113.80352,47.51116],[112.94983,47.67107],[112.6868,47.59859],[112.68835,47.81021],[112.53859,48.07681],[112.54076,48.47208],[112.21354,48.94936],[112.24858,49.04037],[112.17024,49.3205],[112.20683,49.3603],[112.12641,49.43994],[112.47327,49.53413],[112.73372,49.49279],[113.04367,49.5886],[113.21245,49.82202],[113.57966,50.01994],[113.84982,50.08072],[114.28629,50.27688],[114.75375,50.23621],[114.99735,50.14433],[115.38782,49.89106],[115.71627,49.87778],[116.21764,50.01385],[116.57545,49.92176],[116.68428,49.82326]]]}},{"type":"Feature","properties":{"id":"mn-063","lat":44.59661,"lng":109.64233},"geometry":{"type":"Polygon","coordinates":[[[111.98464,45.08715],[111.73853,44.9663],[111.39705,44.38737],[111.54382,44.15674],[111.83879,43.93879],[111.94431,43.78637],[111.93335,43.69664],[111.75383,43.6632],[111.56769,43.50254],[110.97341,43.3156],[110.40673,42.76861],[109.48513,42.4493],[108.96129,42.44754],[108.79685,42.39837],[108.04968,42.43912],[108.05225,43.11509],[107.9767,43.70736],[107.66788,44.36776],[107.85226,44.80584],[108.30763,44.85127],[108.62162,45.05456],[108.50772,45.63732],[108.59237,45.93265],[108.41894,45.9004],[108.30226,46.00241],[108.31538,46.33381],[108.07354,46.57292],[108.2112,46.67224],[108.02072,46.69325],[107.95675,46.77441],[108.47992,46.7803],[108.71061,46.86053],[108.82812,47.01176],[108.94945,46.97419],[108.98377,46.81342],[109.1018,46.85564],[109.11678,46.75255],[109.00878,46.49851],[109.21776,46.26893],[109.39191,46.17855],[109.74145,46.18876],[109.9897,46.31064],[110.07104,46.47944],[110.04344,46.62044],[110.09615,46.63584],[110.20602,46.60398],[110.55235,46.24048],[110.84867,46.09274],[110.97207,46.07409],[111.23097,46.23],[111.60087,46.11202],[111.77099,45.80454],[111.75435,45.50818],[111.97097,45.28489],[111.98464,45.08715]]]}},{"type":"Feature","properties":{"id":"mn-064","lat":47.77455,"lng":108.3402},"geometry":{"type":"Polygon","coordinates":[[[108.48488,47.91361],[108.42876,47.55632],[108.26154,47.58976],[108.19859,47.72339],[108.23611,47.82571],[108.353,47.91821],[108.48488,47.91361]]]}},{"type":"Feature","properties":{"id":"mn-065","lat":45.26349,"lng":95.7618},"geometry":{"type":"Polygon","coordinates":[[[93.68827,44.89106],[93.07594,45.00519],[93.13554,45.44787],[93.11011,45.66781],[93.40932,45.92376],[93.40436,46.01125],[93.63029,46.35001],[93.53417,46.57132],[93.78325,46.58558],[94.26425,46.82763],[94.08349,47.07785],[94.03367,47.2427],[93.54006,47.50511],[93.48797,47.63105],[93.73188,47.65032],[94.11139,47.77905],[94.50971,47.68696],[94.9684,47.67588],[95.11009,47.56242],[95.47038,47.57353],[96.17959,47.25737],[96.31953,47.07976],[96.38505,46.8868],[96.67951,46.94055],[96.83474,46.89305],[96.98657,46.60982],[97.23875,46.5878],[97.39429,46.67338],[97.63872,46.60501],[97.69154,46.32663],[97.98154,46.10088],[98.15011,46.05344],[98.37739,45.83586],[98.47919,45.45134],[98.34783,45.07911],[98.22546,44.94671],[98.21739,44.56896],[97.9432,44.37166],[97.97844,43.99618],[97.94072,43.60034],[97.7982,43.27891],[97.84999,42.72304],[97.19327,42.78726],[96.35777,42.7245],[96.3187,42.91007],[95.87439,43.2471],[95.53528,43.95768],[95.31897,44.01711],[95.32269,44.15824],[95.39772,44.2805],[95.03681,44.25497],[94.72086,44.3358],[94.58805,44.4361],[94.33846,44.51212],[94.18188,44.66084],[93.92742,44.67293],[93.68827,44.89106]]]}},{"type":"Feature","properties":{"id":"mn-067","lat":48.86969,"lng":103.10712},"geometry":{"type":"Polygon","coordinates":[[[102.61953,50.39901],[102.92739,50.30298],[103.20169,50.29698],[103.27678,50.19756],[103.60141,50.13353],[103.78527,50.18614],[104.12168,50.14826],[104.3495,50.27187],[104.52254,50.14986],[104.6167,50.00922],[104.51593,49.98243],[104.52316,49.87504],[104.73348,49.68604],[104.67271,49.64565],[104.51954,49.10553],[104.10303,49.12124],[104.00071,48.98678],[104.30075,48.9289],[104.54228,48.78997],[104.53391,48.41916],[104.28834,48.14378],[104.39335,47.98844],[104.70382,47.94488],[104.76046,47.66169],[104.5275,47.65342],[104.48668,47.59963],[104.15615,47.52475],[104.06861,47.46832],[104.17186,47.35695],[104.14747,47.29799],[103.67773,47.25055],[103.66047,47.33822],[103.40054,47.49488],[103.20737,47.69887],[103.09007,47.72272],[103.014,47.8431],[102.85422,47.90431],[102.8075,48.0781],[102.68007,48.21967],[102.36908,48.33214],[102.22935,48.49526],[102.13116,48.81048],[101.97706,48.77645],[101.67817,48.94383],[101.63517,49.1139],[101.72571,49.23374],[101.97789,49.37301],[102.34479,49.45313],[102.51967,49.63299],[102.78476,49.69149],[102.10305,49.94605],[102.41776,50.30039],[102.61953,50.39901]]]}},{"type":"Feature","properties":{"id":"mn-069","lat":45.23613,"lng":99.77295},"geometry":{"type":"Polygon","coordinates":[[[99.47448,42.5642],[97.84999,42.72304],[97.7982,43.27891],[97.94072,43.60034],[97.97844,43.99618],[97.9432,44.37166],[98.21739,44.56896],[98.22546,44.94671],[98.34783,45.07911],[98.47919,45.45134],[98.37739,45.83586],[98.15011,46.05344],[97.98154,46.10088],[97.68254,46.33846],[97.63635,46.66167],[97.87519,47.19459],[98.15394,47.23877],[98.26525,47.36174],[98.26566,47.45297],[98.39103,47.65037],[98.59546,47.72716],[98.74067,47.71497],[98.79069,47.578],[99.01177,47.4786],[99.27749,47.49697],[99.65276,47.66355],[99.6726,47.5295],[99.83156,47.40388],[99.87156,47.10586],[100.40114,47.18461],[100.4893,47.00127],[100.62614,46.95222],[100.71275,46.84102],[101.2014,46.86112],[101.51921,46.59602],[101.56086,46.45287],[101.45027,46.32942],[101.49978,46.15114],[101.29772,46.00753],[101.26672,45.58843],[101.11076,45.39315],[101.18507,45.02741],[101.56799,44.85199],[101.49792,44.70084],[101.75475,44.05659],[101.21029,43.82363],[100.32672,43.81629],[99.81513,44.17015],[99.48719,44.11395],[99.5184,43.20114],[99.6219,42.59744],[99.47448,42.5642]]]}},{"type":"Feature","properties":{"id":"mn-071","lat":48.25445,"lng":89.68661},"geometry":{"type":"Polygon","coordinates":[[[88.05941,48.70809],[87.73788,48.86937],[87.8726,48.96802],[87.81632,49.16584],[87.95678,49.16889],[88.14395,49.27074],[88.11553,49.35657],[88.17475,49.44386],[88.61576,49.49295],[88.87063,49.436],[88.88892,49.54168],[89.01408,49.46055],[89.19526,49.52153],[89.21644,49.63449],[89.37194,49.58168],[89.70241,49.71996],[89.61534,49.84192],[89.66768,49.92729],[89.99709,50.00366],[90.07495,49.97493],[90.30036,49.57573],[90.63574,49.42727],[90.68318,49.32386],[90.89939,49.29849],[90.91303,49.20713],[91.08501,48.98716],[91.31022,48.85092],[91.34701,48.70085],[91.09752,48.70178],[90.68649,48.58277],[90.84462,48.43214],[90.79056,48.31121],[90.83438,48.12926],[90.96409,48.032],[91.18454,47.65632],[91.25844,47.49697],[91.24211,47.38936],[91.46876,47.1779],[91.41822,46.97507],[91.89013,46.68805],[91.88207,46.64465],[91.50473,46.64206],[91.41698,46.56005],[91.26867,46.65969],[91.01429,46.68984],[90.88513,46.94473],[90.71212,47.0147],[90.46872,47.30892],[90.48722,47.37819],[90.3448,47.65864],[90.08285,47.7561],[90.04461,47.87977],[89.7513,47.82432],[89.5418,48.03102],[89.04555,47.99299],[88.91683,48.10595],[88.59623,48.19768],[88.50269,48.39255],[87.98303,48.55233],[87.94283,48.59949],[88.05941,48.70809]]]}},{"type":"Feature","properties":{"id":"mn-073","lat":48.04076,"lng":100.50313},"geometry":{"type":"Polygon","coordinates":[[[101.65398,48.99975],[101.71517,48.91469],[101.97706,48.77645],[102.13116,48.81048],[102.22935,48.49526],[102.36908,48.33214],[102.68007,48.21967],[102.8075,48.0781],[102.85422,47.90431],[103.014,47.8431],[103.09007,47.72272],[103.20737,47.69887],[103.40054,47.49488],[103.66047,47.33822],[103.67773,47.25055],[103.52508,47.19603],[103.19301,47.20611],[103.03043,47.35081],[102.6564,47.43209],[102.63594,47.38786],[102.73113,47.28673],[102.54271,47.09909],[102.51078,46.9731],[102.43202,46.9623],[102.26976,47.05465],[101.80116,46.90132],[101.26362,46.81823],[101.17856,46.86799],[100.71275,46.84102],[100.62614,46.95222],[100.4893,47.00127],[100.40114,47.18461],[99.87156,47.10586],[99.83156,47.40388],[99.6726,47.5295],[99.65276,47.66355],[99.27749,47.49697],[99.01177,47.4786],[98.79069,47.578],[98.71101,47.72887],[98.39103,47.65037],[98.17275,47.69683],[98.22081,47.8563],[98.16128,48.00343],[98.21957,48.08275],[98.56053,48.1181],[98.69675,48.2275],[99.09662,48.33803],[99.23759,48.26078],[99.35242,48.32227],[99.68118,48.31576],[99.78402,48.48205],[100.1595,48.40139],[100.20456,48.49337],[100.45643,48.55848],[100.34688,48.63414],[100.35783,48.79516],[100.57074,48.94471],[100.42119,49.01727],[100.41933,49.06543],[100.59027,49.07804],[100.71337,49.21446],[101.34062,48.97608],[101.65398,48.99975]]]}},{"type":"Feature","properties":{"id":"mn-1","lat":47.95131,"lng":106.95376},"geometry":{"type":"Polygon","coordinates":[[[106.35669,48.2563],[106.88178,48.17189],[107.09933,48.21881],[107.33198,47.98906],[107.57217,47.91356],[107.51078,47.65182],[107.27658,47.63942],[107.03278,47.73238],[106.52211,47.74546],[106.35669,48.2563]]]}}]}
