{"type":"FeatureCollection","features":[{"type":"Feature","properties":{"id":"mr-01","lat":20.2373,"lng":-6.89431},"geometry":{"type":"Polygon","coordinates":[[[-6.37163,23.12398],[-5.62335,16.52783],[-5.35329,16.31198],[-5.51095,15.4942],[-9.00322,15.49553],[-8.95937,15.53908],[-8.96953,15.85697],[-9.06748,16.06217],[-8.86904,16.32164],[-8.89377,16.39171],[-8.28923,17.02304],[-8.59833,17.35062],[-9.14975,17.28233],[-6.37163,23.12398]]]}},{"type":"Feature","properties":{"id":"mr-02","lat":16.52992,"lng":-9.77376},"geometry":{"type":"Polygon","coordinates":[[[-9.00322,15.49553],[-9.34922,15.49564],[-9.35645,15.69785],[-9.45169,15.58833],[-9.42389,15.44053],[-10.06762,15.36475],[-10.32265,15.43709],[-10.58475,15.42813],[-10.66691,15.9381],[-10.77869,16.04486],[-10.75991,16.18511],[-10.84484,16.3019],[-10.80959,16.42272],[-10.87235,16.46489],[-10.69983,16.59496],[-10.83866,16.6141],[-10.99036,16.81636],[-10.98669,17.35625],[-11.07947,17.72282],[-10.33254,17.51823],[-9.72271,17.55632],[-9.14975,17.28233],[-8.59833,17.35062],[-8.28923,17.02304],[-8.89377,16.39171],[-8.86904,16.32164],[-9.06748,16.06217],[-8.96953,15.85697],[-8.95937,15.53908],[-9.00322,15.49553]]]}},{"type":"Feature","properties":{"id":"mr-03","lat":16.76775,"lng":-11.88921},"geometry":{"type":"Polygon","coordinates":[[[-10.91517,15.1029],[-11.43483,15.62339],[-11.52733,15.64256],[-11.61487,15.54117],[-11.70174,15.53743],[-11.50033,15.96934],[-11.81261,16.05543],[-11.83418,15.90911],[-11.93617,15.90179],[-12.00489,15.93939],[-12.01029,16.05215],[-12.22222,16.12176],[-12.25602,16.23687],[-12.42782,16.20547],[-12.42939,16.44285],[-12.76224,16.45887],[-12.73568,16.55297],[-12.83647,16.69769],[-12.81844,16.92861],[-12.72793,17.04707],[-12.51791,17.1212],[-12.31023,17.27541],[-12.21364,17.18681],[-11.90989,17.08617],[-11.75253,17.13913],[-11.57043,17.12394],[-11.46883,17.50973],[-11.51454,17.55704],[-11.41516,17.63295],[-11.5811,17.98534],[-11.48637,18.07786],[-11.21249,18.09639],[-11.13611,18.24111],[-10.97069,18.31092],[-11.09363,17.65761],[-10.98669,17.35625],[-10.99702,16.83781],[-10.83866,16.6141],[-10.69983,16.59496],[-10.87235,16.46489],[-10.80959,16.42272],[-10.84484,16.3019],[-10.75991,16.18511],[-10.77869,16.04486],[-10.66691,15.9381],[-10.58475,15.42813],[-10.73637,15.42263],[-10.91517,15.1029]]]}},{"type":"Feature","properties":{"id":"mr-04","lat":15.99577,"lng":-12.68541},"geometry":{"type":"Polygon","coordinates":[[[-13.66895,16.10574],[-13.72278,16.1461],[-13.63247,16.2896],[-13.18164,16.41404],[-13.11007,16.57594],[-12.93153,16.61643],[-12.82301,16.8583],[-12.83154,16.67368],[-12.73568,16.55297],[-12.76224,16.45887],[-12.42939,16.44285],[-12.42782,16.20547],[-12.25602,16.23687],[-12.22222,16.12176],[-12.01029,16.05215],[-12.00489,15.93939],[-12.23754,15.88063],[-12.46311,15.65853],[-12.74664,15.13114],[-12.78722,15.21416],[-12.88836,15.25088],[-12.82805,15.28387],[-12.91897,15.36537],[-12.96432,15.50916],[-13.08385,15.49275],[-13.10971,15.59641],[-13.23784,15.62344],[-13.31593,15.93045],[-13.44003,16.10186],[-13.5017,16.09514],[-13.48493,16.15498],[-13.66895,16.10574]]]}},{"type":"Feature","properties":{"id":"mr-05","lat":17.38363,"lng":-13.27021},"geometry":{"type":"Polygon","coordinates":[[[-14.9125,16.64064],[-14.9326,16.69051],[-14.32015,17.08805],[-13.95873,17.60353],[-13.73365,17.8],[-12.66907,18.55701],[-12.47872,18.27421],[-12.54478,17.49185],[-12.31023,17.27541],[-12.51791,17.1212],[-12.72793,17.04707],[-12.93153,16.61643],[-13.11007,16.57594],[-13.18164,16.41404],[-13.63247,16.2896],[-13.66857,16.18222],[-13.82732,16.1185],[-13.96408,16.23007],[-13.97785,16.33797],[-14.34325,16.63666],[-14.9125,16.64064]]]}},{"type":"Feature","properties":{"id":"mr-06","lat":17.43294,"lng":-15.10626},"geometry":{"type":"Polygon","coordinates":[[[-14.32015,17.08805],[-15.04437,16.63191],[-15.10757,16.66539],[-15.12509,16.58271],[-15.46399,16.58147],[-15.67219,16.48137],[-16.05377,16.49543],[-16.13227,16.55475],[-16.27381,16.52318],[-16.38538,16.23493],[-16.45876,16.19415],[-16.54235,15.80882],[-16.53921,16.26724],[-16.45922,16.64395],[-16.1726,17.26236],[-16.0321,17.8864],[-15.78146,17.88656],[-15.7811,18.39306],[-16.06012,18.39092],[-16.21036,18.99588],[-13.24423,19.00052],[-12.66907,18.55701],[-13.73365,17.8],[-13.95873,17.60353],[-14.32015,17.08805]]]}},{"type":"Feature","properties":{"id":"mr-07","lat":21.4358,"lng":-9.37867},"geometry":{"type":"Polygon","coordinates":[[[-14.2956,21.33323],[-13.01525,21.33343],[-13.03209,21.58194],[-12.37805,21.35162],[-10.78784,21.51998],[-6.50634,24.27597],[-6.37163,23.12398],[-7.98772,19.72541],[-11.03477,19.71138],[-11.4225,19.40884],[-11.45061,19.20307],[-11.67791,19.3198],[-12.34214,18.89957],[-12.66907,18.55701],[-13.24423,19.00052],[-14.22179,19.00052],[-14.15448,21.11807],[-14.2956,21.33323]]]}},{"type":"Feature","properties":{"id":"mr-08","lat":20.39708,"lng":-16.03895},"geometry":{"type":"MultiPolygon","coordinates":[[[[-16.32091,19.7285],[-16.34219,19.67642],[-16.39769,19.59992],[-16.32091,19.7285]]],[[[-16.49112,19.72508],[-16.47155,19.69965],[-16.48424,19.67772],[-16.49112,19.72508]]],[[[-16.34594,19.86835],[-16.36706,19.7211],[-16.43248,19.60126],[-16.46398,19.68464],[-16.34594,19.86835]]],[[[-17.05402,20.99546],[-16.95883,21.33286],[-14.2956,21.33323],[-14.17319,21.1445],[-15.83978,21.1508],[-15.5784,20.73744],[-16.28295,19.49509],[-16.31923,19.45279],[-16.29914,19.54702],[-16.39147,19.46406],[-16.35049,19.54662],[-16.45507,19.40827],[-16.42252,19.54385],[-16.2338,19.79365],[-16.24804,19.9029],[-16.3133,19.88972],[-16.22248,20.00357],[-16.26114,20.13569],[-16.20226,20.2333],[-16.46719,20.6496],[-16.40868,20.67504],[-16.52929,20.73896],[-16.54235,20.56086],[-16.67268,20.67756],[-16.91759,21.15917],[-17.01586,21.03124],[-17.05687,20.76691],[-17.05402,20.99546]]],[[[-16.4464,20.60733],[-16.47423,20.59418],[-16.4593,20.61469],[-16.4464,20.60733]]]]}},{"type":"Feature","properties":{"id":"mr-09","lat":18.43397,"lng":-10.59412},"geometry":{"type":"Polygon","coordinates":[[[-11.45061,19.20307],[-11.4225,19.40884],[-11.03477,19.71138],[-7.98772,19.72541],[-9.14975,17.28233],[-9.72271,17.55632],[-10.33254,17.51823],[-11.07947,17.72282],[-10.97069,18.31092],[-11.13611,18.24111],[-11.21249,18.09639],[-11.48637,18.07786],[-11.5811,17.98534],[-11.41516,17.63295],[-11.51454,17.55704],[-11.46883,17.50973],[-11.57043,17.12394],[-11.75253,17.13913],[-11.90989,17.08617],[-12.21364,17.18681],[-12.54478,17.49185],[-12.47872,18.27421],[-12.66907,18.55701],[-12.34214,18.89957],[-11.67791,19.3198],[-11.45061,19.20307]]]}},{"type":"Feature","properties":{"id":"mr-10","lat":15.49752,"lng":-12.14561},"geometry":{"type":"Polygon","coordinates":[[[-12.48489,15.01728],[-12.74664,15.13114],[-12.67491,15.33651],[-12.46311,15.65853],[-12.23754,15.88063],[-12.00489,15.93939],[-11.83418,15.90911],[-11.81261,16.05543],[-11.50033,15.96934],[-11.81692,15.2961],[-11.8609,15.049],[-11.81377,15.02854],[-11.82038,14.89997],[-11.87749,14.84152],[-12.07039,14.7344],[-12.13887,14.78453],[-12.24679,14.76701],[-12.44763,14.90744],[-12.48489,15.01728]]]}},{"type":"Feature","properties":{"id":"mr-11","lat":24.63505,"lng":-9.2836},"geometry":{"type":"Polygon","coordinates":[[[-8.68239,27.28542],[-4.82161,24.99507],[-6.59311,24.99413],[-6.50634,24.27597],[-10.78784,21.51998],[-12.37805,21.35162],[-13.03209,21.58194],[-13.09333,22.49548],[-13.1655,22.75269],[-13.11989,22.88354],[-13.01525,23.018],[-12.61943,23.27083],[-12.01934,23.461],[-12.01531,25.9949],[-8.68766,26.00002],[-8.68239,27.28542]]]}},{"type":"Feature","properties":{"id":"mr-12","lat":20.11627,"lng":-15.06359},"geometry":{"type":"Polygon","coordinates":[[[-16.21036,18.99588],[-16.53547,19.3808],[-16.40779,19.38923],[-16.28295,19.49509],[-15.5784,20.73744],[-15.83978,21.1508],[-14.17319,21.1445],[-14.22179,19.00052],[-16.21036,18.99588]]]}},{"type":"Feature","properties":{"id":"mr-nkc","lat":18.13874,"lng":-15.9137},"geometry":{"type":"Polygon","coordinates":[[[-16.0321,17.8864],[-16.06012,18.39092],[-15.7811,18.39306],[-15.78146,17.88656],[-16.0321,17.8864]]]}}]}
