{"type":"FeatureCollection","features":[{"type":"Feature","properties":{"id":"mt-01","lat":35.89029,"lng":14.44373},"geometry":{"type":"Polygon","coordinates":[[[14.4128,35.87949],[14.44594,35.89488],[14.45688,35.88571],[14.4128,35.87949]]]}},{"type":"Feature","properties":{"id":"mt-02","lat":35.89192,"lng":14.45463},"geometry":{"type":"Polygon","coordinates":[[[14.44594,35.89488],[14.45688,35.89606],[14.45777,35.88896],[14.44594,35.89488]]]}},{"type":"Feature","properties":{"id":"mt-03","lat":35.89068,"lng":14.5213},"geometry":{"type":"Polygon","coordinates":[[[14.52126,35.88711],[14.51945,35.89425],[14.52937,35.88156],[14.52126,35.88711]]]}},{"type":"Feature","properties":{"id":"mt-04","lat":35.88946,"lng":14.4668},"geometry":{"type":"Polygon","coordinates":[[[14.46369,35.88482],[14.4625,35.90109],[14.4768,35.89411],[14.46369,35.88482]]]}},{"type":"Feature","properties":{"id":"mt-05","lat":35.82464,"lng":14.51877},"geometry":{"type":"Polygon","coordinates":[[[14.52523,35.83985],[14.52752,35.80121],[14.49762,35.80942],[14.52523,35.83985]]]}},{"type":"Feature","properties":{"id":"mt-06","lat":35.88152,"lng":14.51983},"geometry":{"type":"Polygon","coordinates":[[[14.52126,35.88711],[14.5267,35.87446],[14.51073,35.87594],[14.52126,35.88711]]]}},{"type":"Feature","properties":{"id":"mt-07","lat":35.85369,"lng":14.38058},"geometry":{"type":"Polygon","coordinates":[[[14.39534,35.86588],[14.38152,35.84296],[14.36481,35.86442],[14.39534,35.86588]]]}},{"type":"Feature","properties":{"id":"mt-08","lat":35.8647,"lng":14.51597},"geometry":{"type":"Polygon","coordinates":[[[14.5267,35.87446],[14.51635,35.86026],[14.50836,35.86914],[14.5267,35.87446]]]}},{"type":"Feature","properties":{"id":"mt-09","lat":35.88437,"lng":14.50332},"geometry":{"type":"Polygon","coordinates":[[[14.50067,35.87979],[14.50156,35.89517],[14.51073,35.88896],[14.50067,35.87979]]]}},{"type":"Feature","properties":{"id":"mt-10","lat":36.03427,"lng":14.24083},"geometry":{"type":"Polygon","coordinates":[[[14.24113,36.02847],[14.239,36.03794],[14.24468,36.0306],[14.24113,36.02847]]]}},{"type":"Feature","properties":{"id":"mt-11","lat":35.84591,"lng":14.4965},"geometry":{"type":"Polygon","coordinates":[[[14.49446,35.85079],[14.50333,35.83659],[14.49653,35.84103],[14.49446,35.85079]]]}},{"type":"Feature","properties":{"id":"mt-12","lat":35.90349,"lng":14.49232},"geometry":{"type":"Polygon","coordinates":[[[14.49288,35.90662],[14.50156,35.89517],[14.48588,35.90036],[14.49288,35.90662]]]}},{"type":"Feature","properties":{"id":"mt-13","lat":36.02634,"lng":14.27776},"geometry":{"type":"Polygon","coordinates":[[[14.28065,36.03344],[14.2776,36.01667],[14.27166,36.01924],[14.28065,36.03344]]]}},{"type":"Feature","properties":{"id":"mt-14","lat":36.06486,"lng":14.2084},"geometry":{"type":"Polygon","coordinates":[[[14.19143,36.05948],[14.21293,36.07024],[14.21888,36.05143],[14.19143,36.05948]]]}},{"type":"Feature","properties":{"id":"mt-15","lat":35.91869,"lng":14.4581},"geometry":{"type":"Polygon","coordinates":[[[14.46369,35.91174],[14.4483,35.92565],[14.45511,35.9289],[14.46369,35.91174]]]}},{"type":"Feature","properties":{"id":"mt-16","lat":36.06103,"lng":14.23221},"geometry":{"type":"Polygon","coordinates":[[[14.22196,36.04859],[14.23353,36.07276],[14.23947,36.0493],[14.22196,36.04859]]]}},{"type":"Feature","properties":{"id":"mt-17","lat":35.84665,"lng":14.50949},"geometry":{"type":"Polygon","coordinates":[[[14.51102,35.85671],[14.51309,35.83008],[14.50333,35.83659],[14.51102,35.85671]]]}},{"type":"Feature","properties":{"id":"mt-18","lat":35.88004,"lng":14.48938},"geometry":{"type":"Polygon","coordinates":[[[14.49002,35.87565],[14.48067,35.88443],[14.4981,35.88607],[14.49002,35.87565]]]}},{"type":"Feature","properties":{"id":"mt-19","lat":35.90523,"lng":14.45888},"geometry":{"type":"Polygon","coordinates":[[[14.4486,35.90109],[14.46221,35.90937],[14.4625,35.90109],[14.4486,35.90109]]]}},{"type":"Feature","properties":{"id":"mt-20","lat":35.88374,"lng":14.51584},"geometry":{"type":"Polygon","coordinates":[[[14.51369,35.88038],[14.51537,35.89113],[14.52126,35.88711],[14.51369,35.88038]]]}},{"type":"Feature","properties":{"id":"mt-21","lat":35.8858,"lng":14.53346},"geometry":{"type":"Polygon","coordinates":[[[14.5249,35.89804],[14.54803,35.89004],[14.52937,35.88156],[14.5249,35.89804]]]}},{"type":"Feature","properties":{"id":"mt-22","lat":36.03972,"lng":14.22297},"geometry":{"type":"Polygon","coordinates":[[[14.23545,36.03179],[14.19484,36.0294],[14.22859,36.04764],[14.23545,36.03179]]]}},{"type":"Feature","properties":{"id":"mt-23","lat":35.84399,"lng":14.4827},"geometry":{"type":"Polygon","coordinates":[[[14.49031,35.83955],[14.47641,35.83837],[14.48173,35.84843],[14.49031,35.83955]]]}},{"type":"Feature","properties":{"id":"mt-24","lat":35.89798,"lng":14.44505},"geometry":{"type":"Polygon","coordinates":[[[14.44594,35.89488],[14.43499,35.90582],[14.4486,35.90109],[14.44594,35.89488]]]}},{"type":"Feature","properties":{"id":"mt-25","lat":35.83852,"lng":14.49394},"geometry":{"type":"Polygon","coordinates":[[[14.45718,35.84724],[14.49327,35.86292],[14.50895,35.82979],[14.45718,35.84724]]]}},{"type":"Feature","properties":{"id":"mt-26","lat":35.87136,"lng":14.49578},"geometry":{"type":"Polygon","coordinates":[[[14.49327,35.86292],[14.49661,35.88443],[14.50067,35.87979],[14.49327,35.86292]]]}},{"type":"Feature","properties":{"id":"mt-27","lat":35.85323,"lng":14.55356},"geometry":{"type":"Polygon","coordinates":[[[14.54298,35.86085],[14.56715,35.84561],[14.56582,35.8417],[14.54298,35.86085]]]}},{"type":"Feature","properties":{"id":"mt-28","lat":35.83679,"lng":14.53822},"geometry":{"type":"Polygon","coordinates":[[[14.5483,35.84577],[14.54026,35.82899],[14.52463,35.84458],[14.5483,35.84577]]]}},{"type":"Feature","properties":{"id":"mt-29","lat":35.88201,"lng":14.40989},"geometry":{"type":"Polygon","coordinates":[[[14.40481,35.87979],[14.41103,35.88423],[14.4128,35.87949],[14.40481,35.87979]]]}},{"type":"Feature","properties":{"id":"mt-30","lat":35.95104,"lng":14.37376},"geometry":{"type":"Polygon","coordinates":[[[14.37168,35.93423],[14.33473,35.98237],[14.4058,35.96785],[14.37168,35.93423]]]}},{"type":"Feature","properties":{"id":"mt-31","lat":35.92076,"lng":14.37852},"geometry":{"type":"Polygon","coordinates":[[[14.35866,35.89517],[14.37375,35.9363],[14.40422,35.90523],[14.35866,35.89517]]]}},{"type":"Feature","properties":{"id":"mt-32","lat":35.90863,"lng":14.42695},"geometry":{"type":"Polygon","coordinates":[[[14.4131,35.89754],[14.42996,35.91973],[14.43529,35.89517],[14.4131,35.89754]]]}},{"type":"Feature","properties":{"id":"mt-33","lat":35.8465,"lng":14.47262},"geometry":{"type":"Polygon","coordinates":[[[14.47641,35.83837],[14.46901,35.84931],[14.47966,35.84369],[14.47641,35.83837]]]}},{"type":"Feature","properties":{"id":"mt-34","lat":35.8953,"lng":14.47607},"geometry":{"type":"Polygon","coordinates":[[[14.48588,35.90036],[14.47412,35.89172],[14.47218,35.89887],[14.48588,35.90036]]]}},{"type":"Feature","properties":{"id":"mt-35","lat":35.8894,"lng":14.40754},"geometry":{"type":"Polygon","coordinates":[[[14.41103,35.88423],[14.39564,35.88748],[14.41162,35.89133],[14.41103,35.88423]]]}},{"type":"Feature","properties":{"id":"mt-36","lat":36.02745,"lng":14.22649},"geometry":{"type":"Polygon","coordinates":[[[14.23545,36.03179],[14.22088,36.01919],[14.20967,36.02311],[14.23545,36.03179]]]}},{"type":"Feature","properties":{"id":"mt-37","lat":36.03984,"lng":14.30724},"geometry":{"type":"Polygon","coordinates":[[[14.28065,36.03344],[14.32043,36.04624],[14.30527,36.03131],[14.28065,36.03344]]]}},{"type":"Feature","properties":{"id":"mt-38","lat":35.91869,"lng":14.4398},"geometry":{"type":"Polygon","coordinates":[[[14.4202,35.93393],[14.4649,35.94656],[14.44061,35.90346],[14.4202,35.93393]]]}},{"type":"Feature","properties":{"id":"mt-39","lat":35.87417,"lng":14.50426},"geometry":{"type":"Polygon","coordinates":[[[14.50836,35.88541],[14.50333,35.86292],[14.49475,35.85849],[14.50836,35.88541]]]}},{"type":"Feature","properties":{"id":"mt-40","lat":35.92535,"lng":14.48035},"geometry":{"type":"Polygon","coordinates":[[[14.47197,35.92032],[14.47869,35.93696],[14.50143,35.93038],[14.47197,35.92032]]]}},{"type":"Feature","properties":{"id":"mt-41","lat":35.89011,"lng":14.49065},"geometry":{"type":"Polygon","coordinates":[[[14.48943,35.89192],[14.49616,35.8883],[14.48663,35.88636],[14.48943,35.89192]]]}},{"type":"Feature","properties":{"id":"mt-42","lat":36.02768,"lng":14.30422},"geometry":{"type":"Polygon","coordinates":[[[14.29698,36.03037],[14.33424,36.03437],[14.30012,36.02499],[14.29698,36.03037]]]}},{"type":"Feature","properties":{"id":"mt-43","lat":35.88349,"lng":14.46175},"geometry":{"type":"Polygon","coordinates":[[[14.4841,35.87594],[14.45156,35.87801],[14.45777,35.88896],[14.4841,35.87594]]]}},{"type":"Feature","properties":{"id":"mt-44","lat":35.83018,"lng":14.45505},"geometry":{"type":"Polygon","coordinates":[[[14.45358,35.81628],[14.42882,35.82258],[14.46694,35.83778],[14.45358,35.81628]]]}},{"type":"Feature","properties":{"id":"mt-45","lat":36.03534,"lng":14.24552},"geometry":{"type":"Polygon","coordinates":[[[14.24468,36.0306],[14.23001,36.04906],[14.25557,36.04007],[14.24468,36.0306]]]}},{"type":"Feature","properties":{"id":"mt-46","lat":35.87875,"lng":14.39649},"geometry":{"type":"Polygon","coordinates":[[[14.4128,35.85997],[14.34262,35.9002],[14.4131,35.89754],[14.4128,35.85997]]]}},{"type":"Feature","properties":{"id":"mt-47","lat":35.83437,"lng":14.4948},"geometry":{"type":"Polygon","coordinates":[[[14.49446,35.8289],[14.49031,35.83955],[14.50422,35.8292],[14.49446,35.8289]]]}},{"type":"Feature","properties":{"id":"mt-48","lat":35.91368,"lng":14.49246},"geometry":{"type":"Polygon","coordinates":[[[14.4844,35.92269],[14.51039,35.9246],[14.48857,35.90468],[14.4844,35.92269]]]}},{"type":"Feature","properties":{"id":"mt-49","lat":35.90642,"lng":14.46859},"geometry":{"type":"Polygon","coordinates":[[[14.46369,35.91174],[14.48588,35.90036],[14.4625,35.90109],[14.46369,35.91174]]]}},{"type":"Feature","properties":{"id":"mt-50","lat":36.04326,"lng":14.19144},"geometry":{"type":"Polygon","coordinates":[[[14.21179,36.0519],[14.18491,36.03461],[14.1836,36.06477],[14.21179,36.0519]]]}},{"type":"Feature","properties":{"id":"mt-51","lat":35.92461,"lng":14.40068},"geometry":{"type":"Polygon","coordinates":[[[14.37168,35.94103],[14.43822,35.96257],[14.40333,35.90819],[14.37168,35.94103]]]}},{"type":"Feature","properties":{"id":"mt-52","lat":36.02154,"lng":14.24234},"geometry":{"type":"Polygon","coordinates":[[[14.24042,36.02658],[14.26002,36.01349],[14.233,36.01651],[14.24042,36.02658]]]}},{"type":"Feature","properties":{"id":"mt-53","lat":35.85464,"lng":14.49818},"geometry":{"type":"Polygon","coordinates":[[[14.49475,35.85849],[14.50984,35.8502],[14.49446,35.85079],[14.49475,35.85849]]]}},{"type":"Feature","properties":{"id":"mt-54","lat":35.8886,"lng":14.47546},"geometry":{"type":"Polygon","coordinates":[[[14.48663,35.88636],[14.4702,35.88423],[14.47218,35.89083],[14.48663,35.88636]]]}},{"type":"Feature","properties":{"id":"mt-55","lat":35.8395,"lng":14.43245},"geometry":{"type":"Polygon","coordinates":[[[14.42882,35.82258],[14.3986,35.86026],[14.4699,35.86026],[14.47049,35.85642],[14.42882,35.82258]]]}},{"type":"Feature","properties":{"id":"mt-56","lat":35.90372,"lng":14.50077},"geometry":{"type":"Polygon","coordinates":[[[14.49288,35.90662],[14.51393,35.90082],[14.50718,35.89872],[14.49288,35.90662]]]}},{"type":"Feature","properties":{"id":"mt-57","lat":35.91736,"lng":14.48119},"geometry":{"type":"Polygon","coordinates":[[[14.46369,35.91174],[14.4841,35.92003],[14.48558,35.9147],[14.46369,35.91174]]]}},{"type":"Feature","properties":{"id":"mt-58","lat":35.89458,"lng":14.49146},"geometry":{"type":"Polygon","coordinates":[[[14.4978,35.89723],[14.48943,35.89192],[14.48916,35.89738],[14.4978,35.89723]]]}},{"type":"Feature","properties":{"id":"mt-59","lat":35.86381,"lng":14.50524},"geometry":{"type":"Polygon","coordinates":[[[14.50836,35.86914],[14.50984,35.85494],[14.49475,35.85849],[14.50836,35.86914]]]}},{"type":"Feature","properties":{"id":"mt-60","lat":35.8966,"lng":14.50852},"geometry":{"type":"Polygon","coordinates":[[[14.50718,35.89872],[14.5249,35.89804],[14.50156,35.89517],[14.50718,35.89872]]]}},{"type":"Feature","properties":{"id":"mt-61","lat":36.05511,"lng":14.27819},"geometry":{"type":"Polygon","coordinates":[[[14.2506,36.04575],[14.28908,36.06447],[14.28065,36.03344],[14.2506,36.04575]]]}},{"type":"Feature","properties":{"id":"mt-62","lat":36.02634,"lng":14.27068},"geometry":{"type":"Polygon","coordinates":[[[14.27166,36.01924],[14.25509,36.03747],[14.28065,36.03344],[14.27166,36.01924]]]}},{"type":"Feature","properties":{"id":"mt-63","lat":35.88639,"lng":14.5474},"geometry":{"type":"Polygon","coordinates":[[[14.54803,35.89004],[14.55618,35.87926],[14.54002,35.88275],[14.54803,35.89004]]]}},{"type":"Feature","properties":{"id":"mt-64","lat":35.87358,"lng":14.53252},"geometry":{"type":"Polygon","coordinates":[[[14.52937,35.88156],[14.5486,35.86322],[14.52523,35.86559],[14.52937,35.88156]]]}},{"type":"Feature","properties":{"id":"mt-65","lat":36.05838,"lng":14.25429},"geometry":{"type":"Polygon","coordinates":[[[14.24515,36.04575],[14.2566,36.07559],[14.272,36.071],[14.24515,36.04575]]]}},{"type":"Feature","properties":{"id":"mt-66","lat":35.87284,"lng":14.45277},"geometry":{"type":"Polygon","coordinates":[[[14.43499,35.85789],[14.45452,35.88304],[14.46339,35.86263],[14.43499,35.85789]]]}},{"type":"Feature","properties":{"id":"mt-67","lat":35.85065,"lng":14.52465},"geometry":{"type":"Polygon","coordinates":[[[14.54298,35.86085],[14.52463,35.84458],[14.51102,35.85671],[14.54298,35.86085]]]}},{"type":"Feature","properties":{"id":"mt-68","lat":35.82732,"lng":14.46994},"geometry":{"type":"Polygon","coordinates":[[[14.47641,35.83837],[14.47267,35.81143],[14.45358,35.81628],[14.47641,35.83837]]]}}]}
