{"type":"FeatureCollection","features":[{"type":"Feature","properties":{"id":"mu-ag","lat":-10.37973,"lng":56.554},"geometry":{"type":"Polygon","coordinates":[[[56.5298,-10.35296],[56.53565,-10.32391],[56.56935,-10.40651],[56.5298,-10.35296]]]}},{"type":"Feature","properties":{"id":"mu-bl","lat":-20.333,"lng":57.42343},"geometry":{"type":"Polygon","coordinates":[[[57.39926,-20.49798],[57.30348,-20.43092],[57.35776,-20.42742],[57.37745,-20.2431],[57.46388,-20.16155],[57.48695,-20.4229],[57.39138,-20.45296],[57.39926,-20.49798]]]}},{"type":"Feature","properties":{"id":"mu-br","lat":-20.23387,"lng":57.48314},"geometry":{"type":"Polygon","coordinates":[[[57.49479,-20.24851],[57.45969,-20.21906],[57.48308,-20.21923],[57.49479,-20.24851]]]}},{"type":"Feature","properties":{"id":"mu-cu","lat":-20.31148,"lng":57.53147},"geometry":{"type":"Polygon","coordinates":[[[57.50358,-20.34691],[57.52876,-20.29654],[57.55454,-20.32641],[57.50358,-20.34691]]]}},{"type":"Feature","properties":{"id":"mu-fl","lat":-20.22505,"lng":57.70103},"geometry":{"type":"Polygon","coordinates":[[[57.73365,-20.09612],[57.78891,-20.27418],[57.66843,-20.3284],[57.60937,-20.17591],[57.73365,-20.09612]]]}},{"type":"Feature","properties":{"id":"mu-gp","lat":-20.37296,"lng":57.65486},"geometry":{"type":"Polygon","coordinates":[[[57.77817,-20.30478],[57.67221,-20.47967],[57.54601,-20.40249],[57.59971,-20.34343],[57.77817,-20.30478]]]}},{"type":"Feature","properties":{"id":"mu-mo","lat":-20.24088,"lng":57.58982},"geometry":{"type":"Polygon","coordinates":[[[57.60788,-20.18486],[57.67917,-20.29081],[57.63407,-20.3445],[57.48588,-20.19094],[57.60788,-20.18486]]]}},{"type":"Feature","properties":{"id":"mu-pa","lat":-20.07654,"lng":57.55637},"geometry":{"type":"Polygon","coordinates":[[[57.49383,-20.12233],[57.52809,-20.03086],[57.58033,-19.99993],[57.62655,-20.16517],[57.54626,-20.20196],[57.53957,-20.12221],[57.49383,-20.12233]]]}},{"type":"Feature","properties":{"id":"mu-pl","lat":-20.15132,"lng":57.51124},"geometry":{"type":"Polygon","coordinates":[[[57.46541,-20.16753],[57.49383,-20.12233],[57.54709,-20.1351],[57.54626,-20.20196],[57.46541,-20.16753]]]}},{"type":"Feature","properties":{"id":"mu-pw","lat":-20.27274,"lng":57.52395},"geometry":{"type":"Polygon","coordinates":[[[57.59971,-20.34343],[57.50306,-20.42505],[57.45903,-20.3982],[57.45473,-20.33699],[57.55454,-20.32641],[57.45969,-20.21906],[57.47084,-20.18879],[57.59971,-20.34343]]]}},{"type":"Feature","properties":{"id":"mu-qb","lat":-20.26635,"lng":57.49464},"geometry":{"type":"Polygon","coordinates":[[[57.51119,-20.27663],[57.45696,-20.25607],[57.49479,-20.24851],[57.51119,-20.27663]]]}},{"type":"Feature","properties":{"id":"mu-ro","lat":-19.71059,"lng":63.39835},"geometry":{"type":"Polygon","coordinates":[[[63.47625,-19.67783],[63.36638,-19.76719],[63.33229,-19.73642],[63.38917,-19.68475],[63.47625,-19.67783]]]}},{"type":"Feature","properties":{"id":"mu-rr","lat":-20.04803,"lng":57.65131},"geometry":{"type":"Polygon","coordinates":[[[57.58033,-19.99993],[57.6797,-19.99993],[57.73365,-20.09612],[57.63085,-20.1555],[57.58033,-19.99993]]]}},{"type":"Feature","properties":{"id":"mu-sa","lat":-20.4725,"lng":57.51797},"geometry":{"type":"Polygon","coordinates":[[[57.63097,-20.49204],[57.47364,-20.51507],[57.39138,-20.45296],[57.57393,-20.40142],[57.63097,-20.49204]]]}},{"type":"Feature","properties":{"id":"mu-vp","lat":-20.3093,"lng":57.48964},"geometry":{"type":"Polygon","coordinates":[[[57.48313,-20.32206],[57.45921,-20.29086],[57.52876,-20.29654],[57.48313,-20.32206]]]}}]}
