{"type":"FeatureCollection","features":[{"type":"Feature","properties":{"id":"mv-00","lat":3.54678,"lng":72.91785},"geometry":{"type":"MultiPolygon","coordinates":[[[[72.83139,3.51057],[72.83106,3.50357],[72.82797,3.50544],[72.83139,3.51057]]],[[[72.79371,3.51691],[72.79884,3.51195],[72.79119,3.51089],[72.79371,3.51691]]],[[[72.91163,3.54165],[72.91993,3.55215],[72.9284,3.55191],[72.91163,3.54165]]],[[[72.94191,3.61884],[72.94158,3.61188],[72.93849,3.61372],[72.94191,3.61884]]],[[[72.69256,3.72695],[72.69459,3.71499],[72.68971,3.71796],[72.69256,3.72695]]],[[[72.9524,3.73383],[72.952,3.72687],[72.94898,3.72858],[72.9524,3.73383]]],[[[72.94581,3.77212],[72.94532,3.7652],[72.94239,3.76695],[72.94581,3.77212]]],[[[72.94459,3.83686],[72.9441,3.8299],[72.94117,3.83169],[72.94459,3.83686]]]]}},{"type":"Feature","properties":{"id":"mv-01","lat":-0.59535,"lng":73.09581},"geometry":{"type":"MultiPolygon","coordinates":[[[[73.17254,-0.68857],[73.16358,-0.68662],[73.1631,-0.68182],[73.17254,-0.68857]]],[[[73.19923,-0.67864],[73.19223,-0.67718],[73.20411,-0.67116],[73.19923,-0.67864]]],[[[73.12696,-0.66627],[73.12387,-0.65976],[73.12428,-0.65618],[73.12696,-0.66627]]],[[[73.22731,-0.64284],[73.22999,-0.6233],[73.23487,-0.6194],[73.22731,-0.64284]]],[[[73.10499,-0.5792],[73.0949,-0.60467],[73.09116,-0.58603],[73.10499,-0.5792]]],[[[73.24464,-0.60719],[73.23902,-0.5844],[73.24733,-0.5779],[73.24464,-0.60719]]]]}},{"type":"Feature","properties":{"id":"mv-02","lat":4.42685,"lng":72.95303},"geometry":{"type":"MultiPolygon","coordinates":[[[[72.70314,4.00332],[72.7046,3.99641],[72.69907,3.9995],[72.70314,4.00332]]],[[[72.97047,4.26594],[72.9756,4.26236],[72.97576,4.2604],[72.97047,4.26594]]],[[[72.95867,4.26252],[72.95436,4.26146],[72.94516,4.2663],[72.95867,4.26252]]],[[[72.95606,4.42211],[72.94337,4.43159],[72.95704,4.4383],[72.95606,4.42211]]]]}},{"type":"Feature","properties":{"id":"mv-03","lat":5.27869,"lng":73.585},"geometry":{"type":"MultiPolygon","coordinates":[[[[73.47014,5.30772],[73.46705,5.30834],[73.47022,5.30777],[73.47014,5.30772]]],[[[73.39869,5.35961],[73.39617,5.35712],[73.39747,5.36221],[73.39869,5.35961]]],[[[73.32325,5.36823],[73.31935,5.36294],[73.31772,5.36579],[73.32325,5.36823]]],[[[73.3475,5.42878],[73.35076,5.42768],[73.34457,5.42674],[73.3475,5.42878]]],[[[73.36069,5.45783],[73.36297,5.46308],[73.36313,5.45938],[73.36069,5.45783]]],[[[73.46241,5.54361],[73.45932,5.54173],[73.45631,5.54267],[73.46241,5.54361]]],[[[73.49724,5.24502],[73.49383,5.246],[73.49977,5.24689],[73.49724,5.24502]]],[[[73.58286,5.27558],[73.58204,5.28181],[73.5936,5.2827],[73.58286,5.27558]]],[[[73.62957,5.33283],[73.62721,5.33112],[73.6233,5.33186],[73.62957,5.33283]]],[[[73.64007,5.34219],[73.6434,5.34394],[73.64666,5.34325],[73.64007,5.34219]]],[[[73.63673,5.4029],[73.62778,5.41327],[73.62957,5.41852],[73.63673,5.4029]]],[[[73.53492,5.44986],[73.53126,5.45043],[73.53745,5.4514],[73.53492,5.44986]]]]}},{"type":"Feature","properties":{"id":"mv-04","lat":3.49946,"lng":73.50642},"geometry":{"type":"MultiPolygon","coordinates":[[[[73.51637,3.36123],[73.51881,3.35912],[73.51922,3.35639],[73.51637,3.36123]]],[[[73.74773,3.45099],[73.74855,3.44819],[73.74757,3.45112],[73.74773,3.45099]]],[[[73.50847,3.49657],[73.50611,3.49771],[73.50587,3.50121],[73.50847,3.49657]]]]}},{"type":"Feature","properties":{"id":"mv-05","lat":1.82335,"lng":73.45751},"geometry":{"type":"MultiPolygon","coordinates":[[[[73.37582,1.78856],[73.36817,1.78295],[73.365,1.79108],[73.37582,1.78856]]],[[[73.40309,1.798],[73.39438,1.79475],[73.40024,1.80634],[73.40309,1.798]]],[[[73.45672,1.82038],[73.45265,1.82681],[73.46363,1.82632],[73.45672,1.82038]]],[[[73.51808,1.84272],[73.49781,1.82925],[73.50229,1.83491],[73.51808,1.84272]]],[[[73.24399,1.89411],[73.25172,1.8924],[73.24366,1.88874],[73.24399,1.89411]]],[[[73.32325,1.98648],[73.31544,1.98505],[73.31723,1.9914],[73.32325,1.98648]]],[[[73.38697,2.03303],[73.38697,2.02863],[73.38624,2.03034],[73.38697,2.03303]]],[[[73.5324,1.86009],[73.5324,1.86567],[73.53647,1.8701],[73.5324,1.86009]]],[[[73.54884,1.91136],[73.54981,1.92499],[73.55307,1.93244],[73.54884,1.91136]]],[[[73.54786,1.97061],[73.55006,1.97639],[73.54981,1.96552],[73.54786,1.97061]]],[[[73.54225,2.02456],[73.5442,2.0266],[73.54029,2.02253],[73.54225,2.02456]]],[[[73.55144,2.07241],[73.55323,2.0799],[73.55567,2.08251],[73.55144,2.07241]]],[[[73.56764,2.10993],[73.56772,2.09781],[73.56178,2.09471],[73.56764,2.10993]]]]}},{"type":"Feature","properties":{"id":"mv-07","lat":6.82461,"lng":73.18675},"geometry":{"type":"MultiPolygon","coordinates":[[[[72.97608,6.85285],[72.97413,6.84585],[72.97234,6.85139],[72.97608,6.85285]]],[[[72.96062,6.85607],[72.95924,6.86164],[72.96469,6.86066],[72.96062,6.85607]]],[[[72.92596,6.95742],[72.92628,6.9538],[72.92458,6.9517],[72.92596,6.95742]]],[[[72.89194,6.99103],[72.89194,6.9877],[72.89047,6.98542],[72.89194,6.99103]]],[[[72.97731,7.01903],[72.97975,7.02774],[72.98146,7.01398],[72.97731,7.01903]]],[[[72.94777,7.0539],[72.94996,7.05642],[72.9485,7.05085],[72.94777,7.0539]]],[[[72.90642,7.08902],[72.91285,7.09272],[72.91188,7.0832],[72.90642,7.08902]]],[[[72.8838,7.10724],[72.88453,7.1037],[72.8825,7.10163],[72.8838,7.10724]]],[[[73.18377,6.82111],[73.18165,6.83051],[73.19728,6.82811],[73.18377,6.82111]]],[[[72.99366,6.83991],[72.99025,6.84243],[72.99578,6.8415],[72.99366,6.83991]]],[[[73.14031,6.83869],[73.13901,6.84443],[73.14438,6.84341],[73.14031,6.83869]]],[[[73.09816,6.8522],[73.09181,6.84833],[73.09449,6.85383],[73.09816,6.8522]]],[[[73.10621,6.89672],[73.10434,6.88955],[73.10231,6.89521],[73.10621,6.89672]]],[[[73.21306,6.90461],[73.20191,6.90225],[73.21404,6.91861],[73.21306,6.90461]]],[[[73.19467,6.95124],[73.19191,6.9676],[73.1985,6.97134],[73.19467,6.95124]]]]}},{"type":"Feature","properties":{"id":"mv-08","lat":2.1966,"lng":73.11615},"geometry":{"type":"MultiPolygon","coordinates":[[[[73.04135,2.1647],[73.03842,2.16462],[73.04371,2.16645],[73.04135,2.1647]]],[[[73.10385,2.18659],[73.09946,2.18195],[73.09889,2.1846],[73.10385,2.18659]]],[[[73.12086,2.1918],[73.11394,2.19351],[73.11549,2.19969],[73.12086,2.1918]]],[[[72.94313,2.27302],[72.94842,2.27489],[72.9463,2.27237],[72.94313,2.27302]]],[[[72.92254,2.31957],[72.92612,2.32746],[72.92701,2.31607],[72.92254,2.31957]]],[[[73.3436,2.34418],[73.34205,2.34211],[73.344,2.34805],[73.3436,2.34418]]],[[[73.36134,2.42471],[73.36256,2.38491],[73.35426,2.4372],[73.36134,2.42471]]],[[[73.3152,2.49404],[73.31153,2.49925],[73.31479,2.50581],[73.3152,2.49404]]],[[[73.14552,2.55329],[73.14381,2.55036],[73.14096,2.55036],[73.14552,2.55329]]]]}},{"type":"Feature","properties":{"id":"mv-12","lat":4.21467,"lng":73.53147},"geometry":{"type":"MultiPolygon","coordinates":[[[[73.35353,2.77827],[73.35141,2.7707],[73.34929,2.77717],[73.35353,2.77827]]],[[[73.39186,2.78148],[73.39926,2.78571],[73.39064,2.77538],[73.39186,2.78148]]],[[[73.55014,2.89134],[73.54908,2.88813],[73.5486,2.89273],[73.55014,2.89134]]],[[[73.36036,2.90388],[73.36069,2.89753],[73.35727,2.90119],[73.36036,2.90388]]],[[[73.56202,2.94611],[73.56178,2.95038],[73.56422,2.95474],[73.56202,2.94611]]],[[[73.57748,2.95116],[73.58131,2.96015],[73.58595,2.96162],[73.57748,2.95116]]],[[[73.61305,3.10676],[73.61256,3.10297],[73.60841,3.10041],[73.61305,3.10676]]],[[[73.5462,4.24304],[73.51089,4.16209],[73.4312,4.18465],[73.51202,4.1863],[73.5462,4.24304]]]]}},{"type":"Feature","properties":{"id":"mv-13","lat":5.70952,"lng":73.00206},"geometry":{"type":"MultiPolygon","coordinates":[[[[72.94313,5.4676],[72.93824,5.46149],[72.93702,5.46552],[72.94313,5.4676]]],[[[72.88111,5.48847],[72.8777,5.49213],[72.88396,5.49409],[72.88111,5.48847]]],[[[72.97511,5.80443],[72.97104,5.81045],[72.97657,5.81363],[72.97511,5.80443]]],[[[72.96648,5.85025],[72.96192,5.85668],[72.96363,5.86433],[72.96648,5.85025]]],[[[72.93165,5.96906],[72.93019,5.95694],[72.92579,5.96328],[72.93165,5.96906]]],[[[72.9157,5.98135],[72.90984,5.97793],[72.9109,5.98273],[72.9157,5.98135]]],[[[73.00416,5.46141],[72.99903,5.46109],[73.00563,5.4632],[73.00416,5.46141]]],[[[73.01303,5.48745],[73.00978,5.49087],[73.01588,5.49287],[73.01303,5.48745]]],[[[73.01735,5.61571],[73.01287,5.61571],[73.01905,5.61782],[73.01735,5.61571]]],[[[73.01319,5.67504],[73.00856,5.67504],[73.01466,5.67699],[73.01319,5.67504]]],[[[73.00229,5.7071],[72.99879,5.71194],[73.00563,5.71332],[73.00229,5.7071]]],[[[72.98683,5.77074],[72.98585,5.76557],[72.98276,5.76252],[72.98683,5.77074]]]]}},{"type":"Feature","properties":{"id":"mv-14","lat":3.10761,"lng":72.97826},"geometry":{"type":"MultiPolygon","coordinates":[[[[72.90162,3.08381],[72.90447,3.07738],[72.89991,3.07685],[72.90162,3.08381]]],[[[72.97787,3.11017],[72.98178,3.10505],[72.97511,3.10419],[72.97787,3.11017]]],[[[73.04225,3.20547],[73.04689,3.20205],[73.0407,3.19847],[73.04225,3.20547]]],[[[73.03175,3.253],[73.03199,3.24555],[73.02898,3.24689],[73.03175,3.253]]],[[[72.83326,3.31249],[72.83611,3.30598],[72.83139,3.30561],[72.83326,3.31249]]]]}},{"type":"Feature","properties":{"id":"mv-17","lat":2.73996,"lng":73.02711},"geometry":{"type":"MultiPolygon","coordinates":[[[[72.90008,2.6822],[72.90447,2.67573],[72.90113,2.67617],[72.90008,2.6822]]],[[[72.87371,2.68366],[72.86695,2.68895],[72.87257,2.69416],[72.87371,2.68366]]],[[[73.03224,2.7451],[73.028,2.73823],[73.02231,2.74168],[73.03224,2.7451]]],[[[73.0149,2.94741],[73.00904,2.94644],[73.00847,2.95331],[73.0149,2.94741]]],[[[72.86769,2.96088],[72.86492,2.96088],[72.87013,2.96918],[72.86769,2.96088]]]]}},{"type":"Feature","properties":{"id":"mv-20","lat":5.13109,"lng":73.04862},"geometry":{"type":"MultiPolygon","coordinates":[[[[72.97934,4.89537],[72.97267,4.89436],[72.97934,4.89545],[72.97934,4.89537]]],[[[72.92091,4.89785],[72.91749,4.89859],[72.92286,4.89907],[72.92091,4.89785]]],[[[72.91017,5.0327],[72.90943,5.03079],[72.90919,5.03059],[72.91017,5.0327]]],[[[72.92775,5.03653],[72.92441,5.03307],[72.92433,5.03303],[72.92775,5.03653]]],[[[72.85662,5.23444],[72.86012,5.23794],[72.85922,5.2355],[72.85662,5.23444]]],[[[72.9524,5.35008],[72.94956,5.34931],[72.95314,5.35277],[72.9524,5.35008]]],[[[73.04127,5.11839],[73.04477,5.12181],[73.04347,5.11884],[73.04127,5.11839]]],[[[73.05144,5.12808],[73.04526,5.12889],[73.04908,5.13329],[73.05144,5.12808]]],[[[73.09132,5.16136],[73.09099,5.15852],[73.08774,5.15794],[73.09132,5.16136]]],[[[73.10418,5.17292],[73.10711,5.17097],[73.10385,5.17304],[73.10418,5.17292]]],[[[73.13185,5.2425],[73.12843,5.24116],[73.13185,5.24457],[73.13185,5.2425]]],[[[73.10922,5.2967],[73.11264,5.29845],[73.10922,5.29515],[73.10922,5.2967]]]]}},{"type":"Feature","properties":{"id":"mv-23","lat":6.76787,"lng":73.15363},"geometry":{"type":"MultiPolygon","coordinates":[[[[72.68881,6.40974],[72.68588,6.41161],[72.69093,6.41161],[72.68881,6.40974]]],[[[72.96209,6.55903],[72.95582,6.55532],[72.95834,6.5607],[72.96209,6.55903]]],[[[72.92555,6.56306],[72.92311,6.55988],[72.924,6.56525],[72.92555,6.56306]]],[[[73.02996,6.58234],[73.02817,6.57518],[73.02613,6.5808],[73.02996,6.58234]]],[[[73.0407,6.61717],[73.0394,6.62287],[73.04477,6.62189],[73.0407,6.61717]]],[[[73.06227,6.6669],[73.06951,6.66796],[73.06178,6.66096],[73.06227,6.6669]]],[[[73.10231,6.70234],[73.09669,6.70612],[73.10597,6.70991],[73.10231,6.70234]]],[[[73.15952,6.78653],[73.15284,6.74921],[73.13168,6.72504],[73.15952,6.78653]]],[[[73.03663,6.75971],[73.03468,6.75259],[73.03289,6.75825],[73.03663,6.75971]]],[[[72.91432,6.75922],[72.91326,6.76488],[72.91847,6.76398],[72.91432,6.75922]]]]}},{"type":"Feature","properties":{"id":"mv-24","lat":6.23591,"lng":73.24088},"geometry":{"type":"MultiPolygon","coordinates":[[[[73.03045,6.22102],[73.03419,6.22236],[73.02898,6.21882],[73.03045,6.22102]]],[[[73.12843,6.28685],[73.12615,6.284],[73.12289,6.28335],[73.12843,6.28685]]],[[[73.07814,6.30508],[73.08334,6.30858],[73.08139,6.30561],[73.07814,6.30508]]],[[[73.12094,6.33104],[73.12452,6.33251],[73.11931,6.32892],[73.12094,6.33104]]],[[[72.94939,6.3498],[72.95314,6.34349],[72.94777,6.34593],[72.94939,6.3498]]],[[[73.18214,6.34634],[73.181,6.34984],[73.18727,6.35077],[73.18214,6.34634]]],[[[73.02491,6.36481],[73.0193,6.36359],[73.02052,6.36896],[73.02491,6.36481]]],[[[72.90284,6.44017],[72.90659,6.43382],[72.90113,6.43635],[72.90284,6.44017]]],[[[73.04623,6.43626],[73.04314,6.4337],[73.04881,6.44134],[73.04623,6.43626]]],[[[72.89259,6.45209],[72.89633,6.44579],[72.89088,6.44823],[72.89259,6.45209]]],[[[73.25074,6.0834],[73.24903,6.07953],[73.24545,6.07978],[73.25074,6.0834]]],[[[73.24887,6.11017],[73.25213,6.11123],[73.24684,6.10773],[73.24887,6.11017]]],[[[73.22047,6.13207],[73.219,6.1293],[73.21518,6.12857],[73.22047,6.13207]]],[[[73.26726,6.15095],[73.26539,6.15355],[73.27027,6.15693],[73.26726,6.15095]]],[[[73.21583,6.17121],[73.21892,6.17227],[73.21404,6.16877],[73.21583,6.17121]]],[[[73.26539,6.18277],[73.27084,6.18944],[73.26808,6.1787],[73.26539,6.18277]]],[[[73.24391,6.23163],[73.23634,6.23212],[73.24171,6.23969],[73.24391,6.23163]]],[[[73.20932,6.28685],[73.21518,6.29483],[73.21306,6.28921],[73.20932,6.28685]]],[[[73.19703,6.32746],[73.20102,6.31826],[73.19418,6.3216],[73.19703,6.32746]]]]}},{"type":"Feature","properties":{"id":"mv-25","lat":5.78553,"lng":73.38081},"geometry":{"type":"MultiPolygon","coordinates":[[[[73.39243,5.7368],[73.38258,5.72211],[73.39283,5.7377],[73.39243,5.7368]]],[[[73.3768,5.78734],[73.38453,5.78693],[73.38071,5.78413],[73.3768,5.78734]]],[[[73.4498,5.84072],[73.44313,5.84125],[73.44988,5.84077],[73.4498,5.84072]]],[[[73.42319,5.90689],[73.42848,5.90445],[73.42628,5.90327],[73.42319,5.90689]]],[[[73.38673,5.96198],[73.38982,5.97028],[73.39533,5.9578],[73.38673,5.96198]]]]}},{"type":"Feature","properties":{"id":"mv-26","lat":4.97295,"lng":73.44063},"geometry":{"type":"MultiPolygon","coordinates":[[[[73.4323,3.8417],[73.43246,3.84683],[73.43727,3.84662],[73.4323,3.8417]]],[[[73.43816,3.91645],[73.44353,3.92056],[73.44304,3.91877],[73.43816,3.91645]]],[[[73.46754,3.93366],[73.47153,3.93871],[73.47731,3.94212],[73.46754,3.93366]]],[[[73.34148,3.9431],[73.3449,3.94457],[73.34148,3.94204],[73.34148,3.9431]]],[[[73.41896,4.11571],[73.42262,4.11835],[73.4214,4.11636],[73.41896,4.11571]]],[[[73.37729,4.46528],[73.37525,4.47118],[73.37672,4.47443],[73.37729,4.46528]]],[[[73.40553,4.62995],[73.40121,4.62983],[73.40496,4.635],[73.40553,4.62995]]],[[[73.49073,4.71674],[73.48666,4.71821],[73.49049,4.72337],[73.49073,4.71674]]],[[[73.43897,4.97455],[73.44728,4.97134],[73.43653,4.96988],[73.43897,4.97455]]],[[[73.50457,4.09658],[73.50815,4.10358],[73.50831,4.09333],[73.50457,4.09658]]],[[[73.58912,4.34056],[73.59588,4.34227],[73.59246,4.34016],[73.58912,4.34056]]],[[[73.61134,4.3603],[73.60768,4.35806],[73.6115,4.36311],[73.61134,4.3603]]],[[[73.63795,4.37055],[73.63364,4.36469],[73.63168,4.36848],[73.63795,4.37055]]],[[[73.66831,4.38687],[73.66432,4.38833],[73.66798,4.39346],[73.66831,4.38687]]],[[[73.70281,4.43472],[73.70086,4.43228],[73.69744,4.43138],[73.70281,4.43472]]],[[[73.70265,4.45291],[73.69988,4.44916],[73.69996,4.45165],[73.70265,4.45291]]],[[[73.55388,4.61392],[73.54981,4.61538],[73.55356,4.62051],[73.55388,4.61392]]]]}},{"type":"Feature","properties":{"id":"mv-27","lat":0.38772,"lng":73.51169},"geometry":{"type":"MultiPolygon","coordinates":[[[[73.51336,0.38768],[73.5066,0.38776],[73.51344,0.38776],[73.51336,0.38768]]],[[[73.49204,0.5078],[73.48976,0.50259],[73.49195,0.508],[73.49204,0.5078]]],[[[73.38722,0.63911],[73.38356,0.6389],[73.38787,0.64175],[73.38722,0.63911]]],[[[73.37241,0.75812],[73.36883,0.76044],[73.37306,0.76309],[73.37241,0.75812]]],[[[73.35043,0.84569],[73.35287,0.84154],[73.35108,0.84064],[73.35043,0.84569]]]]}},{"type":"Feature","properties":{"id":"mv-28","lat":0.23495,"lng":73.21223},"geometry":{"type":"MultiPolygon","coordinates":[[[[73.09547,0.22801],[73.10434,0.21963],[73.10287,0.21345],[73.09547,0.22801]]],[[[73.21746,0.23774],[73.21095,0.23216],[73.209,0.23998],[73.21746,0.23774]]],[[[73.03679,0.26968],[73.03614,0.26093],[73.03679,0.26992],[73.03679,0.26968]]],[[[73.36964,0.28002],[73.37371,0.28693],[73.37916,0.28522],[73.36964,0.28002]]],[[[72.98365,0.30524],[72.98601,0.29955],[72.98097,0.30362],[72.98365,0.30524]]],[[[72.95843,0.40314],[72.95777,0.3968],[72.95834,0.40331],[72.95843,0.40314]]],[[[72.93702,0.49144],[72.94093,0.49632],[72.9406,0.48729],[72.93702,0.49144]]]]}},{"type":"Feature","properties":{"id":"mv-29","lat":-0.29896,"lng":73.44185},"geometry":{"type":"Polygon","coordinates":[[[73.43523,-0.29363],[73.44304,-0.29274],[73.44451,-0.30429],[73.43523,-0.29363]]]}}]}
