{"type":"FeatureCollection","features":[{"type":"Feature","properties":{"id":"mw-ba","lat":-15.13347,"lng":35.04548},"geometry":{"type":"Polygon","coordinates":[[[35.30537,-14.95319],[35.09489,-15.31452],[34.84307,-15.31374],[34.9903,-14.75538],[35.30175,-14.78215],[35.30537,-14.95319]]]}},{"type":"Feature","properties":{"id":"mw-bl","lat":-15.71403,"lng":34.93886},"geometry":{"type":"Polygon","coordinates":[[[35.14238,-15.53735],[35.10404,-15.61584],[35.14626,-15.86094],[34.8854,-16.03148],[34.86757,-15.82766],[34.7498,-15.81221],[34.7653,-15.59362],[34.91118,-15.39498],[35.01107,-15.351],[35.14238,-15.53735]]]}},{"type":"Feature","properties":{"id":"mw-ck","lat":-16.16682,"lng":34.6991},"geometry":{"type":"Polygon","coordinates":[[[34.88661,-16.70085],[34.52475,-16.30076],[34.42646,-16.27389],[34.40455,-16.05974],[34.23319,-15.88983],[34.29334,-15.75113],[34.86757,-15.82766],[34.84555,-15.96786],[35.09613,-16.33135],[35.06058,-16.48514],[34.88661,-16.70085]]]}},{"type":"Feature","properties":{"id":"mw-cr","lat":-15.74263,"lng":35.22448},"geometry":{"type":"Polygon","coordinates":[[[35.18755,-15.52308],[35.34067,-15.68343],[35.31043,-16.00533],[35.11768,-15.80183],[35.10497,-15.60468],[35.18755,-15.52308]]]}},{"type":"Feature","properties":{"id":"mw-ct","lat":-9.92012,"lng":33.89493},"geometry":{"type":"Polygon","coordinates":[[[34.04746,-9.48996],[34.31794,-9.7192],[34.52475,-10.00879],[34.62086,-10.58242],[34.11154,-10.58256],[33.94845,-10.45197],[33.67385,-10.57305],[33.53292,-10.34262],[33.53328,-10.23121],[33.3041,-10.06378],[33.34347,-9.83144],[33.21671,-9.72705],[33.17542,-9.60231],[33.09832,-9.58846],[33.08044,-9.66225],[32.98691,-9.62846],[32.99197,-9.50185],[32.92779,-9.47983],[32.92086,-9.4079],[32.97471,-9.38124],[33.17294,-9.51105],[33.30027,-9.49224],[33.43897,-9.62153],[33.73461,-9.58412],[33.91186,-9.71796],[33.96075,-9.5249],[34.04746,-9.48996]]]}},{"type":"Feature","properties":{"id":"mw-de","lat":-14.24329,"lng":34.34685},"geometry":{"type":"Polygon","coordinates":[[[33.66242,-14.60701],[33.61841,-14.56184],[33.70733,-14.39576],[33.93357,-14.29091],[33.96385,-14.19567],[34.0934,-14.11304],[34.28362,-13.85078],[34.49638,-14.11433],[34.736,-14.07811],[34.74825,-14.30321],[34.59213,-14.40646],[34.34408,-14.38739],[33.80241,-14.53281],[33.7204,-14.48971],[33.66242,-14.60701]]]}},{"type":"Feature","properties":{"id":"mw-do","lat":-13.56442,"lng":33.78218},"geometry":{"type":"Polygon","coordinates":[[[34.11671,-13.5046],[34.12152,-13.62392],[34.20203,-13.69121],[34.27587,-13.67084],[34.30678,-13.74603],[34.04948,-13.82339],[33.78634,-13.75807],[33.74955,-13.65963],[33.47675,-13.67963],[33.42228,-13.48047],[33.46171,-13.32647],[33.5261,-13.34182],[33.61891,-13.23397],[33.75869,-13.50491],[34.11671,-13.5046]]]}},{"type":"Feature","properties":{"id":"mw-ks","lat":-13.02763,"lng":33.44221},"geometry":{"type":"Polygon","coordinates":[[[33.32828,-12.53763],[33.48775,-12.38984],[33.57359,-12.38679],[33.57173,-12.64347],[33.67276,-12.71126],[33.83507,-12.70956],[33.82773,-12.84051],[33.93124,-12.84666],[34.00199,-12.93844],[33.53261,-13.33794],[33.46171,-13.32647],[33.3334,-13.62826],[33.19372,-13.49499],[33.14514,-13.3397],[32.90549,-13.35139],[32.99817,-13.20245],[32.96592,-13.11682],[33.01357,-12.91725],[32.94701,-12.84325],[32.95807,-12.72522],[33.04954,-12.58683],[33.17325,-12.62],[33.25511,-12.53195],[33.32828,-12.53763]]]}},{"type":"Feature","properties":{"id":"mw-li","lat":-14.04534,"lng":33.74328},"geometry":{"type":"Polygon","coordinates":[[[33.61841,-14.56184],[33.3571,-14.23057],[33.33929,-13.97765],[33.25423,-13.84076],[33.42228,-13.48047],[33.46698,-13.66521],[33.52346,-13.70299],[33.74955,-13.65963],[33.78634,-13.75807],[34.04948,-13.82339],[34.25045,-13.78035],[34.18637,-13.8669],[34.28362,-13.85078],[34.0934,-14.11304],[33.96385,-14.19567],[33.93357,-14.29091],[33.71632,-14.3861],[33.61841,-14.56184]]]}},{"type":"Feature","properties":{"id":"mw-lk","lat":-12.03363,"lng":34.71374},"geometry":{"type":"MultiPolygon","coordinates":[[[[34.71564,-12.00164],[34.75925,-12.06562],[34.68897,-12.12453],[34.6559,-12.07626],[34.71564,-12.00164]]],[[[34.54407,-12.01136],[34.62748,-11.98728],[34.61115,-12.07254],[34.54407,-12.01136]]]]}},{"type":"Feature","properties":{"id":"mw-mc","lat":-13.7989,"lng":33.04231},"geometry":{"type":"Polygon","coordinates":[[[32.66765,-13.57555],[32.81307,-13.52822],[32.90549,-13.35139],[33.14514,-13.3397],[33.19372,-13.49499],[33.3334,-13.62826],[33.25299,-13.83192],[33.33929,-13.97765],[33.3571,-14.23057],[33.28022,-14.06079],[33.14028,-13.92499],[32.99983,-14.05046],[32.87415,-13.8206],[32.76304,-13.77719],[32.81338,-13.71115],[32.67509,-13.62806],[32.66765,-13.57555]]]}},{"type":"Feature","properties":{"id":"mw-mg","lat":-14.31062,"lng":35.16578},"geometry":{"type":"Polygon","coordinates":[[[34.8639,-13.51628],[35.08409,-13.70423],[35.75054,-14.54314],[35.56101,-14.60577],[35.45502,-14.75946],[35.2879,-14.67947],[35.27504,-14.75569],[34.9903,-14.75538],[34.79698,-14.55498],[34.736,-14.07811],[34.8639,-13.51628]]]}},{"type":"Feature","properties":{"id":"mw-mh","lat":-14.92004,"lng":35.59768},"geometry":{"type":"Polygon","coordinates":[[[35.75054,-14.54314],[35.84725,-14.65042],[35.86327,-14.87666],[35.9043,-14.88689],[35.78858,-15.21143],[35.18507,-15.25328],[35.30537,-14.95319],[35.28496,-14.68112],[35.45502,-14.75946],[35.56101,-14.60577],[35.75054,-14.54314]]]}},{"type":"Feature","properties":{"id":"mw-mu","lat":-15.91325,"lng":35.45326},"geometry":{"type":"Polygon","coordinates":[[[35.79659,-15.9332],[35.78513,-16.04228],[35.69759,-16.10749],[35.51456,-16.17136],[35.41606,-16.12289],[35.28465,-16.19224],[35.34067,-15.68343],[35.5266,-15.6067],[35.49678,-15.69088],[35.6006,-15.93551],[35.6653,-15.89329],[35.79659,-15.9332]]]}},{"type":"Feature","properties":{"id":"mw-mw","lat":-15.6705,"lng":34.56548},"geometry":{"type":"Polygon","coordinates":[[[34.34222,-15.73032],[34.41912,-15.57533],[34.76297,-15.61068],[34.7498,-15.81221],[34.53704,-15.80679],[34.34222,-15.73032]]]}},{"type":"Feature","properties":{"id":"mw-mz","lat":-11.75422,"lng":33.55391},"geometry":{"type":"Polygon","coordinates":[[[33.21263,-11.56384],[33.39091,-11.16479],[33.29096,-10.97509],[33.43499,-11.01214],[33.44915,-11.10873],[33.5416,-11.02093],[33.7249,-11.08475],[33.74784,-11.02672],[33.92349,-11.02501],[33.94473,-10.96372],[34.05645,-11.077],[34.02002,-11.24639],[34.10208,-11.44478],[33.78696,-11.60482],[33.82122,-11.9926],[33.71539,-12.09244],[33.84267,-12.14334],[33.76427,-12.26075],[33.92458,-12.45898],[34.10503,-12.49758],[33.81115,-12.72207],[33.57173,-12.64347],[33.58553,-12.3993],[33.51411,-12.33103],[33.34947,-12.32793],[33.25273,-12.13952],[33.31267,-11.8987],[33.30265,-11.60973],[33.21263,-11.56384]]]}},{"type":"Feature","properties":{"id":"mw-nb","lat":-11.59157,"lng":34.21351},"geometry":{"type":"Polygon","coordinates":[[[34.61784,-10.96574],[34.62107,-11.11973],[34.76556,-11.34515],[34.88658,-11.37543],[34.96462,-11.57356],[34.61673,-11.57831],[34.56381,-11.8309],[34.35558,-12.20494],[34.0287,-12.20473],[33.72283,-12.10634],[33.82122,-11.9926],[33.78696,-11.60482],[34.10208,-11.44478],[34.02002,-11.24639],[34.05645,-11.077],[34.23494,-10.96569],[34.61784,-10.96574]]]}},{"type":"Feature","properties":{"id":"mw-ne","lat":-15.43813,"lng":34.66401},"geometry":{"type":"Polygon","coordinates":[[[34.41912,-15.57533],[34.41013,-15.48128],[34.56516,-15.29731],[34.55909,-15.20018],[34.79667,-15.25013],[34.8207,-15.3249],[35.05464,-15.32459],[34.91118,-15.39498],[34.76297,-15.61068],[34.41912,-15.57533]]]}},{"type":"Feature","properties":{"id":"mw-ni","lat":-13.37952,"lng":33.90576},"geometry":{"type":"Polygon","coordinates":[[[33.92086,-13.02277],[33.96245,-13.16323],[34.05738,-13.10643],[34.10317,-13.17222],[34.13361,-13.48962],[34.07991,-13.52073],[33.75869,-13.50491],[33.62682,-13.26942],[33.92086,-13.02277]]]}},{"type":"Feature","properties":{"id":"mw-nk","lat":-12.75356,"lng":34.17307},"geometry":{"type":"Polygon","coordinates":[[[34.35558,-12.20494],[34.49446,-12.68739],[34.58276,-13.40363],[34.3277,-13.40383],[34.13361,-13.48962],[34.10317,-13.17222],[34.05738,-13.10643],[33.97191,-13.16963],[33.92178,-13.07192],[33.99594,-12.92014],[33.8206,-12.81973],[33.88468,-12.63478],[34.10441,-12.49381],[33.92458,-12.45898],[33.76071,-12.2238],[33.86143,-12.13921],[34.0287,-12.20473],[34.35558,-12.20494]]]}},{"type":"Feature","properties":{"id":"mw-ns","lat":-16.78265,"lng":35.14394},"geometry":{"type":"Polygon","coordinates":[[[35.1275,-16.86445],[34.88661,-16.70085],[35.06058,-16.48514],[35.09613,-16.33135],[35.23725,-16.39909],[35.22816,-16.47026],[35.13194,-16.53765],[35.27819,-16.70074],[35.29193,-17.12934],[35.066,-17.10981],[35.03655,-17.03591],[35.1275,-16.86445]]]}},{"type":"Feature","properties":{"id":"mw-nu","lat":-14.78858,"lng":34.77},"geometry":{"type":"Polygon","coordinates":[[[34.55909,-15.20018],[34.58417,-14.98446],[34.51813,-14.60743],[34.38044,-14.41364],[34.53518,-14.42935],[34.74825,-14.30321],[34.79698,-14.55498],[34.9903,-14.75538],[34.98999,-14.82178],[34.83186,-15.3263],[34.79667,-15.25013],[34.55909,-15.20018]]]}},{"type":"Feature","properties":{"id":"mw-ph","lat":-15.79209,"lng":35.67426},"geometry":{"type":"Polygon","coordinates":[[[35.83756,-15.4592],[35.79659,-15.9332],[35.6653,-15.89329],[35.6006,-15.93551],[35.49678,-15.69088],[35.53946,-15.57569],[35.6855,-15.47487],[35.83756,-15.4592]]]}},{"type":"Feature","properties":{"id":"mw-ru","lat":-10.83339,"lng":34.00983},"geometry":{"type":"Polygon","coordinates":[[[34.62086,-10.58242],[34.67502,-10.75242],[34.61784,-10.96574],[34.23494,-10.96569],[34.05645,-11.077],[33.94473,-10.96372],[33.92349,-11.02501],[33.74784,-11.02672],[33.7249,-11.08475],[33.5416,-11.02093],[33.44915,-11.10873],[33.43499,-11.01214],[33.29096,-10.97509],[33.2317,-10.89763],[33.50098,-10.76916],[33.67385,-10.57305],[33.94845,-10.45197],[34.11154,-10.58256],[34.62086,-10.58242]]]}},{"type":"Feature","properties":{"id":"mw-sa","lat":-13.79518,"lng":34.52761},"geometry":{"type":"Polygon","coordinates":[[[34.58276,-13.40363],[34.65135,-13.49783],[34.8639,-13.51628],[34.736,-14.07811],[34.49638,-14.11433],[34.28362,-13.85078],[34.18637,-13.8669],[34.30786,-13.73957],[34.27587,-13.67084],[34.20203,-13.69121],[34.12152,-13.62392],[34.11671,-13.5046],[34.3277,-13.40383],[34.58276,-13.40363]]]}},{"type":"Feature","properties":{"id":"mw-th","lat":-16.20855,"lng":35.14711},"geometry":{"type":"Polygon","coordinates":[[[35.31043,-16.00533],[35.23725,-16.39909],[35.15153,-16.39042],[34.8916,-16.02667],[35.19297,-15.86399],[35.31043,-16.00533]]]}},{"type":"Feature","properties":{"id":"mw-zo","lat":-15.4051,"lng":35.44676},"geometry":{"type":"Polygon","coordinates":[[[35.78858,-15.21143],[35.83756,-15.4592],[35.66096,-15.48546],[35.4575,-15.66597],[35.28434,-15.66142],[35.19313,-15.525],[35.11319,-15.52934],[35.13928,-15.4758],[35.01107,-15.351],[35.17261,-15.23018],[35.78858,-15.21143]]]}}]}
