{"type":"FeatureCollection","features":[{"type":"Feature","properties":{"id":"mx-agu","lat":22.07026,"lng":-102.31785},"geometry":{"type":"Polygon","coordinates":[[[-101.84543,22.01747],[-102.04914,21.8659],[-102.07989,21.76792],[-102.25895,21.67072],[-102.63032,21.77304],[-102.76049,21.7488],[-102.85635,21.85029],[-102.65226,22.18717],[-102.65432,22.29249],[-102.49252,22.30799],[-102.29155,22.46478],[-102.2114,22.3545],[-101.99886,22.27528],[-101.97979,22.12304],[-101.84543,22.01747]]]}},{"type":"Feature","properties":{"id":"mx-bcn","lat":30.35282,"lng":-115.24872},"geometry":{"type":"MultiPolygon","coordinates":[[[[-115.192,28.36084],[-115.1817,28.02758],[-115.34661,28.07105],[-115.23976,28.23361],[-115.24864,28.35931],[-115.192,28.36084]]],[[[-115.59381,28.31717],[-115.59232,28.2975],[-115.60398,28.31014],[-115.59381,28.31717]]],[[[-118.22137,28.95934],[-118.28878,28.86808],[-118.3688,29.1144],[-118.29635,29.18616],[-118.25589,29.18093],[-118.28618,29.13644],[-118.22137,28.95934]]],[[[-114.40185,29.98603],[-114.42202,29.96624],[-114.41854,29.98678],[-114.40185,29.98603]]],[[[-114.72428,32.71284],[-114.80945,32.51132],[-114.92631,32.48254],[-115.03711,32.2917],[-114.95592,32.14155],[-114.93363,31.90876],[-115.03523,31.96605],[-114.83503,31.80191],[-114.78063,31.65583],[-114.85291,31.52661],[-114.88868,31.16289],[-114.82177,30.98896],[-114.71045,30.91842],[-114.69847,30.63721],[-114.6306,30.49487],[-114.6603,30.18325],[-114.53313,29.96795],[-114.40879,29.88094],[-114.39224,29.78301],[-114.20848,29.74478],[-113.63633,29.28218],[-113.65534,29.20732],[-113.53588,29.05142],[-113.52485,28.89157],[-113.47869,28.94625],[-113.38787,28.9398],[-113.35448,28.80027],[-113.26039,28.84011],[-113.19604,28.79205],[-113.10297,28.50458],[-112.8463,28.44108],[-112.87213,28.28374],[-112.78646,28.19608],[-112.80541,28.03205],[-112.76357,27.99942],[-114.06283,28.00049],[-114.03771,28.03723],[-114.11312,28.12041],[-114.05748,28.20629],[-114.12488,28.25573],[-114.04259,28.45844],[-114.16013,28.56619],[-114.17492,28.6577],[-114.27175,28.6588],[-114.4193,28.87848],[-114.59163,28.9654],[-114.63142,29.09447],[-114.70493,29.09611],[-114.97204,29.37775],[-115.18712,29.42862],[-115.69756,29.75583],[-115.6999,29.89801],[-115.81119,29.968],[-115.78327,30.09264],[-115.8373,30.34647],[-115.97541,30.40127],[-115.93383,30.44965],[-115.98908,30.49746],[-116.00455,30.35917],[-116.04925,30.47959],[-116.05793,30.80248],[-116.24975,30.95677],[-116.33545,30.95634],[-116.34154,31.21955],[-116.67561,31.55264],[-116.64806,31.65917],[-116.75038,31.75236],[-116.64363,31.73428],[-116.61182,31.84288],[-116.86539,32.01301],[-116.92268,32.21939],[-117.02497,32.27692],[-117.12338,32.49056],[-117.12512,32.53167],[-114.72428,32.71284]]],[[[-116.10417,30.48259],[-116.12284,30.49157],[-116.10961,30.49535],[-116.10417,30.48259]]],[[[-117.24764,32.41863],[-117.24321,32.38874],[-117.25369,32.4208],[-117.24764,32.41863]]],[[[-114.09831,28.00028],[-114.10843,28.03071],[-114.0713,28.00039],[-114.09831,28.00028]]],[[[-114.13439,28.08393],[-114.1475,28.00015],[-114.20702,27.99999],[-114.13439,28.08393]]],[[[-112.86076,28.67186],[-112.77392,28.57578],[-112.89377,28.6777],[-112.86076,28.67186]]],[[[-112.55745,28.73381],[-112.55394,28.67229],[-112.60435,28.66943],[-112.61315,28.72576],[-112.55745,28.73381]]],[[[-113.52715,29.0923],[-113.50597,29.0626],[-113.49201,29.03595],[-113.52715,29.0923]]],[[[-113.17432,29.12925],[-113.11479,28.98448],[-113.49608,29.2852],[-113.5891,29.4096],[-113.57114,29.53995],[-113.39516,29.45932],[-113.37029,29.31001],[-113.16853,29.27612],[-113.17432,29.12925]]]]}},{"type":"Feature","properties":{"id":"mx-bcs","lat":25.35137,"lng":-111.5246},"geometry":{"type":"MultiPolygon","coordinates":[[[[-111.46296,24.32977],[-111.56125,24.36237],[-111.67325,24.3584],[-111.56163,24.37808],[-111.46296,24.32977]]],[[[-111.69232,24.37394],[-111.70811,24.29985],[-112.00684,24.5144],[-111.83734,24.51276],[-111.69232,24.37394]]],[[[-112.07095,24.57395],[-112.05991,24.5406],[-112.17634,24.65356],[-112.13594,24.69805],[-112.17567,24.76336],[-112.3046,24.79218],[-112.13785,25.26526],[-112.21371,24.84753],[-112.07095,24.57395]]],[[[-115.75329,24.95303],[-115.7528,24.95478],[-115.75231,24.95327],[-115.75329,24.95303]]],[[[-112.10293,25.48888],[-112.10584,25.32588],[-112.12275,25.28214],[-112.10293,25.48888]]],[[[-114.09831,28.00028],[-112.76036,27.99776],[-112.77322,27.8639],[-112.69287,27.74256],[-112.35471,27.54732],[-112.16495,27.16681],[-111.95037,27.09328],[-112.01716,26.9785],[-111.87072,26.82807],[-111.90011,26.71456],[-111.78427,26.5718],[-111.73581,26.53968],[-111.67679,26.58186],[-111.81458,26.71458],[-111.85142,26.88028],[-111.56006,26.69565],[-111.56477,26.558],[-111.44224,26.51753],[-111.46887,26.4195],[-111.32204,26.09818],[-111.36026,25.9641],[-111.30712,25.77921],[-111.1239,25.53032],[-111.01926,25.51525],[-110.90445,25.14301],[-110.68387,24.88296],[-110.66452,24.76472],[-110.7398,24.5882],[-110.68185,24.36066],[-110.56236,24.2125],[-110.32519,24.17571],[-110.43243,24.17362],[-110.41684,24.10858],[-110.30613,24.17672],[-110.33247,24.32879],[-110.2462,24.35045],[-110.00699,24.15883],[-109.98765,24.04632],[-109.82829,24.0628],[-109.83732,23.93809],[-109.69844,23.79843],[-109.69632,23.66552],[-109.46802,23.55514],[-109.42632,23.45851],[-109.43765,23.24038],[-109.53167,23.10821],[-109.89538,22.8742],[-109.99966,22.89444],[-110.09838,23.01756],[-110.16726,23.32109],[-110.30736,23.54103],[-110.64752,23.7339],[-111.03971,24.10419],[-111.44445,24.32439],[-111.35975,24.29032],[-111.59558,24.44224],[-111.67903,24.58633],[-111.81291,24.50588],[-111.84892,24.65369],[-112.00837,24.87458],[-111.96671,24.74421],[-112.02526,24.75556],[-112.03563,24.8404],[-112.07811,24.76215],[-112.12422,24.87405],[-112.09692,24.99961],[-112.14493,24.87409],[-112.1658,24.95394],[-112.07787,25.25874],[-112.0831,25.444],[-112.03078,25.47361],[-112.08445,25.48102],[-112.08145,25.72068],[-112.10409,25.50415],[-112.10871,25.78414],[-112.17894,25.95518],[-112.4027,26.24022],[-112.68912,26.32274],[-113.06072,26.59912],[-113.11905,26.79409],[-113.21581,26.74445],[-113.23815,26.78661],[-113.12458,26.8863],[-113.14574,26.97012],[-113.27054,26.75247],[-113.47099,26.80455],[-113.54297,26.7192],[-113.63714,26.72553],[-113.81639,26.94897],[-114.0052,26.97744],[-114.18196,27.13963],[-114.43514,27.17637],[-114.50646,27.40618],[-114.73423,27.52125],[-114.87582,27.64382],[-114.86156,27.68989],[-115.00173,27.71593],[-115.08382,27.85105],[-114.49906,27.77407],[-114.30386,27.87226],[-114.30476,27.7648],[-114.10294,27.60187],[-114.0476,27.65314],[-114.07486,27.69037],[-113.95328,27.65567],[-113.91857,27.71931],[-114.06656,27.80366],[-114.04182,27.73249],[-114.12532,27.7143],[-114.17243,27.78876],[-114.15343,27.94501],[-114.26769,27.8869],[-114.26171,27.94416],[-114.20702,27.99999],[-114.1064,27.92795],[-114.09831,28.00028]]],[[[-113.26456,26.70893],[-113.17443,26.72045],[-113.13805,26.66511],[-113.26456,26.70893]]],[[[-112.04525,27.21664],[-112.08745,27.18294],[-112.10881,27.23691],[-112.09009,27.25998],[-112.04525,27.21664]]],[[[-111.87933,27.45319],[-111.8792,27.42812],[-111.90429,27.43764],[-111.87933,27.45319]]],[[[-115.19692,27.89149],[-115.17843,27.85066],[-115.21804,27.89611],[-115.19692,27.89149]]],[[[-109.79842,24.15517],[-109.87393,24.1517],[-109.93322,24.37441],[-109.82285,24.20941],[-109.79842,24.15517]]],[[[-110.29585,24.47689],[-110.34804,24.40245],[-110.39751,24.5908],[-110.36399,24.53249],[-110.29585,24.47689]]],[[[-110.56923,24.84384],[-110.56141,24.81502],[-110.58679,24.82885],[-110.56923,24.84384]]],[[[-110.7069,25.10514],[-110.57492,25.01573],[-110.52493,24.88],[-110.64231,24.9145],[-110.7069,25.10514]]],[[[-110.73274,25.28795],[-110.70719,25.27156],[-110.72887,25.25998],[-110.73274,25.28795]]],[[[-110.80553,25.64442],[-110.76206,25.69362],[-110.76529,25.59394],[-110.80553,25.64442]]],[[[-111.05915,25.70098],[-111.01289,25.67871],[-111.02851,25.65179],[-111.05915,25.70098]]],[[[-111.25823,25.81279],[-111.24471,25.7868],[-111.24594,25.7657],[-111.25823,25.81279]]],[[[-111.06739,25.96582],[-111.11962,25.99222],[-111.23034,25.82361],[-111.17603,26.04334],[-111.05637,26.07182],[-111.06739,25.96582]]],[[[-111.27524,26.13638],[-111.26424,26.10501],[-111.2862,26.10313],[-111.27524,26.13638]]]]}},{"type":"Feature","properties":{"id":"mx-cam","lat":19.31606,"lng":-89.91913},"geometry":{"type":"MultiPolygon","coordinates":[[[[-91.55573,18.79169],[-91.52457,18.75214],[-91.62084,18.7447],[-91.68887,18.66942],[-91.84268,18.65119],[-91.55573,18.79169]]],[[[-89.15409,18.03141],[-89.1605,17.81431],[-90.9909,17.80196],[-90.99168,17.96821],[-91.54084,18.10458],[-91.5889,18.09786],[-91.63308,17.95089],[-91.85932,17.95358],[-92.15564,18.16881],[-92.14907,18.46187],[-92.36808,18.46079],[-92.48614,18.64848],[-91.94806,18.69122],[-91.86657,18.59838],[-91.95019,18.62954],[-92.05281,18.5467],[-91.88829,18.50576],[-91.97029,18.5939],[-91.90197,18.5808],[-91.80207,18.38565],[-91.79833,18.49144],[-91.48648,18.43643],[-91.48363,18.49828],[-91.53889,18.47102],[-91.50406,18.51195],[-91.182,18.65656],[-91.29865,18.62865],[-91.26553,18.73566],[-91.4147,18.81362],[-91.23721,18.95759],[-91.50528,18.81656],[-90.93554,19.16307],[-90.74242,19.34296],[-90.70279,19.71113],[-90.46386,19.97785],[-90.4899,20.53412],[-90.45938,20.71552],[-90.38114,20.82403],[-90.37417,20.51854],[-90.23635,20.50999],[-90.09424,20.40736],[-90.0184,20.46754],[-89.81074,20.13743],[-89.62998,20.01909],[-89.37387,19.59395],[-89.03725,19.28916],[-89.02074,19.03346],[-89.08236,18.9614],[-89.10885,18.69077],[-89.03567,18.20271],[-89.15409,18.03141]]]]}},{"type":"Feature","properties":{"id":"mx-chh","lat":28.6752,"lng":-106.0736},"geometry":{"type":"Polygon","coordinates":[[[-108.21512,31.77775],[-106.39177,31.74592],[-106.20925,31.47731],[-105.9612,31.37101],[-105.36377,30.85037],[-105.20492,30.80241],[-104.93434,30.61054],[-104.68156,30.19294],[-104.68048,29.94231],[-104.44401,29.5892],[-104.26717,29.52657],[-104.05731,29.33904],[-103.78366,29.2748],[-103.70248,29.18786],[-103.30999,29.03118],[-103.96347,27.91889],[-103.62726,26.64393],[-103.9884,26.7747],[-104.15496,26.76772],[-104.55705,26.34051],[-104.83334,26.48678],[-104.98803,26.50358],[-105.02637,26.45947],[-105.11683,26.55241],[-105.32747,26.45947],[-105.57823,26.58659],[-105.68042,26.69894],[-105.8085,26.69326],[-106.02753,26.8386],[-106.09199,26.73493],[-106.15788,26.74206],[-106.22483,26.55967],[-106.19571,26.44534],[-106.43215,26.36178],[-106.37831,26.13151],[-106.41042,26.05074],[-106.5121,26.02167],[-106.53623,25.79202],[-106.75924,25.6203],[-106.93693,25.64159],[-107.25456,25.86325],[-107.38522,26.12189],[-107.77649,26.20132],[-107.83514,26.59959],[-108.02131,26.92001],[-108.37434,27.07744],[-108.46646,26.97987],[-108.57383,27.04329],[-108.68693,27.20444],[-108.63742,27.31384],[-108.65956,27.52488],[-108.90629,27.83616],[-109.01324,27.89419],[-109.15359,28.19895],[-109.05135,28.28352],[-108.64031,28.23879],[-108.54024,28.32005],[-108.64569,28.60766],[-108.61044,28.74274],[-108.70783,29.40079],[-108.61329,29.40761],[-108.53675,30.03863],[-108.58347,30.50661],[-109.04323,30.82848],[-108.96828,31.32739],[-108.21481,31.32744],[-108.21512,31.77775]]]}},{"type":"Feature","properties":{"id":"mx-chp","lat":16.28082,"lng":-92.24836},"geometry":{"type":"MultiPolygon","coordinates":[[[[-94.08218,16.09475],[-94.03038,16.03974],[-93.9639,15.9975],[-94.11486,16.0572],[-94.08218,16.09475]]],[[[-91.43826,17.25368],[-91.27951,17.18009],[-91.05493,16.90801],[-90.95519,16.89876],[-90.73531,16.74658],[-90.63376,16.59217],[-90.63309,16.48334],[-90.39492,16.41921],[-90.45943,16.25906],[-90.43448,16.10718],[-91.73985,16.06098],[-92.21129,15.27207],[-92.07381,15.07371],[-92.15421,14.99593],[-92.1608,14.6835],[-92.2261,14.54935],[-92.84061,15.16116],[-92.73742,15.0926],[-92.76842,15.17145],[-92.98314,15.26557],[-93.19961,15.49099],[-93.94339,16.01056],[-93.85403,16.02485],[-93.8981,16.08893],[-94.08362,16.14886],[-94.03986,16.30257],[-94.12508,16.50881],[-94.03981,16.64286],[-94.04146,16.80053],[-93.91129,16.88068],[-93.87341,17.15022],[-93.61854,17.3161],[-93.27102,17.99368],[-93.08757,17.9003],[-92.99791,17.93291],[-92.98313,17.54213],[-92.75524,17.36426],[-92.38301,17.62332],[-92.34348,17.71298],[-92.08076,17.78729],[-91.99559,17.90475],[-91.94294,17.854],[-91.81876,17.88542],[-91.79426,17.72884],[-91.69814,17.7136],[-91.64471,17.52492],[-91.50069,17.46359],[-91.38741,17.33326],[-91.43826,17.25368]]]]}},{"type":"Feature","properties":{"id":"mx-coa","lat":27.26369,"lng":-102.25549},"geometry":{"type":"Polygon","coordinates":[[[-102.32101,29.89394],[-102.10934,29.80211],[-101.63222,29.77565],[-101.54646,29.82015],[-101.54289,29.77105],[-101.4051,29.77844],[-101.31216,29.59786],[-101.23392,29.62266],[-101.21286,29.53158],[-101.03778,29.46006],[-101.00807,29.38058],[-100.66897,29.11621],[-100.62432,28.92472],[-100.32263,28.51041],[-100.35555,28.47818],[-100.27509,28.27724],[-100.0565,28.13792],[-99.80696,27.77142],[-99.97567,27.63762],[-100.18186,27.79355],[-100.35818,27.67415],[-100.45518,27.3536],[-100.62752,27.32789],[-100.81304,27.19948],[-100.75377,27.01311],[-100.66514,27.09953],[-100.55952,27.053],[-100.60923,26.71635],[-100.7115,26.61732],[-100.75258,26.73186],[-101.21565,26.37296],[-100.84771,25.95687],[-100.84632,25.78533],[-100.78203,25.67805],[-100.57171,25.52382],[-100.69635,25.50581],[-100.46831,25.343],[-100.30346,25.34486],[-100.19928,25.27587],[-100.27359,25.20319],[-100.5961,25.22949],[-100.79444,25.12157],[-100.83547,25.04131],[-100.7316,24.96243],[-100.79619,24.89347],[-100.76715,24.77593],[-100.82844,24.56496],[-101.09664,24.641],[-101.2311,24.8175],[-101.34417,24.83802],[-101.44158,24.75219],[-101.61718,24.75709],[-101.65433,24.8258],[-101.57439,24.80691],[-101.59077,24.88244],[-101.76776,24.93807],[-101.86073,25.07555],[-102.19993,25.16554],[-102.63404,25.11632],[-102.83855,24.89866],[-102.8431,24.72828],[-103.22617,24.88722],[-103.27532,25.07214],[-103.50616,25.28055],[-103.42384,25.41747],[-103.48779,25.54095],[-103.32017,25.69872],[-103.34953,26.07373],[-103.26958,26.31289],[-103.62726,26.64393],[-103.96347,27.91889],[-103.31309,29.02469],[-103.12277,28.99647],[-102.98839,29.17713],[-102.85878,29.22915],[-102.88307,29.34377],[-102.69104,29.73682],[-102.4061,29.77728],[-102.32101,29.89394]]]}},{"type":"Feature","properties":{"id":"mx-col","lat":19.13591,"lng":-104.02463},"geometry":{"type":"MultiPolygon","coordinates":[[[[-114.77554,18.35493],[-114.73404,18.32925],[-114.79857,18.33088],[-114.77554,18.35493]]],[[[-110.91942,18.78071],[-110.97948,18.71678],[-111.06725,18.76874],[-111.00056,18.86823],[-110.91942,18.78071]]],[[[-103.74202,18.69041],[-104.33167,19.02226],[-104.32872,19.0993],[-104.43955,19.08161],[-104.59227,19.17253],[-104.52566,19.2533],[-104.21451,19.32037],[-104.05576,19.53715],[-103.83348,19.39758],[-103.64858,19.50139],[-103.49133,19.31081],[-103.52523,19.09253],[-103.47781,18.96644],[-103.61181,18.88846],[-103.74202,18.69041]]],[[[-110.81432,19.34805],[-110.78767,19.31391],[-110.83023,19.27334],[-110.81432,19.34805]]]]}},{"type":"Feature","properties":{"id":"mx-cmx","lat":19.31774,"lng":-99.16021},"geometry":{"type":"Polygon","coordinates":[[[-99.12374,19.57105],[-99.05883,19.37727],[-98.95961,19.27459],[-98.9422,19.12137],[-99.04281,19.0578],[-99.26171,19.12064],[-99.33473,19.24673],[-99.30926,19.36259],[-99.2597,19.36089],[-99.12374,19.57105]]]}},{"type":"Feature","properties":{"id":"mx-dur","lat":24.59336,"lng":-104.5915},"geometry":{"type":"Polygon","coordinates":[[[-106.75637,24.70353],[-107.03638,24.91969],[-107.11534,25.14454],[-107.08271,25.46527],[-106.93693,25.64159],[-106.74035,25.62247],[-106.5445,25.77992],[-106.5121,26.02167],[-106.41042,26.05074],[-106.37831,26.13151],[-106.43215,26.36178],[-106.19571,26.44534],[-106.22483,26.55967],[-106.1452,26.76227],[-106.09199,26.73493],[-106.02753,26.8386],[-105.8085,26.69326],[-105.68042,26.69894],[-105.57823,26.58659],[-105.32747,26.45947],[-105.11683,26.55241],[-105.02637,26.45947],[-104.98803,26.50358],[-104.83334,26.48678],[-104.55705,26.34051],[-104.23459,26.72323],[-104.01036,26.77687],[-103.62726,26.64393],[-103.2849,26.36369],[-103.34953,26.07373],[-103.32017,25.69872],[-103.48779,25.54095],[-103.42384,25.41747],[-103.50616,25.28055],[-103.27532,25.07214],[-103.22617,24.88722],[-102.8431,24.72828],[-102.83855,24.89866],[-102.66817,25.07894],[-102.4917,24.82401],[-102.49025,24.47419],[-102.75713,24.40931],[-103.28214,24.48318],[-103.83593,24.08504],[-103.83942,23.94513],[-103.90451,23.92477],[-103.8104,23.67129],[-103.83337,23.62998],[-103.91791,23.65305],[-103.95249,23.55122],[-104.10364,23.4504],[-104.13428,23.18675],[-104.18906,23.11771],[-104.2088,22.64368],[-104.31143,22.3191],[-104.33463,22.47486],[-104.53348,22.42742],[-104.75373,22.67396],[-104.99666,22.54348],[-104.98857,22.69164],[-104.88858,22.79029],[-104.94548,22.9156],[-105.17882,23.03162],[-105.38863,23.03332],[-105.39235,23.14975],[-105.51544,23.14603],[-105.67794,23.28235],[-105.72566,23.48699],[-105.84304,23.58053],[-105.89736,23.71354],[-105.92229,23.90195],[-105.86188,24.06445],[-105.94836,24.07326],[-106.03502,24.26095],[-106.19558,24.38978],[-106.30924,24.3744],[-106.40461,24.2896],[-106.52533,24.30647],[-106.75637,24.70353]]]}},{"type":"Feature","properties":{"id":"mx-gro","lat":17.52658,"lng":-99.87725},"geometry":{"type":"Polygon","coordinates":[[[-98.55455,16.31827],[-98.7769,16.55513],[-98.90699,16.53479],[-99.66329,16.69816],[-99.99169,16.90974],[-101.05903,17.26424],[-101.18224,17.41254],[-101.64449,17.66829],[-101.81106,17.89026],[-102.03673,17.99067],[-102.16889,17.9212],[-102.16397,18.15388],[-101.9307,18.20824],[-101.87644,18.29516],[-101.88057,18.52285],[-101.80218,18.58817],[-101.64508,18.5798],[-101.51532,18.4783],[-101.25715,18.53711],[-101.0244,18.53877],[-100.95298,18.46585],[-100.81836,18.49773],[-100.69961,18.4411],[-100.68917,18.32586],[-100.63243,18.33712],[-100.60975,18.41784],[-100.74198,18.5243],[-100.78875,18.80118],[-100.73501,18.8572],[-100.68478,18.7941],[-100.62359,18.87063],[-100.44789,18.83859],[-100.42991,18.63654],[-100.30253,18.38999],[-100.07117,18.60956],[-99.84969,18.66331],[-99.78478,18.62176],[-99.66035,18.76382],[-99.4955,18.67405],[-99.50738,18.62413],[-99.33137,18.45293],[-99.24466,18.45391],[-99.21593,18.54636],[-99.16146,18.55292],[-99.03144,18.2377],[-98.93005,18.19512],[-98.92049,18.13993],[-98.82954,18.11626],[-98.75053,18.00846],[-98.42735,17.96397],[-98.33143,17.87266],[-98.38869,17.64063],[-98.32477,17.3175],[-98.14959,17.21513],[-98.00303,17.02589],[-98.07874,16.76626],[-98.24017,16.7026],[-98.23377,16.58095],[-98.3459,16.54726],[-98.3426,16.4097],[-98.55455,16.31827]]]}},{"type":"Feature","properties":{"id":"mx-gua","lat":20.84333,"lng":-101.28735},"geometry":{"type":"Polygon","coordinates":[[[-99.79062,21.41911],[-99.79253,21.29141],[-99.71393,21.2338],[-99.8269,21.15835],[-100.03603,21.17855],[-100.1058,20.91666],[-100.34196,20.89686],[-100.43911,20.96983],[-100.51042,20.89599],[-100.55838,20.65812],[-100.46877,20.40191],[-100.28599,20.21339],[-100.39115,20.11267],[-100.37947,19.97496],[-100.51786,19.90891],[-100.56076,19.94715],[-100.77464,19.91046],[-100.82963,19.97563],[-100.98833,19.94033],[-101.04496,19.99222],[-100.98636,20.02343],[-101.02068,20.09702],[-101.16335,20.10156],[-101.21322,20.02953],[-101.39316,20.03935],[-101.43409,20.22476],[-101.37693,20.26967],[-101.46122,20.33488],[-101.61547,20.31783],[-101.67345,20.19086],[-101.89318,20.19892],[-101.9493,20.36604],[-102.00615,20.33488],[-101.9956,20.40315],[-102.09968,20.38682],[-101.96754,20.58743],[-102.08795,20.79067],[-101.85504,21.14837],[-101.57268,21.34759],[-101.64012,21.55341],[-101.53827,21.63687],[-101.58622,21.75505],[-101.52054,21.84094],[-101.32598,21.87293],[-101.23648,21.75836],[-100.96146,21.75035],[-100.62731,21.49176],[-100.49921,21.51362],[-100.40397,21.67775],[-99.79062,21.41911]]]}},{"type":"Feature","properties":{"id":"mx-hid","lat":20.48971,"lng":-99.19464},"geometry":{"type":"Polygon","coordinates":[[[-99.04229,21.17576],[-98.99589,21.29648],[-98.8236,21.1769],[-98.5923,21.21225],[-98.58956,21.37151],[-98.51509,21.39885],[-98.4428,21.35368],[-98.49225,21.25612],[-98.41014,21.17757],[-98.35934,21.1553],[-98.28627,21.2463],[-98.27754,21.12414],[-98.21242,21.1506],[-98.1299,21.07215],[-98.23242,20.93831],[-98.22958,20.83093],[-98.42445,20.86911],[-98.41913,20.78834],[-98.49494,20.75692],[-98.41866,20.70943],[-98.5708,20.49492],[-98.46843,20.35364],[-98.11083,20.6884],[-98.02158,20.66081],[-98.00019,20.48449],[-98.27552,20.24218],[-98.13532,20.21029],[-98.10116,20.10244],[-98.25134,19.84887],[-98.14312,19.67275],[-98.25175,19.71962],[-98.34621,19.59452],[-98.48708,19.64412],[-98.65948,19.58552],[-98.59648,19.72138],[-98.64248,19.79502],[-98.83476,19.88638],[-98.9592,19.80877],[-98.94256,19.99036],[-99.01775,20.04214],[-99.20208,19.97909],[-99.22301,19.89656],[-99.38656,19.75631],[-99.43163,19.89739],[-99.51224,19.93532],[-99.48578,20.061],[-99.54867,20.15758],[-99.65787,20.13608],[-99.84411,20.30889],[-99.81951,20.5125],[-99.49002,20.66107],[-99.52139,20.73548],[-99.39788,20.91423],[-99.38036,21.09603],[-99.04229,21.17576]]]}},{"type":"Feature","properties":{"id":"mx-jal","lat":20.81573,"lng":-103.1632},"geometry":{"type":"Polygon","coordinates":[[[-104.59256,19.1496],[-105.01712,19.36848],[-105.08771,19.56107],[-105.25076,19.66608],[-105.52562,20.03193],[-105.55895,20.21821],[-105.69868,20.40691],[-105.57559,20.48774],[-105.30095,20.53184],[-105.2343,20.63613],[-105.29078,20.68515],[-105.12619,20.89066],[-104.78771,21.01991],[-104.52292,20.90658],[-104.28562,20.70804],[-104.20818,20.99329],[-104.22412,21.16925],[-104.03966,21.21984],[-103.94468,21.37518],[-104.2103,21.51915],[-104.09842,21.78446],[-104.39866,22.08542],[-104.32975,22.26438],[-103.95215,22.36954],[-103.92693,22.507],[-103.99184,22.57433],[-103.98318,22.77158],[-103.77875,22.73468],[-103.88743,22.4671],[-103.85213,22.17942],[-103.72803,22.60637],[-103.60796,22.52441],[-103.68305,22.322],[-103.65824,22.1172],[-103.48864,22.13493],[-103.35865,22.34877],[-103.42681,22.41005],[-103.37278,22.51676],[-103.18517,22.38049],[-103.18912,22.3222],[-103.03768,22.28742],[-103.12714,22.1741],[-103.08259,22.09886],[-103.15608,21.9984],[-103.28901,21.98548],[-103.52683,21.81722],[-103.51928,21.60028],[-103.64393,21.4868],[-103.73395,21.52494],[-103.70426,21.38417],[-103.74705,21.22837],[-103.65341,21.2647],[-103.61135,21.19778],[-103.05957,21.0445],[-103.045,21.28826],[-102.91493,21.28227],[-102.81473,21.34149],[-102.78664,21.29498],[-102.64714,21.48732],[-102.64052,21.56835],[-102.77618,21.60783],[-102.76049,21.7488],[-102.66138,21.77784],[-102.46803,21.69459],[-102.23125,21.67775],[-101.84543,22.01747],[-101.52876,21.87655],[-101.58622,21.75505],[-101.53827,21.63687],[-101.64012,21.55341],[-101.57268,21.34759],[-101.67438,21.24258],[-101.78538,21.22181],[-102.04563,20.87247],[-102.09441,20.75899],[-101.96754,20.58743],[-102.09968,20.38682],[-102.42131,20.34258],[-103.0775,20.10482],[-103.03642,19.97041],[-102.76705,19.95542],[-102.7068,19.86153],[-102.81659,19.79047],[-102.74571,19.47561],[-102.60707,19.48972],[-102.54472,19.40001],[-102.6575,19.23113],[-102.75101,19.25888],[-102.88444,19.20255],[-102.96715,19.07444],[-103.14912,18.95383],[-103.28173,19.05305],[-103.34811,18.97776],[-103.47781,18.96644],[-103.52523,19.09253],[-103.49133,19.31081],[-103.64858,19.50139],[-103.83348,19.39758],[-104.05576,19.53715],[-104.21451,19.32037],[-104.53638,19.24885],[-104.59256,19.1496]]]}},{"type":"Feature","properties":{"id":"mx-mex","lat":19.3419,"lng":-99.80401},"geometry":{"type":"Polygon","coordinates":[[[-98.64087,19.46191],[-98.63984,19.04747],[-98.70976,18.96985],[-98.81063,18.96877],[-98.84014,19.04463],[-98.96395,19.08912],[-98.96664,19.30316],[-99.05883,19.37727],[-99.12374,19.57105],[-99.2597,19.36089],[-99.30926,19.36259],[-99.3015,18.95197],[-99.47245,18.80045],[-99.4955,18.67405],[-99.66035,18.76382],[-99.78478,18.62176],[-99.84969,18.66331],[-100.07117,18.60956],[-100.27478,18.392],[-100.36645,18.45541],[-100.44789,18.83859],[-100.62359,18.87063],[-100.29881,19.25851],[-100.33007,19.3229],[-100.14636,19.43576],[-100.21452,19.56501],[-100.12285,19.93801],[-99.8885,20.1905],[-99.93775,20.25225],[-99.84411,20.30889],[-99.65787,20.13608],[-99.54867,20.15758],[-99.48578,20.061],[-99.51224,19.93532],[-99.43163,19.89739],[-99.38656,19.75631],[-99.22301,19.89656],[-99.20208,19.97909],[-99.03434,20.0411],[-98.94256,19.99036],[-98.9592,19.80877],[-98.83476,19.88638],[-98.68914,19.84447],[-98.59648,19.72138],[-98.65948,19.58552],[-98.70909,19.58294],[-98.64087,19.46191]]]}},{"type":"Feature","properties":{"id":"mx-mic","lat":19.1385,"lng":-101.66137},"geometry":{"type":"Polygon","coordinates":[[[-102.16889,17.9212],[-103.36164,18.26682],[-103.4984,18.33348],[-103.5751,18.49226],[-103.70674,18.59122],[-103.74202,18.69041],[-103.61181,18.88846],[-103.49089,18.96856],[-103.34811,18.97776],[-103.28173,19.05305],[-103.14912,18.95383],[-102.96715,19.07444],[-102.88444,19.20255],[-102.75101,19.25888],[-102.6575,19.23113],[-102.54864,19.38688],[-102.60707,19.48972],[-102.74571,19.47561],[-102.81659,19.79047],[-102.7068,19.86153],[-102.7629,19.95237],[-103.03642,19.97041],[-103.0775,20.10482],[-102.42131,20.34258],[-101.9956,20.40315],[-102.01607,20.34418],[-101.9493,20.36604],[-101.89318,20.19892],[-101.67345,20.19086],[-101.61547,20.31783],[-101.46122,20.33488],[-101.37693,20.26967],[-101.43409,20.22476],[-101.39316,20.03935],[-101.21322,20.02953],[-101.16335,20.10156],[-101.02068,20.09702],[-100.9829,20.04296],[-101.04496,19.99222],[-101.01716,19.95129],[-100.91448,19.92519],[-100.82963,19.97563],[-100.77464,19.91046],[-100.56076,19.94715],[-100.53244,19.9054],[-100.37947,19.97496],[-100.39115,20.11267],[-100.28599,20.21339],[-100.23571,20.19086],[-100.12285,19.93801],[-100.21452,19.56501],[-100.14636,19.43576],[-100.33007,19.3229],[-100.29881,19.25851],[-100.6637,18.81224],[-100.73501,18.8572],[-100.78875,18.80118],[-100.74198,18.5243],[-100.60034,18.39981],[-100.63243,18.33712],[-100.68917,18.32586],[-100.69961,18.4411],[-100.81836,18.49773],[-100.95298,18.46585],[-101.0244,18.53877],[-101.25715,18.53711],[-101.51532,18.4783],[-101.64508,18.5798],[-101.80218,18.58817],[-101.88057,18.52285],[-101.87644,18.29516],[-101.9307,18.20824],[-102.16397,18.15388],[-102.16889,17.9212]]]}},{"type":"Feature","properties":{"id":"mx-mor","lat":18.7464,"lng":-99.08983},"geometry":{"type":"Polygon","coordinates":[[[-98.6464,19.02359],[-98.65818,18.89125],[-98.73337,18.81193],[-98.66609,18.69235],[-98.75001,18.69193],[-98.67694,18.42751],[-98.82567,18.49396],[-99.04974,18.34994],[-99.15464,18.54915],[-99.21593,18.54636],[-99.24466,18.45391],[-99.33137,18.45293],[-99.50738,18.62413],[-99.47245,18.80045],[-99.3076,18.93481],[-99.33215,19.08891],[-99.28507,19.14245],[-99.04281,19.0578],[-98.89843,19.07537],[-98.80417,18.96608],[-98.6464,19.02359]]]}},{"type":"Feature","properties":{"id":"mx-nay","lat":21.8701,"lng":-104.88381},"geometry":{"type":"MultiPolygon","coordinates":[[[[-106.23192,21.33524],[-106.24731,21.2897],[-106.27936,21.31466],[-106.23192,21.33524]]],[[[-106.37273,21.48205],[-106.3871,21.42064],[-106.49261,21.469],[-106.45959,21.49489],[-106.37273,21.48205]]],[[[-106.548,21.66855],[-106.53236,21.54163],[-106.63116,21.60086],[-106.66085,21.69306],[-106.548,21.66855]]],[[[-106.67814,21.77485],[-106.65777,21.73988],[-106.67896,21.72704],[-106.67814,21.77485]]],[[[-105.36156,20.76275],[-105.5449,20.7681],[-105.23433,21.06097],[-105.24314,21.34206],[-105.18663,21.4534],[-105.21756,21.51724],[-105.44842,21.63103],[-105.63226,21.95574],[-105.7327,22.50406],[-105.67874,22.44897],[-105.67747,22.53521],[-105.44278,22.51475],[-105.57166,22.79065],[-105.44498,22.91421],[-105.4518,23.02356],[-105.22959,23.03741],[-104.93527,22.8955],[-104.88858,22.79029],[-104.98857,22.69164],[-104.99666,22.54348],[-104.77435,22.67624],[-104.65916,22.6166],[-104.61384,22.48147],[-104.53348,22.42742],[-104.33463,22.47486],[-104.31143,22.3191],[-104.39866,22.08542],[-104.09842,21.78446],[-104.2103,21.51915],[-103.94468,21.37518],[-104.03966,21.21984],[-104.22412,21.16925],[-104.20818,20.99329],[-104.28562,20.70804],[-104.52292,20.90658],[-104.7681,21.02016],[-104.92434,20.93118],[-105.09456,20.9181],[-105.27795,20.69037],[-105.36156,20.76275]]]]}},{"type":"Feature","properties":{"id":"mx-nle","lat":25.46357,"lng":-99.57028},"geometry":{"type":"Polygon","coordinates":[[[-99.80696,27.77142],[-99.71067,27.67012],[-99.9148,27.53429],[-99.75636,27.45047],[-99.67611,27.15367],[-99.73187,26.93231],[-99.56257,26.83498],[-99.65285,26.68385],[-99.39137,26.59789],[-99.41974,26.39924],[-99.18001,26.28871],[-99.13314,26.0567],[-99.03723,26.10078],[-98.88882,25.97082],[-98.83016,26.05934],[-98.56894,25.99743],[-98.56103,25.50258],[-98.44569,25.42457],[-98.88732,25.08627],[-98.98054,25.07095],[-99.03382,25.11955],[-99.14534,25.05204],[-99.18849,25.0069],[-99.14244,24.94587],[-99.19298,24.87802],[-99.16394,24.77577],[-99.29396,24.82665],[-99.73683,24.56966],[-99.70995,24.47249],[-99.60629,24.51251],[-99.60944,24.09181],[-99.45173,23.89164],[-99.59973,23.76684],[-99.84008,23.7408],[-99.9503,23.53856],[-99.90601,23.37511],[-100.04285,23.41526],[-100.12559,23.35625],[-100.055,23.31377],[-100.05727,23.24106],[-100.32682,23.25414],[-100.34005,23.18959],[-100.45058,23.2576],[-100.48035,23.78852],[-100.59724,23.97438],[-100.61807,24.31105],[-100.82844,24.56496],[-100.76715,24.77593],[-100.79619,24.89347],[-100.7316,24.96243],[-100.83547,25.04131],[-100.65729,25.21177],[-100.27359,25.20319],[-100.19928,25.27587],[-100.30346,25.34486],[-100.46831,25.343],[-100.69635,25.50581],[-100.57171,25.52382],[-100.78203,25.67805],[-100.84632,25.78533],[-100.84771,25.95687],[-101.21565,26.37296],[-100.75258,26.73186],[-100.7115,26.61732],[-100.60923,26.71635],[-100.55952,27.053],[-100.66514,27.09953],[-100.75377,27.01311],[-100.81304,27.19948],[-100.62752,27.32789],[-100.45518,27.3536],[-100.35818,27.67415],[-100.18186,27.79355],[-99.97567,27.63762],[-99.80696,27.77142]]]}},{"type":"Feature","properties":{"id":"mx-oax","lat":17.18267,"lng":-96.26017},"geometry":{"type":"Polygon","coordinates":[[[-94.11486,16.0572],[-94.3922,16.17768],[-94.7224,16.19965],[-94.58084,16.32648],[-94.67003,16.36384],[-94.79312,16.25764],[-94.77269,16.32718],[-94.87865,16.42463],[-95.06383,16.26826],[-94.8341,16.28555],[-94.93033,16.24396],[-94.80553,16.23713],[-94.76696,16.19868],[-95.1493,16.18695],[-95.35326,16.07949],[-95.43448,15.97538],[-95.95988,15.82791],[-96.23664,15.68333],[-96.55604,15.65902],[-96.84512,15.73257],[-97.26602,15.93591],[-97.77272,15.97945],[-98.17215,16.20917],[-98.08214,16.18928],[-98.06847,16.20234],[-98.55285,16.31475],[-98.3426,16.4097],[-98.3459,16.54726],[-98.23377,16.58095],[-98.24017,16.7026],[-98.07874,16.76626],[-98.00174,17.01503],[-98.14959,17.21513],[-98.32477,17.3175],[-98.38869,17.64063],[-98.34782,17.89219],[-98.24281,17.91379],[-98.14902,18.02634],[-97.9251,18.03585],[-97.87358,17.91653],[-97.79612,17.94273],[-97.73271,18.01451],[-97.8125,18.15465],[-97.72486,18.30219],[-97.6061,18.36043],[-97.64021,18.17052],[-97.48141,17.98531],[-97.25326,18.16907],[-96.99462,18.12349],[-96.78951,18.28369],[-96.64399,18.50481],[-96.66415,18.66889],[-96.41103,18.53928],[-96.35714,18.38725],[-96.16035,18.14974],[-95.83768,18.12039],[-95.77547,17.99544],[-95.90853,17.75628],[-95.78492,17.52281],[-95.60044,17.51759],[-95.20837,17.7323],[-95.25472,17.58265],[-94.99877,17.36039],[-94.93846,17.21652],[-93.87341,17.15022],[-93.91129,16.88068],[-94.04146,16.80053],[-94.03981,16.64286],[-94.12508,16.50881],[-94.03986,16.30257],[-94.06012,16.18501],[-94.08362,16.14886],[-94.12784,16.22085],[-94.26671,16.21528],[-94.37767,16.29536],[-94.43651,16.24555],[-94.34549,16.16315],[-94.09403,16.09897],[-94.11486,16.0572]]]}},{"type":"Feature","properties":{"id":"mx-pue","lat":19.383,"lng":-97.49451},"geometry":{"type":"Polygon","coordinates":[[[-98.65818,18.89125],[-98.64087,19.46191],[-98.4659,19.43835],[-98.34306,19.22896],[-98.19346,19.10648],[-98.05011,19.20916],[-97.88443,19.16622],[-97.84666,19.2119],[-97.8834,19.26709],[-97.82759,19.31143],[-97.62042,19.31949],[-97.75901,19.44786],[-97.84449,19.43633],[-97.88216,19.50108],[-97.84257,19.54346],[-98.0346,19.63611],[-98.0436,19.71864],[-98.14312,19.67275],[-98.25134,19.84887],[-98.10096,20.08616],[-98.13532,20.21029],[-98.2686,20.22166],[-98.25108,20.30264],[-97.96536,20.51611],[-97.96639,20.6822],[-97.88728,20.82007],[-97.77922,20.81377],[-97.72243,20.61078],[-97.58884,20.58221],[-97.55856,20.50423],[-97.62202,20.42134],[-97.69344,20.46578],[-97.77808,20.42992],[-97.77405,20.27323],[-97.67778,20.17887],[-97.60548,20.18709],[-97.57882,20.11882],[-97.40348,20.25959],[-97.13554,20.12172],[-97.30886,19.89682],[-97.30752,19.7483],[-97.39242,19.57581],[-97.32064,19.48083],[-97.40751,19.446],[-97.20902,19.32967],[-96.98154,19.28084],[-97.10908,19.17867],[-97.26411,19.16043],[-97.22633,18.89249],[-97.33088,18.80986],[-97.32829,18.7216],[-97.2871,18.6632],[-97.13636,18.64987],[-97.1005,18.48513],[-96.80021,18.55055],[-96.73215,18.3902],[-96.99462,18.12349],[-97.25563,18.16835],[-97.45309,17.97828],[-97.64021,18.17052],[-97.6061,18.36043],[-97.72486,18.30219],[-97.8125,18.15465],[-97.7325,18.00484],[-97.85756,17.91555],[-97.9251,18.03585],[-98.16209,18.02386],[-98.24281,17.91379],[-98.34782,17.89219],[-98.42735,17.96397],[-98.70506,17.99068],[-99.03144,18.2377],[-99.04974,18.34994],[-98.82567,18.49396],[-98.67694,18.42751],[-98.75001,18.69193],[-98.66609,18.69235],[-98.73337,18.81193],[-98.65818,18.89125]]]}},{"type":"Feature","properties":{"id":"mx-que","lat":20.80713,"lng":-99.99137},"geometry":{"type":"Polygon","coordinates":[[[-99.04338,21.26832],[-99.04229,21.17576],[-99.38036,21.09603],[-99.39788,20.91423],[-99.52139,20.73548],[-99.49002,20.66107],[-99.81951,20.5125],[-99.84411,20.30889],[-99.93775,20.25225],[-99.8885,20.1905],[-100.12285,19.93801],[-100.16579,19.95997],[-100.19783,20.14394],[-100.46877,20.40191],[-100.55838,20.65812],[-100.45973,20.96745],[-100.38289,20.90358],[-100.23488,20.93138],[-100.16187,20.87878],[-100.08704,20.94503],[-100.03603,21.17855],[-99.8269,21.15835],[-99.71393,21.2338],[-99.79253,21.29141],[-99.7484,21.50499],[-99.58226,21.39425],[-99.47607,21.40701],[-99.3753,21.43735],[-99.19753,21.6455],[-99.11232,21.29033],[-99.04338,21.26832]]]}},{"type":"Feature","properties":{"id":"mx-roo","lat":19.73406,"lng":-88.50341},"geometry":{"type":"MultiPolygon","coordinates":[[[[-87.32433,18.54979],[-87.3345,18.45437],[-87.37942,18.40249],[-87.34362,18.45234],[-87.32433,18.54979]]],[[[-87.25548,18.72427],[-87.26293,18.62865],[-87.26915,18.73851],[-87.25548,18.72427]]],[[[-88.28332,18.49144],[-88.52782,18.45415],[-88.61699,18.23543],[-88.87137,17.89095],[-89.04944,17.99921],[-89.14634,17.95146],[-89.15409,18.03141],[-89.03567,18.20271],[-89.10885,18.69077],[-89.0135,19.21785],[-89.13458,19.40523],[-89.41536,19.65105],[-89.36883,19.82013],[-88.92754,19.94088],[-88.83943,20.0139],[-88.79147,19.98121],[-88.70745,20.08084],[-88.44527,20.18365],[-88.34633,20.31858],[-88.26084,20.26298],[-88.27244,20.34341],[-88.19402,20.45284],[-87.98842,20.44273],[-87.67488,20.64789],[-87.53398,20.9557],[-87.58504,21.11106],[-87.52509,21.29878],[-87.53978,21.49933],[-87.23819,21.44302],[-87.15559,21.48176],[-87.13834,21.56306],[-87.41316,21.53408],[-87.04332,21.60212],[-86.91853,21.4396],[-86.82795,21.4333],[-86.81505,21.20478],[-86.74157,21.16413],[-86.87532,20.85505],[-87.43049,20.22102],[-87.4713,20.06904],[-87.43419,19.88923],[-87.47981,19.78433],[-87.44392,19.91348],[-87.47802,19.96483],[-87.4547,19.88931],[-87.57994,19.79902],[-87.66735,19.63377],[-87.66015,19.68378],[-87.7412,19.6717],[-87.73152,19.60053],[-87.66015,19.56778],[-87.67382,19.50568],[-87.56457,19.56778],[-87.4414,19.55366],[-87.42577,19.59211],[-87.44392,19.57392],[-87.52921,19.58759],[-87.44734,19.5808],[-87.44042,19.63597],[-87.41275,19.57762],[-87.4584,19.45502],[-87.61767,19.40546],[-87.67585,19.31118],[-87.68786,19.24213],[-87.63899,19.22093],[-87.56713,19.31721],[-87.46093,19.32071],[-87.73705,18.64496],[-87.84455,18.19668],[-87.93517,18.4431],[-88.07779,18.4986],[-88.00219,18.69013],[-88.03629,18.87499],[-88.12731,18.73021],[-88.13467,18.76952],[-88.1988,18.73994],[-88.24779,18.69627],[-88.18712,18.73851],[-88.19465,18.67646],[-88.15075,18.69855],[-88.28332,18.49144]]],[[[-86.73746,20.59227],[-86.88557,20.35883],[-86.99527,20.26081],[-87.01968,20.39745],[-86.93676,20.54719],[-86.73746,20.59227]]],[[[-86.72004,21.21271],[-86.74157,21.28767],[-86.70059,21.19892],[-86.72004,21.21271]]]]}},{"type":"Feature","properties":{"id":"mx-sin","lat":24.77171,"lng":-107.41202},"geometry":{"type":"MultiPolygon","coordinates":[[[[-105.67874,22.44897],[-105.98412,22.85676],[-106.03197,22.8301],[-106.22033,23.05195],[-106.4298,23.18513],[-106.52282,23.40754],[-106.79324,23.63235],[-107.03588,23.98078],[-107.77501,24.47744],[-107.79967,24.51215],[-107.49804,24.34394],[-107.55329,24.37808],[-107.49804,24.35761],[-107.47826,24.40009],[-107.52969,24.52192],[-107.62413,24.45848],[-107.93684,24.63882],[-107.80651,24.52896],[-107.90856,24.57787],[-108.06029,24.78644],[-107.97887,24.75699],[-107.98522,24.95344],[-108.04869,25.00145],[-108.04113,24.83836],[-108.08764,24.82315],[-108.32787,25.11115],[-108.18326,24.98139],[-108.13061,24.97679],[-108.13679,25.05996],[-108.00353,25.03144],[-108.21801,25.17316],[-108.3518,25.1695],[-108.31745,25.2285],[-108.3614,25.26936],[-108.39924,25.14525],[-108.43505,25.26081],[-108.73192,25.35814],[-108.59415,25.3513],[-108.76574,25.38093],[-108.72989,25.40599],[-108.77969,25.43325],[-108.76895,25.54019],[-108.89631,25.56025],[-108.92968,25.46638],[-108.95181,25.50389],[-109.03466,25.46524],[-109.11612,25.53632],[-109.05777,25.58466],[-108.98046,25.54462],[-108.83804,25.80463],[-109.06212,25.59028],[-109.13126,25.5834],[-109.25015,25.68618],[-109.15648,25.55679],[-109.22753,25.62865],[-109.41031,25.64615],[-109.30053,25.65917],[-109.28686,25.71068],[-109.37804,25.76179],[-109.39965,25.67853],[-109.44054,25.7934],[-109.43326,26.02167],[-109.29293,26.23694],[-109.28043,26.16063],[-109.15634,26.30806],[-109.17699,26.26252],[-109.09504,26.21475],[-109.13005,26.34847],[-108.50738,26.80157],[-108.46646,26.97987],[-108.37434,27.07744],[-108.02131,26.92001],[-107.83514,26.59959],[-107.77649,26.20132],[-107.36124,26.10652],[-107.25456,25.86325],[-106.93693,25.64159],[-107.08271,25.46527],[-107.11534,25.14454],[-107.03638,24.91969],[-106.75637,24.70353],[-106.59594,24.36805],[-106.47621,24.28565],[-106.18403,24.38515],[-106.03502,24.26095],[-105.94836,24.07326],[-105.86188,24.06445],[-105.92229,23.90195],[-105.84304,23.58053],[-105.76561,23.55107],[-105.62207,23.22758],[-105.51544,23.14603],[-105.39235,23.14975],[-105.38863,23.03332],[-105.47095,22.98552],[-105.44498,22.91421],[-105.57714,22.77019],[-105.48653,22.68415],[-105.44278,22.51475],[-105.67747,22.53521],[-105.67874,22.44897]]],[[[-108.90099,25.44652],[-108.80394,25.37458],[-109.01309,25.44693],[-108.90099,25.44652]]]]}},{"type":"Feature","properties":{"id":"mx-slp","lat":22.83781,"lng":-101.09857},"geometry":{"type":"Polygon","coordinates":[[[-100.82844,24.56496],[-100.61807,24.31105],[-100.59724,23.97438],[-100.48035,23.78852],[-100.43932,23.22902],[-100.34005,23.18959],[-100.32682,23.25414],[-100.05727,23.24106],[-100.08926,23.12081],[-100.00632,23.16525],[-99.90757,22.98408],[-100.03748,22.87969],[-100.00007,22.78336],[-99.53684,22.61748],[-99.54785,22.72828],[-99.43173,22.63552],[-99.37917,22.68342],[-99.22854,22.4453],[-98.83089,22.35838],[-98.65632,22.44292],[-98.35655,22.24521],[-98.45225,21.98042],[-98.58992,21.97969],[-98.52842,21.95923],[-98.5616,21.88233],[-98.45639,21.79707],[-98.62403,21.68488],[-98.64227,21.60886],[-98.52103,21.50448],[-98.51509,21.39885],[-98.58956,21.37151],[-98.5923,21.21225],[-98.80675,21.17426],[-98.9391,21.29121],[-99.11232,21.29033],[-99.19753,21.6455],[-99.38119,21.43265],[-99.57022,21.39239],[-99.72008,21.51466],[-99.79062,21.41911],[-99.95862,21.4591],[-100.40397,21.67775],[-100.49921,21.51362],[-100.62731,21.49176],[-100.96146,21.75035],[-101.23648,21.75836],[-101.32598,21.87293],[-101.52054,21.84094],[-101.3252,22.08759],[-101.37864,22.38236],[-101.29869,22.46018],[-101.35187,22.58958],[-101.55434,22.60312],[-101.6302,22.49801],[-101.81319,22.46473],[-102.15435,22.79592],[-102.25104,22.98366],[-102.22804,23.10076],[-102.29905,23.25042],[-102.23083,23.27786],[-102.19037,23.40421],[-102.11384,23.34529],[-102.03441,23.37578],[-101.82833,23.5812],[-101.22697,24.00269],[-100.82844,24.56496]]]}},{"type":"Feature","properties":{"id":"mx-son","lat":29.44667,"lng":-110.49779},"geometry":{"type":"MultiPolygon","coordinates":[[[[-109.26964,26.27741],[-109.25133,26.28946],[-109.29293,26.23694],[-109.26964,26.27741]]],[[[-109.22541,26.33446],[-109.15634,26.30806],[-109.23137,26.26342],[-109.22541,26.33446]]],[[[-110.04444,27.087],[-109.95751,27.05197],[-109.93803,27.02116],[-110.04444,27.087]]],[[[-110.59748,27.40575],[-110.59404,27.33183],[-110.53434,27.28436],[-110.60418,27.31802],[-110.59748,27.40575]]],[[[-111.38744,27.98808],[-111.36559,27.9534],[-111.39507,27.97939],[-111.38744,27.98808]]],[[[-112.25319,28.76905],[-112.58303,28.87536],[-112.48591,28.97162],[-112.46471,29.18183],[-112.26434,29.24689],[-112.27275,29.13768],[-112.19561,29.02133],[-112.25319,28.76905]]],[[[-114.81937,32.49936],[-111.06712,31.33364],[-108.96828,31.32739],[-109.04029,30.81409],[-108.58347,30.50661],[-108.53675,30.03863],[-108.61329,29.40761],[-108.70783,29.40079],[-108.61044,28.74274],[-108.64569,28.60766],[-108.54024,28.32005],[-108.64031,28.23879],[-109.05135,28.28352],[-109.15359,28.19895],[-109.01324,27.89419],[-108.90629,27.83616],[-108.65956,27.52488],[-108.63742,27.31384],[-108.68693,27.20444],[-108.46646,26.97987],[-108.50738,26.80157],[-109.13925,26.33177],[-109.15673,26.3642],[-109.18444,26.37857],[-109.24962,26.33446],[-109.25573,26.49799],[-109.48275,26.68221],[-109.42852,26.67185],[-109.4414,26.71456],[-109.52895,26.75144],[-109.55279,26.71701],[-109.49439,26.66917],[-109.66407,26.67406],[-109.83145,26.76569],[-109.95222,27.09858],[-110.28762,27.14839],[-110.52233,27.29035],[-110.42563,27.30191],[-110.49966,27.39338],[-110.55093,27.37739],[-110.6271,27.6411],[-110.54809,27.74282],[-110.59952,27.75235],[-110.60953,27.82477],[-110.51329,27.8732],[-110.84911,27.90668],[-110.80818,27.9278],[-110.83886,27.98941],[-110.8863,27.83885],[-110.99926,27.96406],[-111.10502,27.93537],[-111.33265,28.16041],[-111.45177,28.32563],[-111.43814,28.38711],[-111.70835,28.46014],[-111.76061,28.58397],[-111.94938,28.75651],[-111.86705,28.74958],[-111.86823,28.80313],[-112.17082,28.97299],[-112.23945,29.31534],[-112.41122,29.34473],[-112.37775,29.48573],[-112.66945,29.89762],[-112.74629,29.91046],[-112.76429,30.21152],[-112.86079,30.269],[-112.87068,30.42853],[-113.07989,30.67044],[-113.12884,30.81244],[-113.13096,31.06499],[-113.08319,30.98941],[-113.0559,31.03071],[-113.09174,31.20215],[-113.19705,31.22519],[-113.2329,31.28803],[-113.27599,31.27827],[-113.24144,31.24124],[-113.62227,31.32558],[-113.65958,31.49754],[-113.93952,31.60041],[-113.97769,31.66307],[-113.98277,31.53229],[-114.15901,31.49451],[-114.93363,31.90876],[-114.96654,32.18059],[-115.03974,32.27718],[-114.92631,32.48254],[-114.81937,32.49936]]],[[[-114.78612,31.80305],[-114.6527,31.68977],[-114.76256,31.71564],[-114.78612,31.80305]]]]}},{"type":"Feature","properties":{"id":"mx-tab","lat":17.9419,"lng":-92.08049},"geometry":{"type":"Polygon","coordinates":[[[-90.99168,17.96821],[-90.99199,17.25192],[-91.43327,17.25454],[-91.38741,17.33326],[-91.50069,17.46359],[-91.64471,17.52492],[-91.69814,17.7136],[-91.79426,17.72884],[-91.79922,17.86935],[-91.94294,17.854],[-91.96686,17.90924],[-92.08076,17.78729],[-92.36808,17.69685],[-92.38301,17.62332],[-92.75524,17.36426],[-92.98313,17.54213],[-92.99791,17.93291],[-93.08757,17.9003],[-93.27102,17.99368],[-93.41442,17.63768],[-93.5895,17.37553],[-93.6434,17.4208],[-93.62268,17.56301],[-94.07671,17.88201],[-94.05076,17.99368],[-94.13707,18.20744],[-93.86148,18.30654],[-93.87829,18.2569],[-93.78112,18.27277],[-93.7386,18.34064],[-93.59284,18.34496],[-93.5764,18.41185],[-93.83959,18.31855],[-93.55236,18.42939],[-93.15575,18.44306],[-93.17642,18.37767],[-93.12165,18.38906],[-93.12849,18.34064],[-93.08837,18.39277],[-93.1376,18.42886],[-92.85573,18.46605],[-92.71691,18.59219],[-92.6691,18.42939],[-92.69587,18.61563],[-92.48614,18.64848],[-92.36808,18.46079],[-92.14907,18.46187],[-92.15564,18.16881],[-91.89095,17.96666],[-91.63308,17.95089],[-91.5889,18.09786],[-91.47656,18.1022],[-90.99168,17.96821]]]}},{"type":"Feature","properties":{"id":"mx-tam","lat":24.91194,"lng":-98.35213},"geometry":{"type":"MultiPolygon","coordinates":[[[[-97.79841,22.76252],[-97.79613,22.72378],[-97.84317,22.68488],[-97.8153,22.7202],[-97.79841,22.76252]]],[[[-99.70569,27.66317],[-99.5072,27.57377],[-99.47292,27.42665],[-99.52136,27.31125],[-99.43199,27.20759],[-99.46173,27.05695],[-99.24828,26.8271],[-99.0855,26.40764],[-98.80133,26.37214],[-98.65366,26.24429],[-98.42884,26.21773],[-98.18506,26.06523],[-97.65987,26.03066],[-97.42542,25.85486],[-97.34573,25.85222],[-97.35111,25.91842],[-97.26636,25.96064],[-97.13927,25.96581],[-97.16515,25.72333],[-97.45897,25.17939],[-97.65144,24.51585],[-97.72521,23.80565],[-97.82209,23.7884],[-97.75886,23.76903],[-97.76061,23.65192],[-97.73331,23.77481],[-97.72224,23.73933],[-97.75381,22.84931],[-97.7539,22.92325],[-97.8767,22.73945],[-97.89322,22.61026],[-97.85839,22.59345],[-97.8343,22.66974],[-97.78186,22.27334],[-97.85177,22.2203],[-97.90862,22.3191],[-98.09279,22.37264],[-98.1977,22.48054],[-98.28978,22.46679],[-98.30942,22.39951],[-98.65632,22.44292],[-98.83089,22.35838],[-99.20647,22.43796],[-99.37917,22.68342],[-99.43173,22.63552],[-99.54785,22.72828],[-99.55446,22.621],[-100.00007,22.78336],[-100.03975,22.86827],[-99.90757,22.98408],[-100.00632,23.16525],[-100.08926,23.12081],[-100.04627,23.29724],[-100.12559,23.35625],[-100.04285,23.41526],[-99.90601,23.37511],[-99.95211,23.52771],[-99.853,23.72641],[-99.59973,23.76684],[-99.44992,23.90012],[-99.60944,24.09181],[-99.60629,24.51251],[-99.70995,24.47249],[-99.73683,24.56966],[-99.29396,24.82665],[-99.16394,24.77577],[-99.19298,24.87802],[-99.14244,24.94587],[-99.18849,25.0069],[-99.14534,25.05204],[-99.03382,25.11955],[-98.98054,25.07095],[-98.88732,25.08627],[-98.44569,25.42457],[-98.56103,25.50258],[-98.56894,25.99743],[-98.83016,26.05934],[-98.88882,25.97082],[-99.03723,26.10078],[-99.13314,26.0567],[-99.18001,26.28871],[-99.41974,26.39924],[-99.39137,26.59789],[-99.65285,26.68385],[-99.56257,26.83498],[-99.73187,26.93231],[-99.67611,27.15367],[-99.75636,27.45047],[-99.9148,27.53429],[-99.70569,27.66317]]]]}},{"type":"Feature","properties":{"id":"mx-tla","lat":19.37791,"lng":-98.0515},"geometry":{"type":"Polygon","coordinates":[[[-98.25175,19.71962],[-98.1023,19.67089],[-98.06251,19.73084],[-98.0346,19.63611],[-97.84257,19.54346],[-97.88216,19.50108],[-97.84449,19.43633],[-97.75901,19.44786],[-97.62042,19.31949],[-97.82759,19.31143],[-97.90645,19.15599],[-98.05011,19.20916],[-98.21573,19.11248],[-98.4659,19.43835],[-98.64087,19.46191],[-98.70909,19.58294],[-98.48708,19.64412],[-98.34621,19.59452],[-98.25175,19.71962]]]}},{"type":"Feature","properties":{"id":"mx-ver","lat":19.80855,"lng":-96.87278},"geometry":{"type":"MultiPolygon","coordinates":[[[[-97.77428,22.25349],[-97.76061,22.09585],[-97.61046,21.83576],[-97.31623,21.56094],[-97.41861,21.27338],[-97.47224,21.43781],[-97.37023,21.5375],[-97.62507,21.79442],[-97.78112,22.09585],[-97.65758,21.63654],[-97.562,21.48566],[-97.48941,21.48078],[-97.49682,21.40062],[-97.15054,20.64704],[-96.45613,19.8688],[-96.29035,19.33259],[-96.13195,19.23591],[-96.06143,19.07852],[-95.97716,19.05825],[-95.90355,18.8819],[-95.75276,18.79999],[-95.95885,18.85639],[-95.80736,18.75214],[-95.86189,18.72338],[-95.56835,18.6833],[-95.72838,18.75723],[-95.73282,18.79999],[-95.58361,18.72167],[-95.19005,18.70515],[-95.02424,18.56403],[-94.78694,18.51195],[-94.54332,18.16621],[-94.13707,18.20744],[-94.05076,17.99368],[-94.07671,17.88201],[-93.62268,17.56301],[-93.6434,17.4208],[-93.5895,17.37553],[-93.63663,17.29998],[-93.87341,17.15022],[-94.93846,17.21652],[-94.99877,17.36039],[-95.25472,17.58265],[-95.20837,17.7323],[-95.60044,17.51759],[-95.7702,17.51599],[-95.90853,17.75628],[-95.77547,17.99544],[-95.83768,18.12039],[-96.16035,18.14974],[-96.35714,18.38725],[-96.41103,18.53928],[-96.66415,18.66889],[-96.63376,18.53577],[-96.72812,18.41025],[-96.80021,18.55055],[-97.08696,18.4813],[-97.13636,18.64987],[-97.30406,18.67591],[-97.34162,18.78258],[-97.22633,18.89249],[-97.26411,19.16043],[-97.10908,19.17867],[-96.98154,19.28084],[-97.20902,19.32967],[-97.40751,19.446],[-97.32064,19.48083],[-97.39242,19.57581],[-97.30752,19.7483],[-97.30886,19.89682],[-97.13554,20.12172],[-97.40348,20.25959],[-97.57882,20.11882],[-97.60548,20.18709],[-97.67778,20.17887],[-97.77405,20.27323],[-97.77808,20.42992],[-97.69344,20.46578],[-97.62202,20.42134],[-97.55856,20.50423],[-97.58884,20.58221],[-97.72243,20.61078],[-97.77922,20.81377],[-97.88728,20.82007],[-98.00019,20.48449],[-98.02158,20.66081],[-98.07936,20.69708],[-98.46843,20.35364],[-98.56853,20.47229],[-98.41866,20.70943],[-98.49494,20.75692],[-98.41913,20.78834],[-98.42445,20.86911],[-98.22958,20.83093],[-98.23242,20.93831],[-98.1299,21.07215],[-98.21242,21.1506],[-98.27754,21.12414],[-98.28627,21.2463],[-98.3734,21.15514],[-98.48564,21.24485],[-98.4428,21.35368],[-98.51509,21.39885],[-98.53008,21.52484],[-98.64227,21.60886],[-98.62403,21.68488],[-98.45639,21.79707],[-98.5616,21.88233],[-98.52842,21.95923],[-98.58992,21.97969],[-98.45225,21.98042],[-98.34859,22.19203],[-98.37371,22.26495],[-98.61617,22.41858],[-98.30942,22.39951],[-98.28978,22.46679],[-98.1977,22.48054],[-98.09279,22.37264],[-97.90862,22.3191],[-97.86278,22.21978],[-97.77428,22.25349]]],[[[-97.65144,21.78791],[-97.63996,21.7451],[-97.68493,21.86245],[-97.65144,21.78791]]]]}},{"type":"Feature","properties":{"id":"mx-yuc","lat":20.58321,"lng":-89.07144},"geometry":{"type":"Polygon","coordinates":[[[-90.37417,20.51854],[-90.3391,20.97236],[-90.39806,20.82075],[-90.44213,20.78742],[-90.33239,21.03246],[-89.78596,21.28457],[-89.11262,21.36278],[-88.44782,21.5751],[-88.3004,21.55459],[-88.08479,21.5893],[-88.2351,21.5738],[-88.12946,21.61603],[-87.70629,21.53343],[-87.86563,21.55459],[-87.77807,21.51065],[-87.53978,21.49933],[-87.52509,21.29878],[-87.58504,21.11106],[-87.53398,20.9557],[-87.67488,20.64789],[-87.98842,20.44273],[-88.19402,20.45284],[-88.27244,20.34341],[-88.26084,20.26298],[-88.34633,20.31858],[-88.44527,20.18365],[-88.70745,20.08084],[-88.79147,19.98121],[-88.83943,20.0139],[-88.92754,19.94088],[-89.36883,19.82013],[-89.41536,19.65105],[-89.62998,20.01909],[-89.81074,20.13743],[-90.0184,20.46754],[-90.09424,20.40736],[-90.23635,20.50999],[-90.37417,20.51854]]]}},{"type":"Feature","properties":{"id":"mx-zac","lat":23.10924,"lng":-103.21074},"geometry":{"type":"Polygon","coordinates":[[[-100.82844,24.56496],[-101.22697,24.00269],[-101.82833,23.5812],[-102.03441,23.37578],[-102.11384,23.34529],[-102.19037,23.40421],[-102.23083,23.27786],[-102.29905,23.25042],[-102.22804,23.10076],[-102.25104,22.98366],[-102.15435,22.79592],[-101.81319,22.46473],[-101.6302,22.49801],[-101.55434,22.60312],[-101.35187,22.58958],[-101.29869,22.46018],[-101.37864,22.38236],[-101.3252,22.08759],[-101.52054,21.84094],[-101.97979,22.12304],[-101.99886,22.27528],[-102.2114,22.3545],[-102.29155,22.46478],[-102.47847,22.31528],[-102.67628,22.26076],[-102.65226,22.18717],[-102.85635,21.85029],[-102.76049,21.7488],[-102.77618,21.60783],[-102.64052,21.56835],[-102.64714,21.48732],[-102.78664,21.29498],[-102.81473,21.34149],[-102.91493,21.28227],[-103.045,21.28826],[-103.05957,21.0445],[-103.61135,21.19778],[-103.65341,21.2647],[-103.74705,21.22837],[-103.70426,21.38417],[-103.73395,21.52494],[-103.64393,21.4868],[-103.51928,21.60028],[-103.52683,21.81722],[-103.28901,21.98548],[-103.15608,21.9984],[-103.08259,22.09886],[-103.12714,22.1741],[-103.03768,22.28742],[-103.18912,22.3222],[-103.18517,22.38049],[-103.37278,22.51676],[-103.42681,22.41005],[-103.35865,22.34877],[-103.48864,22.13493],[-103.65824,22.1172],[-103.68305,22.322],[-103.60796,22.52441],[-103.72803,22.60637],[-103.85213,22.17942],[-103.88743,22.4671],[-103.77875,22.73468],[-103.98318,22.77158],[-103.99184,22.57433],[-103.92693,22.507],[-103.95215,22.36954],[-104.32975,22.26438],[-104.2088,22.64368],[-104.18906,23.11771],[-104.13428,23.18675],[-104.10364,23.4504],[-103.95249,23.55122],[-103.91791,23.65305],[-103.83337,23.62998],[-103.8104,23.67129],[-103.90451,23.92477],[-103.83942,23.94513],[-103.83593,24.08504],[-103.28214,24.48318],[-102.80088,24.40998],[-102.49325,24.46044],[-102.4917,24.82401],[-102.66817,25.07894],[-102.6135,25.1218],[-102.19993,25.16554],[-101.86073,25.07555],[-101.76776,24.93807],[-101.59077,24.88244],[-101.57439,24.80691],[-101.65433,24.8258],[-101.61718,24.75709],[-101.44158,24.75219],[-101.34417,24.83802],[-101.2311,24.8175],[-101.09664,24.641],[-100.82844,24.56496]]]}}]}
