{"type":"FeatureCollection","features":[{"type":"Feature","properties":{"id":"my-01","lat":1.97621,"lng":103.35088},"geometry":{"type":"MultiPolygon","coordinates":[[[[103.60022,2.6324],[103.76515,2.64891],[103.94898,2.33991],[104.25522,1.63776],[104.27735,1.36734],[104.10621,1.37519],[104.05942,1.48534],[104.14763,1.5454],[104.0534,1.50629],[103.96599,1.64785],[104.00978,1.44863],[103.6976,1.45063],[103.60011,1.35346],[103.54786,1.38207],[103.51637,1.27045],[103.36736,1.5384],[102.93458,1.74754],[102.83562,1.84565],[102.69939,1.85944],[102.48889,2.09298],[102.53651,2.13654],[102.4806,2.20785],[102.51972,2.34975],[102.62012,2.47597],[102.70456,2.839],[102.81443,2.79471],[102.99209,2.59524],[103.15497,2.52935],[103.36447,2.5939],[103.61851,2.44595],[103.60022,2.6324]]],[[[104.22511,2.73591],[104.13063,2.7458],[104.17066,2.8911],[104.21062,2.82787],[104.22511,2.73591]]]]}},{"type":"Feature","properties":{"id":"my-02","lat":5.85225,"lng":100.68385},"geometry":{"type":"MultiPolygon","coordinates":[[[[100.38739,6.52208],[100.63068,6.44478],[100.72995,6.4932],[100.80561,6.4148],[100.833,6.23667],[100.97428,6.27262],[101.09102,6.21316],[101.05345,6.15761],[101.07877,5.93817],[100.95464,5.76634],[100.93682,5.5231],[100.85269,5.35412],[100.75574,5.31557],[100.5633,5.08155],[100.50372,5.13424],[100.55911,5.14276],[100.53322,5.54979],[100.3543,5.56898],[100.34913,6.01268],[100.19873,6.26053],[100.38739,6.52208]]],[[[99.82392,6.28214],[99.83023,6.20575],[99.8056,6.17179],[99.76723,6.2238],[99.82392,6.28214]]],[[[99.91448,6.33971],[99.72874,6.26148],[99.64523,6.43584],[99.77093,6.41984],[99.84203,6.46964],[99.91448,6.33971]]]]}},{"type":"Feature","properties":{"id":"my-03","lat":5.39833,"lng":102.08387},"geometry":{"type":"Polygon","coordinates":[[[101.78415,5.7381],[102.06,6.0948],[102.07309,6.25751],[102.37989,6.13296],[102.542,5.85476],[102.38629,5.68596],[102.39419,5.42727],[102.44029,5.36939],[102.41264,5.18397],[102.52855,5.10607],[102.51305,4.9104],[102.63625,4.85826],[102.66529,4.79061],[102.60664,4.77392],[102.60245,4.69455],[102.40288,4.71821],[102.34329,4.64499],[102.22769,4.63698],[102.11612,4.75912],[101.96761,4.7626],[101.91205,4.61783],[101.80204,4.76315],[101.76715,4.63558],[101.64799,4.56189],[101.37906,4.61285],[101.34336,4.68176],[101.46143,4.8882],[101.43508,4.97455],[101.52882,5.27219],[101.61693,5.35993],[101.74989,5.36861],[101.75237,5.49129],[101.67047,5.51806],[101.66442,5.65818],[101.71475,5.7829],[101.78415,5.7381]]]}},{"type":"Feature","properties":{"id":"my-04","lat":2.29271,"lng":102.29876},"geometry":{"type":"Polygon","coordinates":[[[102.48889,2.09298],[102.15431,2.23566],[101.98847,2.39133],[102.18036,2.49228],[102.59935,2.42174],[102.51972,2.34975],[102.4806,2.20785],[102.53651,2.13654],[102.48889,2.09298]]]}},{"type":"Feature","properties":{"id":"my-05","lat":2.71742,"lng":102.20628},"geometry":{"type":"Polygon","coordinates":[[[101.98847,2.39133],[101.86525,2.39452],[101.78305,2.57587],[101.7212,2.59585],[101.75951,2.86282],[101.87996,2.87104],[101.96342,3.03304],[101.93365,3.28342],[102.06905,3.17169],[102.38861,3.11792],[102.70456,2.839],[102.59935,2.42174],[102.18036,2.49228],[101.98847,2.39133]]]}},{"type":"Feature","properties":{"id":"my-06","lat":3.66799,"lng":102.56031},"geometry":{"type":"Polygon","coordinates":[[[103.4428,4.16897],[103.39405,4.09862],[103.43434,3.95002],[103.33961,3.73835],[103.48219,3.51179],[103.42807,3.36717],[103.43458,2.96182],[103.64031,2.67129],[103.60022,2.6324],[103.61851,2.44595],[103.36447,2.5939],[103.15497,2.52935],[102.99209,2.59524],[102.38861,3.11792],[102.06905,3.17169],[101.94854,3.27799],[101.8303,3.28915],[101.76498,3.37326],[101.81335,3.59764],[101.60127,3.79238],[101.58494,4.08202],[101.46531,4.22057],[101.44578,4.38203],[101.34196,4.43146],[101.36449,4.57414],[101.37906,4.61285],[101.65512,4.56468],[101.76715,4.63558],[101.80204,4.76315],[101.91205,4.61783],[101.96761,4.7626],[102.11612,4.75912],[102.22769,4.63698],[102.34329,4.64499],[102.40288,4.71821],[102.60245,4.69455],[102.61904,4.78147],[102.84388,4.67594],[102.85753,4.49817],[103.02449,4.41283],[102.93401,4.27318],[102.92202,4.11073],[103.00821,4.13453],[103.23973,4.01745],[103.32024,3.87532],[103.31858,4.19359],[103.4428,4.16897]]]}},{"type":"Feature","properties":{"id":"my-07","lat":5.41991,"lng":100.46883},"geometry":{"type":"MultiPolygon","coordinates":[[[[100.40903,5.12665],[100.43328,5.29002],[100.3543,5.56898],[100.53322,5.54979],[100.55834,5.1385],[100.40903,5.12665]]],[[[100.31853,5.43529],[100.28875,5.26268],[100.18434,5.26854],[100.17945,5.4582],[100.31853,5.43529]]]]}},{"type":"Feature","properties":{"id":"my-08","lat":4.73733,"lng":100.99337},"geometry":{"type":"Polygon","coordinates":[[[100.97243,5.77285],[101.12218,5.62989],[101.2123,5.68152],[101.24899,5.78699],[101.55791,5.91135],[101.69966,5.76115],[101.66938,5.52225],[101.7502,5.49858],[101.74989,5.36861],[101.61693,5.35993],[101.52882,5.27219],[101.43508,4.97455],[101.46143,4.8882],[101.34336,4.68176],[101.38635,4.49973],[101.34196,4.43146],[101.44578,4.38203],[101.46531,4.22057],[101.58494,4.08202],[101.62685,3.77176],[101.52066,3.67562],[101.37023,3.79346],[101.32584,3.76925],[101.33746,3.68952],[101.26563,3.66825],[101.24047,3.71667],[101.08068,3.73032],[101.09247,3.77633],[100.96844,3.77316],[100.93945,3.86106],[100.72071,3.86807],[100.70631,3.98359],[100.87143,4.01887],[100.7776,4.02139],[100.76588,4.09984],[100.62257,4.17585],[100.56544,4.31916],[100.64552,4.56004],[100.59441,4.61091],[100.66619,4.66991],[100.60418,4.66584],[100.61736,4.79291],[100.44158,4.92284],[100.36451,5.0843],[100.491,5.13881],[100.57095,5.0845],[100.75574,5.31557],[100.85269,5.35412],[100.94333,5.53801],[100.97243,5.77285]]]}},{"type":"Feature","properties":{"id":"my-09","lat":6.48452,"lng":100.24307},"geometry":{"type":"Polygon","coordinates":[[[100.18756,6.70796],[100.27396,6.69626],[100.37766,6.52675],[100.19873,6.26053],[100.12729,6.44229],[100.18756,6.70796]]]}},{"type":"Feature","properties":{"id":"my-10","lat":3.23342,"lng":101.62239},"geometry":{"type":"MultiPolygon","coordinates":[[[[101.30592,3.06395],[101.3353,3.00902],[101.26808,2.96516],[101.30592,3.06395]]],[[[101.27117,3.04645],[101.23699,3.03506],[101.26287,3.05634],[101.27117,3.04645]]],[[[101.70094,2.60415],[101.28639,2.84968],[101.37281,3.00235],[101.29762,3.2746],[101.04054,3.62197],[100.81227,3.78657],[100.84057,3.84281],[100.93945,3.86106],[100.96844,3.77316],[101.09247,3.77633],[101.08068,3.73032],[101.24047,3.71667],[101.26563,3.66825],[101.33746,3.68952],[101.3617,3.79447],[101.51063,3.67593],[101.62685,3.77176],[101.77165,3.66895],[101.81397,3.58849],[101.76498,3.37326],[101.9335,3.24905],[101.96451,3.03708],[101.87996,2.87104],[101.75951,2.86282],[101.77258,2.73815],[101.70094,2.60415]],[[101.68473,3.21779],[101.62484,3.14407],[101.66209,3.04074],[101.72788,3.02692],[101.76219,3.18187],[101.68473,3.21779]],[[101.70287,2.88858],[101.73036,2.92887],[101.713,2.98121],[101.67155,2.96036],[101.70287,2.88858]]]]}},{"type":"Feature","properties":{"id":"my-11","lat":4.88506,"lng":102.98929},"geometry":{"type":"Polygon","coordinates":[[[102.542,5.85476],[103.12029,5.38133],[103.44801,4.80654],[103.49643,4.30622],[103.44858,4.17243],[103.31858,4.19359],[103.32024,3.87532],[103.23973,4.01745],[103.00821,4.13453],[102.91726,4.11515],[103.01178,4.43929],[102.88347,4.47218],[102.84373,4.53877],[102.87168,4.64863],[102.6904,4.71736],[102.6395,4.855],[102.51119,4.91513],[102.52855,5.10607],[102.41264,5.18397],[102.44029,5.36939],[102.39419,5.42727],[102.38629,5.68596],[102.542,5.85476]]]}},{"type":"Feature","properties":{"id":"my-12","lat":5.60194,"lng":117.22247},"geometry":{"type":"MultiPolygon","coordinates":[[[[117.64015,4.22744],[117.72022,4.26642],[117.90704,4.15668],[117.70361,4.16341],[117.64015,4.22744]]],[[[118.74879,4.4855],[118.67481,4.43659],[118.64405,4.49531],[118.74879,4.4855]]],[[[118.57781,4.6551],[118.53517,4.6013],[118.34645,4.67622],[118.45631,4.69725],[118.57781,4.6551]]],[[[116.52222,4.39679],[116.41132,4.28865],[116.31066,4.38338],[116.12576,4.37891],[116.02065,4.27085],[115.84412,4.38922],[115.77074,4.22561],[115.63913,4.14595],[115.67354,4.3233],[115.59065,4.38811],[115.55701,4.57352],[115.6585,4.82482],[115.63628,4.9405],[115.42156,4.96233],[115.55698,5.06721],[115.60523,5.2121],[115.48976,5.22297],[115.35963,5.31965],[115.60483,5.63581],[115.60483,5.51972],[115.61915,5.56806],[115.76238,5.52314],[115.84864,5.56],[115.93067,5.76301],[116.05079,5.84227],[116.14186,6.07306],[116.10597,6.12645],[116.22267,6.23721],[116.29152,6.23261],[116.29273,6.27578],[116.2361,6.27261],[116.50318,6.49519],[116.76588,7.02509],[116.83814,6.96214],[116.8108,6.86286],[116.85865,6.81786],[116.78395,6.59162],[116.97381,6.70808],[117.05787,6.84553],[117.03053,6.93114],[117.15024,7.00312],[117.25652,6.93797],[117.23032,6.81753],[117.29591,6.6363],[117.45851,6.54755],[117.5337,6.62104],[117.55812,6.54011],[117.72706,6.45116],[117.72299,6.25462],[117.60035,6.19782],[117.66896,5.97264],[117.46876,5.86856],[117.77426,5.90803],[118.01686,6.06098],[118.12517,5.86392],[118.05885,5.80899],[117.92115,5.80903],[117.9603,5.68716],[118.13404,5.68964],[118.17628,5.80516],[118.36525,5.81379],[118.594,5.68207],[118.56544,5.52595],[118.65105,5.63642],[118.81935,5.47809],[118.91879,5.45498],[118.93263,5.39411],[119.1893,5.45075],[119.27426,5.36115],[119.2671,5.20108],[119.15593,5.10619],[118.68149,4.94432],[118.49936,4.93146],[118.35719,5.0388],[118.13648,4.88231],[118.2776,4.69514],[118.47674,4.60114],[118.49659,4.50829],[118.59962,4.51919],[118.64576,4.43675],[118.55689,4.36351],[118.35328,4.36152],[117.98268,4.23115],[117.65602,4.42422],[117.60581,4.38202],[117.65366,4.27216],[117.59897,4.20694],[117.62713,4.1765],[117.56715,4.15965],[117.43648,4.18561],[117.21716,4.35343],[116.59023,4.33113],[116.52222,4.39679]]],[[[118.21949,5.85554],[118.18922,5.81973],[118.16383,5.83442],[118.21949,5.85554]]],[[[117.5066,6.67349],[117.44304,6.63573],[117.34343,6.66352],[117.44386,6.69855],[117.39991,6.73933],[117.46876,6.76667],[117.5066,6.67349]]],[[[117.28191,7.33234],[117.24708,7.18317],[117.07154,7.10248],[117.06772,7.28001],[117.15772,7.34072],[117.28191,7.33234]]],[[[117.02036,7.29458],[116.90016,7.19806],[116.85182,7.19806],[117.00262,7.3557],[117.02036,7.29458]]]]}},{"type":"Feature","properties":{"id":"my-13","lat":2.93592,"lng":113.67418},"geometry":{"type":"MultiPolygon","coordinates":[[[[111.41245,2.38736],[111.36988,2.35981],[111.31267,2.43134],[111.31544,2.78449],[111.38103,2.6979],[111.41245,2.38736]]],[[[115.36074,4.32956],[115.14617,4.90852],[115.21062,4.9597],[115.3423,4.89981],[115.42156,4.96233],[115.62248,4.95781],[115.6585,4.82482],[115.56011,4.49693],[115.6754,4.31245],[115.60951,3.99691],[115.5383,3.89783],[115.58863,3.85759],[115.5444,3.62916],[115.60124,3.43023],[115.51763,3.35716],[115.46409,3.03082],[115.31,2.98592],[115.24209,3.04162],[115.06908,2.83264],[115.10463,2.76149],[115.05647,2.60863],[115.15197,2.59705],[115.20613,2.50987],[114.92221,2.35391],[114.91333,2.28405],[114.77876,2.2472],[114.75303,2.13481],[114.78062,2.03605],[114.84108,2.03822],[114.83199,1.90252],[114.67954,1.84074],[114.669,1.69401],[114.5456,1.43495],[114.37486,1.50694],[114.17342,1.42051],[114.09426,1.46567],[113.90967,1.44247],[113.62483,1.22758],[113.52447,1.31356],[113.39755,1.29393],[113.08904,1.43134],[112.9582,1.41565],[113.02435,1.51438],[112.97319,1.56985],[112.47048,1.56766],[112.16156,1.43454],[112.18739,1.37966],[112.09293,1.14314],[111.9101,1.11404],[111.82308,1.00847],[111.62268,1.03027],[111.5032,0.95844],[111.47209,1.02221],[111.19758,1.07523],[110.88039,1.01053],[110.77673,0.90325],[110.5539,0.85137],[110.26348,0.99431],[110.17036,1.17445],[110.07455,1.19864],[109.92025,1.39477],[109.77555,1.45795],[109.64698,1.61763],[109.64181,1.781],[109.5398,1.82656],[109.52937,1.90516],[109.64527,2.08324],[109.69304,1.87311],[109.92775,1.69229],[110.29078,1.67398],[110.32936,1.80256],[110.39015,1.69904],[110.50799,1.74091],[110.46559,1.62055],[110.72674,1.54743],[110.67791,1.44863],[110.83961,1.56598],[111.14194,1.37153],[111.23268,1.3946],[111.34059,1.33332],[111.38356,1.35366],[111.261,1.41991],[111.15797,1.40616],[111.00685,1.55508],[111.03785,1.67695],[111.26743,1.62735],[111.17286,1.65937],[111.09604,1.77448],[111.2059,2.069],[111.26783,2.06753],[111.25392,2.12613],[111.33644,2.11213],[111.37794,2.16181],[111.18474,2.14509],[111.24008,2.21638],[111.18483,2.25365],[111.22096,2.41608],[111.36549,2.34077],[111.49342,2.34614],[111.40455,2.48395],[111.52125,2.49071],[111.42286,2.53962],[111.44028,2.68012],[111.66961,2.84308],[112.01352,2.88593],[113.00782,3.16169],[113.43425,3.75316],[113.73683,4.00129],[113.94679,4.27383],[113.97584,4.59471],[114.24556,4.48143],[114.28267,4.26491],[114.41992,4.26013],[114.62776,4.01668],[114.76687,4.13182],[114.84563,4.39511],[114.78817,4.4612],[114.74197,4.72945],[114.94836,4.81893],[115.0158,4.91641],[115.09977,4.39123],[115.36074,4.32956]]]]}},{"type":"Feature","properties":{"id":"my-14","lat":3.09241,"lng":101.69229},"geometry":{"type":"Polygon","coordinates":[[[101.66845,3.23221],[101.76044,3.188],[101.72788,3.02692],[101.66209,3.04074],[101.62484,3.14407],[101.66845,3.23221]]]}},{"type":"Feature","properties":{"id":"my-15","lat":5.318,"lng":115.21794},"geometry":{"type":"Polygon","coordinates":[[[115.24855,5.36547],[115.25929,5.2912],[115.15919,5.25218],[115.18914,5.34479],[115.24855,5.36547]]]}},{"type":"Feature","properties":{"id":"my-16","lat":2.90217,"lng":101.68956},"geometry":{"type":"Polygon","coordinates":[[[101.713,2.98121],[101.73036,2.92887],[101.67713,2.87548],[101.67155,2.96036],[101.713,2.98121]]]}}]}
