{"type":"FeatureCollection","features":[{"type":"Feature","properties":{"id":"mz-a","lat":-13.39414,"lng":36.33361},"geometry":{"type":"Polygon","coordinates":[[[38.11543,-11.24954],[38.49226,-11.41346],[38.40223,-11.64415],[38.42518,-11.9417],[38.33165,-12.12262],[38.20948,-12.2144],[38.17119,-12.36167],[38.0298,-12.49727],[37.9741,-13.07192],[38.12944,-13.1408],[38.21041,-13.11594],[38.0514,-13.46254],[38.11254,-13.48279],[38.21155,-13.82556],[38.42037,-14.12689],[37.93642,-14.30507],[37.85617,-14.23035],[37.63474,-14.28078],[37.59278,-14.38186],[37.48002,-14.40232],[37.34194,-14.54867],[37.17063,-14.59451],[36.89023,-14.77496],[36.63619,-15.16564],[36.37151,-15.30584],[36.2866,-15.49203],[35.83762,-15.45828],[35.7842,-15.17184],[35.9043,-14.88689],[35.86327,-14.87666],[35.84725,-14.65042],[35.08409,-13.70423],[34.86312,-13.51581],[34.6406,-13.49235],[34.54531,-13.32575],[34.49446,-12.68739],[34.35401,-12.19946],[34.56381,-11.8309],[34.60712,-11.59113],[35.53151,-11.61273],[35.66483,-11.57201],[35.82637,-11.41346],[36.16806,-11.57872],[36.19968,-11.70151],[36.6257,-11.72135],[36.82011,-11.57356],[37.0324,-11.56487],[37.14164,-11.67474],[37.45067,-11.72259],[37.81695,-11.53356],[37.87524,-11.3191],[38.11543,-11.24954]],[[34.68897,-12.12453],[34.75925,-12.06562],[34.71564,-12.00164],[34.6559,-12.07626],[34.68897,-12.12453]],[[34.62748,-11.98728],[34.54407,-12.01136],[34.61115,-12.07254],[34.62748,-11.98728]]]}},{"type":"Feature","properties":{"id":"mz-b","lat":-18.98861,"lng":33.35244},"geometry":{"type":"Polygon","coordinates":[[[32.99641,-18.46714],[33.04277,-18.352],[32.95497,-18.2563],[32.92737,-17.97291],[33.02453,-17.61923],[32.93657,-17.49831],[33.0376,-17.37382],[33.10871,-17.08945],[33.23237,-17.00211],[33.48383,-16.46716],[33.80448,-16.40236],[34.01739,-16.62891],[34.59616,-16.83024],[34.47436,-16.9833],[34.2905,-17.06314],[34.22249,-17.19678],[34.12787,-17.60864],[34.14865,-17.86423],[34.28393,-17.95487],[34.24347,-18.20204],[34.11108,-18.267],[33.94054,-18.13688],[33.81456,-18.29227],[33.8715,-18.48771],[33.71554,-18.68217],[34.03304,-18.92226],[33.92721,-19.30828],[33.92458,-19.57493],[33.84701,-19.60738],[33.87507,-19.7776],[34.00292,-19.83817],[33.75001,-20.00431],[33.65705,-19.93382],[33.4091,-20.08399],[33.50843,-20.27912],[33.49086,-20.41979],[33.74133,-20.66649],[33.88515,-20.72246],[33.89884,-20.96332],[34.01041,-20.97918],[34.1243,-21.08936],[34.01568,-21.31157],[33.87951,-21.41394],[33.52739,-21.40009],[33.32508,-21.50086],[33.13971,-21.51497],[33.07005,-21.59636],[32.93451,-21.49218],[32.4889,-21.34438],[32.33981,-21.13406],[32.49102,-20.93634],[32.48161,-20.60303],[32.67178,-20.53182],[32.85296,-20.27385],[32.88531,-20.10301],[33.00727,-20.03201],[33.0328,-19.78417],[32.94319,-19.64929],[32.81963,-19.6743],[32.83219,-19.50088],[32.76335,-19.46398],[32.85591,-19.08374],[32.8142,-19.0238],[32.69897,-19.02225],[32.68109,-18.95497],[32.69142,-18.83425],[32.90252,-18.77451],[32.87074,-18.53577],[32.99641,-18.46714]]]}},{"type":"Feature","properties":{"id":"mz-g","lat":-23.25328,"lng":32.69031},"geometry":{"type":"Polygon","coordinates":[[[32.40854,-21.29033],[32.81229,-21.48758],[32.93451,-21.49218],[33.07005,-21.59636],[33.13971,-21.51497],[33.27697,-21.50458],[33.14607,-21.70364],[33.15692,-21.82239],[33.37215,-22.10883],[33.37432,-22.36329],[33.32001,-22.39703],[33.29908,-22.55805],[33.62434,-22.89747],[33.90737,-23.34958],[33.84654,-23.39216],[33.95062,-23.54461],[33.89357,-23.65587],[33.96168,-23.69731],[33.91605,-24.03838],[33.9252,-24.08701],[33.99238,-24.08638],[34.00343,-24.33273],[34.14074,-24.53861],[34.42486,-24.45985],[34.37799,-24.52956],[34.46646,-24.62155],[34.29763,-24.71074],[34.32367,-24.78577],[34.48015,-24.85223],[33.27719,-25.29681],[33.31918,-25.25237],[33.13201,-25.37917],[33.13057,-25.25014],[33.00396,-25.20575],[32.99802,-25.07495],[32.92944,-25.04777],[32.93663,-24.78179],[32.72232,-24.54853],[32.70553,-24.40497],[32.09135,-24.2132],[31.92631,-24.27674],[31.85044,-23.93063],[31.7552,-23.85777],[31.64229,-23.58786],[31.52762,-23.45681],[31.53635,-23.15698],[31.2791,-22.41532],[32.40854,-21.29033]]]}},{"type":"Feature","properties":{"id":"mz-i","lat":-22.9061,"lng":34.57995},"geometry":{"type":"MultiPolygon","coordinates":[[[[35.11248,-20.95281],[35.07879,-21.08506],[35.01645,-21.1111],[35.08595,-21.21331],[35.07228,-21.32195],[35.12696,-21.17864],[35.12013,-21.37721],[35.27101,-21.64414],[35.33579,-22.08912],[35.30568,-22.3886],[35.39405,-22.48773],[35.44142,-22.11956],[35.50082,-22.10605],[35.51734,-22.31015],[35.55144,-22.17913],[35.48943,-22.69004],[35.53785,-22.94695],[35.60613,-22.91473],[35.47853,-23.17685],[35.39039,-23.74798],[35.3816,-23.67767],[35.34034,-23.6762],[35.33237,-23.96453],[35.38014,-23.84442],[35.46607,-23.88014],[35.47584,-23.7824],[35.54322,-23.86321],[35.4935,-24.11053],[35.18068,-24.53069],[34.81227,-24.74139],[34.48015,-24.85223],[34.32367,-24.78577],[34.29918,-24.722],[34.46646,-24.62155],[34.37799,-24.52956],[34.42486,-24.45985],[34.14074,-24.53861],[34.00343,-24.33273],[33.99238,-24.08638],[33.9252,-24.08701],[33.91605,-24.03838],[33.96168,-23.69731],[33.89357,-23.65587],[33.95062,-23.54461],[33.84654,-23.39216],[33.90737,-23.34958],[33.62434,-22.89747],[33.30947,-22.58203],[33.32001,-22.39703],[33.37432,-22.36329],[33.37215,-22.10883],[33.15692,-21.82239],[33.14715,-21.6917],[33.27697,-21.50458],[33.49241,-21.41161],[33.85755,-21.42055],[33.96556,-21.31575],[34.17216,-21.32185],[34.24368,-21.26847],[34.33142,-21.3095],[34.46304,-21.17111],[34.66629,-21.09251],[34.76122,-21.12636],[34.87501,-21.02368],[35.11248,-20.95281]]],[[[35.48097,-21.52955],[35.49073,-21.64186],[35.43491,-21.78289],[35.43751,-21.67295],[35.48097,-21.52955]]]]}},{"type":"Feature","properties":{"id":"mz-l","lat":-25.47593,"lng":32.49179},"geometry":{"type":"MultiPolygon","coordinates":[[[[32.95191,-26.05299],[32.9183,-26.0014],[32.9826,-25.96901],[32.95191,-26.05299]]],[[[32.63233,-25.93808],[32.50017,-25.95477],[32.4808,-26.00319],[32.54713,-25.97894],[32.68084,-26.18817],[32.83107,-26.28379],[32.8794,-26.27752],[32.89479,-26.11468],[32.95444,-26.07887],[32.89308,-26.84612],[32.11388,-26.84001],[32.10706,-26.50029],[32.03988,-26.28367],[32.07058,-26.00978],[31.94924,-25.9581],[31.90583,-25.813],[31.99575,-25.63688],[31.99193,-24.50042],[31.92631,-24.27674],[32.06717,-24.21165],[32.70553,-24.40497],[32.72232,-24.54853],[32.93663,-24.78179],[32.92696,-25.03744],[32.99802,-25.07495],[33.00396,-25.20575],[33.13522,-25.26021],[33.13201,-25.37917],[32.84474,-25.57269],[32.73992,-25.82586],[32.63233,-25.93808]]]]}},{"type":"Feature","properties":{"id":"mz-n","lat":-15.15538,"lng":39.03554},"geometry":{"type":"MultiPolygon","coordinates":[[[[39.94358,-16.27927],[39.9033,-16.40981],[39.83246,-16.39052],[39.83235,-16.29977],[39.94358,-16.27927]]],[[[40.42041,-13.45608],[40.59522,-13.5652],[40.5394,-13.63641],[40.65056,-14.03191],[40.59522,-14.08538],[40.61948,-14.12721],[40.53858,-14.16448],[40.55421,-14.23008],[40.58806,-14.20615],[40.6019,-14.26312],[40.6963,-14.18255],[40.7461,-14.27093],[40.73243,-14.33994],[40.63624,-14.33994],[40.6294,-14.56634],[40.70053,-14.43206],[40.77329,-14.4013],[40.84254,-14.46445],[40.76002,-14.52614],[40.83375,-14.53875],[40.8401,-14.79827],[40.70973,-14.89528],[40.64308,-14.85377],[40.77394,-14.99774],[40.67091,-14.97666],[40.71193,-15.07293],[40.53321,-15.1207],[40.51271,-15.18206],[40.66041,-15.17897],[40.66684,-15.29925],[40.57325,-15.50498],[40.49903,-15.52532],[40.06495,-15.98919],[40.13478,-15.9865],[39.99236,-16.22243],[39.78338,-16.30194],[39.80795,-16.38893],[39.85597,-16.42978],[39.7461,-16.44329],[39.69825,-16.53216],[39.14747,-16.87664],[38.9821,-16.62565],[39.04835,-16.50897],[38.92096,-16.20862],[38.93554,-16.10398],[38.81094,-15.82937],[38.68186,-15.68447],[37.84129,-15.18765],[37.68688,-15.24227],[37.51216,-15.13179],[37.38493,-15.21886],[37.21487,-15.01149],[36.71474,-15.0041],[36.89023,-14.77496],[37.17063,-14.59451],[37.34194,-14.54867],[37.48002,-14.40232],[37.59278,-14.38186],[37.63474,-14.28078],[37.85617,-14.23035],[37.93642,-14.30507],[38.42037,-14.12689],[38.84138,-14.10642],[39.07951,-13.95041],[39.20803,-13.95351],[39.51731,-13.76355],[39.84876,-13.67503],[40.12844,-13.44812],[40.25251,-13.48796],[40.42041,-13.45608]]]]}},{"type":"Feature","properties":{"id":"mz-p","lat":-12.31264,"lng":39.33936},"geometry":{"type":"Polygon","coordinates":[[[39.23815,-11.1742],[39.4985,-10.99065],[39.7605,-10.9431],[40.00813,-10.81112],[40.43686,-10.47479],[40.52703,-10.48846],[40.5066,-10.56634],[40.64674,-10.67034],[40.48536,-10.76214],[40.62029,-10.84092],[40.4961,-10.95574],[40.50652,-11.03721],[40.56609,-11.01393],[40.50652,-11.18743],[40.34881,-11.31707],[40.46583,-11.38519],[40.42758,-11.65008],[40.52019,-11.83904],[40.52491,-12.20452],[40.45118,-12.2636],[40.56105,-12.38714],[40.4782,-12.50107],[40.56202,-12.53004],[40.61964,-12.64512],[40.56804,-12.64959],[40.57814,-12.70631],[40.64682,-12.7553],[40.53199,-12.81146],[40.52443,-12.90936],[40.48406,-12.88128],[40.4109,-12.94207],[40.48341,-13.02191],[40.50017,-12.94801],[40.5892,-12.95794],[40.52703,-13.29827],[40.56788,-13.28476],[40.58448,-13.38323],[40.5051,-13.52057],[40.42041,-13.45608],[40.25251,-13.48796],[40.12844,-13.44812],[39.84876,-13.67503],[39.51731,-13.76355],[39.20803,-13.95351],[39.07951,-13.95041],[38.84138,-14.10642],[38.42037,-14.12689],[38.21155,-13.82556],[38.11254,-13.48279],[38.0514,-13.46254],[38.21475,-13.15134],[37.97472,-13.07719],[38.0298,-12.49727],[38.17119,-12.36167],[38.20948,-12.2144],[38.33165,-12.12262],[38.42518,-11.9417],[38.40223,-11.64415],[38.51716,-11.38308],[38.89626,-11.16769],[39.23815,-11.1742]]]}},{"type":"Feature","properties":{"id":"mz-q","lat":-16.9495,"lng":37.1942},"geometry":{"type":"Polygon","coordinates":[[[35.83756,-15.4592],[36.2866,-15.49203],[36.37151,-15.30584],[36.56715,-15.23664],[36.71474,-15.0041],[37.21487,-15.01149],[37.38493,-15.21886],[37.52487,-15.13112],[37.68688,-15.24227],[37.81943,-15.1861],[37.95673,-15.23432],[38.19506,-15.43549],[38.37273,-15.47141],[38.77932,-15.77826],[39.03641,-16.44303],[39.04695,-16.52721],[38.98024,-16.61873],[39.12782,-16.82393],[39.08074,-16.9157],[39.11622,-16.95477],[38.8755,-17.04559],[38.66293,-17.02557],[38.66676,-17.07537],[38.17286,-17.28753],[38.12176,-17.17694],[38.08082,-17.19069],[38.12794,-17.28631],[37.18946,-17.7387],[36.98406,-18.01238],[36.88795,-17.88104],[36.83277,-17.87762],[36.97722,-18.04656],[36.94662,-18.10182],[36.47291,-18.55641],[36.38429,-18.69866],[36.40748,-18.78485],[36.29542,-18.78021],[36.23813,-18.69411],[36.27084,-18.88641],[36.14674,-18.90049],[36.13307,-18.80857],[36.19193,-18.76046],[36.10822,-18.70599],[36.15803,-18.59194],[36.08785,-18.36849],[35.89293,-18.24354],[35.83118,-18.11326],[35.52629,-17.97983],[35.32005,-17.72367],[35.31436,-16.98227],[35.27095,-16.94424],[35.31023,-16.8506],[35.27819,-16.70074],[35.13194,-16.53765],[35.22816,-16.47026],[35.25876,-16.27151],[35.37462,-16.14098],[35.51456,-16.17136],[35.78513,-16.04228],[35.83756,-15.4592]]]}},{"type":"Feature","properties":{"id":"mz-s","lat":-19.13669,"lng":34.83088},"geometry":{"type":"Polygon","coordinates":[[[36.19193,-18.76046],[35.92897,-18.9651],[35.85532,-18.95135],[35.33985,-19.52069],[34.88006,-19.86338],[34.62672,-19.59588],[34.55323,-19.58229],[34.53045,-19.62371],[34.61378,-19.61159],[34.7776,-19.81504],[34.70924,-19.88388],[34.76482,-19.90325],[34.77491,-20.15211],[34.65528,-20.15146],[34.74334,-20.22649],[34.69874,-20.37322],[34.64031,-20.37607],[34.71632,-20.46697],[34.6683,-20.54111],[34.73992,-20.52435],[34.85182,-20.67083],[34.89357,-20.65846],[34.87241,-20.71307],[34.99334,-20.73016],[35.03761,-20.93841],[35.11248,-20.95265],[34.87501,-21.02368],[34.76122,-21.12636],[34.66629,-21.09251],[34.46304,-21.17111],[34.33142,-21.3095],[34.24368,-21.26847],[34.17216,-21.32185],[34.01568,-21.31157],[34.12214,-21.0659],[33.89884,-20.96332],[33.88515,-20.72246],[33.74133,-20.66649],[33.49086,-20.41979],[33.50843,-20.27912],[33.40848,-20.09004],[33.57964,-19.95496],[33.66232,-19.93367],[33.75001,-20.00431],[34.00292,-19.83817],[33.87507,-19.7776],[33.84701,-19.60738],[33.92458,-19.57493],[33.92721,-19.30828],[34.03304,-18.92226],[33.71415,-18.69426],[33.8715,-18.48771],[33.81456,-18.29227],[33.94054,-18.13688],[34.11609,-18.26767],[34.25634,-18.17098],[34.28192,-17.94459],[34.14865,-17.86423],[34.12787,-17.60864],[34.2905,-17.06314],[34.47436,-16.9833],[34.59616,-16.83024],[34.8609,-16.97473],[35.11877,-17.5844],[35.34361,-17.74031],[35.52629,-17.97983],[35.83118,-18.11326],[35.89293,-18.24354],[36.08785,-18.36849],[36.15803,-18.59194],[36.10822,-18.70599],[36.19193,-18.76046]]]}},{"type":"Feature","properties":{"id":"mz-t","lat":-15.84198,"lng":32.31988},"geometry":{"type":"Polygon","coordinates":[[[30.40257,-16.00124],[30.39285,-15.48076],[30.35792,-15.33565],[30.26315,-15.23127],[30.21447,-14.98146],[30.81577,-14.76825],[31.41088,-14.63358],[33.20271,-14.01387],[33.64485,-14.60174],[33.7204,-14.48971],[33.80241,-14.53281],[34.05077,-14.49519],[34.34408,-14.38739],[34.51813,-14.60743],[34.58417,-14.98446],[34.56908,-15.27116],[34.41013,-15.48128],[34.40403,-15.64685],[34.24714,-15.79412],[34.23319,-15.88983],[34.40455,-16.05974],[34.42646,-16.27389],[34.52475,-16.30076],[34.9055,-16.74084],[35.1183,-16.83344],[35.12512,-16.93287],[35.03655,-17.03591],[35.0813,-17.12407],[35.29167,-17.12937],[35.32005,-17.72367],[35.10559,-17.56756],[34.8609,-16.97473],[34.40796,-16.73118],[34.01739,-16.62891],[33.80448,-16.40236],[33.48383,-16.46716],[33.23237,-17.00211],[33.10871,-17.08945],[33.09284,-17.21683],[33.0376,-17.37382],[33.01165,-17.38399],[32.82878,-16.93514],[32.96851,-16.68162],[32.73131,-16.7088],[32.67178,-16.59976],[32.29046,-16.45176],[31.91028,-16.42892],[31.71071,-16.21787],[31.40457,-16.16227],[31.25998,-16.02347],[31.1141,-15.9969],[30.98977,-16.06429],[30.85742,-15.99814],[30.40257,-16.00124]]]}}]}
