{"type":"FeatureCollection","features":[{"type":"Feature","properties":{"id":"na-ca","lat":-17.98236,"lng":22.93073},"geometry":{"type":"Polygon","coordinates":[[[21.38684,-18.01446],[24.23876,-17.47816],[24.89825,-17.53107],[25.03695,-17.5812],[25.25978,-17.79411],[25.057,-17.8277],[24.95334,-17.78842],[24.73072,-17.89188],[24.56442,-18.0528],[24.35059,-17.95606],[23.91599,-18.20121],[23.60986,-18.47768],[23.50154,-18.23749],[23.39581,-18.19139],[23.29277,-17.99895],[21.47572,-18.2995],[20.99344,-18.31861],[20.98645,-17.96577],[21.21662,-17.93064],[21.38684,-18.01446]]]}},{"type":"Feature","properties":{"id":"na-er","lat":-22.17149,"lng":15.37024},"geometry":{"type":"Polygon","coordinates":[[[14.48406,-23.55104],[14.43434,-23.41522],[14.49195,-23.30918],[14.41017,-22.9708],[14.43507,-22.87982],[14.45924,-22.99529],[14.52931,-22.90016],[14.50856,-22.54803],[14.29135,-22.13445],[13.95232,-21.78395],[13.83172,-21.45648],[13.6281,-21.1876],[14.17333,-20.96151],[14.789,-20.97929],[15.12035,-20.76411],[15.38442,-20.48722],[15.45614,-20.49456],[15.60073,-20.56257],[15.60569,-20.69336],[15.72,-20.70013],[15.83235,-20.84049],[16.19284,-21.03996],[16.25527,-20.98554],[16.40079,-21.15571],[16.51458,-21.17214],[16.53298,-21.41606],[16.4414,-21.51517],[16.39345,-21.72803],[16.47882,-21.93468],[16.42766,-22.08144],[16.46817,-22.14376],[16.39118,-22.19921],[16.44699,-22.37388],[16.35862,-22.42276],[16.33712,-22.51087],[16.15915,-22.6058],[16.07058,-22.58911],[15.96071,-22.69484],[16.05983,-22.70399],[16.062,-22.82378],[15.89539,-22.90423],[15.87069,-23.14561],[15.92381,-23.21274],[15.82635,-23.24706],[15.85023,-23.38002],[15.75183,-23.47795],[15.85136,-23.54285],[15.82635,-23.80573],[15.33791,-23.66527],[15.09534,-23.65256],[15.04655,-23.60161],[14.48406,-23.55104]]]}},{"type":"Feature","properties":{"id":"na-ha","lat":-24.50408,"lng":17.29408},"geometry":{"type":"Polygon","coordinates":[[[19.98048,-23.86449],[19.98207,-25.61899],[19.75448,-25.67461],[19.46809,-25.59518],[19.34283,-25.63063],[19.22232,-25.48676],[19.07763,-25.56376],[18.64117,-25.52924],[18.47467,-25.44475],[17.76773,-25.56629],[17.41427,-25.54903],[17.3382,-25.58423],[17.33458,-25.75832],[17.15371,-25.69218],[16.97677,-25.73249],[16.92541,-25.66572],[16.58145,-25.58743],[16.52429,-25.52041],[16.41629,-25.66035],[16.38156,-25.56531],[16.28865,-25.58609],[16.34105,-25.85382],[16.19067,-25.86007],[15.96536,-25.59043],[15.86532,-25.58981],[15.75866,-25.00612],[14.82943,-25.00008],[14.78077,-24.8034],[14.6019,-24.56243],[14.61232,-24.44573],[14.47364,-24.15911],[14.45191,-23.98846],[14.51393,-23.89227],[14.48406,-23.55104],[15.45222,-23.69385],[15.74243,-23.81364],[15.7509,-23.94459],[15.81157,-23.97301],[16.26188,-23.85818],[16.20266,-23.95967],[16.32028,-24.02499],[16.3024,-23.91327],[16.50476,-23.85027],[16.2718,-23.7802],[16.28844,-23.70672],[16.34839,-23.60491],[16.3795,-23.68538],[16.4537,-23.68796],[16.5769,-23.5861],[16.48657,-23.48032],[16.62124,-23.23548],[16.81926,-23.27191],[17.11857,-23.18107],[17.17945,-23.20272],[17.21066,-23.30793],[17.47845,-23.28535],[17.39122,-23.42472],[17.45023,-23.61029],[17.85972,-23.57381],[17.97237,-23.64543],[18.07045,-23.63633],[18.41441,-23.4628],[18.53409,-23.68367],[18.58236,-23.65762],[18.68974,-23.73535],[18.98006,-23.67824],[19.15152,-23.72],[19.23317,-23.65391],[19.27503,-23.85384],[19.98048,-23.86449]]]}},{"type":"Feature","properties":{"id":"na-ka","lat":-27.13401,"lng":17.62187},"geometry":{"type":"Polygon","coordinates":[[[17.24518,-28.23745],[17.0978,-28.03116],[16.91962,-28.05834],[16.82464,-28.26453],[16.76872,-28.26535],[16.80386,-28.36612],[16.7404,-28.48095],[16.67312,-28.45976],[16.41944,-28.60703],[15.67888,-27.9428],[15.29526,-27.32244],[15.22853,-26.94557],[15.15887,-26.89707],[15.08302,-26.69524],[15.16814,-26.6028],[15.12875,-26.45762],[14.96632,-26.33522],[14.93914,-26.14715],[14.97902,-26.05877],[14.84034,-25.75172],[14.87957,-25.53867],[14.80242,-25.28289],[14.82943,-25.00008],[15.75866,-25.00612],[15.86532,-25.58981],[15.96536,-25.59043],[16.19067,-25.86007],[16.34105,-25.85382],[16.28865,-25.58609],[16.38156,-25.56531],[16.41629,-25.66035],[16.52429,-25.52041],[16.58145,-25.58743],[16.92541,-25.66572],[16.97677,-25.73249],[17.15371,-25.69218],[17.33458,-25.75832],[17.3382,-25.58423],[17.41427,-25.54903],[17.76773,-25.56629],[18.47467,-25.44475],[18.64117,-25.52924],[19.07763,-25.56376],[19.22232,-25.48676],[19.34283,-25.63063],[19.46809,-25.59518],[19.75448,-25.67461],[19.98207,-25.61899],[19.98165,-28.42235],[19.56876,-28.53118],[19.45507,-28.70522],[19.26593,-28.74264],[19.28836,-28.88309],[19.12021,-28.95751],[18.95453,-28.86666],[18.74566,-28.83989],[18.16647,-28.9019],[17.91325,-28.78129],[17.62872,-28.76413],[17.58294,-28.68021],[17.40362,-28.70429],[17.42057,-28.5934],[17.32424,-28.47051],[17.4,-28.34638],[17.34574,-28.22763],[17.24518,-28.23745]]]}},{"type":"Feature","properties":{"id":"na-kh","lat":-22.86995,"lng":17.13147},"geometry":{"type":"Polygon","coordinates":[[[16.32627,-22.51237],[16.40595,-22.39016],[16.73203,-22.34649],[16.68139,-22.30174],[16.72428,-22.2343],[16.83694,-22.29714],[17.09811,-22.19808],[17.14162,-22.2374],[17.25055,-22.18387],[17.2982,-22.08888],[17.32063,-22.13555],[17.39618,-22.07023],[17.45333,-22.08868],[17.44961,-21.96874],[17.61467,-21.83464],[17.80732,-21.8242],[18.11789,-21.70534],[18.06777,-21.86228],[18.12771,-21.9522],[18.06611,-22.09069],[17.97857,-22.11638],[17.96596,-22.2295],[18.17763,-22.43853],[18.13587,-22.4748],[18.21649,-22.47444],[18.29886,-22.94981],[18.39674,-22.93658],[18.32542,-23.0294],[18.44996,-23.15797],[18.34878,-23.21745],[18.50278,-23.36596],[18.44345,-23.50368],[18.39178,-23.46405],[18.08937,-23.63199],[17.97237,-23.64543],[17.85972,-23.57381],[17.45023,-23.61029],[17.39122,-23.42472],[17.47845,-23.28535],[17.21066,-23.30793],[17.17945,-23.20272],[17.11857,-23.18107],[16.81926,-23.27191],[16.62124,-23.23548],[16.48657,-23.48032],[16.5769,-23.5861],[16.4537,-23.68796],[16.3795,-23.68538],[16.34839,-23.60491],[16.27211,-23.76408],[16.48647,-23.8172],[16.49339,-23.88221],[16.34074,-23.87813],[16.29185,-23.93895],[16.32028,-24.02499],[16.20266,-23.95967],[16.26188,-23.85818],[15.81157,-23.97301],[15.73468,-23.89224],[15.74243,-23.81364],[15.8462,-23.78837],[15.85136,-23.54285],[15.75183,-23.47795],[15.85023,-23.38002],[15.82635,-23.24706],[15.92381,-23.21274],[15.87069,-23.14561],[15.89539,-22.90423],[16.06045,-22.83566],[16.05983,-22.70399],[15.96071,-22.69484],[16.07058,-22.58911],[16.15915,-22.6058],[16.32627,-22.51237]]]}},{"type":"Feature","properties":{"id":"na-ku","lat":-19.00138,"lng":13.43749},"geometry":{"type":"Polygon","coordinates":[[[13.16631,-16.95106],[13.47978,-17.01028],[13.52132,-17.1219],[13.95732,-17.41914],[14.21911,-17.38814],[14.13664,-17.56668],[14.18645,-17.63975],[14.1509,-17.72088],[14.29032,-18.07921],[14.30355,-18.66222],[14.38892,-18.8927],[14.36391,-19.09821],[14.47708,-19.29805],[14.44897,-19.41453],[14.57423,-19.41763],[14.59439,-19.32668],[14.53837,-19.3291],[14.5362,-19.24668],[15.31703,-19.19133],[15.31424,-19.24606],[15.82563,-19.28229],[16.70299,-19.49126],[16.71064,-19.95496],[16.53318,-20.00023],[16.54775,-20.12177],[16.31314,-20.21918],[16.30911,-20.3785],[16.03905,-20.41539],[15.76692,-20.58334],[15.38442,-20.48722],[15.12035,-20.76411],[14.789,-20.97929],[14.17333,-20.96151],[13.6281,-21.1876],[13.39763,-20.8493],[13.17774,-20.18922],[13.03735,-20.05946],[12.45004,-18.90455],[12.28688,-18.69769],[12.03189,-18.50535],[11.83364,-18.09804],[11.71762,-17.54632],[11.75514,-17.2667],[11.98302,-17.1619],[12.16151,-17.14629],[12.24264,-17.22484],[12.56717,-17.23455],[12.88715,-17.02981],[13.16631,-16.95106]]]}},{"type":"Feature","properties":{"id":"na-od","lat":-20.57296,"lng":17.2698},"geometry":{"type":"Polygon","coordinates":[[[20.97561,-19.17211],[20.97936,-20.35103],[20.72021,-20.38744],[19.42231,-20.24341],[18.83144,-20.47079],[18.57874,-20.81232],[18.50846,-21.0367],[18.37586,-21.03856],[18.36118,-21.11571],[18.41772,-21.12202],[18.35054,-21.19865],[18.37162,-21.26077],[18.21225,-21.25338],[18.20905,-21.32531],[18.27757,-21.37389],[18.21463,-21.6549],[17.80732,-21.8242],[17.61467,-21.83464],[17.44961,-21.96874],[17.45333,-22.08868],[17.39618,-22.07023],[17.32063,-22.13555],[17.2982,-22.08888],[17.25055,-22.18387],[17.14162,-22.2374],[17.09811,-22.19808],[16.83694,-22.29714],[16.73379,-22.23089],[16.68139,-22.30174],[16.73203,-22.34649],[16.44699,-22.37388],[16.39118,-22.19921],[16.46817,-22.14376],[16.42766,-22.08144],[16.47882,-21.93468],[16.39345,-21.72803],[16.4414,-21.51517],[16.53298,-21.41606],[16.51458,-21.17214],[16.40079,-21.15571],[16.25527,-20.98554],[16.19284,-21.03996],[16.09249,-20.99634],[15.83235,-20.84049],[15.72,-20.70013],[15.59867,-20.679],[15.60073,-20.56257],[15.76692,-20.58334],[16.03905,-20.41539],[16.30911,-20.3785],[16.31314,-20.21918],[16.54775,-20.12177],[16.53318,-20.00023],[16.71064,-19.95496],[16.70868,-19.48046],[16.98969,-19.34089],[17.12684,-19.16591],[17.30419,-19.18989],[17.33727,-19.27484],[17.42274,-19.23169],[17.40383,-19.35825],[17.68143,-19.49964],[17.92152,-19.49163],[17.89,-19.35902],[18.00451,-19.25841],[18.02064,-19.03698],[18.17163,-18.95109],[18.19458,-18.75999],[19.23596,-18.81508],[19.23472,-19.18891],[20.97561,-19.17211]]]}},{"type":"Feature","properties":{"id":"na-oh","lat":-22.04568,"lng":19.03226},"geometry":{"type":"Polygon","coordinates":[[[20.97936,-20.35103],[20.97198,-22.00067],[19.97835,-22.00067],[19.98048,-23.86449],[19.27503,-23.85384],[19.23317,-23.65391],[19.15152,-23.72],[18.98006,-23.67824],[18.7717,-23.74945],[18.58236,-23.65762],[18.53409,-23.68367],[18.44221,-23.51696],[18.50536,-23.34493],[18.34878,-23.21745],[18.44996,-23.15797],[18.32542,-23.0294],[18.39477,-22.93023],[18.29886,-22.94981],[18.21959,-22.48116],[18.13587,-22.4748],[18.17763,-22.43853],[18.0318,-22.33812],[17.96338,-22.21399],[17.97857,-22.11638],[18.06611,-22.09069],[18.12771,-21.9522],[18.06777,-21.86228],[18.11789,-21.70534],[18.24171,-21.62276],[18.27757,-21.37389],[18.20905,-21.32531],[18.21225,-21.25338],[18.37162,-21.26077],[18.35054,-21.19865],[18.41772,-21.12202],[18.36118,-21.11571],[18.37586,-21.03856],[18.50846,-21.0367],[18.57874,-20.81232],[18.78638,-20.50376],[19.39471,-20.2475],[20.72021,-20.38744],[20.97936,-20.35103]]]}},{"type":"Feature","properties":{"id":"na-ok","lat":-18.39019,"lng":19.49479},"geometry":{"type":"Polygon","coordinates":[[[18.00048,-17.38912],[18.45358,-17.38989],[18.64282,-17.63804],[18.89004,-17.79927],[19.67263,-17.84268],[19.77102,-17.89033],[20.33615,-17.85488],[20.56549,-17.98521],[20.8062,-18.0314],[20.98645,-17.96577],[20.97561,-19.17211],[19.23472,-19.18891],[19.23596,-18.81508],[18.00927,-18.74898],[18.00048,-17.38912]]]}},{"type":"Feature","properties":{"id":"na-on","lat":-18.49065,"lng":15.76536},"geometry":{"type":"Polygon","coordinates":[[[15.64693,-17.67923],[15.66584,-17.73902],[15.99926,-17.69556],[16.03792,-18.14086],[15.94397,-18.35816],[16.03564,-18.65245],[15.84123,-18.86634],[15.96237,-19.1332],[15.91854,-19.18513],[15.94004,-19.33065],[15.57748,-19.24456],[15.31424,-19.24606],[15.31734,-19.16353],[15.60259,-19.06406],[15.51361,-18.98303],[15.56187,-18.88743],[15.51226,-18.72444],[15.56332,-18.62315],[15.49976,-18.15119],[15.28788,-18.02458],[15.64693,-17.67923]]]}},{"type":"Feature","properties":{"id":"na-os","lat":-18.38717,"lng":14.91442},"geometry":{"type":"Polygon","coordinates":[[[14.21911,-17.38814],[15.55911,-17.38855],[15.64693,-17.67923],[15.28602,-18.04029],[15.49976,-18.15119],[15.56332,-18.62315],[15.51226,-18.72444],[15.56187,-18.88743],[15.51361,-18.98303],[15.60259,-19.06406],[15.21078,-19.22281],[14.5362,-19.24668],[14.53837,-19.3291],[14.59439,-19.32668],[14.57423,-19.41763],[14.44897,-19.41453],[14.47708,-19.29805],[14.36391,-19.09821],[14.38892,-18.8927],[14.30355,-18.66222],[14.29032,-18.07921],[14.13664,-17.56668],[14.21911,-17.38814]]]}},{"type":"Feature","properties":{"id":"na-ot","lat":-18.5053,"lng":16.99841},"geometry":{"type":"Polygon","coordinates":[[[16.70289,-19.48956],[15.94004,-19.33065],[15.91854,-19.18513],[15.96237,-19.1332],[15.84123,-18.86634],[16.03564,-18.65245],[15.94397,-18.35816],[16.03792,-18.14086],[15.99926,-17.69556],[16.38973,-17.91451],[16.7495,-17.76904],[18.00017,-17.76589],[18.00927,-18.74898],[18.19458,-18.75999],[18.17163,-18.95109],[18.02064,-19.03698],[18.00451,-19.25841],[17.89,-19.35902],[17.9392,-19.47447],[17.85424,-19.52222],[17.55462,-19.44445],[17.40383,-19.35825],[17.42274,-19.23169],[17.33727,-19.27484],[17.31742,-19.19867],[17.19867,-19.1487],[17.12684,-19.16591],[16.98969,-19.34089],[16.70289,-19.48956]]]}},{"type":"Feature","properties":{"id":"na-ow","lat":-17.54223,"lng":16.80314},"geometry":{"type":"Polygon","coordinates":[[[15.55911,-17.38855],[18.00048,-17.38912],[18.00017,-17.76589],[16.7495,-17.76904],[16.38973,-17.91451],[15.99885,-17.69535],[15.66584,-17.73902],[15.55911,-17.38855]]]}}]}
