{"type":"FeatureCollection","features":[{"type":"Feature","properties":{"id":"ne-1","lat":19.29602,"lng":10.34688},"geometry":{"type":"Polygon","coordinates":[[[11.96886,23.51735],[13.48226,23.17967],[14.21622,22.6163],[14.97991,22.99566],[15.17202,21.99339],[15.18453,21.4912],[15.30101,21.40133],[15.60931,20.95066],[15.5443,20.8903],[15.57024,20.75191],[15.97032,20.33633],[15.73602,19.90354],[15.5677,18.00004],[13.00006,17.99952],[11.65813,17.38209],[11.24927,17.11193],[10.95502,17.02687],[9.32075,16.00006],[8.55904,15.65016],[8.01655,15.5404],[7.44475,15.5977],[7.32449,15.33452],[7.12414,15.43927],[6.67368,15.42841],[6.63115,16.19245],[6.35902,16.31487],[6.12049,16.86161],[6.02773,16.96393],[5.24814,17.46586],[4.90614,17.81189],[4.87059,17.94015],[4.71819,17.96443],[4.7247,18.32694],[4.86346,18.6123],[4.23027,18.64537],[4.22861,19.14224],[5.7943,19.4498],[7.48273,20.87258],[11.96886,23.51735]]]}},{"type":"Feature","properties":{"id":"ne-2","lat":15.38462,"lng":13.05043},"geometry":{"type":"Polygon","coordinates":[[[13.60731,13.7041],[13.32991,13.70942],[13.22811,13.54804],[12.8423,13.48913],[12.8702,13.46125],[12.80519,13.37298],[12.56107,13.24276],[12.47271,13.06416],[12.05764,13.11677],[11.8528,13.24539],[11.44,13.36443],[10.64486,13.37479],[10.62331,13.52961],[10.79648,13.70552],[10.81539,13.80681],[11.22147,14.17231],[11.52408,14.21319],[11.98168,14.43969],[11.90359,14.5157],[12.00013,14.60851],[11.99749,17.50038],[13.00006,17.99952],[15.5677,18.00004],[15.46555,16.89468],[14.36897,15.74963],[13.83391,15.0196],[13.75516,14.84721],[13.76436,14.71908],[13.64473,14.64425],[13.65785,14.54872],[13.44949,14.43904],[13.60731,13.7041]]]}},{"type":"Feature","properties":{"id":"ne-3","lat":13.20793,"lng":3.34869},"geometry":{"type":"Polygon","coordinates":[[[4.12577,13.47298],[4.08877,12.99624],[3.92909,12.75039],[3.64156,12.518],[3.65355,11.98681],[3.60394,11.90558],[3.66699,11.7597],[3.5964,11.69577],[3.49542,11.83752],[3.30701,11.90237],[3.00936,12.27631],[2.74271,12.44307],[2.71852,12.54301],[2.6316,12.51552],[2.60416,12.84557],[2.72906,12.95477],[2.5374,13.00117],[2.47471,13.14266],[2.70963,13.27319],[2.83335,13.27356],[2.88285,13.5108],[2.98801,13.60336],[3.10424,13.61602],[3.1741,13.79787],[3.33332,13.74686],[3.53237,13.83585],[3.73598,14.02762],[3.81866,14.26487],[4.13678,14.44263],[4.23517,14.53875],[4.25362,14.65786],[4.41935,14.43974],[4.46916,14.06209],[4.62584,13.72315],[4.45258,13.67377],[4.24845,13.49414],[4.12577,13.47298]]]}},{"type":"Feature","properties":{"id":"ne-4","lat":14.26267,"lng":7.41275},"geometry":{"type":"Polygon","coordinates":[[[6.90664,13.00686],[6.5093,13.49605],[6.28421,13.66766],[6.28451,13.75761],[6.34223,13.93486],[6.52175,14.05899],[6.47183,14.41478],[6.5325,14.92374],[6.67368,15.42841],[7.12414,15.43927],[7.38904,15.29809],[7.49534,14.84204],[7.55988,14.71889],[7.69935,14.62655],[7.71537,14.46144],[7.80689,14.42475],[7.9303,14.52397],[8.01189,14.52376],[8.519,14.11056],[8.53961,13.91497],[8.22247,13.73136],[8.22744,13.66191],[8.31787,13.60904],[8.31833,13.3443],[8.24673,13.21129],[8.07752,13.31002],[7.78968,13.34198],[7.39198,13.11253],[7.1982,13.11739],[7.04492,12.99221],[6.90664,13.00686]]]}},{"type":"Feature","properties":{"id":"ne-5","lat":15.95667,"lng":5.29718},"geometry":{"type":"Polygon","coordinates":[[[6.14239,13.64082],[5.52176,13.88029],[5.37407,13.85525],[5.22762,13.74133],[4.85689,13.7741],[4.62584,13.72315],[4.46916,14.06209],[4.41935,14.43974],[4.10417,14.9072],[4.1051,15.08952],[3.87385,15.72088],[4.06056,16.29833],[4.18396,16.41605],[4.182,16.80962],[4.23564,16.99586],[4.23027,18.64537],[4.86346,18.6123],[4.7247,18.32694],[4.71819,17.96443],[4.87059,17.94015],[4.90614,17.81189],[5.24814,17.46586],[6.02773,16.96393],[6.12049,16.86161],[6.35902,16.31487],[6.63115,16.19245],[6.67368,15.42841],[6.5325,14.92374],[6.47183,14.41478],[6.52175,14.05899],[6.33339,13.92318],[6.28421,13.66766],[6.14239,13.64082]]]}},{"type":"Feature","properties":{"id":"ne-6","lat":13.81686,"lng":2.01926},"geometry":{"type":"Polygon","coordinates":[[[2.8443,12.39924],[2.66385,12.29155],[2.37001,12.23626],[2.45735,11.99622],[2.38087,11.9479],[2.39017,11.89654],[2.05179,12.34193],[2.24496,12.42415],[2.10905,12.70563],[1.97169,12.72424],[1.84374,12.6061],[1.56386,12.63215],[1.11397,12.99624],[0.98354,13.03236],[0.98354,13.36841],[1.16068,13.31131],[1.18766,13.36412],[1.26869,13.34606],[1.01527,13.46566],[0.89693,13.61493],[0.59431,13.68888],[0.60051,13.76872],[0.44863,13.90962],[0.33916,14.12578],[0.39164,14.24593],[0.15883,14.49612],[0.22126,14.99593],[0.67007,14.93974],[0.94933,14.97955],[1.33153,15.28362],[3.00016,15.33912],[3.03354,15.42645],[3.5071,15.35397],[3.52653,15.49595],[3.87385,15.72088],[4.1051,15.08952],[4.10417,14.9072],[4.25362,14.65786],[4.23517,14.53875],[3.81866,14.26487],[3.73598,14.02762],[3.53237,13.83585],[3.33332,13.74686],[3.1741,13.79787],[3.10424,13.61602],[2.98801,13.60336],[2.88285,13.5108],[2.82653,13.26756],[2.70963,13.27319],[2.48045,13.16168],[2.5374,13.00117],[2.72906,12.95477],[2.60416,12.84557],[2.6316,12.51552],[2.71852,12.54301],[2.74271,12.44307],[2.8443,12.39924]],[[2.27644,13.57355],[1.99722,13.61278],[1.97423,13.52911],[2.04534,13.43133],[2.17897,13.41303],[2.1985,13.36583],[2.27644,13.57355]]]}},{"type":"Feature","properties":{"id":"ne-7","lat":15.04632,"lng":9.72584},"geometry":{"type":"Polygon","coordinates":[[[10.64788,13.36941],[10.11978,13.2501],[9.93012,13.14597],[9.61149,12.80294],[8.94279,12.8472],[8.67935,12.92358],[8.50964,13.07592],[8.40515,13.07086],[8.24673,13.21129],[8.31833,13.3443],[8.31787,13.60904],[8.21364,13.70092],[8.53496,13.90096],[8.519,14.11056],[8.01189,14.52376],[7.9303,14.52397],[7.80689,14.42475],[7.71537,14.46144],[7.69935,14.62655],[7.5743,14.70391],[7.50123,14.82835],[7.40268,15.26429],[7.32449,15.33452],[7.44475,15.5977],[7.8457,15.53848],[8.37559,15.58747],[9.32075,16.00006],[10.95502,17.02687],[11.24927,17.11193],[11.65813,17.38209],[11.99749,17.50038],[12.00013,14.60851],[11.90359,14.5157],[11.98168,14.43969],[11.52408,14.21319],[11.22147,14.17231],[10.81539,13.80681],[10.79648,13.70552],[10.62331,13.52961],[10.64788,13.36941]]]}},{"type":"Feature","properties":{"id":"ne-8","lat":13.53266,"lng":2.12324},"geometry":{"type":"Polygon","coordinates":[[[2.072,13.62688],[2.27644,13.57355],[2.1985,13.36583],[1.99201,13.49177],[1.97649,13.58747],[2.072,13.62688]]]}}]}
