{"type":"FeatureCollection","features":[{"type":"Feature","properties":{"id":"ng-ab","lat":5.43363,"lng":7.50072},"geometry":{"type":"Polygon","coordinates":[[[7.87779,5.69027],[7.94456,5.35613],[7.7053,5.52411],[7.64081,5.51114],[7.65,5.32937],[7.52526,5.30526],[7.51771,5.05044],[7.46283,4.98171],[7.49632,4.81738],[7.17654,4.87366],[7.16331,4.9514],[7.26615,5.10938],[7.25148,5.1947],[7.40495,5.54318],[7.3879,5.84207],[7.25013,5.92625],[7.29664,5.98527],[7.46831,6.02219],[7.53353,5.97297],[7.52619,5.85026],[7.73093,5.81884],[7.87779,5.69027]]]}},{"type":"Feature","properties":{"id":"ng-ad","lat":9.1951,"lng":12.34397},"geometry":{"type":"Polygon","coordinates":[[[13.74984,10.94244],[13.53879,10.62142],[13.43492,10.15341],[13.23018,10.04533],[13.21271,9.87015],[13.26294,9.80173],[13.19545,9.54221],[12.85542,9.37811],[12.89842,9.26243],[12.77295,8.75905],[12.55797,8.60568],[12.36884,8.60958],[12.40387,8.49654],[12.22704,8.38631],[12.19779,7.97517],[12.01899,7.71886],[12.02105,7.57623],[11.90354,7.45356],[11.805,7.80645],[11.64769,7.94357],[11.51519,7.85221],[11.4043,8.05845],[11.85926,8.57387],[11.9715,8.91899],[11.82577,9.12776],[11.76727,9.3301],[11.61844,9.4202],[11.52594,9.59197],[11.92509,9.78421],[11.94556,10.04471],[12.10689,10.03603],[12.39473,10.30498],[12.62014,10.36138],[12.8409,10.56315],[13.00926,10.56969],[13.19106,10.455],[13.30971,10.46789],[13.42216,10.93029],[13.74984,10.94244]]]}},{"type":"Feature","properties":{"id":"ng-ak","lat":5.01804,"lng":7.79053},"geometry":{"type":"Polygon","coordinates":[[[8.29921,4.78234],[8.35646,4.62556],[8.28858,4.54857],[7.70314,4.49754],[7.53932,4.54181],[7.55104,4.71101],[7.46283,4.98171],[7.51771,5.05044],[7.52526,5.30526],[7.65,5.32937],[7.64081,5.51114],[7.7053,5.52411],[7.89712,5.36497],[7.91676,5.25704],[8.04584,5.23276],[8.09577,4.98564],[8.29921,4.78234]]]}},{"type":"Feature","properties":{"id":"ng-an","lat":6.23435,"lng":6.94513},"geometry":{"type":"Polygon","coordinates":[[[6.60573,5.72316],[6.75765,6.12288],[6.67673,6.5351],[6.79238,6.56681],[6.90597,6.77612],[6.91372,6.71602],[7.10027,6.66776],[7.02203,6.44049],[7.10585,6.39098],[7.12714,6.23812],[7.18182,6.23058],[7.24331,6.06674],[7.36372,6.02062],[7.25013,5.92625],[6.98606,5.90729],[6.89584,5.76203],[6.66877,5.69428],[6.60573,5.72316]]]}},{"type":"Feature","properties":{"id":"ng-ba","lat":10.99919,"lng":9.31316},"geometry":{"type":"Polygon","coordinates":[[[11.07501,9.61042],[10.56042,9.49666],[9.8723,9.83713],[9.81339,9.79777],[9.85607,9.6754],[9.73535,9.56725],[9.5024,9.53658],[9.2991,9.58215],[9.15968,9.72889],[9.20298,9.8457],[9.17725,9.99595],[8.96052,10.02311],[8.93685,10.28679],[8.69666,10.42376],[8.81541,10.6641],[8.73397,10.86283],[8.73748,11.0215],[9.0988,11.32623],[9.53392,11.30466],[9.62384,11.23782],[9.81049,11.26138],[9.87643,11.16133],[9.89111,10.97688],[9.94826,10.9537],[10.17977,10.93339],[10.21646,11.05408],[10.36147,11.11741],[10.3902,11.17759],[10.00056,11.26228],[9.8631,11.45982],[9.79334,11.48168],[9.83065,11.57542],[9.79871,11.71451],[9.62518,11.72941],[9.6997,11.85124],[10.15497,12.00854],[10.28746,12.42441],[10.47743,12.41635],[10.60951,12.50244],[10.74842,12.36431],[10.84795,11.86698],[10.96815,11.57526],[10.93931,11.33608],[11.01424,11.29471],[10.6738,11.04137],[10.53861,10.71162],[10.64569,10.66635],[10.68765,10.51866],[10.82335,10.44556],[10.84319,10.18765],[10.72362,10.09714],[10.97135,9.88785],[11.07501,9.61042]]]}},{"type":"Feature","properties":{"id":"ng-be","lat":7.31258,"lng":8.86725},"geometry":{"type":"Polygon","coordinates":[[[9.64481,6.52123],[9.48859,6.41821],[9.32091,6.64228],[9.23254,6.68691],[8.99101,6.66218],[8.95659,6.79018],[8.69594,6.89167],[8.57739,6.75111],[8.4113,6.7461],[8.29193,6.67559],[8.21782,6.7916],[7.99861,6.69574],[7.92906,6.51924],[7.86033,6.56146],[7.82612,6.85994],[7.64039,6.86211],[7.49373,7.07445],[7.63378,7.01438],[7.65279,7.09931],[7.7855,7.17109],[7.87924,7.41616],[7.78374,7.44611],[7.66602,8.02571],[8.11954,7.91412],[8.41823,7.77508],[8.37058,8.07155],[8.55796,8.13335],[8.97892,8.05545],[9.16939,7.91445],[9.12609,7.81064],[9.41837,7.85968],[9.57123,7.84234],[9.68471,7.76438],[9.92098,7.44639],[9.87467,7.20899],[9.70962,7.02412],[9.64481,6.52123]]]}},{"type":"Feature","properties":{"id":"ng-bo","lat":12.02088,"lng":13.46641},"geometry":{"type":"Polygon","coordinates":[[[13.60731,13.7041],[14.06491,13.07799],[14.18893,12.37041],[14.4871,12.3378],[14.66828,12.17807],[14.54188,11.70983],[14.62136,11.62978],[14.60575,11.51473],[14.16547,11.23833],[13.98233,11.27626],[13.76591,11.0339],[13.74984,10.94244],[13.42216,10.93029],[13.30971,10.46789],[13.19106,10.455],[13.00926,10.56969],[12.8409,10.56315],[12.62014,10.36138],[12.39473,10.30498],[12.10689,10.03603],[11.94556,10.04471],[11.68914,10.26322],[11.63953,10.38882],[11.71343,10.50706],[11.70102,10.59419],[11.79383,10.6592],[11.81182,10.85768],[12.16673,11.04705],[12.19753,11.28432],[12.38832,11.54201],[12.33633,11.64668],[12.23567,11.66324],[12.30646,11.86369],[12.30832,12.44955],[12.48754,12.67277],[12.36289,12.88526],[12.38674,13.07858],[12.48666,13.07081],[12.56107,13.24276],[12.80519,13.37298],[12.8702,13.46125],[12.8423,13.48913],[13.22811,13.54804],[13.32991,13.70942],[13.60731,13.7041]]]}},{"type":"Feature","properties":{"id":"ng-by","lat":4.92205,"lng":5.94353},"geometry":{"type":"Polygon","coordinates":[[[6.72264,4.59138],[6.69508,4.42292],[6.65406,4.51171],[6.6775,4.33308],[6.61264,4.33674],[6.58082,4.50788],[6.56959,4.33491],[6.27052,4.29263],[6.33253,4.43659],[6.26303,4.39566],[6.24252,4.49803],[6.21705,4.29059],[6.09669,4.27814],[6.10532,4.37458],[6.05543,4.41987],[6.06178,4.29523],[5.99692,4.3194],[5.98862,4.41608],[5.9463,4.33519],[5.56691,4.67524],[5.39088,5.13768],[5.6986,5.02667],[5.94747,5.15953],[6.05021,5.10457],[6.2103,5.18372],[6.20947,5.2526],[6.28854,5.26361],[6.33329,5.33709],[6.58557,5.38448],[6.61999,5.33407],[6.48997,5.20232],[6.38579,4.81743],[6.45142,4.71765],[6.56521,4.75134],[6.62712,4.71243],[6.72264,4.59138]]]}},{"type":"Feature","properties":{"id":"ng-cr","lat":5.76725,"lng":8.36735},"geometry":{"type":"Polygon","coordinates":[[[9.48859,6.41821],[8.98269,5.89576],[8.84523,5.83104],[8.81929,5.70345],[8.90393,5.59509],[8.79893,5.15963],[8.5298,4.70889],[8.40919,4.74934],[8.42189,4.84748],[8.35841,4.79735],[8.23211,4.95368],[8.17547,4.99144],[8.29921,4.78234],[8.24904,4.81283],[8.069,5.03569],[8.06249,5.21345],[7.91676,5.25704],[7.86901,5.33355],[7.95707,5.39148],[7.87779,5.69027],[7.97464,5.99258],[8.09793,5.95077],[8.24645,6.0179],[8.37988,6.23559],[8.37678,6.36625],[8.4389,6.40119],[8.29193,6.67559],[8.4113,6.7461],[8.57739,6.75111],[8.63144,6.86731],[8.76446,6.88565],[8.95659,6.79018],[8.99101,6.66218],[9.23254,6.68691],[9.32091,6.64228],[9.48859,6.41821]]]}},{"type":"Feature","properties":{"id":"ng-de","lat":5.7862,"lng":5.52613},"geometry":{"type":"Polygon","coordinates":[[[5.4602,5.13379],[5.49586,5.14232],[5.45086,5.19013],[5.36557,5.16348],[5.34571,5.35716],[5.57789,5.38199],[5.53395,5.47639],[5.61402,5.50495],[5.6399,5.54019],[5.5171,5.4986],[5.48487,5.41153],[5.42359,5.43651],[5.43385,5.39558],[5.19801,5.50145],[5.22283,5.5812],[5.50953,5.60163],[5.44744,5.65624],[5.32602,5.60541],[5.33758,5.72455],[5.28028,5.6175],[5.1797,5.58259],[5.12916,5.62812],[5.10271,5.7932],[5.15398,5.7792],[5.29038,5.9101],[5.04469,5.76748],[5.00302,5.85478],[5.11517,6.12691],[5.23237,6.03855],[5.25108,5.90566],[5.33139,6.01979],[5.53013,5.98214],[5.66336,6.03994],[5.89611,5.87838],[5.88877,5.74624],[6.02147,5.76195],[6.22249,5.97457],[6.09992,6.13474],[6.07026,6.32788],[6.20131,6.28706],[6.67673,6.5351],[6.75765,6.12288],[6.70371,6.07593],[6.54692,5.50096],[6.47468,5.43851],[6.49535,5.3713],[6.33329,5.33709],[6.28854,5.26361],[6.20947,5.2526],[6.2103,5.18372],[6.05021,5.10457],[5.94747,5.15953],[5.66584,5.02504],[5.4602,5.13379]]]}},{"type":"Feature","properties":{"id":"ng-eb","lat":6.30092,"lng":8.04813},"geometry":{"type":"Polygon","coordinates":[[[8.21782,6.7916],[8.4389,6.40119],[8.37678,6.36625],[8.37988,6.23559],[8.24645,6.0179],[8.09793,5.95077],[7.97464,5.99258],[7.87779,5.69027],[7.73093,5.81884],[7.52619,5.85026],[7.53353,5.97297],[7.6932,5.94189],[7.73248,6.10097],[7.69569,6.60652],[7.82767,6.63022],[7.92906,6.51924],[7.99861,6.69574],[8.21782,6.7916]]]}},{"type":"Feature","properties":{"id":"ng-ed","lat":6.60973,"lng":5.88395},"geometry":{"type":"Polygon","coordinates":[[[6.67673,6.5351],[6.20131,6.28706],[6.07026,6.32788],[6.09992,6.13474],[6.22249,5.97457],[6.07274,5.79879],[5.92349,5.7411],[5.87027,5.80662],[5.89611,5.87838],[5.66336,6.03994],[5.53013,5.98214],[5.33139,6.01979],[5.25108,5.90566],[5.23237,6.03855],[4.97926,6.28437],[5.12075,6.5141],[5.07993,6.68435],[5.19909,6.86472],[5.49561,6.87229],[5.54099,6.71706],[5.71358,6.75215],[5.78614,7.03099],[5.95274,7.29899],[5.93455,7.49215],[6.0284,7.57336],[6.11108,7.52714],[6.13237,7.42673],[6.26415,7.46327],[6.35096,7.37862],[6.43271,7.38425],[6.51116,7.25072],[6.62836,7.27904],[6.69719,7.22034],[6.64924,6.84382],[6.67673,6.5351]]]}},{"type":"Feature","properties":{"id":"ng-ek","lat":7.69165,"lng":5.31957},"geometry":{"type":"Polygon","coordinates":[[[5.53602,8.06959],[5.51763,7.99946],[5.67018,8.00711],[5.6248,7.85035],[5.81136,7.75609],[5.62367,7.61974],[5.53778,7.36849],[5.43246,7.28007],[5.33056,7.41986],[4.99146,7.41484],[4.91239,7.62721],[4.92614,7.84306],[5.06412,8.03057],[5.29439,7.96727],[5.39309,8.05527],[5.53602,8.06959]]]}},{"type":"Feature","properties":{"id":"ng-en","lat":6.5358,"lng":7.37222},"geometry":{"type":"Polygon","coordinates":[[[7.49373,7.07445],[7.60318,6.88917],[7.67843,6.84379],[7.78467,6.88002],[7.86219,6.7722],[7.82767,6.63022],[7.69569,6.60652],[7.73248,6.10097],[7.66633,5.92809],[7.46831,6.02219],[7.26512,6.0417],[7.18182,6.23058],[7.12714,6.23812],[7.10585,6.39098],[7.01325,6.46508],[7.10027,6.66776],[6.91372,6.71602],[6.96591,6.85031],[7.021,6.77832],[7.31183,7.05298],[7.41167,7.10783],[7.49373,7.07445]]]}},{"type":"Feature","properties":{"id":"ng-fc","lat":8.84039,"lng":7.12978},"geometry":{"type":"Polygon","coordinates":[[[7.26346,8.47145],[6.78938,8.4121],[6.759,8.47225],[6.75404,9.21391],[6.96312,9.23236],[7.16394,9.09759],[7.3108,9.29744],[7.4865,9.29199],[7.54004,9.35142],[7.62582,9.3107],[7.43586,8.5832],[7.26346,8.47145]]]}},{"type":"Feature","properties":{"id":"ng-go","lat":10.47631,"lng":11.23262},"geometry":{"type":"Polygon","coordinates":[[[11.06861,9.58639],[10.97135,9.88785],[10.72362,10.09714],[10.84319,10.18765],[10.82335,10.44556],[10.68765,10.51866],[10.64569,10.66635],[10.53861,10.71162],[10.6738,11.04137],[11.01424,11.29471],[11.15284,11.33083],[11.35396,11.21588],[11.58372,10.9623],[11.58423,10.62682],[11.70102,10.59419],[11.71343,10.50706],[11.63715,10.34477],[11.94556,10.04471],[11.94039,9.82573],[11.61782,9.60665],[11.06861,9.58639]]]}},{"type":"Feature","properties":{"id":"ng-im","lat":5.61873,"lng":7.02634},"geometry":{"type":"Polygon","coordinates":[[[6.74587,5.44313],[6.62619,5.50204],[6.66877,5.69428],[6.89584,5.76203],[6.98606,5.90729],[7.25013,5.92625],[7.3879,5.84207],[7.40495,5.54318],[7.25148,5.1947],[6.87021,5.19493],[6.72438,5.30505],[6.74587,5.44313]]]}},{"type":"Feature","properties":{"id":"ng-ji","lat":11.95815,"lng":9.60205},"geometry":{"type":"Polygon","coordinates":[[[8.97787,12.84318],[9.76987,12.79253],[10.15931,12.98389],[10.26266,12.80769],[10.53944,12.77292],[10.60951,12.50244],[10.47743,12.41635],[10.28746,12.42441],[10.15497,12.00854],[9.6997,11.85124],[9.62518,11.72941],[9.79871,11.71451],[9.83065,11.57542],[9.79334,11.48168],[9.8631,11.45982],[10.00056,11.26228],[10.3902,11.17759],[10.21646,11.05408],[10.20685,10.95042],[9.89111,10.97688],[9.87643,11.16133],[9.81049,11.26138],[9.62384,11.23782],[9.53392,11.30466],[9.22469,11.34244],[9.35068,11.55501],[9.22727,11.69383],[9.1296,11.71577],[9.20464,11.90775],[9.18118,12.03027],[9.03721,12.01203],[9.02925,12.06164],[8.93664,12.06187],[8.94615,12.22181],[8.78513,12.29866],[8.67826,12.53926],[8.47104,12.56332],[8.36221,12.42521],[8.24935,12.62236],[8.11716,12.65618],[8.13731,12.81374],[8.53543,12.82986],[8.5992,12.71524],[8.76807,12.67835],[8.97787,12.84318]]]}},{"type":"Feature","properties":{"id":"ng-kd","lat":10.23403,"lng":7.85877},"geometry":{"type":"Polygon","coordinates":[[[8.74131,10.54905],[8.69666,10.42376],[8.78502,10.33565],[8.66007,10.16917],[8.63155,9.73868],[8.55899,9.62683],[8.5593,9.48454],[8.68064,9.26192],[8.5654,9.04679],[8.48365,8.99919],[8.38598,9.11634],[8.26351,9.15319],[8.0998,9.00501],[8.06342,9.21879],[7.95086,9.34594],[7.81661,9.25065],[7.54004,9.35142],[7.4865,9.29199],[7.26171,9.29527],[7.22688,9.45364],[7.33809,9.58662],[7.21727,9.74096],[7.29623,9.78101],[7.27917,9.97758],[7.00849,10.01706],[6.89212,10.10517],[7.06751,10.29888],[6.94452,10.36684],[6.95599,10.48236],[6.84995,10.52248],[6.83517,10.62307],[6.76799,10.63777],[6.71766,10.56881],[6.56852,10.53468],[6.42672,10.57359],[6.20813,10.36578],[6.0931,10.48256],[6.12214,10.83159],[6.32285,11.03219],[6.47405,11.00946],[6.68644,11.0763],[6.75445,11.24802],[6.88178,11.3661],[7.02627,11.32117],[6.99309,11.20978],[7.18647,11.11224],[7.24383,11.15568],[7.24217,11.26337],[7.35431,11.25014],[7.46676,11.36884],[7.66065,11.27458],[8.10321,11.4955],[8.13432,11.34014],[8.43983,11.18968],[8.54235,11.08201],[8.55837,10.74668],[8.48065,10.67116],[8.74131,10.54905]]]}},{"type":"Feature","properties":{"id":"ng-ke","lat":11.67354,"lng":4.08154},"geometry":{"type":"Polygon","coordinates":[[[3.695,11.11912],[3.46669,11.44248],[3.66699,11.7597],[3.60394,11.90558],[3.65355,11.98681],[3.64156,12.518],[3.92909,12.75039],[4.08877,12.99624],[4.12033,13.21061],[4.34085,13.22813],[4.67199,13.0545],[4.81844,13.10651],[4.76987,12.90138],[4.82589,12.78263],[4.8295,12.39937],[4.64492,12.38095],[4.60905,12.31852],[4.61567,11.9341],[4.52937,11.58904],[4.60637,11.53826],[4.87508,11.69226],[5.14246,11.65482],[5.28343,11.72122],[5.56982,11.62048],[5.82831,11.631],[5.91326,11.57312],[5.88319,11.42982],[6.01816,11.26417],[6.02705,11.11121],[5.4767,10.95719],[5.42554,11.15097],[5.28519,11.34448],[4.77938,11.22694],[4.76305,11.16381],[4.82651,11.11656],[5.05409,11.03344],[5.07827,10.92378],[5.03032,10.86376],[5.09305,10.74777],[4.82713,10.6731],[4.81658,10.46329],[4.8942,10.33467],[4.84056,10.24826],[4.65535,10.20114],[4.63189,10.09931],[4.5395,10.12439],[4.56099,10.27092],[4.49836,10.3481],[4.50063,10.46042],[4.68905,10.64581],[4.72212,10.90422],[4.43542,11.02853],[4.00516,11.0122],[3.695,11.11912]]]}},{"type":"Feature","properties":{"id":"ng-kn","lat":11.55948,"lng":8.53089},"geometry":{"type":"Polygon","coordinates":[[[9.22469,11.34244],[9.03194,11.29608],[8.86316,11.10441],[8.76766,11.0848],[8.73397,10.86283],[8.81541,10.6641],[8.74131,10.54905],[8.53532,10.62607],[8.48065,10.67116],[8.55837,10.74668],[8.54235,11.08201],[8.43983,11.18968],[8.13432,11.34014],[8.13876,11.47894],[7.96254,11.45114],[7.84513,11.36504],[7.70737,11.41669],[7.71532,11.56395],[7.89371,11.65079],[7.83315,11.91436],[7.84131,12.26607],[8.0938,12.38265],[8.18733,12.55567],[8.28283,12.56957],[8.36221,12.42521],[8.47104,12.56332],[8.67826,12.53926],[8.78513,12.29866],[8.94615,12.22181],[8.93664,12.06187],[9.02925,12.06164],[9.03721,12.01203],[9.18118,12.03027],[9.20464,11.90775],[9.1296,11.71577],[9.22727,11.69383],[9.35068,11.55501],[9.22469,11.34244]]]}},{"type":"Feature","properties":{"id":"ng-ko","lat":7.58398,"lng":6.89708},"geometry":{"type":"Polygon","coordinates":[[[7.66602,8.02571],[7.78374,7.44611],[7.87924,7.41616],[7.7855,7.17109],[7.65279,7.09931],[7.60701,7.00616],[7.46056,7.10489],[7.31183,7.05298],[7.021,6.77832],[6.93274,6.82904],[6.79238,6.56681],[6.67673,6.5351],[6.64924,6.84382],[6.69719,7.22034],[6.62836,7.27904],[6.51116,7.25072],[6.43271,7.38425],[6.35096,7.37862],[6.26415,7.46327],[6.13237,7.42673],[6.11108,7.52714],[5.96577,7.64083],[5.92236,7.75692],[5.6248,7.85035],[5.67018,8.00711],[5.51763,7.99946],[5.52879,8.12948],[5.34916,8.31533],[5.51566,8.53069],[5.70614,8.42788],[6.08679,8.38037],[6.1735,8.67575],[6.27737,8.73668],[6.3705,8.68094],[6.46537,8.43173],[6.69141,8.20694],[6.83496,8.40677],[6.97811,8.41176],[6.94483,8.31296],[6.99733,8.16271],[6.93842,7.87443],[7.28579,8.02809],[7.66602,8.02571]]]}},{"type":"Feature","properties":{"id":"ng-kt","lat":12.21003,"lng":7.4919},"geometry":{"type":"Polygon","coordinates":[[[7.824,13.34529],[8.10512,13.29965],[8.40515,13.07086],[8.53351,13.06463],[8.67935,12.92358],[8.97695,12.83441],[8.76807,12.67835],[8.5992,12.71524],[8.53543,12.82986],[8.13731,12.81374],[8.11716,12.65618],[8.28283,12.56957],[8.18733,12.55567],[8.0938,12.38265],[7.84131,12.26607],[7.83315,11.91436],[7.89371,11.65079],[7.71532,11.56395],[7.69217,11.46726],[7.7762,11.35915],[7.66065,11.27458],[7.46676,11.36884],[7.35431,11.25014],[7.24217,11.26337],[7.24383,11.15568],[7.15329,11.11627],[6.99309,11.20978],[7.02627,11.32117],[6.88178,11.3661],[6.91341,11.76628],[7.06627,11.77923],[7.23318,11.89519],[7.11298,12.03841],[7.15753,12.15399],[7.07795,12.47846],[7.06292,12.99514],[7.1982,13.11739],[7.39198,13.11253],[7.824,13.34529]]]}},{"type":"Feature","properties":{"id":"ng-kw","lat":9.0761,"lng":4.57662},"geometry":{"type":"Polygon","coordinates":[[[3.5131,9.84661],[3.66483,10.12865],[3.98604,10.1414],[4.41578,9.70339],[4.45361,9.42542],[4.61443,9.42188],[4.62497,9.3247],[4.74258,9.27494],[4.7708,9.14869],[5.00593,9.19657],[5.1501,9.11329],[5.20953,9.00831],[5.53799,8.9294],[5.79048,8.74572],[6.21588,8.72996],[6.10715,8.40458],[5.80505,8.40517],[5.51566,8.53069],[5.34916,8.31533],[5.53602,8.06959],[5.39309,8.05527],[5.35371,7.97427],[5.10153,7.99801],[4.94092,8.08044],[4.55562,8.03411],[4.35914,8.31102],[4.20101,8.69342],[4.2004,8.81481],[4.33134,8.95411],[4.31408,8.99258],[4.2374,8.96242],[4.04547,9.02069],[3.86605,9.17753],[3.77303,9.14027],[3.69562,8.98922],[3.24366,8.74766],[3.14496,8.76887],[2.74244,8.52748],[2.76916,9.05705],[3.07602,9.09516],[3.15136,9.28863],[3.13255,9.45728],[3.24572,9.6337],[3.33161,9.65202],[3.32593,9.80173],[3.5131,9.84661]]]}},{"type":"Feature","properties":{"id":"ng-la","lat":6.53996,"lng":3.92726},"geometry":{"type":"Polygon","coordinates":[[[2.70384,6.36835],[2.71192,6.47405],[3.16883,6.52446],[3.27673,6.70473],[3.40448,6.64316],[3.44799,6.68683],[4.09177,6.67437],[4.05922,6.5673],[4.20959,6.57686],[4.15482,6.4786],[4.34633,6.40075],[3.44361,6.41035],[3.38494,6.44452],[3.54135,6.45482],[3.57081,6.50934],[3.85792,6.6022],[3.77369,6.62238],[3.52833,6.52778],[3.48121,6.6022],[3.40235,6.55215],[3.3698,6.45002],[3.38453,6.39769],[2.70384,6.36835]]]}},{"type":"Feature","properties":{"id":"ng-na","lat":8.54881,"lng":8.16181},"geometry":{"type":"Polygon","coordinates":[[[9.61547,8.35117],[9.54746,8.282],[9.33517,8.31696],[9.30386,8.23805],[9.36959,8.05785],[9.16939,7.91445],[8.97892,8.05545],[8.42618,8.1185],[8.35435,8.00117],[8.41823,7.77508],[7.96823,7.9644],[7.63667,8.03005],[7.28579,8.02809],[6.93842,7.87443],[6.99733,8.16271],[6.94483,8.31296],[6.97811,8.41176],[7.26346,8.47145],[7.43586,8.5832],[7.56112,8.96074],[7.58293,9.22773],[7.65393,9.32372],[7.81661,9.25065],[7.95086,9.34594],[8.06342,9.21879],[8.0998,9.00501],[8.26351,9.15319],[8.52261,9.00402],[8.65997,9.20476],[8.83009,9.02389],[9.02759,9.03015],[9.05323,8.9262],[8.88466,8.72743],[8.95163,8.51442],[9.09581,8.4545],[9.40773,8.48638],[9.61547,8.35117]]]}},{"type":"Feature","properties":{"id":"ng-ni","lat":9.76098,"lng":5.80836},"geometry":{"type":"Polygon","coordinates":[[[3.75691,10.40526],[3.83711,10.65483],[3.73003,10.80771],[3.71278,11.1279],[4.00516,11.0122],[4.43542,11.02853],[4.72212,10.90422],[4.68905,10.64581],[4.50063,10.46042],[4.49836,10.3481],[4.56099,10.27092],[4.5395,10.12439],[4.63189,10.09931],[4.65535,10.20114],[4.84056,10.24826],[4.8942,10.33467],[4.81658,10.46329],[4.82713,10.6731],[5.09305,10.74777],[5.03032,10.86376],[5.07827,10.92378],[5.05409,11.03344],[4.82651,11.11656],[4.76305,11.16381],[4.77938,11.22694],[5.28519,11.34448],[5.42554,11.15097],[5.4767,10.95719],[5.64299,10.96887],[5.99636,11.13082],[6.16193,10.86275],[6.11366,10.80614],[6.0931,10.48256],[6.17382,10.36115],[6.42672,10.57359],[6.56852,10.53468],[6.71766,10.56881],[6.76799,10.63777],[6.83517,10.62307],[6.84995,10.52248],[6.95599,10.48236],[6.94452,10.36684],[7.06513,10.26459],[6.89212,10.10517],[7.00849,10.01706],[7.27917,9.97758],[7.29623,9.78101],[7.21727,9.74096],[7.33809,9.58662],[7.2183,9.41658],[7.26171,9.29527],[7.3108,9.29744],[7.16394,9.09759],[6.96312,9.23236],[6.75404,9.21391],[6.759,8.47225],[6.83496,8.40677],[6.69141,8.20694],[6.46537,8.43173],[6.3705,8.68094],[6.27737,8.73668],[5.80236,8.74179],[5.53799,8.9294],[5.20953,9.00831],[5.1501,9.11329],[5.00593,9.19657],[4.7708,9.14869],[4.74258,9.27494],[4.62497,9.3247],[4.61443,9.42188],[4.45361,9.42542],[4.41578,9.70339],[4.01405,10.11799],[3.66483,10.12865],[3.57242,10.2857],[3.65211,10.4358],[3.75691,10.40526]]]}},{"type":"Feature","properties":{"id":"ng-og","lat":7.14493,"lng":3.25594},"geometry":{"type":"Polygon","coordinates":[[[2.78332,7.41924],[2.6717,7.89343],[2.86177,7.95473],[2.90921,7.74167],[2.99944,7.83368],[2.96977,7.62313],[3.17937,7.34978],[3.29017,7.33338],[3.41202,7.49479],[3.49522,7.40208],[3.65428,7.42867],[3.77623,7.14367],[3.71205,7.04709],[4.14789,7.14618],[4.17693,7.0589],[4.30158,7.08975],[4.36411,6.9805],[4.54549,7.00738],[4.53846,6.85731],[4.37951,6.71375],[4.35491,6.6174],[4.48306,6.56738],[4.56709,6.62885],[4.59231,6.47183],[4.46601,6.40638],[4.57019,6.33576],[4.34197,6.37059],[4.34478,6.42746],[4.15482,6.4786],[4.20959,6.57686],[4.08764,6.54433],[4.04805,6.60422],[4.09177,6.67437],[4.03214,6.68995],[3.44799,6.68683],[3.40448,6.64316],[3.27673,6.70473],[3.16883,6.52446],[2.71192,6.47405],[2.77857,6.69876],[2.71511,6.97983],[2.77971,7.04133],[2.73526,7.096],[2.74116,7.40818],[2.78332,7.41924]]]}},{"type":"Feature","properties":{"id":"ng-on","lat":6.80473,"lng":4.82351},"geometry":{"type":"Polygon","coordinates":[[[5.00302,5.85478],[4.74781,6.13886],[4.493,6.32055],[4.57019,6.33576],[4.46601,6.40638],[4.59231,6.47183],[4.58601,6.60306],[4.38302,6.58213],[4.37951,6.71375],[4.53846,6.85731],[4.5611,6.98828],[4.69256,7.13546],[4.8693,7.0982],[4.89823,7.33914],[4.99146,7.41484],[5.33056,7.41986],[5.43246,7.28007],[5.53778,7.36849],[5.62367,7.61974],[5.71544,7.71599],[5.92236,7.75692],[6.0284,7.57336],[5.93455,7.49215],[5.95274,7.29899],[5.78614,7.03099],[5.71358,6.75215],[5.54099,6.71706],[5.49561,6.87229],[5.21563,6.87242],[5.07993,6.68435],[5.12075,6.5141],[4.97926,6.28437],[5.11517,6.12691],[5.00302,5.85478]]]}},{"type":"Feature","properties":{"id":"ng-os","lat":7.54973,"lng":4.51313},"geometry":{"type":"Polygon","coordinates":[[[4.17693,7.0589],[4.14789,7.14618],[4.07709,7.11243],[4.14551,7.47435],[4.0341,7.62512],[4.0864,7.84769],[4.15389,7.82986],[4.26354,7.95404],[4.39987,7.85058],[4.54735,7.94721],[4.55562,8.03411],[4.89927,8.08147],[5.06412,8.03057],[4.92614,7.84306],[4.91239,7.62721],[4.99073,7.37485],[4.89823,7.33914],[4.8693,7.0982],[4.69256,7.13546],[4.5611,6.98828],[4.36411,6.9805],[4.30158,7.08975],[4.17693,7.0589]]]}},{"type":"Feature","properties":{"id":"ng-oy","lat":8.07794,"lng":3.60815},"geometry":{"type":"Polygon","coordinates":[[[2.6717,7.89343],[2.73444,8.18997],[2.70374,8.41789],[2.8011,8.57775],[3.69562,8.98922],[3.81799,9.1727],[3.91142,9.15699],[4.04547,9.02069],[4.2374,8.96242],[4.31408,8.99258],[4.33134,8.95411],[4.2004,8.81481],[4.20101,8.69342],[4.56099,7.96592],[4.39987,7.85058],[4.26354,7.95404],[4.15389,7.82986],[4.0864,7.84769],[4.0341,7.62512],[4.14551,7.47435],[4.07709,7.11243],[3.71205,7.04709],[3.77623,7.14367],[3.65428,7.42867],[3.49522,7.40208],[3.41202,7.49479],[3.29017,7.33338],[3.17937,7.34978],[2.96977,7.62313],[2.99944,7.83368],[2.90921,7.74167],[2.86177,7.95473],[2.6717,7.89343]]]}},{"type":"Feature","properties":{"id":"ng-pl","lat":9.40366,"lng":9.60144},"geometry":{"type":"Polygon","coordinates":[[[10.56042,9.49666],[10.646,9.10508],[10.61851,8.88013],[10.22886,8.74673],[10.07735,8.56656],[9.74507,8.35285],[9.61547,8.35117],[9.40773,8.48638],[9.03483,8.47085],[8.95163,8.51442],[8.88466,8.72743],[9.07307,8.98974],[8.83009,9.02389],[8.65997,9.20476],[8.68498,9.32279],[8.5593,9.48454],[8.66007,10.16917],[8.78502,10.33565],[8.90109,10.33014],[8.95669,10.23178],[8.96052,10.02311],[9.17725,9.99595],[9.20298,9.8457],[9.15968,9.72889],[9.2991,9.58215],[9.5024,9.53658],[9.73535,9.56725],[9.85607,9.6754],[9.81339,9.79777],[9.8723,9.83713],[10.56042,9.49666]]]}},{"type":"Feature","properties":{"id":"ng-ri","lat":5.03418,"lng":6.82923},"geometry":{"type":"MultiPolygon","coordinates":[[[[7.31967,4.49653],[7.28484,4.4062],[7.13803,4.39704],[7.2295,4.53278],[7.25856,4.49754],[7.31967,4.49653]]],[[[7.58448,4.48461],[7.43181,4.4348],[7.33692,4.46015],[7.40455,4.49803],[7.58448,4.48461]]],[[[7.52608,4.76423],[7.50196,4.5727],[7.28102,4.60114],[7.33326,4.52936],[7.28102,4.50487],[7.07179,4.75812],[7.18458,4.51903],[7.1128,4.45087],[7.07862,4.50487],[7.04396,4.43659],[7.00221,4.5799],[7.04396,4.64265],[6.96266,4.73086],[6.98927,4.6079],[6.9026,4.66694],[6.92848,4.5738],[6.98308,4.57685],[7.02215,4.38849],[6.88006,4.38817],[6.78533,4.81704],[6.71559,4.83446],[6.87078,4.36078],[6.71559,4.35468],[6.73609,4.6079],[6.56521,4.75134],[6.45142,4.71765],[6.38579,4.81743],[6.48997,5.20232],[6.61999,5.33407],[6.47468,5.43851],[6.54692,5.50096],[6.60573,5.72316],[6.66877,5.69428],[6.6327,5.47987],[6.74587,5.44313],[6.73378,5.29422],[6.87021,5.19493],[7.25148,5.1947],[7.17654,4.87366],[7.42945,4.86208],[7.52608,4.76423]]]]}},{"type":"Feature","properties":{"id":"ng-so","lat":12.62459,"lng":5.23692},"geometry":{"type":"Polygon","coordinates":[[[5.52176,13.88029],[6.14239,13.64082],[6.22983,13.67919],[6.36894,13.62627],[6.75388,13.1749],[6.62588,13.09228],[6.29401,13.16284],[6.26208,13.05768],[6.06209,13.02231],[6.03863,12.76894],[5.74025,12.72178],[5.55266,12.5274],[5.57075,12.30971],[5.52083,12.25786],[5.06815,12.26928],[5.0235,11.6806],[4.87508,11.69226],[4.56151,11.55278],[4.60905,12.31852],[4.64492,12.38095],[4.8295,12.39937],[4.82589,12.78263],[4.76987,12.90138],[4.81844,13.10651],[4.67199,13.0545],[4.34085,13.22813],[4.12033,13.21061],[4.12577,13.47298],[4.24845,13.49414],[4.50673,13.69467],[4.85689,13.7741],[5.22762,13.74133],[5.37407,13.85525],[5.52176,13.88029]]]}},{"type":"Feature","properties":{"id":"ng-ta","lat":8.00071,"lng":10.37},"geometry":{"type":"Polygon","coordinates":[[[11.90354,7.45356],[11.73663,7.26328],[11.87223,7.07936],[11.56175,6.87607],[11.53344,6.6451],[11.41675,6.572],[11.3442,6.44312],[11.11351,6.434],[11.03672,6.74055],[10.90939,6.78426],[10.83188,6.94521],[10.62062,7.04376],[10.57866,7.13083],[10.49598,6.87467],[10.21083,6.87917],[10.14293,7.00769],[9.87462,6.7877],[9.78853,6.79475],[9.69303,6.53131],[9.64481,6.52123],[9.70962,7.02412],[9.87467,7.20899],[9.92098,7.44639],[9.87664,7.56248],[9.57123,7.84234],[9.1141,7.83298],[9.36959,8.05785],[9.30386,8.23805],[9.33517,8.31696],[9.54746,8.282],[9.61547,8.35117],[9.81752,8.37313],[10.22886,8.74673],[10.61851,8.88013],[10.646,9.10508],[10.56042,9.49666],[10.93032,9.60264],[11.52594,9.59197],[11.61844,9.4202],[11.76727,9.3301],[11.82577,9.12776],[11.9715,8.91899],[11.85926,8.57387],[11.4043,8.05845],[11.51519,7.85221],[11.64769,7.94357],[11.805,7.80645],[11.90354,7.45356]]]}},{"type":"Feature","properties":{"id":"ng-yo","lat":12.13462,"lng":11.54945},"geometry":{"type":"Polygon","coordinates":[[[10.77131,13.3827],[11.44,13.36443],[11.8528,13.24539],[12.05764,13.11677],[12.38674,13.07858],[12.36289,12.88526],[12.48754,12.67277],[12.30832,12.44955],[12.30646,11.86369],[12.23567,11.66324],[12.33633,11.64668],[12.38832,11.54201],[12.19753,11.28432],[12.16673,11.04705],[11.86845,10.91907],[11.73978,10.60486],[11.59302,10.59721],[11.58372,10.9623],[11.35396,11.21588],[11.15284,11.33083],[11.01424,11.29471],[10.93931,11.33608],[10.96815,11.57526],[10.84795,11.86698],[10.73519,12.40227],[10.60951,12.50244],[10.53944,12.77292],[10.26266,12.80769],[10.15931,12.98389],[9.76987,12.79253],[9.64766,12.83054],[9.93012,13.14597],[10.11978,13.2501],[10.77131,13.3827]]]}},{"type":"Feature","properties":{"id":"ng-za","lat":11.9668,"lng":6.10066},"geometry":{"type":"Polygon","coordinates":[[[6.75388,13.1749],[6.90664,13.00686],[7.06292,12.99514],[7.07795,12.47846],[7.15753,12.15399],[7.11298,12.03841],[7.23318,11.89519],[7.06627,11.77923],[6.91341,11.76628],[6.89739,11.41083],[6.75445,11.24802],[6.70184,11.0895],[6.47405,11.00946],[6.32285,11.03219],[6.16193,10.86275],[6.02705,11.11121],[6.01816,11.26417],[5.88319,11.42982],[5.91326,11.57312],[5.86634,11.61823],[5.56982,11.62048],[5.38534,11.71836],[5.14246,11.65482],[5.0235,11.6806],[5.03125,12.14944],[5.06815,12.26928],[5.52083,12.25786],[5.57075,12.30971],[5.55266,12.5274],[5.74025,12.72178],[6.03863,12.76894],[6.06209,13.02231],[6.26208,13.05768],[6.29401,13.16284],[6.62588,13.09228],[6.75388,13.1749]]]}}]}
