{"type":"FeatureCollection","features":[{"type":"Feature","properties":{"id":"ni-an","lat":14.02405,"lng":-84.13584},"geometry":{"type":"MultiPolygon","coordinates":[[[[-85.04222,14.61348],[-85.01566,14.72817],[-84.90422,14.81698],[-84.79213,14.82106],[-84.69932,14.67469],[-84.48269,14.61947],[-84.36293,14.71561],[-84.26728,14.67774],[-84.2618,14.75853],[-84.16819,14.71497],[-84.09543,14.7361],[-84.11176,14.79341],[-83.92472,14.76344],[-83.92472,14.80377],[-83.70502,14.83853],[-83.69197,14.88697],[-83.61562,14.87269],[-83.50908,15.01154],[-83.13044,14.99701],[-83.29402,14.80427],[-83.32844,14.79096],[-83.28742,14.82567],[-83.32217,14.91389],[-83.36986,14.883],[-83.42463,14.80394],[-83.33751,14.73143],[-83.35631,14.77045],[-83.29922,14.77119],[-83.18659,14.34764],[-83.41739,13.98859],[-83.4938,13.73774],[-83.57014,13.2871],[-83.52957,13.03262],[-83.75574,13.09365],[-83.83816,13.15579],[-83.81092,13.22276],[-83.88353,13.24715],[-84.10861,13.19731],[-84.1631,13.28234],[-84.75144,13.21573],[-84.88311,13.38153],[-84.97377,13.29877],[-85.12335,13.27748],[-85.24185,13.14519],[-85.43444,13.258],[-85.50612,13.40608],[-85.40406,13.48933],[-85.37011,13.68648],[-85.15689,13.77854],[-85.05679,13.73753],[-84.85484,14.0595],[-84.83805,14.30678],[-84.98956,14.37344],[-84.97023,14.47697],[-85.04222,14.61348]]],[[[-82.75105,14.42202],[-82.73253,14.36957],[-82.75084,14.36148],[-82.80826,14.36636],[-82.75105,14.42202]]]]}},{"type":"Feature","properties":{"id":"ni-as","lat":12.10017,"lng":-84.23107},"geometry":{"type":"MultiPolygon","coordinates":[[[[-83.71984,11.87031],[-83.72899,11.97333],[-83.70686,11.98705],[-83.71984,11.87031]]],[[[-83.52957,13.03262],[-83.4923,12.40034],[-83.63752,12.38573],[-83.63752,12.56452],[-83.58845,12.55964],[-83.55541,12.63589],[-83.56404,12.81269],[-83.6459,12.78685],[-83.5891,12.63215],[-83.77465,12.53351],[-83.67638,12.27985],[-83.61701,12.34805],[-83.6859,12.13744],[-83.67101,11.98794],[-83.72374,12.07465],[-83.69786,12.1352],[-83.72863,12.17158],[-83.77774,12.17715],[-83.71325,12.12568],[-83.73937,12.05195],[-83.80394,12.06029],[-83.75984,11.94684],[-83.83609,11.87124],[-83.76773,11.80484],[-83.69994,11.84992],[-83.65363,11.66747],[-83.86803,11.37491],[-83.83727,11.14252],[-83.71825,10.944],[-83.87834,11.04561],[-83.8973,11.11457],[-84.00957,11.08749],[-84.17442,11.14436],[-84.37745,11.36199],[-84.55256,11.45238],[-84.53429,11.65213],[-84.62157,11.89964],[-84.57462,11.92253],[-84.70932,11.99294],[-84.84735,12.47758],[-85.02708,12.76005],[-85.09857,12.79322],[-85.16232,12.65496],[-85.22789,12.78806],[-85.14133,12.85942],[-84.95825,12.85071],[-84.74818,12.95035],[-84.69645,13.06639],[-84.80087,13.14718],[-84.75144,13.21573],[-84.1631,13.28234],[-84.10861,13.19731],[-83.99427,13.25604],[-83.81862,13.22656],[-83.83816,13.15579],[-83.75574,13.09365],[-83.52957,13.03262]]],[[[-83.05598,12.1662],[-83.02115,12.18179],[-83.05394,12.14387],[-83.05598,12.1662]]]]}},{"type":"Feature","properties":{"id":"ni-bo","lat":12.39364,"lng":-85.59448},"geometry":{"type":"Polygon","coordinates":[[[-85.40762,12.74325],[-85.18601,12.62541],[-85.07992,12.79366],[-84.96853,12.64951],[-85.07801,12.44087],[-85.58635,12.30468],[-85.65665,12.04647],[-85.73148,12.04133],[-85.84212,12.15673],[-85.82806,12.2568],[-85.92082,12.3464],[-85.97227,12.52208],[-85.85574,12.623],[-85.40762,12.74325]]]}},{"type":"Feature","properties":{"id":"ni-ca","lat":11.6888,"lng":-86.2458},"geometry":{"type":"Polygon","coordinates":[[[-86.1752,11.51947],[-86.50234,11.76678],[-86.28142,11.957],[-86.07247,11.85618],[-86.10169,11.61082],[-86.1752,11.51947]]]}},{"type":"Feature","properties":{"id":"ni-ci","lat":12.86018,"lng":-87.12851},"geometry":{"type":"Polygon","coordinates":[[[-86.83343,13.29335],[-86.7039,13.25015],[-86.73222,13.14966],[-86.65757,12.80697],[-86.79304,12.7462],[-87.04938,12.47665],[-87.12084,12.45838],[-87.18663,12.52298],[-87.17642,12.48591],[-87.46349,12.78632],[-87.68566,12.91828],[-87.58385,13.08466],[-87.39249,12.9134],[-87.28958,12.91958],[-87.37902,12.93757],[-87.31404,12.98155],[-87.03504,12.97978],[-86.92293,13.08639],[-86.91079,13.23958],[-86.83343,13.29335]]]}},{"type":"Feature","properties":{"id":"ni-co","lat":12.16793,"lng":-85.19352},"geometry":{"type":"Polygon","coordinates":[[[-85.59911,12.28938],[-85.03566,12.48319],[-84.96853,12.64951],[-84.84735,12.47758],[-84.70932,11.99294],[-84.57462,11.92253],[-84.60741,11.86251],[-84.80497,11.86561],[-85.10152,11.63146],[-85.52291,11.68053],[-85.65665,12.04647],[-85.59911,12.28938]]]}},{"type":"Feature","properties":{"id":"ni-es","lat":13.14769,"lng":-86.46526},"geometry":{"type":"Polygon","coordinates":[[[-86.09952,13.04701],[-86.2639,12.84852],[-86.41997,12.89976],[-86.40472,13.00691],[-86.47149,13.11452],[-86.7207,13.09023],[-86.72894,13.18085],[-86.52283,13.43045],[-86.25375,13.43812],[-86.21295,13.39035],[-86.24786,13.18914],[-86.09952,13.04701]]]}},{"type":"Feature","properties":{"id":"ni-gr","lat":11.92518,"lng":-85.82755},"geometry":{"type":"Polygon","coordinates":[[[-85.8515,12.19876],[-85.73148,12.04133],[-85.65665,12.04647],[-85.52291,11.68053],[-86.00338,11.68084],[-86.10169,11.61082],[-86.09781,11.80902],[-85.96405,12.09138],[-86.00051,12.14381],[-85.8515,12.19876]]]}},{"type":"Feature","properties":{"id":"ni-ji","lat":13.81324,"lng":-85.37309},"geometry":{"type":"Polygon","coordinates":[[[-85.08638,14.54454],[-85.00553,14.59642],[-84.98956,14.37344],[-84.83546,14.2929],[-84.85484,14.0595],[-85.05175,13.74257],[-85.15689,13.77854],[-85.36509,13.6919],[-85.40406,13.48933],[-85.50638,13.37058],[-85.91832,13.01753],[-86.00746,12.99394],[-86.09952,13.04701],[-86.24786,13.18914],[-86.21295,13.39035],[-86.05004,13.50478],[-85.90674,13.48685],[-85.84222,13.54023],[-85.72512,13.84794],[-85.7322,13.95954],[-85.52795,14.0509],[-85.32135,14.28133],[-85.16963,14.32176],[-85.20583,14.40716],[-85.13754,14.57849],[-85.08638,14.54454]]]}},{"type":"Feature","properties":{"id":"ni-le","lat":12.52844,"lng":-86.6768},"geometry":{"type":"Polygon","coordinates":[[[-86.67072,12.00052],[-86.77257,12.19741],[-87.17101,12.45144],[-87.17357,12.47451],[-87.09781,12.43354],[-86.79304,12.7462],[-86.67,12.77876],[-86.7207,13.09023],[-86.49117,13.12153],[-86.41172,13.03181],[-86.41997,12.89976],[-86.2639,12.84852],[-86.28881,12.63646],[-86.35372,12.58236],[-86.34281,12.47384],[-86.52484,12.28974],[-86.51825,12.13112],[-86.65075,12.07534],[-86.67072,12.00052]]]}},{"type":"Feature","properties":{"id":"ni-md","lat":13.4104,"lng":-86.63308},"geometry":{"type":"Polygon","coordinates":[[[-86.71493,13.20036],[-86.74046,13.66015],[-86.56352,13.56948],[-86.2269,13.5493],[-86.16442,13.61452],[-86.05968,13.49329],[-86.21295,13.39035],[-86.25375,13.43812],[-86.52283,13.43045],[-86.71493,13.20036]]]}},{"type":"Feature","properties":{"id":"ni-mn","lat":12.22778,"lng":-86.18102},"geometry":{"type":"Polygon","coordinates":[[[-86.50234,11.76678],[-86.67072,12.00052],[-86.65075,12.07534],[-86.51825,12.13112],[-86.52484,12.28974],[-86.34281,12.47384],[-86.35098,12.58812],[-86.28881,12.63646],[-85.97227,12.52208],[-85.92082,12.3464],[-85.82806,12.2568],[-85.8515,12.19876],[-86.10903,12.13128],[-86.18791,12.05906],[-86.18016,11.97167],[-86.25775,11.98552],[-86.50234,11.76678]]]}},{"type":"Feature","properties":{"id":"ni-ms","lat":12.01537,"lng":-86.09156},"geometry":{"type":"Polygon","coordinates":[[[-86.00051,12.14381],[-85.96405,12.09138],[-86.07247,11.85618],[-86.28142,11.957],[-86.18016,11.97167],[-86.18791,12.05906],[-86.10903,12.13128],[-86.00051,12.14381]]]}},{"type":"Feature","properties":{"id":"ni-mt","lat":12.97214,"lng":-85.46039},"geometry":{"type":"Polygon","coordinates":[[[-85.18601,12.62541],[-85.40762,12.74325],[-85.85574,12.623],[-85.97227,12.52208],[-86.28881,12.63646],[-86.23889,12.92097],[-86.09952,13.04701],[-86.00746,12.99394],[-85.91832,13.01753],[-85.60498,13.32771],[-85.50638,13.37058],[-85.41457,13.23896],[-85.24185,13.14519],[-85.12335,13.27748],[-84.97377,13.29877],[-84.87892,13.3804],[-84.75144,13.21573],[-84.80087,13.14718],[-84.69645,13.06639],[-84.74818,12.95035],[-84.95825,12.85071],[-85.14133,12.85942],[-85.22619,12.79787],[-85.18601,12.62541]]]}},{"type":"Feature","properties":{"id":"ni-ns","lat":13.79611,"lng":-86.0262},"geometry":{"type":"Polygon","coordinates":[[[-86.0202,14.05516],[-86.02841,13.99607],[-85.9294,13.9121],[-85.74312,13.82396],[-85.83129,13.55339],[-85.90674,13.48685],[-86.05968,13.49329],[-86.16442,13.61452],[-86.2269,13.5493],[-86.56352,13.56948],[-86.64832,13.64723],[-86.77214,13.64552],[-86.72723,13.76826],[-86.32519,13.76376],[-86.12169,14.02721],[-86.0202,14.05516]]]}},{"type":"Feature","properties":{"id":"ni-ri","lat":11.3647,"lng":-85.62903},"geometry":{"type":"Polygon","coordinates":[[[-84.88497,10.94768],[-85.59779,11.20994],[-85.70174,11.08088],[-85.77172,11.10468],[-86.1752,11.51947],[-86.00338,11.68084],[-85.10152,11.63146],[-85.34098,11.14712],[-84.88497,10.94768]]]}},{"type":"Feature","properties":{"id":"ni-sj","lat":11.25455,"lng":-84.78212},"geometry":{"type":"Polygon","coordinates":[[[-84.1916,10.78172],[-84.20837,10.86097],[-84.35547,10.99463],[-84.4382,10.9522],[-84.67646,11.07041],[-84.88497,10.94768],[-85.34098,11.14712],[-85.08087,11.66513],[-84.80497,11.86561],[-84.60741,11.86251],[-84.53429,11.65213],[-84.55256,11.45238],[-84.37745,11.36199],[-84.17442,11.14436],[-84.00957,11.08749],[-83.8973,11.11457],[-83.87834,11.04561],[-83.68875,10.93459],[-83.66013,10.83417],[-83.91728,10.71348],[-84.00923,10.78945],[-84.1916,10.78172]]]}}]}
