{"type":"FeatureCollection","features":[{"type":"Feature","properties":{"id":"nl-bq1","lat":12.16059,"lng":-68.24943},"geometry":{"type":"Polygon","coordinates":[[[-68.21154,12.22809],[-68.20531,12.11823],[-68.25422,12.02363],[-68.30256,12.20295],[-68.41739,12.25703],[-68.37662,12.31005],[-68.21154,12.22809]]]}},{"type":"Feature","properties":{"id":"nl-bq2","lat":17.61923,"lng":-63.23933},"geometry":{"type":"Polygon","coordinates":[[[-63.25133,17.62376],[-63.2237,17.62922],[-63.23839,17.61469],[-63.25133,17.62376]]]}},{"type":"Feature","properties":{"id":"nl-bq3","lat":17.5055,"lng":-62.98133},"geometry":{"type":"Polygon","coordinates":[[[-62.99714,17.52562],[-62.94506,17.48538],[-62.95872,17.46457],[-62.98109,17.46772],[-62.99714,17.52562]]]}},{"type":"Feature","properties":{"id":"nl-dr","lat":52.90638,"lng":6.63594},"geometry":{"type":"Polygon","coordinates":[[[7.07215,52.84132],[7.01846,52.62599],[6.61115,52.6726],[6.5216,52.61147],[6.38662,52.61849],[6.17914,52.68206],[6.13025,52.74851],[6.20694,52.79673],[6.12948,52.85341],[6.42946,52.95935],[6.30952,53.09206],[6.46837,53.2045],[6.63146,53.1056],[6.74055,53.1119],[7.07215,52.84132]]]}},{"type":"Feature","properties":{"id":"nl-fl","lat":52.54384,"lng":5.48587},"geometry":{"type":"Polygon","coordinates":[[[5.74046,52.83874],[6.01977,52.63761],[5.8325,52.59711],[5.86593,52.50545],[5.81525,52.44076],[5.49717,52.26932],[5.10487,52.3638],[5.19385,52.42852],[5.09516,52.58222],[5.35888,52.689],[5.37032,52.79034],[5.74046,52.83874]]]}},{"type":"Feature","properties":{"id":"nl-fr","lat":53.11177,"lng":5.78272},"geometry":{"type":"MultiPolygon","coordinates":[[[[5.17977,53.00899],[5.59156,53.3028],[6.18602,53.411],[6.18007,53.36434],[6.28714,53.30889],[6.17371,53.13149],[6.30952,53.09206],[6.4338,52.96932],[6.03238,52.82107],[5.37183,52.78932],[5.17977,53.00899]]],[[[4.92124,53.25373],[5.10483,53.30964],[4.87892,53.22089],[4.92124,53.25373]]],[[[5.5853,53.4536],[5.20834,53.35269],[5.16765,53.36823],[5.25017,53.40644],[5.5853,53.4536]]],[[[5.9546,53.46109],[5.67897,53.43012],[5.63608,53.44868],[5.9546,53.46109]]],[[[6.33871,53.50202],[6.13331,53.4536],[6.12281,53.48163],[6.21176,53.50886],[6.33871,53.50202]]]]}},{"type":"Feature","properties":{"id":"nl-ge","lat":52.12252,"lng":6.11837},"geometry":{"type":"Polygon","coordinates":[[[6.77158,52.10879],[6.67296,52.05005],[6.80918,51.97954],[6.74375,51.90833],[6.34497,51.8211],[6.12699,51.89673],[6.09299,51.88531],[6.15614,51.84206],[5.93145,51.81565],[5.94143,51.74532],[5.50083,51.83503],[5.31795,51.74744],[5.13491,51.73483],[5.00448,51.85094],[5.23945,51.97709],[5.61571,51.94825],[5.55334,52.10483],[5.46864,52.0823],[5.51282,52.13625],[5.42409,52.17542],[5.40892,52.26772],[5.53275,52.27687],[5.86695,52.52179],[6.09537,52.46791],[6.1348,52.40445],[6.06803,52.32177],[6.15433,52.2256],[6.41142,52.24456],[6.77158,52.10879]]]}},{"type":"Feature","properties":{"id":"nl-gr","lat":53.15107,"lng":6.90231},"geometry":{"type":"MultiPolygon","coordinates":[[[[7.19747,53.21662],[7.18362,52.96612],[7.07215,52.84132],[6.93547,52.98839],[6.53064,53.19122],[6.41375,53.17784],[6.33014,53.08808],[6.18301,53.1243],[6.28714,53.30992],[6.1703,53.3861],[6.82911,53.45059],[6.90056,53.35179],[7.08546,53.30964],[7.08074,53.26679],[7.19747,53.21662]]],[[[6.45509,53.55809],[6.5101,53.54361],[6.44304,53.54999],[6.45509,53.55809]]]]}},{"type":"Feature","properties":{"id":"nl-li","lat":51.26656,"lng":5.85866},"geometry":{"type":"Polygon","coordinates":[[[5.86324,51.77281],[6.09919,51.64447],[6.20782,51.38767],[6.05661,51.21171],[6.14725,51.15225],[5.93796,51.03094],[5.85249,51.04275],[5.87461,50.96537],[6.00369,50.97374],[6.06374,50.90754],[5.96876,50.79463],[5.99491,50.74993],[5.70656,50.75422],[5.62232,50.85266],[5.76402,50.95942],[5.72237,50.95942],[5.8405,51.13892],[5.55141,51.21677],[5.67576,51.31635],[5.93445,51.38487],[5.83776,51.56703],[6.04927,51.56647],[5.86324,51.77281]]]}},{"type":"Feature","properties":{"id":"nl-nb","lat":51.5312,"lng":5.05663},"geometry":{"type":"Polygon","coordinates":[[[4.82268,51.41369],[4.77865,51.49536],[4.63014,51.41821],[4.52151,51.42865],[4.51262,51.47738],[4.37713,51.44288],[4.41123,51.35674],[4.28112,51.36895],[4.28859,51.49213],[4.18613,51.61681],[4.40311,51.70826],[4.67555,51.71937],[4.90898,51.82991],[5.13491,51.73483],[5.31795,51.74744],[5.50083,51.83503],[5.88272,51.75328],[6.04948,51.57453],[5.83776,51.56703],[5.93445,51.38487],[5.67576,51.31635],[5.55141,51.21677],[5.49324,51.28654],[5.21542,51.25873],[5.06815,51.37454],[5.02753,51.47681],[4.93193,51.39562],[4.76212,51.41338],[4.82268,51.41369]]]}},{"type":"Feature","properties":{"id":"nl-nh","lat":52.63561,"lng":4.92248},"geometry":{"type":"MultiPolygon","coordinates":[[[[4.49903,52.32606],[4.74545,52.9676],[4.9131,52.90559],[5.17977,53.00899],[5.37032,52.79034],[5.35888,52.689],[5.09516,52.58222],[5.19385,52.42852],[5.10487,52.3638],[5.3676,52.28332],[5.26379,52.27588],[5.20204,52.18741],[5.04503,52.16811],[5.06577,52.27924],[4.99363,52.28544],[4.73623,52.20829],[4.54813,52.22038],[4.60972,52.31345],[4.49903,52.32606]]],[[[4.89259,53.1048],[4.79566,53.00031],[4.70769,53.02847],[4.85434,53.18773],[4.89259,53.1048]]]]}},{"type":"Feature","properties":{"id":"nl-ov","lat":52.49581,"lng":6.37588},"geometry":{"type":"Polygon","coordinates":[[[6.71908,52.62676],[6.69507,52.47561],[6.9733,52.45137],[7.04823,52.36507],[7.02632,52.23064],[6.83067,52.11289],[6.49524,52.17718],[6.41142,52.24456],[6.14612,52.2303],[6.06803,52.32177],[6.1348,52.40445],[6.09537,52.46791],[6.03067,52.51101],[5.93135,52.48062],[5.8325,52.58525],[6.01977,52.63761],[5.78516,52.8037],[6.12948,52.85341],[6.20694,52.79673],[6.13025,52.74851],[6.18332,52.67999],[6.38662,52.61849],[6.5216,52.61147],[6.61115,52.6726],[6.71908,52.62676]]]}},{"type":"Feature","properties":{"id":"nl-ut","lat":52.11227,"lng":5.14871},"geometry":{"type":"Polygon","coordinates":[[[5.40892,52.26772],[5.42409,52.17542],[5.51282,52.13625],[5.46864,52.0823],[5.55334,52.10483],[5.61571,51.94825],[5.10489,52.0038],[4.88733,51.94117],[4.79941,52.02271],[4.87772,52.0714],[4.79085,52.11971],[4.86268,52.16798],[4.76785,52.22121],[5.06577,52.27924],[5.04503,52.16811],[5.20204,52.18741],[5.26829,52.27748],[5.40892,52.26772]]]}},{"type":"Feature","properties":{"id":"nl-ze","lat":51.32006,"lng":3.77805},"geometry":{"type":"MultiPolygon","coordinates":[[[[3.3988,51.2447],[3.34942,51.37522],[3.52573,51.4156],[3.83399,51.34325],[3.98414,51.41047],[4.22149,51.368],[4.16856,51.29687],[3.92703,51.20625],[3.60953,51.29044],[3.3988,51.2447]]],[[[4.25709,51.3725],[4.23471,51.41901],[3.95704,51.4558],[3.82716,51.39106],[3.53541,51.45922],[3.44703,51.54597],[3.85108,51.61078],[3.90577,51.56924],[3.87159,51.54938],[4.01588,51.53083],[4.10483,51.4457],[4.2638,51.44446],[4.25709,51.3725]]],[[[4.24401,51.5553],[4.09132,51.53506],[3.98813,51.59028],[4.15724,51.6079],[4.24401,51.5553]]],[[[4.18613,51.61681],[4.13066,51.6583],[4.19778,51.63789],[4.18613,51.61681]]],[[[4.09938,51.65412],[3.9603,51.62385],[3.80925,51.69953],[3.70004,51.68061],[3.68946,51.72504],[3.96176,51.7381],[4.09938,51.65412]]]]}},{"type":"Feature","properties":{"id":"nl-zh","lat":51.99575,"lng":4.45044},"geometry":{"type":"Polygon","coordinates":[[[4.11092,51.64699],[4.12566,51.67963],[4.17693,51.68586],[3.98146,51.81],[3.86232,51.81607],[4.07765,51.84357],[4.01564,51.9877],[4.14186,52.0056],[4.50815,52.33637],[4.60972,52.31345],[4.54813,52.22038],[4.71029,52.23459],[4.86268,52.16798],[4.79085,52.11971],[4.87772,52.0714],[4.79941,52.02271],[4.88733,51.94117],[5.10489,52.0038],[5.18256,51.96685],[5.12055,51.87621],[4.79038,51.80268],[4.67555,51.71937],[4.11092,51.64699]]]}}]}
