{"type":"FeatureCollection","features":[{"type":"Feature","properties":{"id":"no-01","lat":59.35798,"lng":11.21855},"geometry":{"type":"MultiPolygon","coordinates":[[[[11.07569,59.08047],[11.0464,59.0268],[10.99147,59.0336],[11.00327,59.08649],[11.07569,59.08047]]],[[[10.9144,59.10074],[10.87745,59.07123],[10.82911,59.09943],[10.86524,59.1166],[10.9144,59.10074]]],[[[11.90209,59.78514],[11.85248,59.67336],[11.67492,59.60711],[11.81166,59.24967],[11.61157,58.89315],[11.45199,58.89604],[11.38933,59.08076],[11.18238,59.11603],[11.17644,59.19685],[11.13551,59.14224],[11.08774,59.17577],[11.09108,59.128],[10.9485,59.18334],[10.91635,59.14224],[10.90211,59.19685],[10.82293,59.16397],[10.77296,59.2521],[10.73813,59.2167],[10.77914,59.31293],[10.67408,59.31574],[10.65968,59.40021],[10.59164,59.43065],[10.65642,59.49787],[10.67514,59.44086],[10.98189,59.71943],[11.25531,59.71785],[11.28973,59.78697],[11.52269,59.62579],[11.75017,59.78674],[11.90209,59.78514]]]]}},{"type":"Feature","properties":{"id":"no-02","lat":60.0276,"lng":11.35774},"geometry":{"type":"Polygon","coordinates":[[[11.83998,60.06181],[11.84298,59.83842],[11.88374,59.80538],[11.75017,59.78674],[11.52269,59.62579],[11.26694,59.78638],[11.25531,59.71785],[10.98189,59.71943],[10.68796,59.4836],[10.56023,59.72622],[10.65553,59.85668],[10.71778,59.7381],[10.7566,59.84416],[10.93425,59.87304],[10.92805,59.99339],[10.6801,60.15338],[10.7541,60.16816],[10.92184,60.35688],[10.83028,60.4328],[10.68382,60.44716],[10.71607,60.52313],[10.86226,60.49021],[11.09532,60.53202],[11.16397,60.62264],[11.23728,60.51615],[11.58273,60.28009],[11.58568,60.1801],[11.83998,60.06181]]]}},{"type":"Feature","properties":{"id":"no-03","lat":59.94858,"lng":10.64914},"geometry":{"type":"Polygon","coordinates":[[[10.7566,59.84416],[10.68873,59.91177],[10.50815,59.87153],[10.48666,59.80317],[10.34911,59.85345],[10.38291,59.98538],[10.62362,60.15473],[10.75271,60.13726],[10.92805,59.99339],[10.91735,59.84617],[10.7566,59.84416]]]}},{"type":"Feature","properties":{"id":"no-04","lat":61.31539,"lng":11.84626},"geometry":{"type":"Polygon","coordinates":[[[12.27952,62.34421],[12.31747,62.23403],[12.16172,61.72484],[12.41648,61.58229],[12.61378,61.54704],[12.88818,61.34962],[12.7038,61.0462],[12.25329,61.0017],[12.61265,60.45538],[12.49172,60.31229],[12.52469,60.1617],[12.48325,60.08124],[12.1027,59.89397],[11.87463,59.88494],[11.83998,60.06181],[11.58568,60.1801],[11.58273,60.28009],[11.23728,60.51615],[11.1484,60.64152],[10.72723,60.80432],[10.72997,60.88419],[10.4504,61.04666],[10.85374,61.28117],[10.6877,61.47976],[10.60838,61.73494],[10.38958,61.68218],[10.05828,61.75633],[10.08562,61.90439],[9.81158,61.92986],[9.80832,62.01769],[9.90346,62.07445],[9.65639,62.18861],[9.85535,62.35772],[10.105,62.44265],[10.09693,62.58579],[10.28566,62.70739],[11.12524,62.67982],[11.57307,62.3965],[12.27952,62.34421]]]}},{"type":"Feature","properties":{"id":"no-05","lat":61.25618,"lng":9.4474},"geometry":{"type":"Polygon","coordinates":[[[11.16397,60.62264],[11.09532,60.53202],[10.86226,60.49021],[10.71607,60.52313],[10.68382,60.44716],[10.83028,60.4328],[10.92184,60.35688],[10.7541,60.16816],[10.6801,60.15338],[10.33155,60.28004],[10.04371,60.65539],[9.82088,60.59139],[9.83142,60.48499],[9.41015,60.58473],[9.28091,60.78955],[8.66333,60.94951],[8.27973,61.11767],[8.19808,61.07245],[8.04714,61.2312],[8.20382,61.33729],[8.14191,61.42669],[8.30857,61.44976],[7.99158,61.57624],[7.86849,61.74502],[7.49239,61.76047],[7.39353,61.87814],[7.40516,62.00368],[7.3279,62.0498],[7.6114,62.09192],[7.74282,62.19982],[7.97091,62.19137],[8.15421,62.3455],[8.40929,62.37893],[9.09064,62.38012],[9.59727,62.27431],[9.78305,62.28581],[9.65903,62.16969],[9.90346,62.07445],[9.80832,62.01769],[9.81158,61.92986],[10.08562,61.90439],[10.05828,61.75633],[10.38958,61.68218],[10.60838,61.73494],[10.6877,61.47976],[10.85374,61.28117],[10.4504,61.04666],[10.72997,60.88419],[10.72723,60.80432],[11.16397,60.62264]]]}},{"type":"Feature","properties":{"id":"no-06","lat":60.23878,"lng":9.00486},"geometry":{"type":"Polygon","coordinates":[[[10.48666,59.80317],[10.50221,59.70873],[10.61459,59.60773],[10.54274,59.53555],[10.4367,59.51838],[10.40301,59.68285],[10.23894,59.73876],[10.27863,59.69041],[10.03301,59.68463],[9.9295,59.62835],[10.06577,59.49983],[9.78491,59.49198],[9.78274,59.43219],[9.68233,59.43978],[9.48043,59.51794],[9.5025,59.56262],[9.35166,59.73594],[9.35987,59.80769],[9.20314,59.85004],[9.18019,59.94161],[9.02051,60.00006],[8.95923,60.10457],[8.84285,60.1615],[8.17142,60.19752],[7.46784,60.11369],[7.66649,60.33136],[7.67889,60.51109],[7.58903,60.66038],[7.47792,60.70234],[7.87397,60.93044],[8.03685,60.93272],[8.27973,61.11767],[8.66333,60.94951],[9.3006,60.78146],[9.41015,60.58473],[9.65763,60.5147],[9.83142,60.48499],[9.82088,60.59139],[10.04371,60.65539],[10.33155,60.28004],[10.62362,60.15473],[10.37454,59.97546],[10.34989,59.83847],[10.48666,59.80317]]]}},{"type":"Feature","properties":{"id":"no-07","lat":59.32593,"lng":10.13958},"geometry":{"type":"Polygon","coordinates":[[[10.03301,59.68463],[10.37924,59.65835],[10.39015,59.5583],[10.23732,59.55996],[10.47755,59.42963],[10.44451,59.34894],[10.51417,59.30292],[10.46957,59.24779],[10.36085,59.27131],[10.28981,59.13459],[10.3069,59.05972],[10.27215,59.11433],[10.26246,59.03856],[10.22438,59.11433],[10.20704,59.01642],[10.11451,59.00507],[10.14877,59.05158],[10.01678,59.03368],[9.98365,58.96088],[9.81218,58.96345],[9.83266,59.169],[9.88403,59.20435],[9.77013,59.36878],[9.77695,59.48423],[10.06577,59.49983],[9.9295,59.62835],[10.03301,59.68463]]]}},{"type":"Feature","properties":{"id":"no-08","lat":59.46278,"lng":8.62578},"geometry":{"type":"Polygon","coordinates":[[[9.82718,59.0184],[9.68849,59.09077],[9.66863,59.05146],[9.63063,59.13141],[9.53907,59.12055],[9.72397,58.98395],[9.47006,58.9287],[9.51149,58.89521],[9.29884,58.88154],[9.27084,58.83316],[9.45037,58.83316],[9.38659,58.78483],[9.20655,58.8177],[9.19058,58.88359],[8.99132,59.00994],[8.83681,59.00033],[8.76074,58.85708],[8.57935,58.94136],[8.03391,58.9825],[7.77139,59.15711],[7.78906,59.24414],[7.72592,59.31902],[7.52727,59.42748],[7.61946,59.49337],[7.53053,59.54949],[7.54593,59.6145],[7.14419,59.71493],[7.09205,59.79408],[7.22207,59.96621],[7.46784,60.11369],[8.17142,60.19752],[8.84285,60.1615],[8.95923,60.10457],[9.02051,60.00006],[9.18019,59.94161],[9.20314,59.85004],[9.35987,59.80769],[9.35166,59.73594],[9.5025,59.56262],[9.48043,59.51794],[9.78274,59.43219],[9.77835,59.34868],[9.88403,59.20435],[9.83266,59.169],[9.82718,59.0184]]]}},{"type":"Feature","properties":{"id":"no-09","lat":58.91248,"lng":7.88638},"geometry":{"type":"Polygon","coordinates":[[[9.38659,58.78483],[9.07097,58.7412],[9.21632,58.70279],[9.05934,58.68293],[9.20053,58.67235],[9.03384,58.59475],[8.91334,58.60688],[8.95009,58.54718],[8.90942,58.50089],[8.22462,58.15693],[8.18475,58.19627],[8.21069,58.28869],[8.09272,58.3122],[8.0921,58.35654],[7.97541,58.34512],[7.76504,58.48077],[7.5805,58.48041],[7.54624,58.54583],[7.619,58.60007],[7.58577,58.69091],[7.67796,58.76928],[7.59404,58.87842],[7.07169,58.84726],[7.1645,58.94891],[7.11841,59.01919],[7.18342,59.17355],[6.83026,59.21148],[6.81677,59.32532],[6.9024,59.45503],[7.01459,59.49882],[6.99382,59.61011],[7.14838,59.68101],[7.4387,59.67641],[7.61946,59.49337],[7.52727,59.42748],[7.72592,59.31902],[7.78906,59.24414],[7.77139,59.15711],[7.972,59.00089],[8.57935,58.94136],[8.76074,58.85708],[8.83681,59.00033],[8.99132,59.00994],[9.19058,58.88359],[9.20655,58.8177],[9.38659,58.78483]]]}},{"type":"Feature","properties":{"id":"no-10","lat":58.57295,"lng":7.08762},"geometry":{"type":"Polygon","coordinates":[[[8.22462,58.15693],[8.0525,58.11319],[8.02459,58.14106],[8.07985,58.1621],[8.00408,58.22305],[8.02231,58.16376],[7.91578,58.08185],[7.57887,58.01752],[7.15553,58.05028],[7.0066,57.99315],[7.14747,58.10008],[6.93531,58.04548],[6.98032,58.10537],[6.90056,58.05231],[6.90797,58.10008],[6.80421,58.10008],[6.98927,58.14106],[6.7776,58.18203],[6.80795,58.12055],[6.73146,58.11986],[6.72242,58.18944],[6.68824,58.12055],[6.78256,58.06533],[6.6185,58.06831],[6.53053,58.12055],[6.84596,58.27139],[6.68141,58.22305],[6.63364,58.27485],[6.68727,58.32734],[6.61996,58.31916],[6.62623,58.2447],[6.39764,58.273],[6.631,58.38434],[6.5848,58.61146],[6.44543,58.65807],[6.5986,58.70804],[6.51664,58.78571],[6.56242,58.93118],[6.88984,59.17753],[7.1797,59.17768],[7.11841,59.01919],[7.1645,58.94891],[7.07169,58.84726],[7.59404,58.87842],[7.67796,58.76928],[7.58577,58.69091],[7.619,58.60007],[7.54624,58.54583],[7.5805,58.48041],[7.76504,58.48077],[7.97541,58.34512],[8.0921,58.35654],[8.09272,58.3122],[8.21069,58.28869],[8.18475,58.19627],[8.22462,58.15693]]]}},{"type":"Feature","properties":{"id":"no-11","lat":59.05952,"lng":6.31556},"geometry":{"type":"MultiPolygon","coordinates":[[[[6.39764,58.273],[6.0101,58.38491],[5.9546,58.47748],[5.64625,58.54865],[5.47795,58.75475],[5.57252,58.89403],[5.53712,58.95612],[5.62623,58.9256],[5.5232,58.9914],[5.55055,59.03856],[5.71559,58.97712],[5.71559,58.86726],[5.73552,58.9287],[5.85353,58.96503],[6.09254,58.84723],[6.22885,58.83999],[6.05763,58.90205],[6.19484,58.98395],[6.62623,59.0528],[6.16041,58.99824],[6.03386,58.90518],[5.97511,58.96345],[6.05079,58.99824],[5.8755,59.06623],[6.12648,59.14842],[6.0088,59.14936],[6.1714,59.26142],[6.46168,59.31977],[6.15414,59.26777],[6.08497,59.30671],[6.23634,59.31977],[5.99545,59.33405],[6.04152,59.38369],[6.18865,59.42963],[6.24269,59.51056],[6.5442,59.55996],[6.23634,59.52582],[6.28647,59.64924],[6.15301,59.45942],[5.98259,59.42963],[5.99545,59.38117],[5.92416,59.35578],[5.88624,59.44697],[6.15317,59.47744],[5.90187,59.47907],[5.80738,59.53937],[5.79754,59.46312],[5.70826,59.47061],[5.64617,59.40852],[5.78419,59.42927],[5.85963,59.35077],[5.61199,59.29304],[5.64617,59.33405],[5.5866,59.41649],[5.50538,59.27774],[5.4358,59.30768],[5.43312,59.4051],[5.39088,59.29462],[5.35377,59.41108],[5.29721,59.34467],[5.18999,59.48016],[6.17061,59.61579],[6.28528,59.78074],[6.52862,59.85857],[6.66857,59.8458],[6.65399,59.72912],[6.70288,59.71258],[7.09205,59.79408],[7.12771,59.72333],[7.24393,59.69103],[6.98606,59.60417],[7.01459,59.49882],[6.9024,59.45503],[6.81507,59.31271],[6.83026,59.21148],[6.94261,59.20858],[6.56242,58.93118],[6.51664,58.78571],[6.5986,58.70804],[6.44543,58.65807],[6.5848,58.61146],[6.62728,58.3668],[6.39764,58.273]]],[[[5.73911,59.12442],[5.75074,59.07233],[5.57521,59.12401],[5.73911,59.12442]]],[[[5.46811,59.19672],[5.44321,59.15892],[5.37534,59.21882],[5.41383,59.24079],[5.46811,59.19672]]],[[[6.09181,59.26142],[6.00441,59.23078],[5.92986,59.24348],[5.98756,59.29084],[6.09181,59.26142]]],[[[5.3141,59.2736],[5.29709,59.16888],[5.18843,59.15725],[5.16528,59.27343],[5.22828,59.28559],[5.17384,59.33405],[5.18588,59.41474],[5.3141,59.2736]]]]}},{"type":"Feature","properties":{"id":"no-12","lat":60.28925,"lng":7.12311},"geometry":{"type":"MultiPolygon","coordinates":[[[[5.18279,59.50674],[5.34425,59.64765],[5.41334,59.59467],[5.39967,59.66983],[5.48911,59.7381],[5.48552,59.56977],[5.40789,59.51624],[5.18279,59.50674]]],[[[5.34498,59.71015],[5.27003,59.68285],[5.28932,59.74982],[5.20069,59.74946],[5.15398,59.66983],[5.20851,59.68285],[5.20167,59.61457],[5.15284,59.59162],[5.11671,59.6857],[5.188,59.75861],[5.07618,59.7663],[5.14649,59.82746],[5.10483,59.86848],[5.15398,59.87466],[5.34498,59.71015]]],[[[5.49781,59.80341],[5.42189,59.75898],[5.3143,59.78945],[5.25636,59.87466],[5.2754,59.95966],[5.42066,59.93838],[5.49781,59.80341]]],[[[5.64698,60.08015],[5.60524,59.96223],[5.6399,59.9156],[5.50807,59.89912],[5.47682,59.96296],[5.36183,59.99535],[5.64698,60.08015]]],[[[5.29859,60.03783],[5.25367,59.99311],[5.17172,60.04946],[5.20362,60.08828],[5.22389,60.0423],[5.24659,60.05146],[5.21754,60.11848],[5.29859,60.03783]]],[[[5.52873,59.55791],[5.58058,59.67902],[5.72193,59.66348],[5.75441,59.60985],[5.87941,59.6555],[5.7461,59.67552],[5.81422,59.72907],[6.0381,59.74518],[6.31153,59.85419],[6.00229,59.75861],[5.93409,59.77904],[5.96892,59.86103],[5.83172,59.7722],[5.72185,59.86103],[5.68141,59.8415],[5.64617,59.85419],[5.97153,59.95954],[5.94777,59.9975],[6.01002,60.05744],[6.29103,60.12165],[6.25685,60.16266],[6.10532,60.10737],[6.07496,60.19839],[6.20167,60.29979],[6.5027,60.43081],[6.64039,60.41649],[6.53053,60.26227],[6.5101,60.13532],[6.52377,60.08076],[6.65406,60.38239],[6.80258,60.47281],[7.10597,60.50585],[6.90056,60.50585],[6.98805,60.58955],[6.6561,60.43301],[6.59205,60.44379],[6.69508,60.51895],[6.29721,60.38858],[6.1775,60.47102],[6.24098,60.38788],[6.11899,60.36811],[6.18865,60.35505],[6.1517,60.26765],[5.99643,60.26496],[5.85157,60.1496],[5.85597,60.02375],[5.75603,59.99067],[5.68141,60.03974],[5.79054,60.07661],[5.70021,60.10391],[5.70826,60.17634],[5.7907,60.21109],[5.54371,60.16266],[5.70826,60.23216],[5.5984,60.23216],[5.63307,60.27253],[5.57154,60.23835],[5.73658,60.39203],[5.63307,60.36811],[5.40984,60.13133],[5.30405,60.19062],[5.35182,60.21723],[5.22283,60.21109],[5.31031,60.26569],[5.17066,60.27871],[5.22828,60.32095],[5.14096,60.35139],[5.29786,60.39598],[5.23707,60.47378],[5.30584,60.52827],[5.47625,60.43505],[5.65358,60.43081],[5.71404,60.48428],[5.74977,60.71817],[5.66383,60.70392],[5.67563,60.75776],[5.53346,60.6977],[5.52662,60.62873],[5.2505,60.56342],[5.08497,60.66291],[5.22828,60.62132],[5.08497,60.71137],[5.12582,60.72443],[4.92677,60.80012],[5.28012,60.72183],[5.43385,60.62873],[5.37086,60.67438],[5.43385,60.66291],[5.41334,60.70392],[5.23585,60.77619],[5.53688,60.8758],[5.47169,60.90746],[5.13103,60.81208],[5.1637,60.92398],[5.86417,60.97548],[6.01341,61.03312],[6.26993,60.91778],[6.4909,60.95959],[6.55668,60.92303],[6.67818,60.97594],[6.82437,60.93253],[6.7173,60.87481],[6.86442,60.84502],[6.86127,60.79996],[7.47792,60.70234],[7.58903,60.66038],[7.66866,60.54736],[7.65765,60.31792],[7.42676,60.05582],[7.17536,59.92621],[7.09205,59.79408],[6.70288,59.71258],[6.65399,59.72912],[6.66857,59.8458],[6.52862,59.85857],[6.28528,59.78074],[6.17061,59.61579],[5.52873,59.55791]]],[[[5.11166,60.20051],[4.93849,60.27505],[5.03663,60.31346],[4.97096,60.33283],[4.9489,60.43915],[5.09376,60.32022],[5.0503,60.2862],[5.11166,60.20051]]],[[[4.97576,60.55394],[5.15016,60.50137],[5.20436,60.43183],[5.12501,60.40241],[4.97576,60.55394]]],[[[5.68767,60.67658],[5.67596,60.47289],[5.52906,60.43505],[5.32399,60.54682],[5.56967,60.62507],[5.63608,60.69261],[5.68767,60.67658]]],[[[4.84588,60.62812],[4.78289,60.59276],[4.79127,60.66608],[4.84588,60.62812]]]]}},{"type":"Feature","properties":{"id":"no-14","lat":61.46174,"lng":6.63847},"geometry":{"type":"MultiPolygon","coordinates":[[[[4.92937,60.86115],[4.87875,60.86514],[4.77687,60.93],[4.88282,60.93],[4.92937,60.86115]]],[[[4.73902,61.01374],[4.68035,60.99714],[4.64471,61.06025],[4.70004,61.08222],[4.73902,61.01374]]],[[[4.96795,61.09227],[4.89381,61.0561],[4.85841,61.10114],[4.80323,61.04654],[4.79021,61.14614],[4.86329,61.12173],[4.84474,61.19733],[4.89527,61.13736],[4.94353,61.19017],[4.96795,61.09227]]],[[[5.04005,60.85615],[4.99057,60.96247],[5.0774,60.94965],[5.10076,60.87775],[5.14283,60.97215],[5.01271,60.98192],[5.06861,61.07355],[5.44842,60.99543],[5.52711,61.07543],[6.09848,61.12222],[6.25807,61.09382],[6.24252,61.04654],[6.35922,61.06757],[6.35597,61.01093],[6.6006,61.17524],[6.95582,61.08808],[7.00978,61.00894],[6.87379,60.93724],[7.05144,60.96455],[7.13014,60.9267],[7.10597,60.86156],[7.16131,60.95087],[7.09352,60.96381],[7.00034,61.09292],[7.22267,61.14037],[7.43556,61.10114],[7.3462,61.14273],[7.695,61.23208],[7.38844,61.19819],[7.31202,61.2873],[7.57203,61.48534],[7.26368,61.39594],[7.30519,61.34813],[7.23976,61.29727],[7.35971,61.19111],[6.95314,61.11164],[6.91725,61.1363],[7.00359,61.18366],[6.55787,61.2246],[6.69508,61.34471],[6.70191,61.40278],[6.60336,61.27875],[6.50115,61.26813],[6.53736,61.20417],[6.4651,61.20759],[6.5062,61.14696],[6.43434,61.11473],[6.17433,61.18366],[5.96144,61.16324],[6.03712,61.20417],[5.80445,61.15575],[5.78297,61.1966],[5.42368,61.07966],[5.04412,61.16324],[5.25017,61.18366],[4.96412,61.26569],[5.20151,61.34272],[5.32065,61.25227],[5.32081,61.31745],[5.25636,61.34813],[5.63307,61.3618],[5.16432,61.35611],[5.05844,61.32347],[4.99879,61.3769],[5.06267,61.37458],[5.11166,61.43073],[4.94793,61.41641],[5.18051,61.47232],[5.51889,61.43012],[5.71266,61.48713],[5.80445,61.45116],[5.72242,61.49897],[5.29029,61.47964],[5.14031,61.55418],[5.35816,61.56102],[5.14649,61.5952],[5.42701,61.58893],[5.27003,61.61567],[5.34067,61.64313],[4.9441,61.66718],[5.00343,61.75113],[5.16765,61.72553],[5.12599,61.75218],[5.1902,61.76895],[5.06446,61.75971],[5.33758,61.84162],[5.29038,61.86213],[5.36256,61.90546],[5.74293,61.84846],[5.61939,61.81493],[5.94093,61.84504],[5.89926,61.73859],[5.99203,61.83539],[6.18116,61.76655],[6.05763,61.83539],[6.47381,61.80463],[6.58961,61.87084],[6.81861,61.86957],[6.67799,61.89688],[6.55551,61.87832],[6.47625,61.82534],[5.72926,61.88939],[5.96144,61.91669],[5.42701,61.93781],[5.15577,61.89606],[5.09864,61.91669],[5.12599,61.94404],[5.14031,61.97134],[5.40016,62.02001],[5.09181,62.12275],[5.07814,62.18423],[5.16969,62.2145],[5.57385,61.96325],[6.34021,61.97614],[6.67012,62.07818],[6.80509,61.97304],[7.34837,62.0465],[7.40516,62.00368],[7.39353,61.87814],[7.49239,61.76047],[7.86849,61.74502],[7.99158,61.57624],[8.30857,61.44976],[8.14191,61.42669],[8.20382,61.33729],[8.04497,61.22345],[8.18227,61.10795],[8.19374,61.02305],[8.03685,60.93272],[7.77341,60.88553],[7.67951,60.77965],[7.47792,60.70234],[6.98389,60.7489],[6.86127,60.79996],[6.86442,60.84502],[6.72272,60.86884],[6.82437,60.93253],[6.67818,60.97594],[6.55668,60.92303],[6.4909,60.95959],[6.26993,60.91778],[6.02664,61.03317],[5.86417,60.97548],[5.26891,60.95545],[5.1637,60.92398],[5.10478,60.83719],[5.04005,60.85615]]],[[[4.83286,61.69579],[4.87989,61.71198],[4.90349,61.67617],[4.90284,61.65249],[4.83286,61.69579]]],[[[5.22283,61.84846],[4.91627,61.78095],[4.87078,61.81338],[4.92677,61.82795],[4.80323,61.84162],[4.90952,61.89818],[5.22283,61.84846]]],[[[5.14869,61.98859],[5.03386,61.93505],[4.98512,62.03388],[5.12029,62.02578],[5.14869,61.98859]]]]}},{"type":"Feature","properties":{"id":"no-15","lat":62.60014,"lng":8.35069},"geometry":{"type":"MultiPolygon","coordinates":[[[[5.80445,62.26679],[5.70143,62.19107],[5.50213,62.22582],[5.60572,62.22582],[5.51808,62.24315],[5.59848,62.29702],[5.80445,62.26679]]],[[[5.94386,62.42805],[6.07879,62.34186],[5.81129,62.24567],[5.8366,62.40322],[5.94386,62.42805]]],[[[5.63014,62.34178],[5.69695,62.36465],[5.74147,62.36066],[5.69899,62.32136],[5.63014,62.34178]]],[[[5.54249,62.33173],[5.52361,62.3697],[5.59767,62.34479],[5.54249,62.33173]]],[[[6.32765,62.41071],[6.09067,62.40241],[6.02345,62.43744],[6.20167,62.44489],[6.32765,62.41071]]],[[[5.46244,61.99609],[5.59156,62.06818],[5.39096,62.12324],[5.43116,62.18618],[5.62208,62.16486],[5.74977,62.08861],[5.66725,62.1706],[5.90553,62.1909],[5.92058,62.1197],[5.84539,62.01972],[5.9546,62.13996],[6.05079,62.06818],[6.36671,62.06135],[6.08863,62.10912],[5.92058,62.20816],[6.06446,62.20474],[5.94777,62.24567],[6.3108,62.37206],[6.55047,62.1706],[6.53053,62.10912],[6.5809,62.16035],[6.40024,62.38719],[6.56471,62.35554],[6.5442,62.41079],[6.70875,62.45173],[6.87916,62.41791],[6.87379,62.35554],[6.98927,62.27302],[6.95582,62.10228],[7.02125,62.09077],[7.13999,62.1166],[7.18784,62.10228],[7.14967,62.13081],[6.97934,62.11286],[7.02809,62.26602],[7.41505,62.23945],[7.29347,62.29792],[6.95704,62.32534],[6.91407,62.36982],[6.9756,62.37665],[6.85157,62.4545],[6.75652,62.46479],[6.7907,62.47842],[6.24293,62.45112],[6.67457,62.49274],[6.26303,62.52749],[6.24936,62.57465],[6.53736,62.61563],[6.61256,62.56098],[6.62159,62.61957],[6.75611,62.65461],[6.91782,62.57465],[6.88746,62.64354],[7.0923,62.65095],[7.03777,62.62303],[7.12713,62.53368],[7.15748,62.62922],[7.54249,62.50361],[7.57293,62.54999],[7.77817,62.57465],[7.50522,62.56635],[7.41822,62.633],[7.52019,62.58466],[7.5232,62.67438],[7.83595,62.73212],[8.14747,62.69196],[8.07301,62.7801],[7.35971,62.69819],[7.68133,62.79438],[7.31251,62.74404],[6.97039,62.72557],[6.94899,62.7329],[7.00978,62.81485],[7.21583,62.81485],[6.88006,62.91108],[7.10825,62.99067],[7.27117,63.01411],[7.50115,62.91083],[7.66831,62.97931],[7.78045,62.9726],[7.69435,62.9121],[7.97389,62.97695],[8.08668,62.94522],[8.15431,62.81485],[8.54526,62.65717],[8.54396,62.72065],[8.18409,62.84772],[8.20965,62.91108],[8.14747,62.9514],[7.98308,63.02709],[7.87721,63.0104],[8.08668,63.10969],[8.16041,63.02643],[8.33009,62.97337],[8.32928,62.88068],[8.70297,62.82225],[8.4157,62.95881],[8.66879,62.97931],[8.52174,62.9892],[8.55372,63.02265],[8.37403,62.97309],[8.31951,62.99982],[8.47022,63.02025],[8.23854,63.02546],[8.16554,63.1153],[8.21974,63.13447],[8.28468,63.07551],[8.31951,63.10969],[8.23618,63.1507],[8.64096,63.10969],[8.56577,63.1612],[8.84995,63.20344],[8.80513,63.18893],[8.90104,63.12891],[9.20562,63.1408],[9.27905,63.21146],[9.4671,63.1919],[9.49005,63.05295],[9.58069,63.02024],[9.44974,62.95228],[9.4162,62.83317],[8.93638,62.73581],[9.24489,62.56448],[9.09064,62.38012],[8.15421,62.3455],[8.02182,62.20985],[7.74282,62.19982],[7.6114,62.09192],[6.80509,61.97304],[6.67012,62.07818],[6.34021,61.97614],[5.57385,61.96325],[5.46244,61.99609]]],[[[6.91407,62.69819],[6.67237,62.65599],[6.64666,62.67829],[6.70314,62.73578],[6.87892,62.74274],[6.91407,62.69819]]],[[[6.94215,62.84154],[6.88673,62.77509],[6.77036,62.81696],[6.79005,62.85765],[6.94215,62.84154]]],[[[7.6976,63.00947],[7.5088,62.94286],[7.36655,62.99673],[7.43556,63.02025],[7.40138,63.06126],[7.5652,63.02025],[7.58513,63.11652],[7.6478,63.10969],[7.6976,63.00947]]],[[[7.89991,63.06269],[7.77817,63.02025],[7.68133,63.05508],[7.73325,63.09553],[7.89991,63.06269]]],[[[8.16798,63.17792],[8.02019,63.13793],[7.9284,63.17792],[8.07781,63.24116],[8.16798,63.17792]]],[[[8.30681,63.16718],[8.17066,63.22016],[8.32537,63.17137],[8.30681,63.16718]]],[[[8.42319,63.16108],[8.26417,63.23261],[8.27784,63.27481],[8.39601,63.22687],[8.44597,63.28368],[8.57472,63.19961],[8.42319,63.16108]]],[[[8.6032,63.22427],[8.47641,63.29401],[8.76441,63.34927],[8.63893,63.39208],[8.67237,63.42121],[8.78639,63.42984],[8.91499,63.35556],[8.86899,63.21048],[8.6032,63.22427]]],[[[7.99399,63.31562],[7.77817,63.41132],[8.00408,63.47281],[8.18165,63.3902],[7.99399,63.31562]]]]}},{"type":"Feature","properties":{"id":"no-16","lat":62.97688,"lng":10.84129},"geometry":{"type":"MultiPolygon","coordinates":[[[[12.10436,62.92334],[12.15624,62.73369],[12.09123,62.58631],[12.27952,62.34421],[11.57307,62.3965],[11.12524,62.67982],[10.28566,62.70739],[10.09693,62.58579],[10.08701,62.42836],[9.78305,62.28581],[9.59727,62.27431],[9.09064,62.38012],[9.24489,62.56448],[8.93173,62.72956],[9.4162,62.83317],[9.44974,62.95228],[9.58069,63.02024],[9.49005,63.05295],[9.4671,63.1919],[9.27905,63.21146],[9.20562,63.1408],[8.85866,63.13806],[8.80513,63.18893],[8.94313,63.21206],[8.86899,63.21048],[8.91499,63.35556],[8.78639,63.42984],[8.88111,63.39765],[9.05299,63.45234],[9.14861,63.37592],[9.09343,63.29401],[9.4769,63.40388],[9.21803,63.37202],[9.18295,63.43452],[9.48439,63.48265],[9.25782,63.50007],[9.29217,63.45913],[9.21022,63.45942],[9.16196,63.50715],[9.36801,63.5633],[9.40333,63.51846],[9.49537,63.57689],[9.57325,63.541],[9.49057,63.58942],[9.69907,63.64448],[9.96062,63.42772],[9.83326,63.3288],[10.01344,63.36188],[10.2422,63.32632],[10.25904,63.26728],[10.26588,63.33194],[10.04086,63.4064],[10.30047,63.46654],[10.87588,63.44591],[10.93254,63.35427],[11.45907,63.33673],[11.64247,63.19687],[12.05983,63.20477],[12.22269,63.00148],[12.10436,62.92334]]],[[[9.17604,63.56778],[8.47706,63.43122],[8.27784,63.46654],[8.41334,63.55781],[8.72348,63.56778],[8.56471,63.61188],[8.95167,63.65742],[8.98829,63.59276],[9.17604,63.56778]]],[[[9.16212,63.63386],[9.07634,63.61298],[9.01401,63.62669],[9.05787,63.66108],[9.16212,63.63386]]],[[[8.74342,63.68793],[8.27174,63.68505],[8.74342,63.7744],[8.67506,63.76756],[8.73715,63.80915],[8.80543,63.81538],[8.82553,63.73408],[8.74342,63.68793]]],[[[10.19792,63.54228],[9.91822,63.51472],[9.90211,63.58942],[9.79225,63.66454],[10.10141,63.76756],[9.54412,63.6656],[9.55274,63.72602],[9.77809,63.76756],[9.54591,63.7744],[9.87428,63.86319],[9.79225,63.88369],[10.19703,63.9383],[9.94313,63.9184],[10.1281,63.98672],[9.93629,63.95942],[10.01824,64.0351],[10.01368,64.1188],[10.19207,64.10147],[10.10768,64.11709],[10.19703,64.15803],[10.16969,64.19896],[10.37452,64.18537],[10.24537,64.23379],[10.49122,64.29523],[10.47071,64.35663],[10.55942,64.32933],[10.50473,64.37031],[10.64894,64.35663],[10.46388,64.4051],[10.49733,64.4291],[10.96406,64.2937],[10.83276,64.19665],[10.81183,64.14355],[10.91688,64.10642],[10.79834,63.9684],[10.58109,63.85822],[10.48223,63.73771],[10.20137,63.63493],[10.16334,63.58785],[10.19792,63.54228]]],[[[9.92848,64.00316],[9.85385,64.00894],[9.84376,64.03319],[9.90358,64.04548],[9.92848,64.00316]]]]}},{"type":"Feature","properties":{"id":"no-17","lat":64.1654,"lng":12.48564},"geometry":{"type":"MultiPolygon","coordinates":[[[[14.33207,65.11396],[13.64276,64.58402],[14.11555,64.44124],[14.16051,64.18725],[13.98233,64.0195],[13.23411,64.09087],[12.75527,63.99139],[12.17029,63.59813],[12.2198,63.47427],[11.99243,63.2889],[12.05983,63.20477],[11.64247,63.19687],[11.45907,63.33673],[10.93254,63.35427],[10.87588,63.44591],[10.91635,63.46654],[10.7588,63.51748],[10.92262,63.55476],[10.85694,63.56932],[10.92262,63.60248],[10.65642,63.54853],[10.90545,63.68447],[11.45769,63.78998],[11.41521,63.85008],[11.09653,63.8581],[11.22332,63.94546],[11.48683,64.00666],[11.24195,64.05158],[11.36207,64.11709],[10.57374,63.80915],[10.90024,63.89472],[11.056,63.86127],[10.91,63.73102],[10.40162,63.57636],[10.19792,63.54228],[10.16334,63.58785],[10.48223,63.73771],[10.91688,64.10642],[10.81183,64.14355],[10.96406,64.2937],[10.78966,64.33385],[10.59929,64.4488],[10.83497,64.36913],[10.79664,64.43232],[10.65642,64.45222],[10.84116,64.46589],[10.82472,64.51138],[10.95672,64.48701],[10.91635,64.58259],[10.9712,64.60261],[11.16725,64.48916],[11.16277,64.44599],[11.34156,64.43171],[11.24741,64.32559],[11.40984,64.45222],[11.65626,64.48017],[11.43775,64.46589],[11.53956,64.52115],[11.50603,64.54841],[11.7798,64.59687],[11.63575,64.58259],[11.61118,64.62861],[11.51678,64.57294],[11.39617,64.70673],[11.84181,64.79487],[11.64324,64.82274],[11.78728,64.83584],[11.64943,64.84321],[11.74545,64.88418],[12.06373,64.95995],[12.22486,64.93944],[12.05348,64.97297],[11.91163,64.94941],[11.40333,64.75971],[11.23854,64.74022],[11.4297,64.8159],[11.2527,64.83784],[11.52377,64.86253],[11.69711,64.91218],[11.24537,64.85757],[11.40138,64.92227],[11.55421,64.89907],[11.59474,64.9252],[11.47739,64.9326],[11.82016,64.98119],[11.81422,65.01801],[11.97853,65.06883],[12.29246,64.97221],[12.75925,64.94983],[13.14341,65.11907],[14.33207,65.11396]]],[[[11.45143,64.51496],[11.41676,64.47272],[11.18019,64.50747],[11.12867,64.55585],[11.22486,64.56952],[11.19174,64.59561],[11.03736,64.61445],[11.08578,64.65205],[11.45143,64.51496]]],[[[11.48024,64.55606],[11.35133,64.5644],[11.36134,64.62775],[11.46551,64.58784],[11.48024,64.55606]]],[[[11.31666,64.68976],[11.31227,64.59968],[11.16798,64.65973],[11.31666,64.68976]]],[[[11.09108,64.9016],[10.82691,64.85008],[11.10133,64.95311],[11.26637,64.8937],[11.0809,64.83584],[11.04607,64.85757],[11.09108,64.9016]]],[[[10.7422,64.85985],[10.78387,64.92402],[11.115,64.97297],[10.81691,64.86856],[10.7422,64.85985]]],[[[11.76531,65.10212],[11.65724,65.04243],[11.51881,65.05459],[11.58033,65.10969],[11.76531,65.10212]]]]}},{"type":"Feature","properties":{"id":"no-18","lat":66.78602,"lng":14.82937},"geometry":{"type":"MultiPolygon","coordinates":[[[[12.06373,65.0456],[12.13706,65.0467],[12.16586,65.02847],[12.17634,65.01111],[12.06373,65.0456]]],[[[12.30909,65.11058],[12.1565,65.05549],[11.97902,65.08283],[12.19093,65.21381],[12.27166,65.16462],[12.22486,65.12377],[12.30909,65.11058]]],[[[12.49187,65.38752],[12.21111,65.32465],[12.24773,65.28046],[12.05348,65.21996],[12.12224,65.35733],[12.21119,65.37763],[12.16082,65.39582],[12.32846,65.46703],[12.19744,65.47386],[12.27426,65.58173],[12.49187,65.38752]]],[[[11.99789,65.70014],[11.91684,65.58999],[11.75929,65.61791],[11.89096,65.7062],[11.99789,65.70014]]],[[[12.89015,66.00145],[12.46583,65.87328],[12.36883,65.89159],[12.60133,66.02167],[12.65008,66.01508],[12.61524,65.97419],[12.89015,66.00145]]],[[[12.2942,66.01508],[12.4297,66.0871],[12.34213,66.08344],[12.57423,66.15851],[12.43092,66.16596],[12.55144,66.22036],[12.61183,66.15681],[12.54705,66.13117],[12.65691,66.10391],[12.2942,66.01508]]],[[[12.87289,66.28824],[12.82496,66.21589],[12.70021,66.24323],[12.79998,66.31196],[12.87289,66.28824]]],[[[12.93849,66.39444],[12.89129,66.40933],[12.89894,66.35505],[12.80079,66.38471],[12.85027,66.40961],[12.81723,66.44257],[12.9607,66.45946],[12.93849,66.39444]]],[[[14.27369,67.16584],[14.15821,67.00141],[14.10011,67.06167],[13.99301,67.08393],[14.27369,67.16584]]],[[[13.1434,68.07762],[13.0503,68.02456],[13.11085,68.02827],[13.12387,67.944],[12.97682,67.96947],[13.04664,67.91547],[13.01368,67.8791],[12.78712,67.81013],[13.0547,68.10497],[13.1434,68.07762]]],[[[13.42807,68.13028],[13.36622,68.01276],[13.16627,68.01537],[13.23927,68.09211],[13.32838,68.06342],[13.29566,68.15229],[13.42807,68.13028]]],[[[14.15887,68.25528],[13.7741,68.15961],[13.84596,68.12055],[13.72267,68.12303],[13.69899,68.07026],[13.5949,68.12055],[13.52719,68.0434],[13.45672,68.07099],[13.58912,68.15961],[13.47926,68.13227],[13.5276,68.17329],[13.47926,68.18692],[13.6159,68.22663],[13.50001,68.24226],[13.63673,68.29434],[13.79119,68.26805],[13.98308,68.33731],[13.96746,68.2696],[14.15887,68.25528]]],[[[14.26824,68.28262],[14.14584,68.29564],[14.04037,68.31257],[14.14715,68.3347],[14.26824,68.28262]]],[[[-7.93932,71.13642],[-8.00597,71.03254],[-8.61974,70.95807],[-8.98656,70.81078],[-9.07974,70.81244],[-9.11742,70.8749],[-8.51684,71.01447],[-8.32567,71.14761],[-7.98355,71.18016],[-7.93932,71.13642]]],[[[18.13567,68.39572],[18.18858,68.19873],[17.921,67.97285],[17.32145,68.1053],[16.78288,67.89699],[16.48295,67.55784],[16.18075,67.4964],[16.12711,67.42276],[16.43789,67.20032],[16.41557,67.0527],[16.03884,66.88755],[15.66946,66.59942],[15.42627,66.49121],[15.48188,66.27487],[15.05338,66.15328],[14.54054,66.12545],[14.64885,65.80239],[14.56069,65.70105],[14.51429,65.31808],[14.38024,65.24028],[14.33207,65.11396],[13.14341,65.11907],[12.75925,64.94983],[12.20167,64.99925],[12.19313,65.05048],[12.63624,65.13129],[12.93995,65.32783],[12.50278,65.14492],[12.36883,65.15176],[12.4992,65.20014],[12.35515,65.22687],[12.71209,65.25414],[12.24529,65.23363],[12.4992,65.37084],[12.69158,65.32982],[12.54705,65.364],[12.47869,65.44652],[12.71209,65.37084],[12.62941,65.43232],[12.78028,65.45962],[12.60841,65.45962],[12.65691,65.4807],[12.56463,65.51366],[12.61573,65.52851],[12.57423,65.58999],[12.51368,65.51215],[12.46502,65.52167],[12.53387,65.58316],[12.43832,65.52851],[12.41717,65.59675],[12.35515,65.60419],[12.49537,65.73334],[12.63624,65.68618],[12.60841,65.65135],[12.78712,65.63837],[12.55779,65.75373],[12.71754,65.78913],[12.61166,65.83466],[12.6823,65.92666],[12.84848,65.9667],[13.17604,65.85578],[13.12289,65.9431],[12.92433,65.99404],[13.04037,66.08344],[12.68718,66.07461],[13.52719,66.24014],[13.57651,66.21894],[13.49285,66.18578],[13.58229,66.18578],[13.5359,66.11054],[13.82162,66.14704],[13.60955,66.18578],[13.69646,66.23871],[13.80812,66.2342],[13.76027,66.19945],[13.98618,66.24103],[14.13461,66.31639],[13.6198,66.24091],[13.57545,66.28946],[13.04037,66.17963],[13.1631,66.2591],[13.53443,66.30931],[13.31088,66.3745],[13.33766,66.32783],[13.22657,66.29735],[13.03728,66.31997],[13.00001,66.35712],[13.14096,66.38613],[13.15699,66.43659],[13.10255,66.45392],[13.16383,66.46699],[12.97202,66.5222],[13.10255,66.54271],[13.20899,66.51411],[13.22535,66.45392],[13.36207,66.45551],[13.39723,66.46699],[13.26686,66.46699],[13.25953,66.5222],[13.67107,66.51537],[13.45875,66.56379],[13.72625,66.6048],[13.23902,66.54841],[13.20485,66.55634],[13.25001,66.61384],[13.40349,66.62523],[13.17066,66.65192],[13.19117,66.66657],[13.54737,66.63825],[13.22535,66.71402],[13.69313,66.69131],[13.89015,66.73509],[13.57545,66.71402],[13.55877,66.75348],[13.75294,66.76179],[13.50709,66.78229],[13.99301,66.78974],[13.68832,66.83503],[13.54363,66.92186],[13.97267,66.99457],[13.89015,66.95356],[13.93458,66.92219],[13.95899,66.92695],[14.04379,66.98094],[14.01433,67.02253],[14.05991,67.06086],[14.15154,66.97163],[14.27215,67.06],[14.56821,67.01813],[14.58131,67.05842],[14.26743,67.08393],[14.36305,67.15965],[14.45191,67.16584],[14.42286,67.10944],[14.45924,67.15282],[14.75034,67.12393],[14.51393,67.18012],[14.60377,67.20425],[14.97934,67.2143],[14.89064,67.15282],[14.99391,67.09907],[14.93165,67.15282],[15.09457,67.21336],[15.38331,67.15672],[15.37672,67.0976],[15.50147,67.07026],[15.43873,67.0976],[15.48032,67.15282],[15.37672,67.20063],[15.74041,67.17329],[15.70631,67.2143],[15.06251,67.24775],[15.16505,67.31049],[14.67384,67.2167],[14.61695,67.2143],[14.69947,67.2757],[14.3283,67.2416],[14.62306,67.42064],[14.79998,67.42182],[14.82472,67.37832],[15.049,67.44701],[14.82244,67.44701],[14.72682,67.48867],[15.05885,67.57734],[15.15887,67.53579],[15.00831,67.56367],[15.05519,67.51594],[15.01043,67.48701],[14.82928,67.475],[15.01678,67.46874],[15.19288,67.51594],[15.13771,67.42036],[15.24098,67.47919],[15.42905,67.48298],[15.65846,67.2757],[15.70004,67.30305],[15.51441,67.4265],[15.58277,67.46133],[15.52866,67.46747],[15.89796,67.55687],[15.23927,67.52924],[15.27565,67.59357],[15.46608,67.57734],[15.40659,67.63129],[15.17856,67.61835],[15.33693,67.6872],[15.27491,67.69404],[15.30112,67.7202],[15.54176,67.67357],[15.65846,67.68041],[15.40455,67.73505],[15.59693,67.74885],[15.79965,67.67902],[15.8366,67.69404],[15.63054,67.76236],[15.69264,67.79645],[15.41139,67.79645],[15.43279,67.86074],[15.40455,67.82441],[15.36948,67.86518],[15.38404,67.8039],[15.18198,67.71455],[14.83611,67.64252],[14.72682,67.65937],[14.87696,67.70026],[14.79298,67.72883],[15.1172,67.74189],[14.99366,67.76923],[15.03468,67.78286],[14.82928,67.76236],[14.77296,67.81598],[15.10287,67.85114],[14.84962,67.84492],[14.99871,67.89545],[15.23325,67.87222],[15.19907,67.83124],[15.48316,67.91767],[15.54347,67.91698],[15.50318,67.87543],[15.53256,67.85236],[15.60377,67.93057],[15.75229,67.95209],[15.86012,67.89964],[15.96876,68.00861],[16.06316,68.01618],[15.85027,68.03669],[15.87745,68.07087],[15.78924,68.03433],[15.60239,68.03827],[15.54542,68.07469],[15.3982,67.99494],[15.28175,68.03669],[15.64373,68.16893],[15.73748,68.10277],[15.61744,68.0913],[15.62843,68.05305],[15.84449,68.09626],[15.9253,68.13227],[15.87078,68.18692],[15.94207,68.18594],[15.97967,68.25007],[16.10402,68.16022],[16.042,68.02985],[16.19288,67.98151],[16.23683,67.88361],[16.48471,67.7978],[16.45346,67.85114],[16.26856,67.88931],[16.2754,67.97529],[16.20704,68.00259],[16.46656,67.89956],[16.33351,68.00243],[16.45151,67.96279],[16.54225,67.96101],[16.46339,67.97834],[16.50074,68.01618],[16.36476,68.02985],[16.38917,68.05927],[16.68897,68.07103],[16.50074,68.1186],[16.28907,68.0913],[16.24122,68.13227],[16.4734,68.15278],[16.41261,68.18692],[16.5901,68.16706],[16.45314,68.22846],[16.17205,68.20368],[16.35564,68.239],[16.10336,68.28315],[16.28175,68.30744],[16.80299,68.13227],[16.56739,68.27631],[16.22006,68.35139],[16.69459,68.40546],[16.86988,68.37255],[16.82407,68.32404],[17.12729,68.37287],[17.33058,68.2558],[17.334,68.16706],[17.41993,68.23591],[17.22299,68.33959],[17.24789,68.40599],[17.57691,68.35883],[17.36459,68.41348],[17.87184,68.39301],[17.46762,68.44758],[17.54656,68.5301],[17.04664,68.43415],[17.00164,68.44758],[17.09197,68.48078],[16.98797,68.50967],[16.84864,68.44872],[16.511,68.44131],[16.46461,68.51],[16.542,68.54377],[16.66925,68.50734],[16.88463,68.56654],[18.03666,68.61961],[18.18929,68.53843],[18.13567,68.39572]]],[[[14.4192,67.42341],[14.25611,67.37385],[14.22674,67.37735],[14.4192,67.42341]]],[[[15.30397,67.94505],[14.98024,67.91462],[14.96119,67.9416],[15.10572,68.00072],[15.1399,67.95844],[15.30397,67.94505]]],[[[15.18483,67.96678],[15.23032,68.03669],[15.28663,67.977],[15.18483,67.96678]]],[[[15.93295,68.00405],[15.72877,68.01195],[15.48243,68.00263],[15.85971,68.02749],[15.93295,68.00405]]],[[[14.88673,68.30085],[14.95314,68.27741],[14.87241,68.22272],[14.79558,68.24616],[14.88673,68.30085]]],[[[15.17237,68.45441],[14.73553,68.25495],[14.77459,68.31786],[14.71876,68.33763],[14.61492,68.22455],[14.1985,68.15278],[14.1985,68.20116],[14.35621,68.24213],[14.25318,68.24958],[14.3283,68.26264],[14.3034,68.312],[14.49562,68.30606],[14.38356,68.3725],[14.58961,68.36506],[14.54176,68.40599],[14.65349,68.42853],[14.70753,68.37792],[14.76092,68.4339],[14.82244,68.40973],[14.78354,68.35415],[14.89747,68.4339],[15.17237,68.45441]]],[[[16.3921,68.45596],[16.41407,68.4184],[16.0949,68.39753],[16.22169,68.52375],[16.35873,68.53486],[16.46656,68.46869],[16.3921,68.45596]]],[[[14.60418,68.55866],[14.66928,68.58731],[15.00001,68.55476],[14.71746,68.49095],[14.60418,68.55866]]],[[[16.50603,68.56818],[16.10597,68.53852],[15.90398,68.36986],[15.87078,68.49543],[15.84929,68.43476],[15.77443,68.43085],[15.81617,68.39301],[15.74789,68.42536],[15.62436,68.30048],[15.3226,68.35139],[15.61134,68.47492],[15.54176,68.50967],[15.4393,68.4184],[15.21176,68.36595],[15.23325,68.33771],[15.08578,68.27123],[14.98683,68.26948],[15.19256,68.43488],[15.35678,68.46125],[15.24073,68.47492],[15.33693,68.48859],[15.17856,68.52334],[15.2173,68.55687],[15.63054,68.61213],[15.49773,68.64248],[15.44304,68.72358],[15.71363,68.7014],[15.47592,68.74689],[15.45232,68.81127],[15.63795,68.82494],[15.55323,68.87226],[15.67661,68.96271],[15.90785,68.9575],[15.84702,68.8357],[15.72176,68.75136],[15.78201,68.68762],[15.67959,68.61726],[15.64326,68.46089],[15.96169,68.60222],[16.24581,68.62863],[16.50603,68.56818]]],[[[14.39454,68.70161],[14.54176,68.73558],[14.43816,68.75605],[14.52394,68.80707],[14.57228,68.74632],[14.62379,68.73558],[14.62843,68.8299],[14.6858,68.82494],[14.68653,68.75747],[14.8436,68.79629],[14.90707,68.76024],[14.95265,68.81753],[14.90431,68.84544],[14.95265,68.86591],[15.00603,68.79385],[15.04982,68.85277],[15.15887,68.81753],[15.00929,68.96332],[15.12436,69.01533],[15.24073,68.91376],[15.18539,68.88581],[15.29526,68.90693],[15.24073,68.82494],[15.38404,68.85228],[15.27491,68.76288],[15.39772,68.694],[15.06267,68.57852],[14.80641,68.61595],[15.16505,68.7014],[15.15138,68.75605],[15.02605,68.77119],[15.0687,68.7486],[15.01954,68.71214],[14.82781,68.67349],[14.81512,68.71475],[14.75034,68.66747],[14.67897,68.70767],[14.61695,68.62572],[14.49195,68.60668],[14.41725,68.61953],[14.39454,68.70161]]],[[[14.85873,68.88337],[14.87338,68.92915],[14.99659,68.9016],[14.95834,68.87531],[14.85873,68.88337]]],[[[15.43149,68.88422],[15.56967,69.10554],[15.79135,69.16128],[15.97511,69.28718],[16.14991,69.29084],[16.07618,69.15396],[15.85776,69.03384],[15.54908,69.01626],[15.52866,68.91376],[15.43149,68.88422]]]]}},{"type":"Feature","properties":{"id":"no-19","lat":69.28924,"lng":20.66047},"geometry":{"type":"MultiPolygon","coordinates":[[[[15.90785,68.9575],[15.87078,68.79023],[15.76149,68.73558],[15.95558,68.79165],[15.98365,68.74555],[15.77443,68.63255],[15.74041,68.5301],[15.85857,68.63418],[16.00514,68.67756],[16.08302,68.63874],[16.03321,68.71137],[16.21323,68.73558],[16.09718,68.8312],[16.28403,68.84032],[16.25465,68.90323],[16.55592,68.82494],[16.49448,68.79023],[16.55592,68.77033],[16.55893,68.65522],[16.4961,68.57933],[16.24581,68.62863],[15.93405,68.59643],[15.64326,68.46089],[15.67959,68.61726],[15.78201,68.68762],[15.72176,68.75136],[15.84702,68.8357],[15.90785,68.9575]]],[[[17.14568,68.77033],[16.84099,68.72541],[16.81666,68.73558],[17.01564,68.86001],[17.14568,68.77033]]],[[[17.20533,68.91327],[17.44044,68.86591],[17.22364,68.79304],[17.08351,68.91376],[17.25587,68.85541],[17.20533,68.91327]]],[[[16.58717,68.89745],[16.43474,68.8913],[16.26173,68.96833],[16.56617,68.96833],[16.58717,68.89745]]],[[[17.54591,69.07461],[17.40113,68.98932],[17.34409,69.00324],[17.41969,69.07917],[17.54591,69.07461]]],[[[18.09864,69.37613],[17.90593,69.31843],[17.96746,69.26313],[17.87867,69.24266],[18.00896,69.20112],[17.95826,69.18049],[17.48829,69.15396],[17.5298,69.20112],[17.47218,69.20014],[17.1294,69.01154],[17.042,69.01679],[17.10987,69.0847],[16.77312,69.0882],[17.17237,69.20112],[16.89861,69.19489],[16.87867,69.22215],[17.08676,69.22895],[17.14568,69.25633],[16.90602,69.29792],[17.13185,69.31098],[17.042,69.34512],[17.08465,69.36176],[16.87867,69.35936],[16.92652,69.39354],[17.39943,69.3662],[17.28224,69.41401],[17.49578,69.42829],[17.24293,69.45474],[17.18653,69.50275],[17.3921,69.48225],[17.30323,69.52326],[17.34327,69.53754],[17.64527,69.46182],[17.46762,69.59955],[17.65789,69.50849],[17.69361,69.52017],[17.65895,69.59955],[17.7531,69.54059],[17.85914,69.58674],[17.89283,69.53685],[17.83082,69.44815],[17.97267,69.52001],[18.05055,69.49592],[17.94068,69.42829],[18.07081,69.43793],[18.09864,69.37613]]],[[[19.05738,69.76341],[18.80348,69.68154],[18.7693,69.64672],[18.83644,69.60431],[18.73194,69.56533],[18.19402,69.53071],[17.99537,69.59211],[18.02947,69.63312],[18.29021,69.59211],[18.40008,69.64057],[18.29103,69.63898],[18.21437,69.71418],[18.63282,69.70197],[18.35182,69.72993],[18.32691,69.76545],[18.38234,69.79759],[18.50245,69.74982],[18.65317,69.80439],[18.66326,69.71296],[18.76246,69.68773],[18.78981,69.78388],[18.67888,69.88605],[18.98601,69.83381],[19.05738,69.76341]]],[[[19.68483,70.00678],[19.54021,69.95161],[19.37477,69.82331],[19.12159,69.78783],[18.72885,69.94782],[18.88364,69.94538],[18.93377,69.96955],[18.8449,70.01504],[19.0739,70.01626],[19.1194,70.03034],[19.06422,70.0788],[19.20818,70.09858],[19.32488,70.0788],[19.29233,70.03119],[19.39259,69.99189],[19.53565,70.05732],[19.58229,69.99323],[19.68483,70.00678]]],[[[18.65724,70.04833],[18.72136,70.11603],[18.80649,70.05931],[18.88982,70.10615],[18.9756,70.07363],[18.70167,69.98469],[18.65724,70.04833]]],[[[19.33497,70.12792],[19.40797,70.16205],[19.57325,70.11172],[19.49057,70.09394],[19.33497,70.12792]]],[[[19.22967,70.15986],[19.14064,70.11079],[18.99586,70.15209],[19.09864,70.1579],[19.13803,70.20173],[19.09148,70.23794],[19.19728,70.25702],[19.22967,70.15986]]],[[[20.34876,68.89311],[20.35217,68.78567],[20.23663,68.65907],[19.96222,68.54119],[20.24593,68.47737],[19.97122,68.35128],[19.03815,68.50564],[18.64458,68.50125],[18.43622,68.57385],[18.18929,68.53843],[18.03666,68.61961],[16.88463,68.56654],[16.66925,68.50734],[16.58796,68.51685],[16.63209,68.54629],[16.56275,68.59154],[16.99293,68.70795],[17.16774,68.63402],[17.1006,68.69062],[17.25017,68.72394],[17.67937,68.66047],[17.23439,68.75605],[17.46095,68.81538],[17.78297,68.7486],[17.46762,68.8312],[17.82594,68.89374],[17.72096,68.93423],[17.42612,68.89948],[17.65886,69.11689],[18.15235,69.15396],[18.07106,69.17756],[18.10524,69.22907],[17.98854,69.23526],[18.0031,69.28571],[18.13868,69.35252],[18.15504,69.45759],[18.26336,69.48811],[18.38234,69.43134],[18.36476,69.39151],[18.50294,69.37006],[18.50245,69.23526],[18.56479,69.36465],[18.69166,69.2635],[18.67368,69.30415],[18.73504,69.32416],[19.01295,69.28705],[18.4546,69.45433],[18.47429,69.51642],[18.85271,69.55231],[18.84449,69.50275],[19.01441,69.39704],[19.3794,69.32184],[19.1775,69.25348],[19.50929,69.22907],[19.35011,69.3791],[19.1194,69.38605],[19.00131,69.46434],[19.0691,69.53327],[19.26271,69.52326],[19.22926,69.56794],[18.99448,69.53962],[18.94435,69.6153],[19.24903,69.77709],[19.78419,69.80439],[19.67433,69.68154],[19.72739,69.64216],[19.62989,69.52045],[19.65016,69.45962],[19.53028,69.40034],[19.68849,69.44473],[19.74318,69.61262],[20.06023,69.57909],[20.11256,69.58535],[19.85776,69.62726],[19.82447,69.7119],[20.00611,69.84284],[19.96852,69.76341],[20.00701,69.7685],[20.16774,69.94221],[20.2024,69.85895],[20.27036,69.96784],[20.41725,69.89037],[20.31861,69.68154],[20.37647,69.58918],[20.27418,69.56061],[20.27849,69.48517],[20.16879,69.3937],[19.98219,69.33894],[19.94801,69.26313],[20.27703,69.39228],[20.48243,69.57787],[20.85304,69.49592],[20.49236,69.62726],[20.54176,69.70539],[20.48243,69.76341],[20.78517,69.80174],[20.82496,69.84154],[20.79152,69.87954],[21.09254,69.94839],[20.89389,69.85285],[21.02052,69.78815],[20.99635,69.8249],[21.17042,69.87564],[21.12672,69.81122],[21.17921,69.81949],[21.20924,69.90746],[21.32594,69.90746],[21.20924,69.93476],[21.28989,70.02106],[21.55812,69.98941],[21.6089,69.91193],[22.05152,69.74982],[22.00017,69.74038],[22.09815,69.74982],[21.91554,69.83857],[22.01808,69.8454],[21.93002,69.87934],[21.91359,69.94526],[22.0241,69.9855],[22.05226,69.93842],[22.05152,70.01675],[22.11362,70.03034],[21.79835,70.03718],[22.09938,70.12035],[21.71949,70.06061],[21.48227,70.09858],[21.43653,70.1496],[21.49659,70.17495],[21.31227,70.16755],[21.23388,70.22429],[21.61711,70.18724],[21.87451,70.10244],[22.11222,70.15838],[22.32141,69.9516],[22.55726,69.91733],[22.58429,69.8407],[22.52641,69.80003],[22.62868,69.70588],[22.93341,69.63994],[22.77482,69.51524],[22.33552,69.46827],[22.35867,69.39385],[22.59111,69.23055],[22.52408,69.10992],[21.9461,69.0657],[21.66289,69.26322],[21.31356,69.29143],[21.06303,69.21495],[21.03358,69.18121],[21.15636,69.08762],[21.07151,69.03667],[20.7444,69.10436],[20.62317,69.03636],[20.10227,69.02214],[20.34876,68.89311]]],[[[20.72071,69.8371],[20.60621,69.79377],[20.52263,69.83942],[20.56275,69.89598],[20.71315,69.90961],[20.72071,69.8371]]],[[[19.83424,69.99482],[19.67709,69.85521],[19.43426,69.84052],[19.54689,69.92548],[19.83424,69.99482]]],[[[21.71909,69.95319],[21.69581,69.92792],[21.66798,69.94839],[21.71909,69.95319]]],[[[21.09938,70.01048],[20.80519,69.94839],[20.76051,69.99966],[20.82439,70.04296],[20.95883,70.00308],[21.09938,70.01048]]],[[[19.99586,70.01675],[19.91635,70.01146],[19.90016,70.01675],[19.99586,70.01675]]],[[[20.95533,70.02411],[21.04103,70.06135],[21.04664,70.03913],[20.95533,70.02411]]],[[[20.79884,70.09333],[20.8318,70.15095],[20.91481,70.1079],[20.86166,70.069],[20.79884,70.09333]]],[[[20.7942,70.06782],[20.58815,70.04597],[20.57691,70.10957],[20.50668,70.05834],[20.3899,70.10269],[20.43775,70.18667],[20.7339,70.23672],[20.82439,70.20987],[20.77101,70.11555],[20.7942,70.06782]]],[[[20.15406,70.12035],[19.77613,70.06733],[19.69215,70.18863],[19.53712,70.25007],[19.67775,70.29043],[19.8156,70.16975],[19.89137,70.21385],[20.15406,70.12035]]]]}},{"type":"Feature","properties":{"id":"no-20","lat":69.84305,"lng":24.48598},"geometry":{"type":"MultiPolygon","coordinates":[[[[30.08766,69.81708],[29.79575,69.75601],[29.71323,69.76341],[29.87721,69.91425],[30.08766,69.81708]]],[[[28.82695,69.10684],[28.86478,69.2166],[29.34454,69.46439],[29.14714,69.66391],[28.40455,69.80225],[28.38119,69.8562],[28.16736,69.89434],[27.89729,70.07068],[27.66506,70.06828],[27.10034,69.90175],[26.50069,69.91832],[26.19828,69.71544],[26.00511,69.68934],[25.9617,69.65255],[26.00397,69.58718],[25.88667,69.52087],[25.8414,69.41778],[25.87737,69.37081],[25.73722,69.2182],[25.79582,68.99331],[25.62777,68.87414],[25.43393,68.88386],[25.20128,68.81265],[25.13245,68.64765],[24.90518,68.55695],[24.66343,68.66609],[23.92901,68.81621],[23.78721,68.79978],[23.73481,68.71545],[23.19758,68.61804],[23.07149,68.68087],[22.40921,68.71291],[22.37138,68.82262],[21.9461,69.0657],[22.54672,69.11873],[22.59111,69.23055],[22.35867,69.39385],[22.33552,69.46827],[22.77482,69.51524],[22.93341,69.63994],[22.62868,69.70588],[22.52641,69.80003],[22.58429,69.8407],[22.55726,69.91733],[22.32141,69.9516],[22.11222,70.15838],[21.87451,70.10244],[21.61711,70.18724],[21.23388,70.22429],[21.4393,70.26948],[21.48976,70.20848],[21.57146,70.31892],[21.87403,70.14704],[21.89454,70.20848],[21.80568,70.25723],[22.0101,70.32461],[21.9839,70.28425],[22.09522,70.30781],[22.1172,70.23347],[22.14088,70.28425],[22.30584,70.2873],[22.25758,70.22956],[22.29176,70.16755],[22.23707,70.1402],[22.27467,70.13548],[22.55934,70.12661],[22.32594,70.16755],[22.40065,70.25829],[22.96705,70.20746],[22.83668,70.12035],[22.43458,70.08894],[22.28492,70.04401],[22.8672,70.10602],[23.01856,70.14704],[23.02003,70.03807],[23.12843,70.03376],[23.14894,69.97574],[23.09441,69.95527],[23.31414,69.99653],[23.32984,69.94839],[23.53932,70.02411],[23.17555,70.09243],[23.37924,70.12324],[23.29908,70.16755],[23.42205,70.19546],[23.24391,70.21589],[23.53191,70.24384],[23.31284,70.25699],[23.61443,70.30467],[23.46363,70.31834],[23.51319,70.36555],[23.91798,70.50943],[24.35027,70.45624],[24.10271,70.54141],[24.35239,70.69098],[24.72348,70.62104],[24.65593,70.70938],[24.24513,70.78449],[24.26938,70.83845],[24.39576,70.86689],[24.63543,70.77977],[24.61329,70.85936],[24.72486,70.87324],[24.60816,70.89436],[24.57399,70.93529],[24.65593,70.94961],[24.60865,70.97053],[24.78289,70.96597],[24.8602,70.92837],[24.82049,70.90803],[24.98487,70.91425],[24.9712,70.96259],[25.03346,70.97134],[25.05323,70.92788],[24.91603,70.87324],[25.06739,70.85277],[25.15358,70.9195],[25.24187,70.86237],[25.24562,70.79133],[25.39226,70.88443],[25.365,70.97614],[25.53598,70.92292],[25.44166,70.8415],[25.66261,70.89533],[25.91871,70.87287],[25.07358,70.50332],[25.28712,70.51073],[25.24252,70.48664],[25.05991,70.48965],[25.28712,70.45612],[25.2566,70.38638],[25.08106,70.35932],[25.20875,70.31672],[24.97983,70.22944],[24.94679,70.15762],[25.00424,70.06403],[25.01222,70.13398],[25.09474,70.15388],[25.13575,70.12661],[25.08106,70.10602],[25.15943,70.08088],[25.54038,70.29784],[25.44109,70.34223],[25.99057,70.60651],[26.07081,70.71247],[26.61362,70.94912],[26.72535,70.92788],[26.66383,70.84931],[26.74578,70.83226],[26.69117,70.73603],[26.34164,70.64794],[26.65699,70.64053],[26.50587,70.36286],[26.64959,70.37979],[26.63445,70.41303],[26.81227,70.47993],[27.10206,70.46979],[26.97291,70.56538],[27.0809,70.61319],[27.26661,70.58527],[27.09986,70.6411],[27.15675,70.68146],[27.0809,70.70258],[27.11061,70.72871],[27.32944,70.74331],[27.28045,70.77473],[27.32399,70.82363],[27.62965,70.805],[27.48015,70.82543],[27.53403,70.84593],[27.39129,70.87637],[27.41049,70.91425],[27.19093,70.89496],[27.1338,70.95002],[27.34897,70.94213],[27.23243,70.99677],[27.25318,71.02631],[27.55421,70.95527],[27.58253,71.01728],[27.52459,71.07441],[27.65016,71.1271],[27.72169,71.05972],[28.08106,71.04096],[28.19142,71.08613],[28.261,71.05573],[28.20509,70.9831],[28.54884,70.9726],[28.48316,70.88947],[28.36948,70.88691],[28.44516,70.8664],[28.36329,70.82543],[28.22543,70.83226],[28.30128,70.81244],[28.26588,70.79499],[27.76002,70.79133],[27.8283,70.77082],[27.77369,70.74356],[28.13054,70.73603],[27.65016,70.60635],[28.30128,70.70258],[28.23316,70.61518],[27.84938,70.48286],[27.88356,70.42821],[27.945,70.48916],[28.18523,70.50332],[28.04086,70.44477],[28.12713,70.44184],[28.3353,70.51765],[28.16065,70.3828],[28.16725,70.13548],[28.01384,70.07136],[28.18393,70.11555],[28.23268,70.39911],[28.39039,70.49335],[28.50734,70.44872],[28.55502,70.51073],[28.4017,70.55899],[28.51686,70.67817],[28.62029,70.67829],[28.52622,70.72175],[28.55502,70.75039],[28.79469,70.87324],[29.08269,70.88068],[29.4048,70.78449],[29.29493,70.74356],[29.41782,70.73603],[29.32228,70.72305],[29.36378,70.70938],[29.28142,70.68146],[29.30641,70.6529],[29.69956,70.74372],[29.7815,70.68891],[29.67921,70.62002],[30.10475,70.71076],[30.2068,70.68146],[30.09693,70.64794],[30.34734,70.59614],[30.00074,70.53807],[30.50164,70.55854],[30.78663,70.42064],[30.94695,70.45002],[31.06332,70.36677],[31.02174,70.32514],[31.077,70.28425],[30.54884,70.24868],[30.37485,70.18586],[30.35524,70.12971],[30.11948,70.08491],[30.15895,70.07136],[29.22047,70.12035],[28.65366,70.18232],[28.61655,70.17691],[28.75367,70.16755],[28.6294,70.10712],[28.84995,70.09858],[28.73268,70.0856],[29.68588,69.96955],[29.36378,69.85969],[29.74122,69.90746],[29.7754,69.83857],[29.48731,69.66108],[30.03045,69.77595],[30.06275,69.77025],[29.9367,69.70576],[29.9393,69.68773],[30.07114,69.73994],[30.18629,69.68773],[30.11061,69.75601],[30.2068,69.77025],[30.16521,69.87954],[30.28924,69.88654],[30.32399,69.86713],[30.26881,69.8454],[30.4026,69.83124],[30.40984,69.7023],[30.33709,69.67406],[30.44353,69.67841],[30.48292,69.81818],[30.71697,69.77025],[30.84095,69.80584],[30.9277,69.67213],[30.89825,69.54423],[30.75531,69.52149],[30.11907,69.63456],[30.22015,69.60025],[30.2247,69.54082],[29.94807,69.36559],[29.37679,69.30161],[29.24047,69.11506],[29.12027,69.04685],[28.95408,69.02726],[28.82695,69.10684]]],[[[22.75636,70.39496],[23.01629,70.2543],[22.7317,70.2569],[22.37371,70.33198],[22.50465,70.32514],[22.47364,70.38028],[22.67465,70.39887],[22.71437,70.33698],[22.75636,70.39496]]],[[[21.76466,70.28685],[21.67693,70.28482],[21.70362,70.38638],[21.79274,70.35806],[21.76466,70.28685]]],[[[23.636,70.48334],[23.59254,70.41527],[23.21632,70.28278],[23.08204,70.30166],[23.13461,70.41454],[23.03891,70.34097],[22.85402,70.4077],[22.94011,70.40705],[22.89723,70.451],[23.01856,70.49706],[23.2234,70.51765],[23.17555,70.54759],[23.26206,70.53612],[23.27858,70.47663],[23.30763,70.55044],[23.53932,70.54487],[23.39096,70.61799],[23.5735,70.61319],[23.636,70.48334]]],[[[24.12843,70.62002],[23.80421,70.51333],[23.64177,70.59951],[23.6902,70.66779],[23.63551,70.69204],[23.81568,70.75117],[23.83188,70.70336],[23.97779,70.70694],[24.12843,70.62002]]],[[[22.37371,70.50332],[22.28565,70.54157],[22.15447,70.47232],[22.33334,70.61319],[22.0407,70.59357],[22.07203,70.63369],[21.95037,70.64794],[22.22153,70.6319],[22.26588,70.67499],[22.41521,70.62621],[22.38453,70.70938],[22.49269,70.67573],[22.54103,70.71747],[22.72486,70.60358],[22.82618,70.64794],[22.72299,70.74848],[22.92384,70.7248],[22.89503,70.69514],[22.96909,70.6612],[23.0254,70.72305],[23.18238,70.73603],[23.02996,70.79084],[23.1006,70.79877],[23.06625,70.81244],[23.32895,70.77928],[23.34254,70.86603],[23.48414,70.79877],[23.27174,70.68146],[23.15854,70.69416],[23.15187,70.63227],[23.05942,70.62621],[23.11411,70.61319],[23.08888,70.58625],[22.37371,70.50332]]],[[[24.21079,70.9558],[24.04314,70.91413],[23.90935,70.9558],[24.03891,70.97626],[23.88575,70.99616],[24.08741,71.02411],[24.22462,70.99677],[24.07309,70.96259],[24.21079,70.9558]]],[[[26.20655,71.01325],[25.5534,70.92788],[25.41627,70.9831],[25.5608,71.01728],[25.29249,71.02814],[25.47169,71.10261],[25.71852,71.05199],[25.5534,71.14077],[25.66733,71.16527],[25.80738,71.15445],[25.80568,71.09585],[26.0298,71.11652],[25.88982,71.05199],[25.95639,71.00202],[26.18523,71.04987],[26.20655,71.01325]]],[[[24.8187,71.0738],[24.77003,71.02619],[24.61427,71.05663],[24.73292,71.06859],[24.71258,71.10757],[24.8187,71.0738]]]]}},{"type":"Feature","properties":{"id":"no-21","lat":79.83035,"lng":22.67273},"geometry":{"type":"MultiPolygon","coordinates":[[[[19.29444,74.47362],[19.19508,74.36896],[19.07374,74.34736],[18.78981,74.47822],[19.11476,74.52729],[19.29444,74.47362]]],[[[20.5783,78.6306],[19.58277,78.58149],[19.68116,78.51455],[18.96176,78.45246],[19.06642,78.37788],[18.95436,78.28181],[19.08522,78.22993],[18.92058,78.17853],[19.09832,78.10301],[18.81121,78.02847],[18.40626,78.02115],[18.50245,77.98017],[18.33041,77.90497],[18.43621,77.85676],[18.4546,77.77407],[18.28272,77.58226],[18.29981,77.52021],[17.74733,77.49934],[17.62477,77.44575],[17.65211,77.41535],[17.48829,77.3216],[17.44728,77.15086],[17.33741,77.04727],[17.09718,77.05467],[17.32374,76.97895],[16.91912,76.79393],[17.19207,76.69684],[16.80958,76.56684],[16.43092,76.62238],[16.34376,76.57241],[16.28403,76.70791],[15.50147,76.87653],[15.77443,76.9523],[16.18775,76.97451],[16.24106,76.9326],[16.52858,77.00007],[16.25766,76.99262],[16.02898,77.08515],[15.85768,77.069],[15.88657,77.01557],[15.34571,77.00853],[15.15268,77.04824],[15.04021,77.13475],[14.44777,77.18138],[13.97381,77.40986],[13.95899,77.45254],[14.05453,77.45254],[13.91066,77.53449],[14.43995,77.58609],[14.59588,77.53449],[14.54762,77.4925],[14.71111,77.49445],[14.77418,77.54877],[15.04233,77.56672],[15.85328,77.53156],[16.22136,77.44086],[16.19288,77.46621],[16.30958,77.46621],[15.84588,77.5788],[14.8838,77.61701],[14.74049,77.66421],[16.33334,77.79759],[17.12452,77.78148],[16.78932,77.87714],[17.00782,77.93854],[16.68287,77.86603],[15.78533,77.83535],[15.55453,77.88011],[15.09034,77.79096],[14.17555,77.78425],[13.95704,77.71992],[13.73732,77.74994],[13.82179,77.80142],[13.65113,77.8498],[13.63063,77.95966],[13.67066,77.9938],[13.58912,78.05585],[13.95769,78.09569],[14.33009,77.96442],[14.34604,78.01996],[14.23276,78.09345],[15.03468,78.11665],[14.99366,78.13715],[15.41733,78.23859],[15.69353,78.21483],[15.72967,78.23395],[15.59018,78.28864],[15.79509,78.34292],[16.93653,78.35228],[17.2964,78.4326],[16.85084,78.38491],[16.32993,78.45246],[16.82716,78.64802],[16.55421,78.71931],[16.3659,78.65156],[16.31772,78.56778],[16.00196,78.48273],[15.43946,78.4584],[15.19288,78.58959],[15.4651,78.65461],[15.49879,78.7263],[15.42506,78.78827],[15.48658,78.80878],[15.38152,78.85139],[15.19907,78.74047],[15.26124,78.66535],[14.98268,78.5974],[14.80128,78.64423],[14.84962,78.68586],[14.81495,78.73363],[14.44557,78.67841],[14.54176,78.6579],[14.58961,78.55549],[14.38356,78.50092],[14.73365,78.39106],[14.28598,78.38744],[14.24635,78.36371],[14.32203,78.3085],[14.07586,78.24291],[14.04029,78.24702],[14.09669,78.28864],[13.96583,78.28181],[13.94467,78.22651],[13.7461,78.26752],[13.85597,78.21288],[13.00961,78.20384],[12.91131,78.24702],[12.95151,78.2954],[12.85662,78.32274],[12.88649,78.34772],[12.36256,78.48725],[13.19801,78.54247],[12.4297,78.54418],[12.34718,78.59569],[11.90358,78.63809],[11.84303,78.7027],[11.64324,78.74726],[11.78077,78.82559],[11.93735,78.82246],[11.9017,78.84431],[11.33416,78.97321],[12.5066,78.91181],[12.42433,78.99665],[12.06479,78.97427],[11.97902,78.98688],[12.10873,79.00056],[11.6836,79.0694],[11.95102,79.19986],[12.136,79.21345],[12.06031,79.24071],[12.115,79.30219],[11.83497,79.29597],[11.91684,79.24071],[11.85287,79.22602],[11.69109,79.32221],[11.59474,79.30964],[11.55323,79.28172],[11.72267,79.18757],[11.22828,79.10065],[11.14096,79.23664],[10.84116,79.37104],[10.91635,79.38475],[10.85524,79.41083],[10.90008,79.47065],[10.67677,79.54243],[11.18385,79.56293],[10.85499,79.59699],[11.01368,79.64997],[11.45769,79.63178],[11.21388,79.70807],[11.22731,79.78803],[11.52377,79.76708],[11.56007,79.7888],[11.52589,79.80927],[11.82228,79.84504],[12.04664,79.69326],[12.29705,79.66498],[12.34962,79.71747],[12.16334,79.80927],[12.39112,79.83417],[12.53663,79.74628],[13.79705,79.8819],[13.95021,79.83735],[13.97267,79.77521],[13.73829,79.70645],[13.01368,79.69326],[12.45143,79.56908],[13.45167,79.59243],[13.49285,79.56908],[13.26686,79.52192],[13.25953,79.47354],[13.45721,79.4396],[13.43767,79.48094],[13.61695,79.48094],[13.91798,79.36424],[13.89861,79.29365],[14.04168,79.26582],[14.15821,79.34317],[13.88315,79.54243],[14.28053,79.6175],[14.14389,79.63178],[14.5486,79.81147],[14.85792,79.77367],[15.29526,79.60383],[15.29526,79.53559],[15.49733,79.33002],[15.77272,79.24217],[15.65846,79.15131],[15.68214,79.11221],[15.8816,79.16104],[16.11899,79.06769],[16.15187,78.99067],[16.43523,78.91144],[16.4909,78.93073],[16.19288,79.13833],[16.15073,79.23404],[15.95948,79.30964],[15.85304,79.529],[15.91798,79.56293],[15.83318,79.57998],[15.64479,79.7683],[15.65162,79.85029],[15.71583,79.87714],[16.13771,79.87075],[15.95574,79.9453],[16.05568,79.99486],[16.02166,80.01537],[16.29469,80.06737],[16.55592,80.04267],[16.82008,79.8758],[16.88649,79.8736],[16.87013,79.93334],[16.96469,79.96259],[17.26954,79.94554],[18.0984,79.72736],[17.59067,79.54857],[17.74887,79.54857],[17.78297,79.49404],[17.77565,79.42573],[17.65317,79.36937],[17.88103,79.40131],[18.00261,79.4558],[18.10613,79.58832],[18.34693,79.62995],[18.72731,79.54352],[18.88185,79.44111],[18.85914,79.40925],[18.91334,79.39159],[18.83766,79.35684],[18.87916,79.31586],[18.59181,79.26122],[18.84457,79.25438],[18.94752,79.22028],[18.94508,79.15697],[19.78631,79.16511],[19.93434,79.0589],[19.90642,79.01423],[21.54542,78.83405],[21.50847,78.79401],[21.55193,78.77521],[21.3781,78.71101],[21.3615,78.65546],[20.69142,78.69359],[20.5783,78.6306]]],[[[12.1561,78.20295],[11.89226,78.23359],[11.81381,78.27436],[11.8484,78.30777],[11.41017,78.43415],[11.12184,78.43887],[10.80714,78.68586],[10.5486,78.77119],[10.56691,78.84349],[10.48439,78.89069],[10.99985,78.83417],[10.99147,78.79572],[11.18385,78.73363],[11.06031,78.69269],[11.27263,78.61017],[11.25904,78.52823],[11.44711,78.54804],[11.87224,78.44794],[12.1561,78.20295]]],[[[20.46778,79.1258],[20.8318,79.05516],[20.35825,78.9947],[20.0442,79.04149],[20.13502,79.0607],[20.09889,79.12409],[20.46778,79.1258]]],[[[20.17799,79.35342],[19.70151,79.33698],[19.62647,79.39159],[20.17799,79.35342]]],[[[11.04607,79.68667],[10.82154,79.65054],[10.73813,79.68643],[10.84799,79.69326],[10.71095,79.72118],[11.04607,79.68667]]],[[[10.64576,79.76113],[10.86866,79.77945],[11.01197,79.74165],[10.64576,79.76113]]],[[[18.11883,80.28974],[18.3169,80.3642],[18.75563,80.30272],[18.49138,80.23884],[18.11883,80.28974]]],[[[19.87135,80.51691],[20.02556,80.54247],[20.13356,80.51504],[19.90699,80.48835],[19.87135,80.51691]]],[[[20.51783,80.66584],[20.79152,80.65961],[20.7575,80.6249],[20.51783,80.66584]]],[[[20.51783,80.76948],[20.71827,80.7377],[21.00318,80.71426],[20.82154,80.68012],[20.51783,80.76948]]],[[[25.5608,76.69599],[25.04721,76.49803],[25.01759,76.43964],[24.94337,76.44514],[25.41627,76.6916],[25.5608,76.69599]]],[[[24.42477,77.82594],[23.89283,77.50837],[23.35434,77.37686],[23.23454,77.26368],[22.70395,77.23728],[22.42042,77.26887],[22.39088,77.30394],[22.50465,77.33588],[22.4109,77.42032],[22.77833,77.55492],[22.57911,77.51337],[22.60646,77.54816],[22.44663,77.57783],[22.19174,77.50414],[21.09254,77.43915],[20.86549,77.4562],[20.92986,77.50161],[20.8318,77.54072],[21.21608,77.60957],[21.26075,77.7331],[21.66179,77.91804],[20.87696,78.09858],[21.69679,78.21109],[22.39625,78.19986],[22.96608,78.25629],[23.32781,78.20014],[23.47047,78.15144],[23.10548,78.08812],[23.07309,78.00747],[23.62827,77.87031],[23.94166,77.85212],[24.30494,77.91185],[24.4065,77.86518],[24.42477,77.82594]]],[[[22.27125,78.26752],[20.6277,78.20673],[20.79152,78.27436],[20.74741,78.29881],[20.46876,78.31533],[20.67457,78.34663],[20.66114,78.39106],[20.15358,78.47541],[21.02036,78.54475],[21.17823,78.62324],[21.49936,78.56806],[22.06479,78.59711],[22.23536,78.48786],[22.19557,78.43887],[22.27125,78.26752]]],[[[26.77467,78.64069],[26.46599,78.70946],[26.39633,78.77521],[26.61549,78.80878],[26.77369,78.72679],[27.02076,78.69892],[26.77467,78.64069]]],[[[29.33302,78.85395],[28.86964,78.91181],[28.10328,78.82246],[27.84197,78.84349],[28.41863,78.96699],[29.70704,78.89814],[29.33302,78.85395]]],[[[30.30926,79.008],[30.13624,78.96894],[30.06959,79.008],[30.30926,79.008]]],[[[27.23911,80.09732],[27.10206,79.97443],[27.23911,79.9055],[27.14967,79.85497],[25.8108,79.62092],[25.96876,79.51545],[25.82911,79.44221],[25.18328,79.33625],[24.92066,79.37824],[24.2881,79.30988],[24.25978,79.24079],[24.05307,79.18887],[22.92563,79.22285],[22.6447,79.30964],[22.65496,79.36424],[22.89503,79.4195],[20.8169,79.37808],[20.85304,79.40522],[20.72975,79.45856],[20.19679,79.46882],[19.68531,79.5539],[19.63331,79.61131],[20.20834,79.64545],[20.41261,79.59186],[21.15455,79.56908],[20.4756,79.68643],[21.85035,79.70694],[21.89373,79.75235],[22.34693,79.7888],[22.28745,79.80573],[18.78386,79.72309],[18.68247,79.78775],[18.46079,79.7888],[18.11199,79.9055],[18.62355,79.95673],[18.68051,79.98062],[18.55698,79.98062],[18.66871,80.01016],[18.78981,79.97443],[18.93377,80.05634],[18.23487,80.0489],[18.15235,80.08365],[18.36459,80.08365],[17.78297,80.13825],[18.03745,80.19286],[18.7693,80.18671],[18.70045,80.20718],[19.27125,80.08527],[19.58481,80.15192],[19.22429,80.1977],[18.98162,80.34369],[19.03346,80.35798],[19.33717,80.32746],[19.67172,80.21747],[19.85182,80.22077],[19.71518,80.24811],[19.85865,80.34369],[19.77052,80.35053],[19.91383,80.38524],[19.46876,80.40888],[19.5005,80.47223],[19.67433,80.43989],[19.65675,80.50503],[20.03679,80.46784],[20.10548,80.37848],[20.38982,80.42349],[20.59181,80.30272],[20.8392,80.30956],[20.74903,80.26862],[20.85288,80.21394],[21.84669,80.27212],[21.89763,80.21345],[21.59962,80.12523],[22.0652,80.11099],[22.21664,80.04267],[22.19557,79.98802],[22.28321,79.98306],[22.36573,80.04499],[22.47731,80.01537],[22.34693,80.07001],[22.46306,80.07001],[22.37371,80.11099],[22.44947,80.26179],[22.57602,80.29902],[22.33774,80.38386],[22.45737,80.44086],[22.68214,80.42691],[22.61329,80.35798],[22.75034,80.33002],[22.69646,80.35798],[22.83302,80.41258],[22.78159,80.51728],[23.36061,80.43305],[23.12094,80.39155],[23.35377,80.33755],[23.29591,80.28099],[23.05502,80.24836],[23.00668,80.16209],[23.12233,80.11758],[23.23024,80.12523],[23.08676,80.17243],[23.30738,80.19343],[23.39869,80.14252],[23.39869,80.20417],[23.47047,80.21336],[23.46363,80.17243],[23.56764,80.13349],[23.80486,80.18456],[23.73048,80.23509],[23.79265,80.24811],[23.71681,80.26179],[23.76531,80.30907],[24.0145,80.27057],[23.89503,80.30956],[24.18995,80.27534],[24.40211,80.32319],[24.14877,80.35053],[24.25978,80.3758],[24.60076,80.31704],[24.47096,80.29532],[24.52133,80.25568],[24.82993,80.3559],[24.88868,80.32319],[24.78012,80.24811],[25.35548,80.28229],[25.22511,80.25434],[25.78053,80.21336],[25.70436,80.17243],[26.80714,80.17426],[27.23911,80.09732]]],[[[33.64039,80.22077],[31.61109,80.0727],[31.47706,80.10395],[33.29859,80.24811],[33.64039,80.22077]]],[[[24.19264,80.45759],[24.3816,80.39155],[24.12843,80.40518],[24.19264,80.45759]]],[[[23.99431,80.50161],[24.17481,80.51162],[24.29225,80.48835],[24.21697,80.46955],[23.99431,80.50161]]],[[[21.02426,80.69379],[21.33277,80.70742],[21.36695,80.68012],[21.02426,80.69379]]]]}},{"type":"Feature","properties":{"id":"no-x01~","lat":-54.41635,"lng":3.41475},"geometry":{"type":"Polygon","coordinates":[[[3.45729,-54.39007],[3.46754,-54.44134],[3.35084,-54.45566],[3.37721,-54.39137],[3.45729,-54.39007]]]}}]}
