{"type":"FeatureCollection","features":[{"type":"Feature","properties":{"id":"np-ba","lat":27.86486,"lng":85.39349},"geometry":{"type":"Polygon","coordinates":[[[85.08187,28.3317],[85.24341,28.26791],[85.43156,28.29706],[85.59894,28.25083],[85.69294,28.33522],[85.73449,28.22153],[85.86337,28.14335],[85.96269,27.89137],[86.0546,27.88801],[86.0308,27.75234],[85.84539,27.56005],[85.79495,27.4159],[85.6964,27.35678],[85.53889,27.36422],[85.27245,27.47951],[85.20217,27.67834],[85.06078,27.71823],[84.7978,27.6865],[84.66871,27.74536],[84.65471,27.84171],[84.74235,27.81779],[84.72659,27.9432],[85.08187,28.3317]]]}},{"type":"Feature","properties":{"id":"np-bh","lat":28.54071,"lng":81.58706},"geometry":{"type":"Polygon","coordinates":[[[82.05021,27.90559],[81.85565,27.85094],[81.39604,28.16063],[81.29621,28.12831],[81.1697,28.36132],[81.04707,28.38909],[81.27709,28.69721],[81.21823,28.84139],[81.09488,28.85395],[80.99716,28.9471],[81.0541,28.97622],[81.20774,28.90795],[81.44245,28.8985],[81.52322,28.74918],[81.56937,28.78098],[81.40783,29.00319],[81.54864,29.12566],[81.58048,29.05247],[81.84485,28.98115],[82.07673,28.97906],[82.28369,29.10786],[82.40503,29.08784],[82.41299,29.00226],[82.56812,28.98516],[82.18582,28.62477],[82.00826,28.59366],[82.01947,28.48777],[81.95565,28.42653],[82.09502,28.24846],[82.01322,28.15975],[82.18054,28.01545],[82.05021,27.90559]]]}},{"type":"Feature","properties":{"id":"np-dh","lat":28.63741,"lng":83.45387},"geometry":{"type":"Polygon","coordinates":[[[83.94555,29.29183],[84.15546,29.20664],[84.13226,29.1438],[84.23143,29.02598],[84.22529,28.91411],[83.93362,28.8178],[83.79321,28.70708],[83.84458,28.6267],[83.69332,28.3955],[83.78081,28.22841],[83.65901,28.02925],[83.58987,28.0038],[83.4846,28.11642],[83.18446,28.2544],[83.08907,28.24556],[82.88918,28.46764],[82.95791,28.59645],[83.0993,28.64812],[83.14788,28.73706],[83.4739,28.7769],[83.60966,28.98309],[83.67508,29.20876],[83.94555,29.29183]]]}},{"type":"Feature","properties":{"id":"np-ga","lat":28.3636,"lng":84.39529},"geometry":{"type":"Polygon","coordinates":[[[84.22529,28.91411],[84.81196,28.54198],[84.92849,28.53847],[85.05494,28.63869],[85.16801,28.58319],[85.07758,28.43568],[85.08187,28.3317],[84.72101,27.93367],[84.74235,27.81779],[84.59218,27.88458],[84.45705,27.81569],[84.46139,27.75898],[84.32765,27.7573],[84.26838,27.84595],[84.01712,27.9084],[83.82551,27.87626],[83.44837,27.93925],[83.65901,28.02925],[83.78081,28.22841],[83.69332,28.3955],[83.84458,28.6267],[83.79321,28.70708],[83.93362,28.8178],[84.22529,28.91411]]]}},{"type":"Feature","properties":{"id":"np-ja","lat":27.37075,"lng":85.97667},"geometry":{"type":"Polygon","coordinates":[[[86.15596,28.15652],[86.20304,28.00258],[86.4253,27.90993],[86.53511,27.95506],[86.58973,27.74477],[86.5348,27.63888],[86.2418,27.39742],[86.20986,27.24578],[86.39424,27.18279],[86.33089,27.1192],[86.35512,26.98838],[86.14873,26.90404],[86.19901,26.71238],[86.14635,26.60136],[86.01137,26.65445],[85.82854,26.56613],[85.71289,26.65321],[85.70183,26.79661],[85.60938,26.85102],[85.35535,26.75991],[85.5175,27.21692],[85.44009,27.33081],[85.50401,27.38471],[85.6964,27.35678],[85.81867,27.43905],[85.80673,27.50054],[86.0308,27.75234],[86.0546,27.88801],[86.11286,27.9268],[86.06873,28.07676],[86.15596,28.15652]]]}},{"type":"Feature","properties":{"id":"np-ka","lat":29.522,"lng":82.5063},"geometry":{"type":"Polygon","coordinates":[[[81.61401,30.4169],[82.08877,30.33009],[82.15383,30.05817],[82.54181,29.92324],[82.83658,29.65979],[82.89973,29.68842],[83.06494,29.57879],[83.15005,29.62563],[83.22932,29.57595],[83.52372,29.18359],[83.65513,29.16011],[83.4739,28.7769],[83.27448,28.72011],[82.77203,28.81333],[82.63938,28.96283],[82.40678,29.00624],[82.35945,29.10629],[82.16902,29.06585],[82.07673,28.97906],[81.57428,29.05683],[81.48519,29.16892],[81.47371,29.29519],[81.57536,29.36459],[81.72383,29.34888],[81.70864,29.46805],[81.78749,29.59256],[81.69639,29.68749],[81.77488,29.89639],[81.64859,29.94512],[81.48596,29.8943],[81.42297,30.02481],[81.299,30.05336],[81.26634,30.11775],[81.35005,30.15723],[81.38752,30.37391],[81.50937,30.32838],[81.61401,30.4169]]]}},{"type":"Feature","properties":{"id":"np-ko","lat":27.16342,"lng":87.30661},"geometry":{"type":"Polygon","coordinates":[[[86.98873,27.95248],[87.1558,27.8258],[87.67853,27.81335],[87.6168,27.69149],[87.54787,27.6772],[87.44679,27.39843],[87.52342,27.29913],[87.73974,27.21374],[87.48058,26.98122],[87.666,26.75633],[87.64875,26.40999],[87.58698,26.37803],[87.41645,26.42697],[87.30049,26.34599],[87.2191,26.4081],[87.10629,26.40475],[87.04133,26.58019],[86.93515,26.52029],[87.00413,26.72299],[87.17538,26.90311],[86.96682,26.90639],[86.91886,27.1131],[86.96077,27.30999],[86.90615,27.42396],[87.0002,27.70823],[86.98873,27.95248]]]}},{"type":"Feature","properties":{"id":"np-lu","lat":27.80031,"lng":83.55252},"geometry":{"type":"Polygon","coordinates":[[[83.92204,27.4497],[83.83409,27.43404],[83.8546,27.34505],[83.59043,27.45662],[83.38703,27.47047],[83.28244,27.33094],[83.13279,27.44422],[82.75214,27.49496],[82.67389,27.69646],[82.71648,27.76048],[82.84402,27.77593],[82.76242,27.82468],[82.84603,27.90233],[82.99905,27.9401],[83.01099,28.19288],[83.16772,28.25851],[83.54806,28.06901],[83.58987,28.0038],[83.44533,27.96139],[83.47948,27.92044],[83.82551,27.87626],[84.01712,27.9084],[84.41266,27.75823],[84.41204,27.70312],[84.22678,27.65973],[84.10327,27.53685],[83.93878,27.55052],[83.92204,27.4497]]]}},{"type":"Feature","properties":{"id":"np-ma","lat":29.3541,"lng":80.52802},"geometry":{"type":"Polygon","coordinates":[[[80.99602,30.19697],[81.08445,30.02788],[80.99994,29.9289],[81.05565,29.76671],[80.75681,29.65119],[80.74146,29.52158],[80.88559,29.43058],[80.53956,29.09042],[80.49269,28.98678],[80.53599,28.75476],[80.48845,28.56244],[80.03639,28.83703],[80.03391,28.91594],[80.13261,29.11021],[80.23307,29.13931],[80.21374,29.19656],[80.28278,29.29131],[80.21374,29.41689],[80.3852,29.60484],[80.36898,29.75793],[80.71583,30.01331],[80.86791,30.20017],[80.99602,30.19697]]]}},{"type":"Feature","properties":{"id":"np-me","lat":27.16227,"lng":87.83379},"geometry":{"type":"Polygon","coordinates":[[[87.83669,27.90832],[88.16659,27.8336],[88.02334,27.49491],[88.03512,27.32257],[87.96918,27.1108],[88.15139,26.86281],[88.16752,26.72504],[88.07419,26.45394],[87.97549,26.36656],[87.86981,26.46464],[87.64875,26.40999],[87.66445,26.76377],[87.48058,26.98122],[87.73974,27.21374],[87.45609,27.36231],[87.4795,27.54132],[87.55241,27.6848],[87.60595,27.68038],[87.67853,27.81335],[87.83669,27.90832]]]}},{"type":"Feature","properties":{"id":"np-na","lat":27.29332,"lng":85.03643},"geometry":{"type":"Polygon","coordinates":[[[85.35535,26.75991],[85.19493,26.75888],[85.16202,26.85102],[85.01856,26.8458],[84.81749,27.0106],[84.62727,27.03649],[84.65765,27.20341],[84.57704,27.32903],[84.28941,27.37611],[84.09955,27.51687],[84.00767,27.44081],[83.92204,27.4497],[83.92545,27.53499],[84.10327,27.53685],[84.22678,27.65973],[84.41204,27.70312],[84.45705,27.81569],[84.59218,27.88458],[84.66871,27.74536],[84.7978,27.6865],[85.06078,27.71823],[85.20217,27.67834],[85.27245,27.47951],[85.50401,27.38471],[85.44009,27.32185],[85.50572,27.2648],[85.50665,27.16563],[85.41787,27.02913],[85.35535,26.75991]]]}},{"type":"Feature","properties":{"id":"np-ra","lat":28.34955,"lng":82.51159},"geometry":{"type":"Polygon","coordinates":[[[82.67389,27.69646],[82.40193,27.67717],[82.05021,27.90559],[82.18054,28.01545],[82.01714,28.14901],[82.09502,28.24846],[81.95565,28.42653],[82.01508,28.47477],[82.04381,28.63171],[82.18582,28.62477],[82.56812,28.98516],[82.75762,28.81775],[82.939,28.81788],[83.14788,28.73706],[83.0993,28.64812],[82.95791,28.59645],[82.88918,28.46764],[83.08426,28.27256],[83.01099,28.19288],[83.00339,27.94643],[82.84603,27.90233],[82.76242,27.82468],[82.84402,27.77593],[82.71648,27.76048],[82.67389,27.69646]]]}},{"type":"Feature","properties":{"id":"np-sa","lat":27.27788,"lng":86.58481},"geometry":{"type":"Polygon","coordinates":[[[86.66198,28.10684],[86.7398,28.0215],[86.98209,27.95067],[87.0002,27.70823],[86.90615,27.42396],[86.96077,27.30999],[86.91886,27.1131],[86.96682,26.90639],[87.17538,26.90311],[87.00413,26.72299],[86.96036,26.54647],[86.7136,26.41456],[86.30138,26.60902],[86.14635,26.60136],[86.19901,26.71238],[86.14873,26.90404],[86.35512,26.98838],[86.33089,27.1192],[86.39424,27.18279],[86.20986,27.24578],[86.23332,27.37507],[86.54581,27.65234],[86.58973,27.74477],[86.5162,28.01225],[86.55356,28.10415],[86.66198,28.10684]]]}},{"type":"Feature","properties":{"id":"np-se","lat":29.24801,"lng":81.09456},"geometry":{"type":"Polygon","coordinates":[[[81.08445,30.02788],[81.21683,30.0082],[81.2679,30.07205],[81.42297,30.02481],[81.48596,29.8943],[81.57381,29.94383],[81.76047,29.91308],[81.69561,29.67904],[81.78848,29.57132],[81.70864,29.46805],[81.72383,29.34888],[81.57536,29.36459],[81.47371,29.29519],[81.48519,29.16892],[81.54864,29.12566],[81.40783,29.00319],[81.572,28.76969],[81.51314,28.74967],[81.42576,28.90369],[80.99716,28.9471],[81.09488,28.85395],[81.21823,28.84139],[81.28034,28.67861],[81.04707,28.38909],[80.56359,28.64704],[80.49269,28.98678],[80.56705,29.13789],[80.6873,29.20083],[80.76456,29.35384],[80.88559,29.43058],[80.74146,29.52158],[80.75371,29.64204],[81.04961,29.75017],[80.99994,29.9289],[81.08445,30.02788]]]}}]}
