{"type":"FeatureCollection","features":[{"type":"Feature","properties":{"id":"nr-01","lat":-0.52996,"lng":166.91494},"geometry":{"type":"Polygon","coordinates":[[[166.91792,-0.53508],[166.90699,-0.52484],[166.91687,-0.5242],[166.91792,-0.53508]]]}},{"type":"Feature","properties":{"id":"nr-02","lat":-0.49419,"lng":166.94303},"geometry":{"type":"Polygon","coordinates":[[[166.93881,-0.49041],[166.95558,-0.49798],[166.93899,-0.50418],[166.93881,-0.49041]]]}},{"type":"Feature","properties":{"id":"nr-03","lat":-0.49876,"lng":166.93701},"geometry":{"type":"Polygon","coordinates":[[[166.9312,-0.49334],[166.93881,-0.49041],[166.93899,-0.50418],[166.9312,-0.49334]]]}},{"type":"Feature","properties":{"id":"nr-04","lat":-0.517,"lng":166.94123},"geometry":{"type":"Polygon","coordinates":[[[166.93899,-0.50418],[166.9532,-0.53338],[166.93547,-0.52982],[166.93899,-0.50418]]]}},{"type":"Feature","properties":{"id":"nr-05","lat":-0.50745,"lng":166.92981},"geometry":{"type":"Polygon","coordinates":[[[166.91807,-0.49839],[166.92513,-0.49567],[166.93724,-0.51652],[166.91807,-0.49839]]]}},{"type":"Feature","properties":{"id":"nr-06","lat":-0.53602,"lng":166.91671},"geometry":{"type":"Polygon","coordinates":[[[166.92009,-0.5388],[166.91199,-0.53697],[166.91792,-0.53508],[166.92009,-0.5388]]]}},{"type":"Feature","properties":{"id":"nr-07","lat":-0.52525,"lng":166.92412},"geometry":{"type":"Polygon","coordinates":[[[166.92038,-0.52069],[166.93547,-0.52982],[166.92009,-0.5388],[166.92038,-0.52069]]]}},{"type":"Feature","properties":{"id":"nr-08","lat":-0.5164,"lng":166.91399},"geometry":{"type":"Polygon","coordinates":[[[166.91687,-0.5242],[166.91031,-0.51211],[166.92038,-0.52069],[166.91687,-0.5242]]]}},{"type":"Feature","properties":{"id":"nr-09","lat":-0.5031,"lng":166.93334},"geometry":{"type":"Polygon","coordinates":[[[166.92513,-0.49567],[166.9312,-0.49334],[166.93805,-0.51052],[166.92513,-0.49567]]]}},{"type":"Feature","properties":{"id":"nr-10","lat":-0.50776,"lng":166.95255},"geometry":{"type":"Polygon","coordinates":[[[166.95558,-0.49798],[166.9574,-0.51133],[166.93899,-0.50418],[166.95558,-0.49798]]]}},{"type":"Feature","properties":{"id":"nr-11","lat":-0.54312,"lng":166.93477},"geometry":{"type":"Polygon","coordinates":[[[166.93547,-0.52982],[166.93881,-0.55185],[166.92529,-0.53438],[166.93547,-0.52982]]]}},{"type":"Feature","properties":{"id":"nr-12","lat":-0.51043,"lng":166.91982},"geometry":{"type":"Polygon","coordinates":[[[166.92038,-0.52069],[166.91342,-0.50018],[166.93614,-0.52519],[166.92038,-0.52069]]]}},{"type":"Feature","properties":{"id":"nr-13","lat":-0.51019,"lng":166.92665},"geometry":{"type":"Polygon","coordinates":[[[166.91342,-0.50018],[166.91807,-0.49839],[166.9368,-0.5202],[166.91342,-0.50018]]]}},{"type":"Feature","properties":{"id":"nr-14","lat":-0.54096,"lng":166.92454},"geometry":{"type":"Polygon","coordinates":[[[166.93264,-0.55067],[166.91635,-0.54754],[166.92529,-0.53438],[166.93264,-0.55067]]]}}]}
