{"type":"FeatureCollection","features":[{"type":"Feature","properties":{"id":"nz-auk","lat":-36.71205,"lng":174.56753},"geometry":{"type":"MultiPolygon","coordinates":[[[[175.19597,-36.73414],[175.18263,-36.82496],[175.01173,-36.80267],[175.01832,-36.76149],[175.19597,-36.73414]]],[[[174.6729,-37.29377],[174.55828,-37.06276],[174.66733,-37.06951],[174.74,-37.2444],[174.73585,-37.17946],[174.80486,-37.16627],[174.71664,-37.1526],[174.85597,-37.0783],[174.94581,-37.11305],[174.93702,-37.06553],[174.78582,-37.00848],[174.83277,-36.9428],[174.76832,-36.93353],[174.50034,-37.03216],[174.40756,-36.76149],[174.1823,-36.45322],[174.25717,-36.44695],[174.43141,-36.66562],[174.49073,-36.57659],[174.46599,-36.37322],[174.33123,-36.39251],[174.27101,-36.33766],[174.39519,-36.32269],[174.65622,-36.13347],[174.82447,-36.27703],[174.80641,-36.33489],[174.88054,-36.35133],[174.75074,-36.35442],[174.77882,-36.48724],[174.71664,-36.41155],[174.72291,-36.59368],[174.85694,-36.61093],[174.72348,-36.63128],[174.8191,-36.82366],[174.70362,-36.75848],[174.6211,-36.79632],[174.68263,-36.80315],[174.68019,-36.9074],[174.75074,-36.84482],[174.87566,-36.85101],[174.89145,-36.95778],[174.93523,-36.83734],[174.96314,-36.93353],[175.05885,-36.87762],[175.09343,-36.97047],[175.23072,-36.93914],[175.32602,-37.00945],[175.18318,-37.03963],[175.15965,-37.16021],[175.09841,-37.18921],[174.6729,-37.29377]]],[[[174.85328,-36.3917],[174.90602,-36.44915],[174.84547,-36.4485],[174.85328,-36.3917]]],[[[175.54623,-36.34336],[175.33375,-36.22373],[175.3755,-36.06585],[175.53061,-36.17636],[175.54623,-36.34336]]],[[[175.15496,-36.20086],[175.11394,-36.22828],[175.08082,-36.20566],[175.12086,-36.17523],[175.15496,-36.20086]]]]}},{"type":"Feature","properties":{"id":"nz-bop","lat":-38.19076,"lng":176.86657},"geometry":{"type":"Polygon","coordinates":[[[175.95874,-37.36866],[175.97543,-37.4699],[176.16912,-37.62493],[176.01588,-37.51588],[175.94313,-37.5219],[176.00229,-37.63649],[176.17652,-37.66595],[176.21412,-37.7195],[176.21681,-37.61826],[176.71827,-37.8777],[177.09791,-37.96527],[177.13551,-37.98187],[177.06593,-37.98455],[177.13103,-38.02166],[177.55681,-37.91383],[177.73878,-37.6762],[177.99203,-37.59092],[177.99203,-37.54306],[178.07733,-37.55138],[177.97573,-37.62778],[177.97749,-37.74126],[178.05893,-37.76147],[177.84406,-38.10744],[177.68924,-38.02145],[177.65275,-38.15705],[177.4971,-38.22433],[177.4322,-38.35321],[177.24399,-38.4298],[177.25516,-38.4977],[177.16555,-38.58044],[176.98396,-38.70456],[176.87285,-38.67263],[176.73302,-38.71764],[176.70159,-38.84973],[176.53034,-38.80697],[176.41285,-38.99567],[176.26729,-38.90652],[176.25511,-38.80818],[176.48538,-38.50556],[176.4983,-38.38732],[176.10032,-38.15719],[176.08603,-38.05742],[175.97482,-37.97949],[175.80925,-37.50805],[175.89131,-37.49916],[175.87477,-37.45286],[175.95874,-37.36866]]]}},{"type":"Feature","properties":{"id":"nz-can","lat":-43.49533,"lng":171.56601},"geometry":{"type":"Polygon","coordinates":[[[174.08169,-41.96911],[173.89088,-42.24082],[173.70362,-42.37859],[173.72315,-42.4367],[173.65553,-42.41863],[173.5586,-42.49114],[173.28728,-42.95387],[172.91505,-43.1028],[172.74545,-43.26539],[172.74773,-43.56715],[172.83229,-43.60166],[172.68141,-43.63934],[172.87574,-43.66888],[172.89381,-43.61452],[172.9284,-43.68572],[173.06495,-43.64813],[173.09295,-43.85418],[172.99684,-43.88893],[172.94858,-43.75115],[172.96559,-43.90545],[172.81723,-43.88144],[172.76344,-43.79274],[172.42262,-43.85459],[172.64772,-43.78265],[172.41733,-43.73748],[172.37631,-43.86444],[171.346,-44.27863],[171.17384,-44.54697],[171.21412,-44.74188],[171.17254,-44.95333],[170.7184,-44.89855],[170.39004,-45.0604],[170.32235,-44.92578],[170.07533,-44.91312],[169.90325,-44.66472],[169.66306,-44.58482],[169.55258,-44.44602],[169.547,-44.20325],[169.67195,-43.97551],[169.94986,-43.78286],[170.1266,-43.58323],[170.59582,-43.4235],[171.32776,-42.96456],[171.71658,-42.90038],[171.76515,-42.79728],[172.44697,-42.36915],[172.65048,-42.11128],[172.81791,-42.18058],[172.85398,-42.29881],[173.0644,-42.47126],[173.7331,-41.91589],[174.08169,-41.96911]]]}},{"type":"Feature","properties":{"id":"nz-cit","lat":-44.30315,"lng":-176.19599},"geometry":{"type":"MultiPolygon","coordinates":[[[[-176.23607,-44.24196],[-176.11388,-44.26507],[-176.21898,-44.34124],[-176.23607,-44.24196]]],[[[-176.38512,-43.90667],[-176.37226,-43.76588],[-176.53539,-43.75563],[-176.42304,-43.80584],[-176.50154,-43.86444],[-176.45653,-43.9498],[-176.39521,-43.93857],[-176.30004,-44.04258],[-176.59996,-44.12005],[-176.66438,-44.01922],[-176.51594,-43.9223],[-176.56615,-43.83782],[-176.85497,-43.82008],[-176.58064,-43.70338],[-176.16914,-43.73138],[-176.2851,-43.76971],[-176.38512,-43.90667]]]]}},{"type":"Feature","properties":{"id":"nz-gis","lat":-38.24503,"lng":177.90607},"geometry":{"type":"Polygon","coordinates":[[[178.07733,-37.55138],[178.30104,-37.56504],[178.5643,-37.71771],[178.35157,-38.00172],[178.38111,-38.07871],[178.31853,-38.26572],[178.36207,-38.3165],[178.30014,-38.53167],[178.07985,-38.70908],[177.93238,-38.70241],[177.96404,-38.76141],[177.91245,-38.96071],[177.55497,-38.78658],[177.41798,-38.64479],[177.17278,-38.56984],[177.25516,-38.4977],[177.24399,-38.4298],[177.4322,-38.35321],[177.4971,-38.22433],[177.65275,-38.15705],[177.68924,-38.02145],[177.84406,-38.10744],[177.88478,-38.06429],[178.05893,-37.76147],[177.97749,-37.74126],[177.97821,-37.6161],[178.07733,-37.55138]]]}},{"type":"Feature","properties":{"id":"nz-hkb","lat":-39.54592,"lng":176.55265},"geometry":{"type":"Polygon","coordinates":[[[177.91245,-38.96071],[177.88282,-39.08555],[177.99887,-39.12982],[177.8685,-39.29022],[177.85206,-39.08929],[177.41326,-39.05902],[177.05291,-39.21152],[176.90284,-39.43084],[176.9607,-39.62444],[177.11524,-39.68092],[176.83725,-40.17791],[176.68181,-40.27459],[176.62967,-40.45407],[176.38906,-40.36214],[176.31671,-40.07363],[176.10711,-39.99808],[176.20168,-39.67401],[176.14275,-39.58793],[176.19337,-39.50392],[176.09803,-39.36404],[176.13046,-39.30268],[176.08182,-39.12765],[176.26729,-38.90652],[176.44698,-38.99521],[176.53034,-38.80697],[176.70159,-38.84973],[176.73302,-38.71764],[176.87285,-38.67263],[176.98396,-38.70456],[177.17278,-38.56984],[177.41798,-38.64479],[177.55497,-38.78658],[177.91245,-38.96071]]]}},{"type":"Feature","properties":{"id":"nz-mbh","lat":-41.65468,"lng":173.62942},"geometry":{"type":"MultiPolygon","coordinates":[[[[173.6032,-41.0512],[173.67457,-41.10638],[173.74757,-41.03721],[173.68141,-41.03444],[173.70729,-40.99424],[174.0241,-40.90716],[173.91798,-41.00189],[173.78053,-41.01141],[173.77866,-41.10768],[173.82887,-41.05869],[173.92994,-41.04827],[173.95574,-41.05869],[173.81861,-41.15488],[173.87379,-41.18523],[173.76393,-41.26474],[173.79127,-41.29144],[173.93458,-41.23675],[173.88746,-41.21624],[174.13396,-41.17539],[173.89633,-41.19166],[173.9489,-41.07903],[173.97633,-41.14739],[174.04567,-41.09287],[174.0337,-41.01718],[174.00017,-41.05291],[173.9489,-41.01084],[173.99855,-40.96885],[174.09425,-41.01914],[174.18312,-40.97308],[174.2072,-41.07057],[174.31886,-40.99652],[174.25734,-41.12689],[174.16733,-41.1159],[174.21648,-41.1889],[173.93523,-41.27956],[174.19947,-41.26474],[174.32569,-41.21624],[174.24529,-41.32244],[174.13307,-41.32008],[174.05063,-41.43694],[174.05812,-41.51727],[174.10434,-41.56121],[174.1172,-41.50709],[174.28639,-41.75457],[174.08169,-41.96911],[173.7331,-41.91589],[173.49848,-42.07211],[173.43792,-42.19985],[173.20083,-42.31907],[173.15246,-42.43147],[173.0457,-42.4711],[172.84561,-42.28848],[172.81791,-42.18058],[172.70629,-42.11598],[172.93831,-41.74815],[173.17323,-41.53379],[173.26232,-41.51411],[173.28527,-41.38864],[173.54923,-41.1672],[173.6032,-41.0512]]],[[[174.39975,-41.1159],[174.38087,-41.19508],[174.19728,-41.23008],[174.35125,-41.17547],[174.32569,-41.12689],[174.39975,-41.1159]]],[[[173.7776,-40.92148],[173.78443,-40.83896],[173.84588,-40.87314],[173.83229,-40.75758],[173.88478,-40.75628],[173.88746,-40.80535],[173.96485,-40.70875],[173.92164,-40.8668],[173.7776,-40.92148]]]]}},{"type":"Feature","properties":{"id":"nz-mwt","lat":-39.62702,"lng":175.5809},"geometry":{"type":"Polygon","coordinates":[[[175.14129,-40.67441],[175.23714,-40.28592],[175.17067,-40.108],[175.05877,-39.99668],[174.77231,-39.85914],[174.99204,-39.66611],[174.99276,-39.5566],[174.71838,-39.14119],[174.82075,-38.99184],[174.79877,-38.83463],[174.94088,-38.75014],[174.97116,-38.66875],[175.22427,-38.63377],[175.51744,-38.47957],[175.62828,-38.57434],[175.52637,-38.75769],[175.57329,-38.80419],[175.56534,-38.96847],[175.66559,-38.98191],[175.59417,-39.2745],[175.8139,-39.29729],[176.02122,-39.08477],[176.08182,-39.12765],[176.13046,-39.30268],[176.09803,-39.36404],[176.19337,-39.50392],[176.14275,-39.58793],[176.20168,-39.67401],[176.10711,-39.99808],[176.31671,-40.07363],[176.38906,-40.36214],[176.62843,-40.46209],[176.54249,-40.48602],[176.34799,-40.69655],[176.08747,-40.69325],[175.83066,-40.7751],[175.72015,-40.69699],[175.26213,-40.76626],[175.14129,-40.67441]]]}},{"type":"Feature","properties":{"id":"nz-nsn","lat":-41.22917,"lng":173.40793},"geometry":{"type":"Polygon","coordinates":[[[173.18498,-41.31021],[173.56397,-41.10377],[173.59047,-41.05568],[173.56515,-41.14813],[173.34408,-41.36388],[173.28527,-41.38864],[173.18498,-41.31021]]]}},{"type":"Feature","properties":{"id":"nz-ntl","lat":-35.41465,"lng":173.98966},"geometry":{"type":"Polygon","coordinates":[[[174.65622,-36.13347],[174.35304,-36.29608],[174.30014,-36.26458],[174.36354,-36.28191],[174.43181,-36.13299],[174.33253,-36.2278],[174.28468,-36.11793],[174.1823,-36.1452],[174.31886,-36.24147],[174.26059,-36.26824],[174.07521,-36.16806],[173.90056,-35.95965],[173.94679,-35.91644],[173.90797,-35.87029],[173.88014,-35.95965],[174.20281,-36.34759],[174.07985,-36.39951],[174.0241,-36.26816],[173.40724,-35.57122],[173.45786,-35.43792],[173.54152,-35.45257],[173.6609,-35.31292],[173.59636,-35.29485],[173.59262,-35.33652],[173.56528,-35.27451],[173.56642,-35.36053],[173.40699,-35.39121],[173.36997,-35.51653],[173.27215,-35.39137],[173.31837,-35.30234],[173.24936,-35.3707],[173.20167,-35.32285],[173.25685,-35.28135],[173.1775,-35.29046],[173.09295,-35.2068],[173.19842,-35.10906],[173.15675,-34.945],[172.79933,-34.55096],[172.67408,-34.47991],[172.70281,-34.4118],[173.07927,-34.41172],[173.0381,-34.52207],[172.97006,-34.46657],[172.90748,-34.54144],[172.99684,-34.56178],[173.0075,-34.65114],[173.03582,-34.55234],[173.07179,-34.69899],[173.18865,-34.83563],[173.11915,-34.7741],[173.12306,-34.80967],[173.29819,-34.90944],[173.26661,-35.00774],[173.3685,-34.96722],[173.35792,-34.86875],[173.4441,-34.79632],[173.50318,-34.86981],[173.40406,-34.90342],[173.45875,-34.98121],[173.58644,-35.01491],[173.58823,-34.9275],[173.78443,-35.0075],[173.72446,-35.06422],[173.76027,-35.09694],[173.80494,-35.01491],[173.89088,-35.00066],[173.99,-35.11875],[174.12794,-35.13649],[174.15504,-35.18231],[174.05812,-35.15154],[174.01498,-35.21697],[174.09352,-35.21982],[174.15113,-35.36972],[174.25164,-35.32252],[174.16456,-35.29013],[174.15504,-35.27451],[174.27719,-35.26767],[174.35304,-35.1994],[174.34018,-35.31178],[174.42237,-35.37371],[174.33253,-35.32903],[174.57838,-35.61793],[174.47657,-35.64324],[174.54737,-35.68792],[174.51743,-35.7208],[174.60678,-35.84352],[174.49692,-35.76849],[174.38551,-35.78948],[174.35523,-35.73528],[174.35271,-35.84197],[174.50375,-35.83001],[174.49692,-35.98756],[174.6211,-36.04225],[174.65622,-36.13347]]]}},{"type":"Feature","properties":{"id":"nz-ota","lat":-45.30754,"lng":169.99473},"geometry":{"type":"Polygon","coordinates":[[[171.17254,-44.95333],[170.92612,-45.23838],[170.86598,-45.48203],[170.62672,-45.70631],[170.75929,-45.77679],[170.55681,-45.89625],[170.77662,-45.78021],[170.77857,-45.87615],[170.33375,-45.98154],[170.21697,-46.17295],[169.89943,-46.3449],[169.84897,-46.46754],[169.65935,-46.49212],[169.75554,-46.49961],[169.73552,-46.53411],[169.21974,-46.66074],[169.22381,-46.49737],[169.15715,-46.35913],[169.18764,-46.20969],[168.99974,-45.76542],[169.1774,-45.37361],[169.04966,-45.28659],[168.85122,-45.43087],[168.6378,-45.25817],[168.46251,-45.31558],[168.30759,-45.29951],[168.23907,-45.13177],[168.27286,-45.0281],[168.16072,-44.96444],[168.1261,-44.863],[168.20506,-44.59666],[168.32888,-44.49],[168.7427,-44.39362],[169.02517,-44.11633],[169.36726,-44.10206],[169.6426,-43.96264],[169.6797,-44.03085],[169.547,-44.20325],[169.55258,-44.44602],[169.66306,-44.58482],[169.90325,-44.66472],[170.07533,-44.91312],[170.30374,-44.91654],[170.39004,-45.0604],[170.7184,-44.89855],[171.17254,-44.95333]]]}},{"type":"Feature","properties":{"id":"nz-stl","lat":-45.45778,"lng":168.17692},"geometry":{"type":"MultiPolygon","coordinates":[[[[167.41871,-47.2326],[167.48699,-47.21893],[167.42677,-47.24456],[167.41871,-47.2326]]],[[[168.25929,-47.08473],[168.19109,-47.06715],[167.90187,-47.18841],[167.7649,-47.13746],[167.61671,-47.21217],[167.72657,-47.20526],[167.67189,-47.26051],[167.51547,-47.25368],[167.63038,-47.15691],[167.62745,-47.06471],[167.74383,-47.02728],[167.73707,-46.95517],[167.8086,-46.92205],[167.75831,-46.80739],[167.80974,-46.69207],[167.96754,-46.6998],[168.17921,-46.86444],[168.16733,-46.90984],[168.00815,-46.89511],[167.96664,-46.97259],[168.04868,-46.93157],[168.13111,-46.99245],[168.23023,-46.97161],[168.24732,-47.04078],[168.19947,-47.04762],[168.25929,-47.08473]]],[[[167.69777,-46.79176],[167.67872,-46.75856],[167.71974,-46.76718],[167.69777,-46.79176]]],[[[168.60572,-46.75457],[168.54217,-46.7597],[168.59002,-46.73235],[168.60572,-46.75457]]],[[[166.75172,-45.66871],[166.72169,-45.73707],[166.65008,-45.73919],[166.62306,-45.6583],[166.5062,-45.72487],[166.56666,-45.63714],[166.71144,-45.61631],[166.75172,-45.66871]]],[[[169.17189,-46.64511],[168.88917,-46.65602],[168.8449,-46.56015],[168.66773,-46.5486],[168.59148,-46.61435],[168.4192,-46.60198],[168.56511,-46.58506],[168.36573,-46.54022],[168.3781,-46.61981],[168.26783,-46.5263],[168.3851,-46.49961],[168.36891,-46.41692],[168.30193,-46.47845],[168.17115,-46.33668],[167.83863,-46.39324],[167.74024,-46.32203],[167.78924,-46.29412],[167.7129,-46.19793],[167.57545,-46.15691],[167.45281,-46.15016],[167.40577,-46.25115],[167.29518,-46.27361],[166.76197,-46.21999],[166.67123,-46.15358],[166.95248,-45.94402],[166.80291,-45.99277],[166.75099,-46.07041],[166.73341,-46.03289],[166.61606,-46.08807],[166.65854,-46.00018],[166.8086,-45.93043],[166.69125,-45.9402],[166.7326,-45.8624],[166.48976,-46.01295],[166.4734,-45.81732],[166.88966,-45.77646],[167.00847,-45.71852],[166.77426,-45.71885],[166.89096,-45.64984],[166.77768,-45.65667],[166.78199,-45.59417],[166.99195,-45.57545],[166.95248,-45.54681],[167.05494,-45.49163],[166.71461,-45.57562],[166.76759,-45.4096],[166.95248,-45.43694],[166.80926,-45.35719],[166.82553,-45.31715],[166.89096,-45.28297],[166.95932,-45.32708],[166.93214,-45.35508],[167.04754,-45.36191],[167.01108,-45.42645],[167.09718,-45.38209],[167.20574,-45.47861],[167.04754,-45.32708],[167.18051,-45.28476],[167.25913,-45.33164],[167.30885,-45.31341],[167.24366,-45.30389],[167.24724,-45.25311],[167.04754,-45.26971],[167.01206,-45.13291],[167.17075,-45.18475],[167.05494,-45.10174],[167.1185,-45.03924],[167.19215,-45.13592],[167.27467,-45.09441],[167.15154,-45.00758],[167.3357,-45.03721],[167.19898,-44.96404],[167.38575,-44.84238],[167.44972,-44.88942],[167.45965,-44.99188],[167.51417,-44.99261],[167.45769,-44.78932],[167.55519,-44.78582],[167.56813,-44.88201],[167.59474,-44.79339],[167.54884,-44.73447],[167.67937,-44.76539],[167.60304,-44.68336],[167.78126,-44.59433],[167.93263,-44.69703],[167.83644,-44.5053],[168.02817,-44.32041],[168.24155,-44.26562],[168.37394,-44.36975],[168.18584,-44.63392],[168.1261,-44.863],[168.16072,-44.96444],[168.27286,-45.0281],[168.23907,-45.13177],[168.30759,-45.29951],[168.46251,-45.31558],[168.6378,-45.25817],[168.85122,-45.43087],[169.04966,-45.28659],[169.19508,-45.41614],[169.00016,-45.73772],[169.18764,-46.20969],[169.15715,-46.35913],[169.22505,-46.51737],[169.17189,-46.64511]]],[[[167.03443,-45.30047],[166.89332,-45.24342],[166.96616,-45.14959],[166.99708,-45.23317],[167.03443,-45.30047]]]]}},{"type":"Feature","properties":{"id":"nz-tas","lat":-41.41882,"lng":172.87998},"geometry":{"type":"Polygon","coordinates":[[[172.23341,-40.7776],[172.50709,-40.58945],[172.59262,-40.6041],[172.62615,-40.56512],[172.55738,-40.56512],[172.64145,-40.5097],[172.99684,-40.52418],[172.7422,-40.52093],[172.66041,-40.64772],[172.69451,-40.75018],[172.86931,-40.84726],[173.00343,-40.782],[173.00978,-40.8668],[173.06495,-40.88665],[172.99684,-41.01702],[173.06935,-41.1242],[173.03093,-41.1491],[173.08351,-41.18922],[173.07927,-41.2846],[173.28527,-41.38864],[173.26232,-41.51411],[173.17323,-41.53379],[172.93831,-41.74815],[172.70629,-42.11598],[172.40956,-42.31251],[172.32533,-42.16208],[172.14167,-42.09908],[172.08131,-41.99899],[172.1148,-41.75802],[172.24327,-41.69931],[172.41411,-41.42765],[172.54629,-41.40998],[172.57131,-41.27681],[172.70164,-41.20911],[172.46485,-41.04762],[172.32336,-41.0624],[172.35675,-40.96282],[172.23341,-40.7776]]]}},{"type":"Feature","properties":{"id":"nz-tki","lat":-39.25498,"lng":174.29255},"geometry":{"type":"Polygon","coordinates":[[[174.77231,-39.85914],[174.56764,-39.82675],[174.31902,-39.61386],[173.85125,-39.46396],[173.76531,-39.34694],[173.80714,-39.16302],[174.2116,-38.97332],[174.41505,-38.96307],[174.57887,-38.83945],[174.6176,-38.70737],[174.86832,-38.77706],[174.79877,-38.83463],[174.82075,-38.99184],[174.71838,-39.14119],[174.96961,-39.4963],[174.99204,-39.66611],[174.77231,-39.85914]]]}},{"type":"Feature","properties":{"id":"nz-wgn","lat":-41.16436,"lng":175.38753},"geometry":{"type":"Polygon","coordinates":[[[176.34799,-40.69655],[175.96681,-41.247],[175.33033,-41.6098],[175.22169,-41.6137],[175.18181,-41.4179],[175.03517,-41.38079],[174.92791,-41.44362],[174.86557,-41.41953],[174.88966,-41.22454],[174.78541,-41.24944],[174.81007,-41.33375],[174.60939,-41.29192],[174.6115,-41.2374],[174.86598,-41.10418],[174.84197,-41.04371],[175.14129,-40.67441],[175.26213,-40.76626],[175.72015,-40.69699],[175.83066,-40.7751],[176.08747,-40.69325],[176.34799,-40.69655]]]}},{"type":"Feature","properties":{"id":"nz-wko","lat":-37.91945,"lng":175.372},"geometry":{"type":"MultiPolygon","coordinates":[[[[174.61948,-38.70403],[174.70981,-38.10475],[174.84669,-38.15374],[174.94264,-38.09734],[174.792,-38.08473],[174.88803,-37.96689],[174.7881,-37.98528],[174.79184,-37.872],[174.97682,-37.80381],[174.96998,-37.7348],[174.85035,-37.76491],[174.72853,-37.45778],[174.71795,-37.40114],[174.8379,-37.29901],[174.72853,-37.36297],[174.6729,-37.29377],[175.09841,-37.18921],[175.15965,-37.16021],[175.18318,-37.03963],[175.32602,-37.00945],[175.3672,-37.20721],[175.56276,-37.17995],[175.57862,-37.23724],[175.62794,-37.24196],[175.52784,-36.9625],[175.43621,-36.86468],[175.50318,-36.86175],[175.4559,-36.83734],[175.53712,-36.78607],[175.49757,-36.63128],[175.37062,-36.55926],[175.35426,-36.49098],[175.53224,-36.50774],[175.6281,-36.76385],[175.85174,-36.71836],[175.70362,-36.84482],[175.73683,-36.89039],[175.76498,-36.82366],[175.85076,-36.841],[175.86801,-37.0534],[175.91969,-37.05462],[175.88795,-37.24196],[175.95874,-37.36866],[175.87477,-37.45286],[175.89131,-37.49916],[175.80925,-37.50805],[175.97482,-37.97949],[176.08603,-38.05742],[176.10032,-38.15719],[176.4983,-38.38732],[176.48538,-38.50556],[176.25511,-38.80818],[176.21503,-38.98677],[176.08182,-39.12765],[176.02122,-39.08477],[175.8139,-39.29729],[175.59417,-39.2745],[175.66559,-38.98191],[175.56534,-38.96847],[175.57329,-38.80419],[175.52637,-38.75769],[175.6288,-38.58783],[175.56549,-38.49453],[175.46313,-38.48461],[175.22427,-38.63377],[174.97116,-38.66875],[174.86832,-38.77706],[174.61948,-38.70403]]],[[[175.84132,-36.62721],[175.79754,-36.62176],[175.77198,-36.57659],[175.79916,-36.56976],[175.84132,-36.62721]]]]}},{"type":"Feature","properties":{"id":"nz-wtc","lat":-42.62399,"lng":171.55229},"geometry":{"type":"Polygon","coordinates":[[[168.24155,-44.26562],[168.10328,-44.25823],[168.30714,-44.14886],[168.37086,-44.03916],[168.64584,-43.96453],[168.80372,-43.99725],[169.41961,-43.65057],[169.73365,-43.56569],[170.10499,-43.25807],[170.23878,-43.23789],[170.30356,-43.16221],[170.20053,-43.21673],[170.28932,-43.10687],[170.85841,-42.84336],[171.22541,-42.45069],[171.48878,-41.83034],[171.46811,-41.76629],[171.85523,-41.66546],[172.07081,-41.41424],[172.09254,-41.29925],[172.13966,-41.29144],[172.10678,-40.8869],[172.19484,-40.80023],[172.23341,-40.7776],[172.35675,-40.96282],[172.33236,-41.07062],[172.46485,-41.04762],[172.69853,-41.2025],[172.57131,-41.27681],[172.54629,-41.40998],[172.41411,-41.42765],[172.24327,-41.69931],[172.11955,-41.74794],[172.06405,-41.95465],[172.14167,-42.09908],[172.32533,-42.16208],[172.3955,-42.30569],[172.48459,-42.286],[172.44697,-42.36915],[171.76515,-42.79728],[171.71658,-42.90038],[171.32776,-42.96456],[170.59582,-43.4235],[170.20463,-43.53249],[169.67195,-43.97551],[169.59898,-43.96595],[169.36726,-44.10206],[169.02517,-44.11633],[168.7148,-44.40613],[168.32888,-44.49],[168.35089,-44.33207],[168.24155,-44.26562]]]}},{"type":"Feature","properties":{"id":"nz-x01~","lat":-29.25066,"lng":-177.92303},"geometry":{"type":"Polygon","coordinates":[[[-177.84813,-29.27858],[-177.92487,-29.28436],[-177.958,-29.22275],[-177.84813,-29.27858]]]}},{"type":"Feature","properties":{"id":"nz-x03~","lat":-34.15909,"lng":172.13666},"geometry":{"type":"Polygon","coordinates":[[[172.13888,-34.14913],[172.14478,-34.16905],[172.1147,-34.14649],[172.13888,-34.14913]]]}},{"type":"Feature","properties":{"id":"nz-x04~","lat":-49.66465,"lng":178.7883},"geometry":{"type":"Polygon","coordinates":[[[178.83904,-49.62916],[178.82211,-49.71982],[178.71901,-49.70013],[178.77076,-49.62721],[178.83904,-49.62916]]]}},{"type":"Feature","properties":{"id":"nz-x05~","lat":-52.53143,"lng":169.20374},"geometry":{"type":"Polygon","coordinates":[[[169.29352,-52.5202],[169.1953,-52.60031],[169.01539,-52.54266],[169.11359,-52.54645],[169.18625,-52.4692],[169.29352,-52.5202]]]}},{"type":"Feature","properties":{"id":"nz-x06~","lat":-50.70037,"lng":166.10238},"geometry":{"type":"MultiPolygon","coordinates":[[[[166.20525,-50.87566],[165.98552,-50.90439],[165.92408,-50.85125],[165.98569,-50.87461],[166.20525,-50.87566]]],[[[166.28777,-50.54274],[166.16432,-50.68678],[166.22633,-50.69354],[166.12273,-50.70721],[166.2326,-50.75506],[166.19842,-50.79656],[166.24008,-50.85101],[166.06121,-50.83074],[166.08351,-50.7868],[166.04021,-50.75205],[166.05291,-50.7859],[165.99293,-50.77614],[166.02149,-50.83603],[165.89674,-50.85125],[165.9253,-50.754],[166.07879,-50.67555],[166.09588,-50.5359],[166.28777,-50.54274]]]]}},{"type":"Feature","properties":{"id":"nz-x07~","lat":-48.01995,"lng":166.60935},"geometry":{"type":"Polygon","coordinates":[[[166.61883,-47.99798],[166.63722,-48.06243],[166.56837,-48.04192],[166.61883,-47.99798]]]}}]}
