{"type":"FeatureCollection","features":[{"type":"Feature","properties":{"id":"om-ba","lat":24.31832,"lng":56.51498},"geometry":{"type":"Polygon","coordinates":[[[56.07795,24.72976],[56.38331,24.97822],[56.61118,24.49632],[56.93946,24.11591],[57.18426,23.93427],[57.53268,23.82959],[57.41652,23.64262],[57.16367,23.50397],[56.8747,23.49071],[56.76473,23.83648],[56.31267,24.14031],[56.20807,24.53233],[56.07795,24.72976]]]}},{"type":"Feature","properties":{"id":"om-bj","lat":23.57329,"lng":57.70715},"geometry":{"type":"Polygon","coordinates":[[[57.53268,23.82959],[57.88771,23.72085],[58.1316,23.71332],[58.11834,23.46219],[57.87019,23.23432],[57.46009,23.22525],[57.16367,23.50397],[57.41652,23.64262],[57.53268,23.82959]]]}},{"type":"Feature","properties":{"id":"om-bu","lat":24.31735,"lng":56.02986},"geometry":{"type":"Polygon","coordinates":[[[55.93543,24.97773],[56.0056,24.95618],[56.02927,24.86117],[55.95765,24.86866],[56.20807,24.53233],[56.30626,24.227],[56.27869,24.04076],[55.95849,23.97811],[55.95849,23.89458],[55.85407,23.81801],[55.88887,23.67183],[55.81927,23.63006],[55.58259,23.53957],[55.44533,23.55226],[55.53835,23.77005],[55.4568,23.96316],[55.99785,24.08127],[55.93315,24.22072],[55.75415,24.24547],[55.81089,24.38924],[55.75983,24.55853],[55.81823,24.64338],[55.78867,24.8552],[55.93543,24.97773]]]}},{"type":"Feature","properties":{"id":"om-da","lat":22.38843,"lng":57.21961},"geometry":{"type":"Polygon","coordinates":[[[57.83433,22.52307],[58.28991,21.09556],[56.32559,22.01527],[56.52371,22.25378],[56.8747,23.49071],[57.16367,23.50397],[57.46009,23.22525],[57.61378,23.19574],[57.87019,23.23432],[58.11834,23.46219],[58.33497,23.48864],[58.58767,23.24943],[58.54106,23.02229],[58.16206,22.88155],[57.93283,22.71412],[57.83433,22.52307]]]}},{"type":"Feature","properties":{"id":"om-ma","lat":23.35581,"lng":58.68014},"geometry":{"type":"Polygon","coordinates":[[[58.1316,23.71332],[58.31723,23.62092],[58.58416,23.64696],[58.76205,23.54206],[59.0879,23.04841],[59.25913,22.89044],[59.16975,22.79388],[58.84099,22.83409],[58.54106,23.02229],[58.58767,23.24943],[58.33497,23.48864],[58.11834,23.46219],[58.1316,23.71332]]]}},{"type":"Feature","properties":{"id":"om-mu","lat":25.98085,"lng":56.30331},"geometry":{"type":"MultiPolygon","coordinates":[[[[56.34437,25.26653],[56.23577,25.21118],[56.20763,25.22084],[56.26062,25.33107],[56.34437,25.26653]],[[56.26303,25.24922],[56.28833,25.27193],[56.26508,25.28118],[56.26303,25.24922]]],[[[56.15082,25.65885],[56.18348,26.01454],[56.1627,26.07355],[56.0774,26.06105],[56.09148,26.10651],[56.20826,26.26309],[56.21241,26.20783],[56.40414,26.21475],[56.30844,26.2215],[56.36378,26.38597],[56.50099,26.35871],[56.39861,26.2687],[56.48732,26.23518],[56.43198,26.2215],[56.47983,26.14582],[56.39112,26.20108],[56.32879,26.17284],[56.33595,26.11164],[56.36378,26.14582],[56.36378,26.10488],[56.47299,26.09862],[56.38014,26.03824],[56.4533,25.94717],[56.38364,25.92609],[56.27905,25.62745],[56.15082,25.65885]]]]}},{"type":"Feature","properties":{"id":"om-sh","lat":21.57767,"lng":58.76851},"geometry":{"type":"MultiPolygon","coordinates":[[[[58.90626,20.69798],[58.95004,20.50894],[58.65219,20.17048],[58.6482,20.36884],[58.76889,20.45161],[58.90626,20.69798]]],[[[59.50685,22.60008],[59.7461,22.49559],[59.74578,22.53824],[59.80323,22.53474],[59.83937,22.47529],[59.81178,22.23737],[59.68816,22.08271],[59.64527,21.92585],[59.49789,21.75633],[59.34425,21.44473],[59.05437,21.27709],[58.85426,21.06562],[58.66131,20.79633],[58.72804,20.76691],[58.59181,20.64395],[58.51857,20.41681],[58.44581,20.35863],[58.20289,20.40473],[58.39683,21.04424],[58.28991,21.09556],[58.08235,21.71062],[59.05142,22.03857],[59.39149,22.20982],[59.44024,22.3298],[59.42943,22.5653],[59.50685,22.60008]]]]}},{"type":"Feature","properties":{"id":"om-ss","lat":22.42643,"lng":58.64982},"geometry":{"type":"Polygon","coordinates":[[[59.25913,22.89044],[59.4839,22.61884],[59.42943,22.5653],[59.44024,22.3298],[59.39149,22.20982],[59.05142,22.03857],[58.08235,21.71062],[57.83433,22.52307],[57.93283,22.71412],[58.16206,22.88155],[58.54106,23.02229],[58.84099,22.83409],[59.16975,22.79388],[59.25913,22.89044]]]}},{"type":"Feature","properties":{"id":"om-wu","lat":20.43981,"lng":56.88992},"geometry":{"type":"Polygon","coordinates":[[[55.34462,21.09691],[55.60017,21.86606],[56.32559,22.01527],[58.39683,21.04424],[58.25511,20.60927],[58.09083,20.56684],[58.07586,20.48005],[57.95582,20.39956],[57.96656,20.33023],[57.82374,20.20108],[57.81365,19.977],[57.68922,19.72818],[57.77394,19.40965],[57.75066,19.26805],[57.8401,19.01533],[57.70973,18.944],[57.44529,18.94534],[56.57725,19.1656],[55.34462,21.09691]]]}},{"type":"Feature","properties":{"id":"om-za","lat":22.86433,"lng":55.94389},"geometry":{"type":"Polygon","coordinates":[[[55.18684,22.70358],[55.1948,23.02508],[55.37526,23.46934],[55.44533,23.55226],[55.58259,23.53957],[55.88887,23.67183],[55.85407,23.81801],[55.95849,23.89458],[55.95849,23.97811],[56.27869,24.04076],[56.31267,24.14031],[56.76473,23.83648],[56.8747,23.49071],[56.52371,22.25378],[56.32559,22.01527],[55.60017,21.86606],[55.62671,22.02377],[55.18684,22.70358]]]}},{"type":"Feature","properties":{"id":"om-zu","lat":18.80248,"lng":54.49868},"geometry":{"type":"MultiPolygon","coordinates":[[[[55.83619,17.49091],[55.86297,17.51887],[55.89088,17.50458],[55.83619,17.49091]]],[[[55.99057,17.53539],[56.09555,17.51887],[55.97283,17.49836],[55.99057,17.53539]]],[[[51.97861,18.99564],[54.97838,19.99542],[55.34462,21.09691],[56.57725,19.1656],[57.44529,18.94534],[57.08375,18.87637],[56.78468,18.72858],[56.64112,18.55927],[56.56129,18.14924],[56.35629,17.94001],[56.0311,17.94343],[55.44516,17.84101],[55.2282,17.53876],[55.30079,17.41681],[55.26026,17.23428],[55.02687,17.01113],[54.79184,16.9514],[54.59205,17.03848],[54.08497,17.01113],[53.98113,16.90876],[53.75318,16.86774],[53.61541,16.75788],[53.33863,16.73481],[53.09034,16.6424],[52.80156,17.26742],[52.72146,17.29817],[51.97861,18.99564]]]]}}]}
