{"type":"FeatureCollection","features":[{"type":"Feature","properties":{"id":"pa-1","lat":9.23094,"lng":-82.65098},"geometry":{"type":"MultiPolygon","coordinates":[[[[-82.05008,9.14594],[-82.02887,9.16919],[-82.01048,9.14146],[-82.05008,9.14594]]],[[[-82.84747,9.60065],[-82.61885,9.48671],[-82.5736,9.5762],[-82.34276,9.43252],[-82.39367,9.26211],[-82.31481,9.18549],[-82.17081,9.19977],[-82.17764,9.14517],[-82.26073,9.16405],[-82.26016,9.02098],[-82.01589,8.91938],[-82.17901,8.84437],[-82.20151,8.95498],[-82.32151,9.00937],[-82.28027,9.08061],[-82.32339,9.1275],[-82.43964,8.99999],[-82.33463,8.92498],[-82.36295,8.80879],[-82.56769,8.89974],[-82.69275,8.89432],[-82.93938,9.05958],[-82.9417,9.45635],[-82.84638,9.49255],[-82.84747,9.60065]]],[[[-82.08528,9.30268],[-82.13882,9.24531],[-82.21178,9.34935],[-82.15657,9.34935],[-82.08528,9.30268]]],[[[-82.32848,9.41206],[-82.23876,9.39875],[-82.24596,9.33006],[-82.32848,9.41206]]]]}},{"type":"Feature","properties":{"id":"pa-2","lat":8.58976,"lng":-80.42203},"geometry":{"type":"Polygon","coordinates":[[[-80.0408,8.39798],[-80.22496,8.30105],[-80.38577,8.31135],[-80.47818,8.20234],[-80.47846,8.09138],[-80.66275,8.12405],[-80.73406,8.16353],[-80.69347,8.30931],[-80.82209,8.53775],[-80.69499,8.64177],[-80.65169,8.76701],[-80.54247,8.79096],[-80.52394,8.92488],[-80.34173,8.87656],[-80.19223,9.04748],[-80.0408,8.39798]]]}},{"type":"Feature","properties":{"id":"pa-3","lat":9.15032,"lng":-80.12544},"geometry":{"type":"Polygon","coordinates":[[[-80.57934,9.08069],[-80.12971,9.2062],[-79.97894,9.36335],[-79.90905,9.30842],[-79.87121,9.4042],[-79.79296,9.34935],[-79.79296,9.4182],[-79.63034,9.60847],[-79.07453,9.56204],[-79.07891,9.451],[-79.23932,9.32049],[-79.26694,9.40731],[-79.39613,9.39591],[-79.37125,9.43253],[-79.44078,9.47901],[-79.5225,9.45425],[-79.57372,9.21825],[-79.70474,9.11001],[-79.90594,9.19063],[-79.9854,8.9778],[-80.13745,8.94925],[-80.19223,9.04748],[-80.34173,8.87656],[-80.52394,8.92488],[-80.54247,8.79096],[-80.65169,8.76701],[-80.73941,8.61524],[-80.73354,8.74458],[-80.8626,8.88507],[-80.57934,9.08069]]]}},{"type":"Feature","properties":{"id":"pa-4","lat":8.45969,"lng":-82.53176},"geometry":{"type":"MultiPolygon","coordinates":[[[[-82.31823,8.09992],[-82.33235,8.12971],[-82.32071,8.13032],[-82.31823,8.09992]]],[[[-82.21178,8.1992],[-82.24596,8.17129],[-82.31566,8.21491],[-82.27383,8.23334],[-82.21178,8.1992]]],[[[-82.33487,8.23509],[-82.38646,8.21288],[-82.4309,8.26],[-82.35001,8.29365],[-82.33487,8.23509]]],[[[-82.94367,8.24857],[-83.05211,8.32763],[-82.83892,8.49462],[-82.92297,8.75616],[-82.72016,8.92024],[-82.15322,8.76262],[-82.18017,8.45788],[-82.06449,8.4615],[-81.99713,8.33998],[-81.73206,8.26216],[-81.54783,8.38569],[-81.51047,8.28123],[-81.66357,7.99729],[-81.74625,8.1918],[-81.78038,8.12348],[-81.95181,8.19143],[-81.93118,8.23334],[-81.97838,8.19253],[-82.11559,8.23334],[-82.15652,8.15766],[-82.14346,8.21292],[-82.21923,8.21906],[-82.18444,8.34321],[-82.40014,8.28799],[-82.4309,8.35627],[-82.47086,8.27713],[-82.65892,8.32278],[-82.80871,8.29568],[-82.87719,8.21906],[-82.87694,8.02387],[-82.94367,8.24857]]]]}},{"type":"Feature","properties":{"id":"pa-5","lat":8.14901,"lng":-78.03642},"geometry":{"type":"Polygon","coordinates":[[[-77.26943,8.1677],[-77.16327,7.93926],[-77.30042,7.9021],[-77.3799,7.77441],[-77.33974,7.70723],[-77.57999,7.52838],[-77.76421,7.70573],[-77.73125,7.53034],[-77.82018,7.47655],[-77.91881,7.24165],[-78.29214,7.69147],[-78.43615,8.05829],[-78.25219,8.1175],[-78.30578,8.25385],[-78.1997,8.27436],[-78.13248,8.40534],[-78.00255,8.23701],[-77.88598,8.23469],[-77.77815,8.11579],[-77.73721,8.13032],[-77.88069,8.24331],[-78.02318,8.29047],[-78.08812,8.51276],[-78.13443,8.56171],[-78.09415,8.41088],[-78.15685,8.46621],[-78.24059,8.38353],[-78.20275,8.42451],[-78.22326,8.54181],[-78.22326,8.43818],[-78.2574,8.50023],[-78.36726,8.42451],[-78.40819,8.54804],[-78.36099,8.39411],[-78.4097,8.35301],[-78.45118,8.81969],[-78.30901,8.80672],[-78.17499,8.87196],[-78.01534,9.07325],[-77.69484,8.78608],[-77.82181,8.73285],[-77.9086,8.62167],[-77.73168,8.25826],[-77.53862,8.08165],[-77.26943,8.1677]],[[-78.08311,7.91773],[-78.18344,8.09356],[-78.22545,8.06933],[-78.20199,8.00122],[-78.33449,7.94515],[-78.197,7.67785],[-77.99089,7.59026],[-77.95304,7.77921],[-78.01621,7.93135],[-78.08311,7.91773]]]}},{"type":"Feature","properties":{"id":"pa-6","lat":7.85836,"lng":-80.73692},"geometry":{"type":"Polygon","coordinates":[[[-80.47846,8.09138],[-80.37551,7.99722],[-80.57877,7.81526],[-80.55678,7.70888],[-80.71969,7.52959],[-80.94275,7.76583],[-80.94343,7.90146],[-80.84994,7.98083],[-80.85356,8.05995],[-80.74204,8.12979],[-80.47846,8.09138]]]}},{"type":"Feature","properties":{"id":"pa-7","lat":7.58335,"lng":-80.35001},"geometry":{"type":"Polygon","coordinates":[[[-80.37551,7.99722],[-80.0524,7.63711],[-79.99466,7.50345],[-80.13553,7.42463],[-80.25906,7.43826],[-80.30687,7.42463],[-80.25906,7.42463],[-80.35757,7.38202],[-80.34756,7.31826],[-80.43725,7.24649],[-80.60407,7.23672],[-80.71969,7.52959],[-80.55678,7.70888],[-80.57877,7.81526],[-80.37551,7.99722]]]}},{"type":"Feature","properties":{"id":"pa-8","lat":8.91625,"lng":-78.5181},"geometry":{"type":"MultiPolygon","coordinates":[[[[-79.11243,8.31741],[-79.06574,8.26076],[-79.12271,8.20898],[-79.11243,8.31741]]],[[[-78.88018,8.46846],[-78.83448,8.34281],[-78.92048,8.28257],[-78.90399,8.21922],[-78.9699,8.3051],[-78.97471,8.44437],[-78.88018,8.46846]]],[[[-79.09284,8.37718],[-79.11824,8.42911],[-79.08025,8.39093],[-79.09284,8.37718]]],[[[-79.56915,8.78312],[-79.54185,8.78676],[-79.54338,8.77554],[-79.56915,8.78312]]],[[[-78.4097,8.35301],[-78.53173,8.576],[-78.48396,8.576],[-78.50438,8.63402],[-78.61254,8.66975],[-78.61425,8.7746],[-78.65152,8.70795],[-78.79988,8.86335],[-78.838,8.81696],[-78.87389,8.89118],[-79.08723,8.99433],[-79.08088,9.06281],[-79.10774,9.08307],[-79.0699,9.09333],[-79.05248,9.12401],[-79.0277,9.11103],[-78.97737,9.14517],[-79.05248,9.13085],[-79.11905,9.0832],[-79.11608,8.99413],[-79.42748,9.01337],[-79.51919,8.96638],[-79.51183,8.89814],[-79.5664,8.95954],[-79.57848,8.88227],[-79.7036,8.87018],[-79.7508,8.6896],[-79.82631,8.63852],[-79.70061,8.64155],[-80.0408,8.39798],[-80.16177,8.87228],[-80.09265,8.98369],[-79.95594,8.99697],[-79.90594,9.19063],[-79.77823,9.11435],[-79.66976,9.12815],[-79.56878,9.22391],[-79.48519,9.4694],[-79.39122,9.45953],[-79.39143,9.39397],[-79.25671,9.40242],[-79.27205,9.27954],[-79.01114,9.2776],[-78.93277,9.34633],[-78.77059,9.37147],[-78.61008,9.31778],[-78.51288,9.34969],[-78.40875,9.24362],[-78.15869,9.20303],[-78.15884,9.13996],[-78.04254,9.07325],[-78.08407,8.93436],[-78.17499,8.87196],[-78.30901,8.80672],[-78.45118,8.81969],[-78.4097,8.35301]]],[[[-79.13053,8.95946],[-79.12309,8.95152],[-79.13142,8.94302],[-79.13053,8.95946]]]]}},{"type":"Feature","properties":{"id":"pa-9","lat":8.02862,"lng":-81.25467},"geometry":{"type":"MultiPolygon","coordinates":[[[[-81.81916,7.28872],[-81.76671,7.28742],[-81.80089,7.22598],[-81.81916,7.28872]]],[[[-81.71898,7.45254],[-81.588,7.33519],[-81.74625,7.34886],[-81.8828,7.51679],[-81.73884,7.64427],[-81.67178,7.52635],[-81.71898,7.45254]]],[[[-81.22273,7.52106],[-81.03307,7.57543],[-81.25194,7.49042],[-81.22273,7.52106]]],[[[-81.22274,8.75776],[-80.8626,8.88507],[-80.72819,8.73014],[-80.75132,8.58638],[-80.82209,8.53775],[-80.69347,8.30931],[-80.73809,8.18069],[-80.68701,8.1326],[-80.85356,8.05995],[-80.94699,7.78841],[-80.71969,7.52959],[-80.60407,7.23672],[-80.86181,7.20571],[-80.92972,7.2565],[-80.89159,7.36017],[-80.94632,7.55569],[-81.04129,7.66169],[-81.02623,7.74673],[-81.08609,7.77912],[-81.02127,7.8227],[-81.05358,7.9112],[-81.08768,7.84231],[-81.19241,7.86335],[-81.19994,7.89362],[-81.21805,7.89753],[-81.1647,7.78901],[-81.21805,7.72626],[-81.21805,7.75418],[-81.24596,7.75418],[-81.19327,7.70075],[-81.22549,7.60895],[-81.52579,7.71145],[-81.48876,7.74921],[-81.57494,7.7604],[-81.60912,7.98635],[-81.63329,7.94587],[-81.66357,7.99729],[-81.51311,8.25105],[-81.48861,8.59694],[-81.15607,8.49553],[-81.22274,8.75776]]]]}},{"type":"Feature","properties":{"id":"pa-em","lat":8.43996,"lng":-77.64003},"geometry":{"type":"MultiPolygon","coordinates":[[[[-78.16734,8.08194],[-78.08311,7.91773],[-78.01621,7.93135],[-77.95304,7.77921],[-77.99089,7.59026],[-78.197,7.67785],[-78.3272,7.8798],[-78.32932,7.95975],[-78.20199,8.00122],[-78.22545,8.06933],[-78.16734,8.08194]]],[[[-77.69251,8.77241],[-77.26943,8.1677],[-77.53862,8.08165],[-77.73168,8.25826],[-77.9086,8.62167],[-77.82181,8.73285],[-77.69251,8.77241]]]]}},{"type":"Feature","properties":{"id":"pa-ky","lat":9.02563,"lng":-77.88367},"geometry":{"type":"Polygon","coordinates":[[[-77.37353,8.66474],[-77.46937,8.53781],[-77.91191,8.99697],[-78.15884,9.13996],[-78.15869,9.20303],[-78.40875,9.24362],[-78.51288,9.34969],[-78.87136,9.35938],[-79.01114,9.2776],[-79.27903,9.30336],[-79.14206,9.37785],[-79.07499,9.45728],[-79.07453,9.56204],[-79.0129,9.57023],[-78.95736,9.55403],[-79.05487,9.53196],[-79.05806,9.45793],[-78.43771,9.40435],[-78.0369,9.23639],[-77.85574,9.05429],[-77.8601,9.11042],[-77.72077,8.89229],[-77.54369,8.77488],[-77.53214,8.7032],[-77.37353,8.66474]]]}},{"type":"Feature","properties":{"id":"pa-nb","lat":8.67978,"lng":-81.68612},"geometry":{"type":"MultiPolygon","coordinates":[[[[-81.99771,8.94745],[-81.77554,8.94025],[-81.77424,8.99746],[-81.93342,9.12922],[-81.87287,9.12954],[-81.8828,9.17951],[-81.53905,8.81293],[-81.21307,8.79181],[-81.21054,8.5863],[-81.15607,8.49553],[-81.48861,8.59694],[-81.52249,8.37933],[-81.59212,8.37187],[-81.65589,8.28185],[-81.78431,8.26404],[-81.83001,8.31841],[-81.99713,8.33998],[-82.06449,8.4615],[-82.18017,8.45788],[-82.15322,8.76262],[-82.36295,8.80879],[-82.33463,8.92498],[-82.43964,8.99999],[-82.32339,9.1275],[-82.28027,9.08061],[-82.32151,9.00937],[-82.20151,8.95498],[-82.17901,8.84437],[-81.99771,8.94745]]],[[[-81.57167,9.0896],[-81.54722,9.10274],[-81.53449,9.08592],[-81.57167,9.0896]]]]}}]}
