{"type":"FeatureCollection","features":[{"type":"Feature","properties":{"id":"pe-ama","lat":-5.04093,"lng":-78.17757},"geometry":{"type":"Polygon","coordinates":[[[-78.22631,-3.50702],[-78.15453,-3.45679],[-78.19641,-3.36367],[-77.81037,-2.96715],[-77.534,-4.0211],[-77.57854,-4.4387],[-77.77259,-4.79759],[-77.73329,-5.13323],[-77.63998,-5.38463],[-77.7129,-5.47486],[-77.72468,-5.68043],[-77.56927,-5.99426],[-77.25468,-6.12107],[-77.16368,-6.33977],[-77.37946,-6.59954],[-77.71657,-6.58751],[-77.78137,-6.92118],[-77.74243,-6.99404],[-78.00464,-7.00071],[-78.01603,-6.76036],[-78.13127,-6.52436],[-78.34924,-6.35046],[-78.44968,-6.15037],[-78.61941,-6.05953],[-78.77309,-5.83282],[-78.74684,-5.68865],[-78.60726,-5.50209],[-78.65,-5.14728],[-78.57724,-4.94864],[-78.70893,-4.58511],[-78.63721,-4.43513],[-78.68243,-4.32692],[-78.56207,-3.97976],[-78.41968,-3.79103],[-78.35079,-3.38961],[-78.25718,-3.40956],[-78.22631,-3.50702]]]}},{"type":"Feature","properties":{"id":"pe-anc","lat":-9.48878,"lng":-77.65391},"geometry":{"type":"Polygon","coordinates":[[[-77.8906,-10.60254],[-78.18233,-10.11085],[-78.22942,-9.79378],[-78.3699,-9.61543],[-78.41475,-9.36213],[-78.52672,-9.26963],[-78.49741,-9.18954],[-78.55857,-9.18373],[-78.55311,-9.24418],[-78.61115,-9.17652],[-78.55945,-9.12819],[-78.66196,-8.98512],[-78.57463,-8.7835],[-78.25439,-8.65844],[-78.11977,-8.31246],[-77.89769,-8.06421],[-77.64701,-8.01073],[-77.60539,-8.15211],[-77.34951,-8.4353],[-77.19154,-8.84659],[-76.73815,-9.17205],[-77.07286,-9.76984],[-76.98827,-10.05923],[-76.90558,-10.11659],[-76.93163,-10.28681],[-77.15014,-10.38479],[-77.19743,-10.51817],[-77.49358,-10.74544],[-77.58782,-10.74425],[-77.602,-10.58142],[-77.75396,-10.52065],[-77.67722,-10.42484],[-77.7005,-10.36572],[-77.78096,-10.36712],[-77.81439,-10.54928],[-77.8906,-10.60254]]]}},{"type":"Feature","properties":{"id":"pe-apu","lat":-14.07715,"lng":-72.85471},"geometry":{"type":"Polygon","coordinates":[[[-72.9305,-13.39396],[-72.43022,-13.59772],[-72.1652,-13.78422],[-72.0826,-13.93724],[-72.112,-14.21706],[-72.27855,-14.4169],[-72.48802,-14.52769],[-72.48606,-14.67399],[-72.77785,-14.66148],[-72.84798,-14.73156],[-73.03132,-14.62743],[-73.22769,-14.71094],[-73.35712,-14.69967],[-73.42474,-14.79853],[-73.51936,-14.82034],[-73.57385,-14.69332],[-73.49858,-14.59565],[-73.53486,-14.24332],[-73.74477,-13.79182],[-73.69051,-13.73332],[-73.81329,-13.59984],[-73.82887,-13.26456],[-73.77999,-13.20746],[-73.49259,-13.4274],[-73.26196,-13.47716],[-73.22098,-13.42176],[-73.09659,-13.45815],[-72.9305,-13.39396]]]}},{"type":"Feature","properties":{"id":"pe-are","lat":-16.08311,"lng":-72.37448},"geometry":{"type":"Polygon","coordinates":[[[-71.48848,-17.31799],[-72.11815,-17.0193],[-72.44009,-16.71445],[-72.78132,-16.62933],[-73.42032,-16.29314],[-73.70069,-16.24459],[-74.04662,-15.96014],[-74.39801,-15.82686],[-74.46307,-15.72672],[-75.07575,-15.43766],[-74.96206,-15.23814],[-74.72662,-15.08792],[-74.4685,-15.19551],[-74.4132,-15.35203],[-74.28897,-15.47621],[-74.11384,-15.44831],[-74.07253,-15.60835],[-73.89055,-15.44691],[-73.45716,-15.3649],[-73.28283,-15.39493],[-73.28113,-15.28625],[-73.1631,-15.29374],[-73.03373,-15.12951],[-73.01081,-14.8377],[-72.84377,-14.80246],[-72.84798,-14.73156],[-72.76269,-14.65916],[-72.48606,-14.67399],[-72.39818,-14.82824],[-72.15985,-14.79744],[-72.07916,-14.88317],[-72.01165,-14.66918],[-71.8059,-14.87341],[-71.85695,-14.92855],[-71.85,-15.05526],[-71.66702,-15.1136],[-71.51343,-15.07262],[-71.50439,-15.01733],[-71.31143,-15.11748],[-71.20632,-15.07789],[-71.17764,-15.21778],[-71.02941,-15.3341],[-71.01401,-15.55698],[-70.90536,-15.67997],[-70.93729,-15.78627],[-70.83712,-15.93298],[-70.86399,-16.20609],[-70.95938,-16.35802],[-70.95936,-16.46261],[-71.20529,-16.49858],[-71.30693,-16.62488],[-71.30647,-16.73515],[-71.44768,-16.8444],[-71.33174,-17.04532],[-71.48848,-17.31799]]]}},{"type":"Feature","properties":{"id":"pe-aya","lat":-13.90579,"lng":-74.22171},"geometry":{"type":"Polygon","coordinates":[[[-73.96147,-12.27718],[-73.85848,-12.50451],[-73.66847,-12.69153],[-73.55543,-12.96556],[-73.56362,-13.09217],[-73.22098,-13.42176],[-73.2509,-13.47701],[-73.46399,-13.44068],[-73.77999,-13.20746],[-73.82887,-13.26456],[-73.81329,-13.59984],[-73.69051,-13.73332],[-73.74477,-13.79182],[-73.53486,-14.24332],[-73.49858,-14.59565],[-73.57385,-14.69332],[-73.53372,-14.80525],[-73.43316,-14.80395],[-73.35712,-14.69967],[-73.22769,-14.71094],[-73.03132,-14.62743],[-72.84798,-14.73156],[-72.83573,-14.78711],[-73.01081,-14.8377],[-73.03373,-15.12951],[-73.1631,-15.29374],[-73.28113,-15.28625],[-73.28283,-15.39493],[-73.45716,-15.3649],[-73.89055,-15.44691],[-74.07253,-15.60835],[-74.11384,-15.44831],[-74.27985,-15.48123],[-74.4132,-15.35203],[-74.4685,-15.19551],[-74.71179,-15.12693],[-74.69342,-14.91583],[-74.77205,-14.72995],[-74.90033,-14.55555],[-75.0495,-14.61497],[-75.04981,-14.47746],[-75.13187,-14.39824],[-75.05652,-14.12296],[-74.73499,-14.01976],[-74.79941,-13.57871],[-74.92793,-13.44502],[-74.89969,-13.35092],[-74.78047,-13.3133],[-74.64365,-13.38911],[-74.60296,-13.34534],[-74.68094,-13.28038],[-74.57728,-13.18906],[-74.41096,-13.17077],[-74.39331,-13.01926],[-74.28133,-13.04251],[-74.33923,-12.90805],[-74.29776,-12.78506],[-74.33435,-12.61298],[-74.43315,-12.46301],[-74.55397,-12.39196],[-74.50361,-12.25243],[-74.38747,-12.14711],[-74.21774,-12.30111],[-73.96147,-12.27718]]]}},{"type":"Feature","properties":{"id":"pe-caj","lat":-6.19569,"lng":-78.85137},"geometry":{"type":"Polygon","coordinates":[[[-79.06393,-5.01137],[-78.98034,-4.87397],[-78.90022,-4.84368],[-78.89864,-4.69423],[-78.70893,-4.58511],[-78.57714,-4.96497],[-78.65,-5.14728],[-78.60726,-5.50209],[-78.74684,-5.68865],[-78.77309,-5.83282],[-78.61941,-6.05953],[-78.44968,-6.15037],[-78.32444,-6.37703],[-78.17533,-6.45888],[-78.02451,-6.74005],[-78.00464,-7.00071],[-77.75442,-7.46848],[-77.91829,-7.50889],[-77.94195,-7.66992],[-78.12773,-7.66728],[-78.29356,-7.7679],[-78.3958,-7.64641],[-78.784,-7.55437],[-78.94029,-7.60739],[-79.0028,-7.70335],[-79.06796,-7.65106],[-79.12036,-7.46414],[-79.38308,-7.33371],[-79.32027,-6.89684],[-79.16242,-6.74253],[-79.32128,-6.67081],[-79.44631,-6.52001],[-79.45977,-6.36095],[-79.25994,-6.24101],[-79.29689,-6.14882],[-79.21653,-6.04795],[-79.30908,-5.98227],[-79.45109,-5.98899],[-79.35525,-5.90677],[-79.419,-5.74435],[-79.40926,-5.54483],[-79.32104,-5.48018],[-79.38838,-5.17193],[-79.23369,-4.96565],[-79.06393,-5.01137]]]}},{"type":"Feature","properties":{"id":"pe-cal","lat":-12.02055,"lng":-77.13751},"geometry":{"type":"MultiPolygon","coordinates":[[[[-77.23271,-12.06544],[-77.18154,-12.11591],[-77.25366,-12.06349],[-77.23271,-12.06544]]],[[[-77.10762,-12.04206],[-77.17492,-12.07187],[-77.14075,-11.99903],[-77.10762,-12.04206]]]]}},{"type":"Feature","properties":{"id":"pe-cus","lat":-13.22795,"lng":-71.90433},"geometry":{"type":"Polygon","coordinates":[[[-73.66847,-12.69153],[-73.96147,-12.27718],[-73.70741,-12.2392],[-73.61951,-12.15647],[-73.48781,-11.74667],[-73.68462,-11.64265],[-73.54566,-11.53263],[-73.4352,-11.32406],[-73.09476,-11.28474],[-72.9913,-11.19963],[-72.90916,-11.32845],[-72.5775,-11.42928],[-72.2953,-11.29342],[-72.18047,-11.31321],[-72.34953,-11.7212],[-72.36638,-11.98635],[-72.17226,-12.1173],[-72.10608,-12.28767],[-71.97565,-12.34416],[-71.89067,-12.55753],[-71.91299,-12.66755],[-71.82452,-12.79813],[-71.48563,-12.86919],[-71.01853,-13.07424],[-70.55347,-13.1177],[-70.52138,-13.08773],[-70.56719,-13.0099],[-70.35578,-13.02458],[-70.40267,-13.3382],[-70.54086,-13.4876],[-70.6817,-13.78805],[-70.81745,-13.82629],[-70.84991,-14.01181],[-70.80903,-14.09475],[-70.88936,-14.41018],[-70.97894,-14.44341],[-70.99011,-14.57384],[-71.12625,-14.66365],[-70.99225,-14.77946],[-70.98752,-15.31333],[-71.02941,-15.3341],[-71.17061,-15.22656],[-71.2157,-15.07371],[-71.31143,-15.11748],[-71.50439,-15.01733],[-71.51343,-15.07262],[-71.66702,-15.1136],[-71.85,-15.05526],[-71.85695,-14.92855],[-71.8059,-14.87341],[-72.00307,-14.67182],[-72.07916,-14.88317],[-72.14673,-14.79997],[-72.42227,-14.8146],[-72.49019,-14.72825],[-72.50025,-14.54676],[-72.26956,-14.40847],[-72.08236,-14.11097],[-72.0826,-13.93724],[-72.15084,-13.80598],[-72.43022,-13.59772],[-72.60499,-13.56186],[-72.90428,-13.39474],[-73.09659,-13.45815],[-73.22098,-13.42176],[-73.56362,-13.09217],[-73.55775,-12.95874],[-73.66847,-12.69153]]]}},{"type":"Feature","properties":{"id":"pe-huc","lat":-9.52823,"lng":-75.77543},"geometry":{"type":"Polygon","coordinates":[[[-74.67856,-8.61901],[-74.56428,-8.63229],[-74.51118,-8.71652],[-74.61358,-8.82323],[-74.7199,-9.35529],[-74.53829,-9.64985],[-74.7631,-9.75424],[-75.11812,-9.77351],[-75.35289,-9.87531],[-75.74759,-9.92115],[-75.82997,-10.0753],[-75.76961,-10.32965],[-75.94577,-10.42598],[-76.23697,-10.36252],[-76.39122,-10.26227],[-76.56876,-10.27338],[-76.74996,-10.44375],[-76.92142,-10.32888],[-76.90558,-10.11659],[-76.98827,-10.05923],[-77.07286,-9.76984],[-76.73815,-9.17205],[-77.19154,-8.84659],[-77.32254,-8.53405],[-77.04694,-8.49814],[-76.99462,-8.60232],[-76.77161,-8.53803],[-76.42027,-8.59922],[-76.31291,-8.37975],[-76.14592,-8.72913],[-75.95272,-8.56821],[-75.96954,-8.68448],[-75.88262,-8.99733],[-75.80253,-9.08198],[-75.77545,-9.24527],[-75.61571,-9.40661],[-75.29591,-9.23055],[-75.03914,-8.83791],[-74.67856,-8.61901]]]}},{"type":"Feature","properties":{"id":"pe-huv","lat":-13.06884,"lng":-75.03787},"geometry":{"type":"Polygon","coordinates":[[[-74.38747,-12.14711],[-74.4972,-12.24096],[-74.55397,-12.39196],[-74.43315,-12.46301],[-74.33435,-12.61298],[-74.29776,-12.78506],[-74.33923,-12.90805],[-74.28133,-13.04251],[-74.39331,-13.01926],[-74.41096,-13.17077],[-74.57728,-13.18906],[-74.68094,-13.28038],[-74.60296,-13.34534],[-74.64365,-13.38911],[-74.78047,-13.3133],[-74.89969,-13.35092],[-74.92793,-13.44502],[-74.79941,-13.57871],[-74.73499,-14.01976],[-75.06691,-14.14291],[-75.5421,-13.87786],[-75.54786,-13.58423],[-75.48309,-13.46605],[-75.80087,-13.3888],[-75.70449,-13.21656],[-75.71209,-13.09517],[-75.64075,-13.04215],[-75.60233,-12.86686],[-75.49037,-12.76088],[-75.45291,-12.63721],[-75.12409,-12.3749],[-75.16479,-12.29325],[-75.06195,-12.18892],[-75.12153,-12.05218],[-75.068,-11.98232],[-74.95612,-12.04614],[-74.61262,-11.99503],[-74.38747,-12.14711]]]}},{"type":"Feature","properties":{"id":"pe-ica","lat":-14.19565,"lng":-75.64614},"geometry":{"type":"MultiPolygon","coordinates":[[[[-76.19523,-14.26329],[-76.17959,-14.29521],[-76.22031,-14.26328],[-76.19523,-14.26329]]],[[[-75.07575,-15.43766],[-75.18942,-15.36955],[-75.15164,-15.33299],[-75.26317,-15.25042],[-75.23412,-15.21453],[-75.37645,-15.13405],[-75.50658,-14.91823],[-75.93065,-14.64935],[-75.98064,-14.4611],[-76.13321,-14.35963],[-76.14916,-14.22389],[-76.29044,-14.16741],[-76.29271,-13.90049],[-76.39396,-13.90802],[-76.36202,-13.80164],[-76.2959,-13.79344],[-76.26177,-13.86143],[-76.22432,-13.73387],[-76.18126,-13.53948],[-76.24919,-13.32044],[-75.95166,-12.99977],[-75.62778,-12.99202],[-75.71209,-13.09517],[-75.70449,-13.21656],[-75.80087,-13.3888],[-75.48919,-13.45494],[-75.54786,-13.58423],[-75.5421,-13.87786],[-75.08598,-14.11733],[-75.06154,-14.25923],[-75.13187,-14.39824],[-75.04981,-14.47746],[-75.05358,-14.60748],[-74.8908,-14.5633],[-74.69691,-14.9041],[-74.72662,-15.08792],[-74.96206,-15.23814],[-75.07575,-15.43766]]],[[[-76.45683,-13.82291],[-76.44144,-13.85391],[-76.47025,-13.85386],[-76.45683,-13.82291]]]]}},{"type":"Feature","properties":{"id":"pe-jun","lat":-11.69714,"lng":-74.90163},"geometry":{"type":"Polygon","coordinates":[[[-73.4352,-11.32406],[-73.54566,-11.53263],[-73.68462,-11.64265],[-73.4868,-11.7569],[-73.66532,-12.22163],[-74.17487,-12.31367],[-74.61262,-11.99503],[-74.95612,-12.04614],[-75.06118,-11.97787],[-75.12153,-12.05218],[-75.06195,-12.18892],[-75.16479,-12.29325],[-75.12409,-12.3749],[-75.30736,-12.47774],[-75.4672,-12.68656],[-75.57383,-12.60879],[-75.53758,-12.41686],[-75.64075,-12.11755],[-75.88981,-11.98826],[-76.02662,-12.00273],[-76.20576,-11.75163],[-76.2278,-11.58555],[-76.37774,-11.50374],[-76.49326,-11.16686],[-76.4883,-11.09767],[-76.27854,-11.08253],[-76.27412,-10.90471],[-76.17602,-10.92037],[-76.0454,-10.84869],[-75.7539,-10.88523],[-75.0251,-10.68126],[-74.78047,-10.82425],[-74.50852,-10.84823],[-74.47447,-10.99142],[-74.38489,-11.05028],[-73.92781,-10.97049],[-73.75929,-10.75722],[-73.64343,-10.78988],[-73.4961,-10.99804],[-73.51336,-11.19534],[-73.4352,-11.32406]]]}},{"type":"Feature","properties":{"id":"pe-lal","lat":-7.94561,"lng":-78.34913},"geometry":{"type":"Polygon","coordinates":[[[-78.64895,-8.96374],[-78.7643,-8.77511],[-78.75933,-8.60833],[-78.94026,-8.43553],[-78.90212,-8.37676],[-78.98574,-8.21742],[-79.35171,-7.88071],[-79.58251,-7.46364],[-79.61276,-7.26639],[-79.69701,-7.17801],[-79.49251,-6.96433],[-79.34774,-7.01048],[-79.37745,-7.3425],[-79.12036,-7.46414],[-79.01148,-7.7],[-78.90394,-7.58951],[-78.61819,-7.56781],[-78.38573,-7.6523],[-78.29356,-7.7679],[-78.12773,-7.66728],[-77.94195,-7.66992],[-77.91829,-7.50889],[-77.75442,-7.46848],[-77.99159,-7.01321],[-77.74243,-6.99404],[-77.60084,-7.19506],[-77.59335,-7.40146],[-77.4502,-7.57241],[-77.47643,-7.72098],[-77.39995,-8.01052],[-77.3469,-8.07661],[-77.02757,-8.138],[-76.91104,-8.24709],[-76.85631,-8.5557],[-76.89582,-8.60997],[-76.99462,-8.60232],[-77.03615,-8.49907],[-77.32254,-8.53405],[-77.48369,-8.24926],[-77.62027,-8.12958],[-77.64701,-8.01073],[-77.89769,-8.06421],[-78.11977,-8.31246],[-78.25439,-8.65844],[-78.57463,-8.7835],[-78.64895,-8.96374]]]}},{"type":"Feature","properties":{"id":"pe-lam","lat":-6.30937,"lng":-79.96945},"geometry":{"type":"Polygon","coordinates":[[[-79.69208,-7.16136],[-80.00455,-6.7409],[-80.63074,-6.37772],[-80.32904,-5.95876],[-79.9501,-5.82202],[-79.94933,-5.54736],[-79.80321,-5.66358],[-79.7473,-5.75608],[-79.76538,-5.84119],[-79.63821,-5.93406],[-79.21697,-6.03694],[-79.29689,-6.14882],[-79.25994,-6.24101],[-79.46388,-6.38405],[-79.44075,-6.52766],[-79.32128,-6.67081],[-79.17413,-6.70946],[-79.16614,-6.76512],[-79.31593,-6.88697],[-79.32918,-7.00645],[-79.49251,-6.96433],[-79.69208,-7.16136]]]}},{"type":"Feature","properties":{"id":"pe-lim","lat":-11.86995,"lng":-76.64005},"geometry":{"type":"Polygon","coordinates":[[[-76.81176,-12.48268],[-76.79089,-12.38105],[-77.0172,-12.22576],[-77.11443,-12.08131],[-77.21093,-11.64642],[-77.36046,-11.46111],[-77.64726,-11.29232],[-77.59468,-11.16512],[-77.66314,-10.9473],[-77.8906,-10.60254],[-77.81439,-10.54928],[-77.78096,-10.36712],[-77.68117,-10.3866],[-77.75396,-10.52065],[-77.602,-10.58142],[-77.59347,-10.73686],[-77.50916,-10.74828],[-77.19743,-10.51817],[-77.10557,-10.35802],[-76.93163,-10.28681],[-76.82965,-10.3619],[-76.57256,-10.82947],[-76.56558,-10.99426],[-76.48744,-11.07043],[-76.47577,-11.31213],[-76.37774,-11.50374],[-76.2278,-11.58555],[-76.20576,-11.75163],[-76.01238,-12.01467],[-75.88981,-11.98826],[-75.64075,-12.11755],[-75.53758,-12.41686],[-75.57383,-12.60879],[-75.46746,-12.71571],[-75.63465,-12.98205],[-75.797,-13.02887],[-75.95166,-12.99977],[-76.24919,-13.32044],[-76.48335,-13.0363],[-76.51623,-12.86992],[-76.81176,-12.48268]]]}},{"type":"Feature","properties":{"id":"pe-lor","lat":-4.30258,"lng":-74.23894},"geometry":{"type":"Polygon","coordinates":[[[-75.20675,-0.02909],[-74.93346,-0.20944],[-74.82465,-0.17048],[-74.75533,-0.27828],[-74.7907,-0.31259],[-74.64231,-0.33977],[-74.41796,-0.54265],[-74.38514,-0.72197],[-74.28913,-0.83628],[-74.34442,-0.8586],[-74.26675,-0.97229],[-74.07689,-0.99089],[-73.85717,-1.21052],[-73.75472,-1.18334],[-73.63656,-1.25517],[-73.49716,-1.478],[-73.53099,-1.67375],[-73.35053,-1.79064],[-73.25726,-1.74237],[-73.19302,-1.78868],[-73.11106,-2.07341],[-73.19777,-2.21356],[-73.15891,-2.29304],[-72.98756,-2.33769],[-72.93541,-2.42533],[-72.73372,-2.36755],[-72.71243,-2.42212],[-72.64432,-2.33407],[-72.37803,-2.45075],[-72.17639,-2.41034],[-72.06151,-2.32001],[-71.94865,-2.32415],[-71.74613,-2.13232],[-71.7314,-2.18989],[-71.53839,-2.22296],[-71.49814,-2.31505],[-71.45649,-2.25511],[-71.42083,-2.37603],[-71.20906,-2.33924],[-71.11997,-2.25211],[-71.02969,-2.26399],[-71.02145,-2.19671],[-70.90456,-2.21108],[-70.70658,-2.32828],[-70.64759,-2.45075],[-70.57861,-2.40549],[-70.44526,-2.4985],[-70.35753,-2.48693],[-70.36462,-2.55762],[-70.27395,-2.54625],[-70.15047,-2.66924],[-70.09497,-2.63255],[-70.05063,-2.71513],[-70.73413,-3.78204],[-70.49089,-3.87847],[-70.3111,-3.82927],[-69.96257,-4.26429],[-70.03704,-4.34087],[-70.13889,-4.26046],[-70.20563,-4.34294],[-70.31671,-4.24703],[-70.33061,-4.14316],[-70.51597,-4.18233],[-70.54969,-4.14068],[-70.58527,-4.19452],[-70.64677,-4.11566],[-70.69405,-4.1723],[-70.83223,-4.17943],[-70.96869,-4.38531],[-71.00545,-4.34759],[-71.1285,-4.40185],[-71.26482,-4.37549],[-71.36326,-4.45921],[-71.90721,-4.51843],[-72.25106,-4.75883],[-72.38609,-4.79397],[-72.41467,-4.87634],[-72.64479,-5.06057],[-72.91795,-5.13209],[-72.89666,-5.27161],[-72.9735,-5.46612],[-72.97691,-5.65175],[-73.23478,-6.07756],[-73.13178,-6.43527],[-73.19896,-6.54565],[-73.37068,-6.58389],[-73.75942,-6.88743],[-73.81234,-7.10292],[-73.72475,-7.32482],[-73.98289,-7.35645],[-73.94432,-7.44874],[-73.98449,-7.52941],[-74.5879,-7.32782],[-74.54898,-7.76232],[-74.58425,-7.90903],[-75.13616,-8.10555],[-75.34868,-8.10467],[-75.50637,-8.2536],[-75.4163,-8.47199],[-75.62499,-8.38445],[-75.97414,-8.64516],[-75.90112,-8.34864],[-75.77762,-8.1487],[-76.07972,-7.43639],[-76.11021,-6.99327],[-76.01122,-6.78486],[-75.93507,-6.75292],[-75.79436,-6.79535],[-75.67116,-6.93477],[-75.60398,-6.925],[-75.49428,-6.69122],[-75.47247,-6.31889],[-75.66822,-6.14727],[-76.12095,-6.10614],[-76.3157,-5.92134],[-76.65457,-6.03818],[-76.88515,-5.72725],[-77.20451,-5.6734],[-77.63998,-5.38463],[-77.77685,-4.84978],[-77.57854,-4.4387],[-77.534,-4.0211],[-77.81037,-2.96715],[-76.68459,-2.57364],[-76.09124,-2.12891],[-75.57303,-1.53732],[-75.4064,-0.91514],[-75.34873,-0.97498],[-75.22726,-0.96981],[-75.29703,-0.74698],[-75.2607,-0.54348],[-75.40563,-0.4424],[-75.48477,-0.24768],[-75.61957,-0.18092],[-75.6376,-0.11146],[-75.34405,-0.14908],[-75.20675,-0.02909]]]}},{"type":"Feature","properties":{"id":"pe-mdd","lat":-11.39507,"lng":-70.77599},"geometry":{"type":"Polygon","coordinates":[[[-69.59624,-10.95199],[-68.68425,-12.50249],[-68.79342,-12.62021],[-68.74296,-12.66579],[-68.76613,-12.71054],[-68.98095,-12.86795],[-68.97394,-13.03176],[-69.60523,-13.3427],[-70.32128,-13.0145],[-70.56719,-13.0099],[-70.52114,-13.09956],[-70.67842,-13.12524],[-71.01853,-13.07424],[-71.48563,-12.86919],[-71.82452,-12.79813],[-71.91299,-12.66755],[-71.89067,-12.55753],[-71.97565,-12.34416],[-72.10608,-12.28767],[-72.17226,-12.1173],[-72.36312,-11.99581],[-72.34953,-11.7212],[-72.08319,-11.06894],[-72.14523,-10.95065],[-71.80551,-10.97964],[-71.20637,-10.69149],[-70.89843,-10.42055],[-70.81815,-10.10155],[-70.63866,-9.95589],[-70.64134,-11.0108],[-70.53411,-10.93814],[-70.43727,-11.03674],[-70.2894,-11.06475],[-69.95611,-10.91933],[-69.59624,-10.95199]]]}},{"type":"Feature","properties":{"id":"pe-moq","lat":-16.89199,"lng":-70.93501},"geometry":{"type":"Polygon","coordinates":[[[-71.17581,-17.7933],[-71.38443,-17.69785],[-71.40026,-17.40032],[-71.48848,-17.31799],[-71.33174,-17.04532],[-71.44768,-16.8444],[-71.30647,-16.73515],[-71.30693,-16.62488],[-71.20529,-16.49858],[-70.95936,-16.46261],[-70.95938,-16.35802],[-70.87536,-16.26345],[-70.84996,-15.98822],[-70.68679,-16.05706],[-70.56763,-16.01096],[-70.41655,-16.05571],[-70.32978,-16.23906],[-70.30493,-16.46421],[-70.02076,-16.6904],[-70.16845,-16.78936],[-70.22566,-16.93959],[-70.33195,-16.83045],[-70.43303,-16.83556],[-70.51626,-17.11539],[-70.70816,-17.25833],[-70.92422,-17.61639],[-71.17581,-17.7933]]]}},{"type":"Feature","properties":{"id":"pe-pas","lat":-10.39425,"lng":-75.11242},"geometry":{"type":"Polygon","coordinates":[[[-74.53829,-9.64985],[-74.36163,-10.11349],[-74.37259,-10.29984],[-74.29861,-10.49667],[-74.16715,-10.58054],[-74.46625,-10.82518],[-74.68482,-10.85122],[-75.0435,-10.6825],[-75.7539,-10.88523],[-76.0454,-10.84869],[-76.17602,-10.92037],[-76.27412,-10.90471],[-76.27854,-11.08253],[-76.4883,-11.09767],[-76.56558,-10.99426],[-76.57256,-10.82947],[-76.74996,-10.44375],[-76.58046,-10.27958],[-76.34996,-10.26811],[-76.23697,-10.36252],[-75.94577,-10.42598],[-75.76961,-10.32965],[-75.82997,-10.0753],[-75.74759,-9.92115],[-75.35289,-9.87531],[-75.11812,-9.77351],[-74.7631,-9.75424],[-74.53829,-9.64985]]]}},{"type":"Feature","properties":{"id":"pe-piu","lat":-5.33596,"lng":-80.20885},"geometry":{"type":"MultiPolygon","coordinates":[[[[-80.84867,-6.38895],[-80.83958,-6.47525],[-80.86384,-6.47584],[-80.87538,-6.43305],[-80.84867,-6.38895]]],[[[-80.51407,-4.08342],[-80.46961,-4.21323],[-80.34527,-4.19845],[-80.48855,-4.39596],[-80.46997,-4.44608],[-80.38287,-4.47626],[-80.14025,-4.2831],[-79.83287,-4.47895],[-79.65797,-4.43875],[-79.50163,-4.54096],[-79.52785,-4.61806],[-79.45057,-4.8102],[-79.30322,-4.96125],[-79.23369,-4.96565],[-79.38838,-5.17193],[-79.32104,-5.48018],[-79.40926,-5.54483],[-79.36665,-5.92207],[-79.45109,-5.98899],[-79.63821,-5.93406],[-79.76538,-5.84119],[-79.7473,-5.75608],[-79.80321,-5.66358],[-79.94933,-5.54736],[-79.9501,-5.82202],[-80.32904,-5.95876],[-80.63074,-6.37772],[-81.13081,-6.03456],[-81.15022,-5.88307],[-81.07519,-5.78679],[-80.93993,-5.85084],[-80.85621,-5.65046],[-80.93182,-5.46382],[-81.19848,-5.2081],[-81.16277,-5.07257],[-81.08276,-5.07921],[-81.06336,-5.02204],[-81.33756,-4.6783],[-81.32893,-4.47666],[-81.26403,-4.25237],[-81.06138,-4.08363],[-80.9765,-4.15659],[-80.67732,-4.21168],[-80.51407,-4.08342]]]]}},{"type":"Feature","properties":{"id":"pe-pun","lat":-15.10755,"lng":-70.12482},"geometry":{"type":"Polygon","coordinates":[[[-68.97394,-13.03176],[-68.97075,-13.50145],[-69.02384,-13.63498],[-69.10159,-13.66661],[-69.01596,-13.75311],[-68.98297,-13.97222],[-68.90576,-14.0393],[-68.86445,-14.19123],[-69.01015,-14.2459],[-68.99025,-14.37902],[-69.16428,-14.50304],[-69.1704,-14.57756],[-69.23466,-14.57425],[-69.26763,-14.75067],[-69.37054,-14.80152],[-69.38431,-14.98177],[-69.1481,-15.23333],[-69.29117,-15.35084],[-69.43002,-15.62628],[-69.18487,-16.19503],[-68.98204,-16.21002],[-68.83349,-16.32898],[-69.02787,-16.45414],[-69.03707,-16.67025],[-69.18236,-16.72874],[-69.42744,-17.08686],[-69.72628,-17.29982],[-70.01652,-17.13828],[-70.15894,-16.91437],[-70.17638,-16.79908],[-70.02076,-16.6904],[-70.30493,-16.46421],[-70.4058,-16.06739],[-70.56763,-16.01096],[-70.68679,-16.05706],[-70.84996,-15.98822],[-70.84226,-15.90771],[-70.93729,-15.78627],[-70.90536,-15.67997],[-71.0101,-15.56773],[-71.0307,-15.44758],[-70.97858,-15.28847],[-70.99225,-14.77946],[-71.12625,-14.66365],[-70.99011,-14.57384],[-70.97894,-14.44341],[-70.88936,-14.41018],[-70.80903,-14.09475],[-70.84991,-14.01181],[-70.81745,-13.82629],[-70.6817,-13.78805],[-70.54086,-13.4876],[-70.40267,-13.3382],[-70.35578,-13.02458],[-69.62138,-13.34673],[-68.97394,-13.03176]]]}},{"type":"Feature","properties":{"id":"pe-sam","lat":-7.09417,"lng":-76.88128},"geometry":{"type":"Polygon","coordinates":[[[-77.63998,-5.38463],[-77.20451,-5.6734],[-76.88515,-5.72725],[-76.65457,-6.03818],[-76.3157,-5.92134],[-76.12095,-6.10614],[-75.66822,-6.14727],[-75.47859,-6.30509],[-75.49428,-6.69122],[-75.60398,-6.925],[-75.67116,-6.93477],[-75.79436,-6.79535],[-75.93507,-6.75292],[-76.01122,-6.78486],[-76.11021,-6.99327],[-76.07972,-7.43639],[-75.77741,-8.17351],[-75.90112,-8.34864],[-75.95272,-8.56821],[-76.10786,-8.73507],[-76.17369,-8.69699],[-76.31291,-8.37975],[-76.3898,-8.59209],[-76.85631,-8.5557],[-76.90595,-8.26244],[-76.97543,-8.17004],[-77.3469,-8.07661],[-77.404,-8.00328],[-77.47643,-7.72098],[-77.4502,-7.57241],[-77.59335,-7.40146],[-77.60084,-7.19506],[-77.77755,-6.89007],[-77.71657,-6.58751],[-77.37946,-6.59954],[-77.16461,-6.30788],[-77.25468,-6.12107],[-77.59397,-5.96077],[-77.72468,-5.68043],[-77.7129,-5.47486],[-77.63998,-5.38463]]]}},{"type":"Feature","properties":{"id":"pe-tac","lat":-17.56149,"lng":-70.23252},"geometry":{"type":"Polygon","coordinates":[[[-69.51009,-17.50659],[-69.6839,-17.65604],[-69.84983,-17.69159],[-69.77989,-17.96258],[-69.84358,-18.11317],[-69.98779,-18.26427],[-70.15907,-18.32597],[-70.3947,-18.33775],[-71.17581,-17.7933],[-70.92422,-17.61639],[-70.70816,-17.25833],[-70.51626,-17.11539],[-70.46797,-16.88217],[-70.39371,-16.81716],[-70.25573,-16.93659],[-70.17799,-16.87013],[-70.01652,-17.13828],[-69.91208,-17.21011],[-69.55694,-17.3315],[-69.51009,-17.50659]]]}},{"type":"Feature","properties":{"id":"pe-tum","lat":-3.81007,"lng":-80.52015},"geometry":{"type":"Polygon","coordinates":[[[-80.16507,-3.8807],[-80.32551,-4.01541],[-80.46614,-3.98813],[-80.67243,-4.21106],[-80.9765,-4.15659],[-81.06249,-4.08571],[-80.80761,-3.73943],[-80.53624,-3.5053],[-80.38451,-3.47869],[-80.34073,-3.3935],[-80.26566,-3.4264],[-80.16507,-3.8807]]]}},{"type":"Feature","properties":{"id":"pe-uca","lat":-9.38514,"lng":-73.95058},"geometry":{"type":"Polygon","coordinates":[[[-73.98449,-7.52941],[-74.00966,-7.56109],[-73.71216,-7.78815],[-73.71371,-7.86629],[-73.79464,-7.87414],[-73.78495,-7.94039],[-73.66803,-8.01377],[-73.54083,-8.35908],[-73.35642,-8.47979],[-73.35058,-8.59834],[-73.17457,-8.72071],[-72.97608,-8.98539],[-72.972,-9.13443],[-73.21498,-9.40904],[-72.8133,-9.4109],[-72.31266,-9.53254],[-72.26522,-9.76219],[-72.1629,-9.87722],[-72.19567,-10.00559],[-71.2997,-9.99339],[-70.52499,-9.43095],[-70.56453,-9.56541],[-70.62442,-9.56582],[-70.54187,-9.70824],[-70.62902,-9.8116],[-70.63866,-9.95589],[-70.81815,-10.10155],[-70.86743,-10.37363],[-70.99424,-10.53336],[-71.24572,-10.71547],[-71.79533,-10.97602],[-72.13544,-10.94016],[-72.08319,-11.06894],[-72.18047,-11.31321],[-72.37341,-11.31662],[-72.54311,-11.42437],[-72.71977,-11.35073],[-72.83625,-11.36566],[-72.9913,-11.19963],[-73.09476,-11.28474],[-73.4352,-11.32406],[-73.51336,-11.19534],[-73.52974,-10.92672],[-73.61775,-10.80632],[-73.74451,-10.75971],[-73.92781,-10.97049],[-74.44739,-11.03235],[-74.50852,-10.84823],[-74.16715,-10.58054],[-74.29861,-10.49667],[-74.44049,-9.84715],[-74.71972,-9.36367],[-74.61358,-8.82323],[-74.51273,-8.74851],[-74.52756,-8.6651],[-74.67856,-8.61901],[-74.81786,-8.66924],[-75.03914,-8.83791],[-75.29591,-9.23055],[-75.61571,-9.40661],[-75.78289,-9.23287],[-75.97414,-8.64516],[-75.62499,-8.38445],[-75.4163,-8.47199],[-75.50637,-8.2536],[-75.34868,-8.10467],[-75.13616,-8.10555],[-74.58425,-7.90903],[-74.54898,-7.76232],[-74.5879,-7.32782],[-73.98449,-7.52941]]]}}]}
