{"type":"FeatureCollection","features":[{"type":"Feature","properties":{"id":"pg-cpk","lat":-6.32633,"lng":144.93957},"geometry":{"type":"Polygon","coordinates":[[[145.038,-5.78766],[145.16636,-5.87453],[145.15469,-6.08392],[145.24533,-6.15487],[145.263,-6.28489],[145.16368,-6.40989],[145.00648,-6.43687],[144.99335,-6.51542],[145.20791,-6.67773],[145.31685,-6.6937],[145.30243,-6.87524],[144.92752,-6.73752],[144.71461,-6.73855],[144.45375,-6.5626],[144.45612,-6.47351],[144.53617,-6.43842],[144.53994,-6.36778],[144.60505,-6.39444],[144.69694,-6.25228],[144.74055,-6.13265],[144.71182,-6.02418],[144.80649,-5.94212],[144.79874,-5.78487],[145.038,-5.78766]]]}},{"type":"Feature","properties":{"id":"pg-cpm","lat":-9.05478,"lng":147.3167},"geometry":{"type":"Polygon","coordinates":[[[149.67829,-10.33645],[149.5088,-10.36492],[149.36842,-10.27614],[149.32683,-10.31032],[149.10157,-10.23463],[148.95826,-10.27809],[148.74781,-10.23463],[148.76743,-10.1583],[148.6893,-10.10491],[148.63868,-10.18792],[148.40203,-10.20045],[148.15504,-10.07073],[147.97739,-10.16627],[147.91334,-10.0888],[147.85402,-10.09808],[147.86752,-10.04339],[147.71681,-10.09808],[147.69939,-10.01491],[147.51759,-9.879],[147.25807,-9.4095],[147.07374,-9.42108],[147.08839,-9.48138],[146.96607,-9.27907],[146.89487,-9.26824],[146.88819,-9.13161],[146.97682,-9.0761],[146.97535,-9.03346],[146.87281,-9.10654],[146.6268,-9.02304],[146.55844,-8.94052],[146.60646,-8.80202],[146.56593,-8.81813],[146.38975,-8.5844],[146.40805,-7.9374],[146.6256,-7.77115],[146.71593,-7.83885],[146.74213,-7.95874],[146.99178,-8.00018],[147.3007,-8.28678],[147.51072,-8.40383],[147.61882,-8.5616],[147.5102,-8.75337],[147.51175,-8.86587],[147.73892,-9.16068],[147.80073,-9.1552],[147.94764,-9.30904],[148.0372,-9.44061],[148.0558,-9.58376],[148.31372,-9.7578],[148.80935,-9.96053],[148.97554,-9.92833],[148.97368,-9.77899],[149.21108,-9.81046],[149.65364,-10.09055],[149.67829,-10.33645]]]}},{"type":"Feature","properties":{"id":"pg-ebr","lat":-5.11418,"lng":151.65254},"geometry":{"type":"MultiPolygon","coordinates":[[[[151.67398,-5.00946],[151.69793,-4.82464],[151.61915,-4.4743],[151.51979,-4.32073],[151.54029,-4.17669],[151.81715,-4.21396],[151.96469,-4.33123],[152.03028,-4.27663],[152.00864,-4.19166],[152.13673,-4.20468],[152.18507,-4.14251],[152.24578,-4.23512],[152.17758,-4.21087],[152.18572,-4.30853],[152.41236,-4.32936],[152.36085,-4.50652],[152.41163,-4.68377],[152.32228,-4.89121],[152.23243,-4.98309],[151.97438,-4.98414],[151.97755,-5.14861],[152.14747,-5.3458],[152.09889,-5.45574],[151.83424,-5.59295],[151.72047,-5.5289],[151.61931,-5.57513],[151.46412,-5.53428],[151.45094,-5.58652],[151.53256,-5.66473],[151.43141,-5.70745],[151.35548,-5.83416],[151.06105,-6.02939],[150.88038,-6.05389],[150.82146,-6.01393],[150.77129,-6.12979],[150.60624,-5.90967],[150.60097,-5.80734],[150.97319,-5.70322],[150.99061,-5.60328],[151.08027,-5.62152],[151.21106,-5.51703],[151.24599,-5.45434],[151.16652,-5.42277],[151.34625,-5.07974],[151.4589,-5.01768],[151.67398,-5.00946]]],[[[152.47291,-4.12217],[152.49269,-4.21087],[152.43133,-4.16302],[152.47291,-4.12217]]]]}},{"type":"Feature","properties":{"id":"pg-ehg","lat":-6.59657,"lng":145.56522},"geometry":{"type":"Polygon","coordinates":[[[145.34961,-5.85825],[145.45839,-5.95809],[145.5881,-5.91623],[145.81852,-5.96119],[146.12874,-6.22654],[145.992,-6.73799],[146.01531,-6.88377],[145.84632,-7.23682],[145.30243,-6.87524],[145.31685,-6.6937],[145.20791,-6.67773],[144.99335,-6.51542],[145.00648,-6.43687],[145.16368,-6.40989],[145.2599,-6.30065],[145.24533,-6.15487],[145.15004,-6.06387],[145.16636,-5.87453],[145.34961,-5.85825]]]}},{"type":"Feature","properties":{"id":"pg-epw","lat":-5.46752,"lng":143.42543},"geometry":{"type":"Polygon","coordinates":[[[143.96856,-4.98073],[144.24725,-5.26268],[144.20064,-5.34913],[144.04788,-5.42964],[144.11671,-5.58932],[144.09594,-5.69634],[143.77198,-5.8677],[143.80485,-5.93643],[143.49267,-5.95741],[143.24813,-5.77753],[142.89415,-5.64064],[142.78863,-5.5054],[142.7632,-5.01969],[143.06391,-5.07199],[143.96856,-4.98073]]]}},{"type":"Feature","properties":{"id":"pg-esw","lat":-4.1768,"lng":143.03297},"geometry":{"type":"MultiPolygon","coordinates":[[[[143.11866,-3.35556],[143.52296,-3.43597],[144.02149,-3.80299],[144.167,-3.80055],[144.12615,-3.81414],[144.23878,-3.86883],[144.30991,-3.79844],[144.51344,-3.81756],[144.58171,-3.99578],[144.56351,-4.48024],[144.44558,-4.66886],[144.01109,-4.97654],[143.00138,-5.074],[142.70874,-4.98553],[142.32359,-4.96781],[142.29874,-4.6777],[142.19621,-4.61832],[141.36784,-4.58799],[141.36432,-4.25886],[141.73949,-4.01588],[141.79634,-4.09474],[142.51273,-4.06213],[142.63412,-3.86519],[142.60259,-3.55549],[142.6507,-3.44971],[142.75607,-3.41002],[143.05523,-3.52149],[143.11866,-3.35556]]],[[[144.60027,-3.49977],[144.61362,-3.51963],[144.5923,-3.51344],[144.60027,-3.49977]]],[[[143.56853,-3.37884],[143.52296,-3.31422],[143.60027,-3.36761],[143.56853,-3.37884]]],[[[144.06157,-3.21531],[144.1345,-3.23009],[144.11515,-3.24794],[144.06157,-3.21531]]]]}},{"type":"Feature","properties":{"id":"pg-gpk","lat":-7.65753,"lng":145.66019},"geometry":{"type":"Polygon","coordinates":[[[146.38975,-8.5844],[146.23512,-8.27435],[146.11655,-8.20013],[146.09986,-8.08327],[145.79811,-8.00701],[145.79127,-7.91188],[145.71909,-7.96038],[145.4419,-7.94411],[145.18409,-7.8056],[144.87957,-7.78167],[144.85231,-7.56943],[144.82496,-7.68255],[144.65357,-7.56129],[144.66114,-7.63421],[144.60402,-7.65691],[144.52231,-7.49619],[144.51393,-7.67197],[144.40724,-7.51409],[144.50782,-7.79803],[144.41342,-7.72015],[144.3672,-7.74359],[144.31105,-7.61028],[144.33383,-7.68865],[144.26954,-7.63079],[144.22853,-7.65814],[144.27622,-7.768],[144.21485,-7.79599],[143.85141,-7.65179],[143.7658,-7.50604],[143.64625,-7.43841],[143.74562,-7.5237],[143.94288,-7.99156],[143.00231,-7.03823],[142.99875,-6.837],[143.68459,-6.83576],[144.76008,-6.72951],[145.25649,-6.84749],[145.84632,-7.23682],[146.09551,-7.53644],[146.41099,-7.62672],[146.6256,-7.77115],[146.40805,-7.9374],[146.38975,-8.5844]]]}},{"type":"Feature","properties":{"id":"pg-mba","lat":-10.14642,"lng":149.97204},"geometry":{"type":"MultiPolygon","coordinates":[[[[151.06227,-10.64471],[150.93686,-10.6325],[150.92449,-10.68027],[150.91236,-10.63779],[151.02003,-10.59149],[151.06227,-10.64471]]],[[[150.88917,-10.57781],[150.88234,-10.6535],[150.76686,-10.60573],[150.86573,-10.62347],[150.79957,-10.5346],[150.88917,-10.57781]]],[[[149.46135,-9.59409],[150.00099,-9.63405],[150.04884,-9.6845],[149.72096,-9.83066],[149.93946,-10.06243],[150.18751,-10.09124],[150.38217,-10.20159],[150.60174,-10.20672],[150.62721,-10.27793],[150.87403,-10.22471],[150.65309,-10.33847],[150.36647,-10.32692],[150.3615,-10.39967],[150.64731,-10.47698],[150.68735,-10.56756],[150.48699,-10.62168],[150.42986,-10.68768],[150.3401,-10.65781],[150.21127,-10.70135],[150.18019,-10.64324],[150.01206,-10.61199],[150.0088,-10.56373],[149.8545,-10.55047],[150.08155,-10.46111],[149.95476,-10.42645],[149.92335,-10.48846],[149.87208,-10.39609],[149.67829,-10.33645],[149.65364,-10.09055],[149.32327,-9.92089],[149.2671,-9.83811],[148.95626,-9.7855],[149.00355,-9.68881],[149.10199,-9.70437],[149.46135,-9.59409]]],[[[151.30063,-9.96771],[151.23227,-10.20045],[150.95802,-10.10491],[150.99252,-9.99383],[150.94435,-9.95468],[150.90724,-9.99733],[150.75758,-9.71559],[151.04811,-9.93515],[151.08969,-10.02793],[151.13502,-10.04193],[151.24635,-9.9223],[151.30063,-9.96771]]],[[[151.01791,-9.66888],[150.95533,-9.60735],[150.95981,-9.59238],[151.02223,-9.5914],[151.01791,-9.66888]]],[[[150.84815,-9.65399],[150.4336,-9.63128],[150.51368,-9.54697],[150.42693,-9.41872],[150.45314,-9.34857],[150.67384,-9.43865],[150.75945,-9.39918],[150.93068,-9.63877],[150.84132,-9.71396],[150.84815,-9.65399]]],[[[150.37729,-9.39072],[150.33766,-9.51971],[150.25164,-9.50164],[150.10825,-9.36102],[150.12289,-9.27272],[150.23862,-9.21356],[150.37729,-9.39072]]],[[[151.14291,-8.83066],[151.04363,-8.72698],[151.12241,-8.58294],[150.99903,-8.51816],[151.08253,-8.42246],[151.12924,-8.41912],[151.13836,-8.59059],[151.10336,-8.75709],[151.14291,-8.83066]]],[[[153.78093,-11.59889],[153.55535,-11.63568],[153.47299,-11.55047],[153.37281,-11.55902],[153.38364,-11.49521],[153.2881,-11.52313],[153.32228,-11.46852],[153.22853,-11.42653],[153.20558,-11.31707],[153.78093,-11.59889]]],[[[154.30226,-11.38592],[154.11752,-11.42946],[154.0075,-11.38592],[154.02117,-11.34498],[154.14332,-11.36834],[154.09002,-11.31081],[154.21632,-11.31081],[154.30226,-11.38592]]],[[[153.19777,-11.27923],[153.11622,-11.21527],[153.1045,-11.18548],[153.25392,-11.24261],[153.19777,-11.27923]]],[[[152.87184,-10.66546],[152.73121,-10.7068],[152.54078,-10.62566],[152.68482,-10.66033],[152.78289,-10.62225],[152.87184,-10.66546]]],[[[152.10768,-10.40057],[152.09913,-10.39088],[152.11012,-10.39129],[152.10768,-10.40057]]],[[[151.86842,-10.33782],[151.87745,-10.33416],[151.86964,-10.34482],[151.86842,-10.33782]]],[[[151.85271,-10.25953],[151.86231,-10.25026],[151.85662,-10.26491],[151.85271,-10.25953]]],[[[152.99425,-9.17865],[152.92945,-9.19195],[152.96742,-9.25655],[152.83464,-9.25973],[152.74423,-9.18127],[152.7359,-9.2604],[152.64422,-9.18256],[152.70451,-9.14457],[152.47162,-9.04513],[152.45167,-8.96527],[152.42142,-9.08372],[152.38862,-8.99115],[152.4523,-8.94499],[152.51787,-8.99641],[152.79417,-9.0035],[152.94154,-9.08376],[152.99425,-9.17865]]]]}},{"type":"Feature","properties":{"id":"pg-mpl","lat":-6.94915,"lng":146.48125},"geometry":{"type":"MultiPolygon","coordinates":[[[[146.81276,-5.83856],[146.93287,-5.84197],[147.11647,-5.96901],[147.3436,-5.93076],[147.46656,-5.96941],[147.82667,-6.33538],[147.85402,-6.69101],[147.56528,-6.75384],[147.08277,-6.71282],[146.96266,-6.747],[146.94321,-6.88388],[147.02084,-7.02752],[147.07252,-7.01442],[147.06511,-7.14479],[147.14137,-7.21307],[147.18849,-7.46258],[147.48731,-7.61631],[147.58131,-7.70371],[147.60694,-7.8165],[147.65528,-7.80967],[147.63478,-7.768],[147.68336,-7.81072],[147.72682,-7.93206],[147.86492,-7.93279],[147.97738,-8.00406],[146.80373,-7.98241],[146.73392,-7.95099],[146.70813,-7.82676],[146.41099,-7.62672],[146.09551,-7.53644],[145.84632,-7.23682],[146.01531,-6.88377],[145.992,-6.73799],[146.12874,-6.24913],[145.86787,-5.99633],[146.48034,-5.99876],[146.81276,-5.83856]]],[[[148.07748,-5.65781],[147.99106,-5.85621],[147.76905,-5.61175],[147.77133,-5.50693],[147.84718,-5.48642],[148.07748,-5.65781]]],[[[148.14649,-5.41961],[148.09132,-5.45664],[148.07838,-5.39666],[148.10035,-5.37656],[148.14649,-5.41961]]],[[[147.63331,-5.29892],[147.60011,-5.36289],[147.56528,-5.33489],[147.57439,-5.29705],[147.63331,-5.29892]]]]}},{"type":"Feature","properties":{"id":"pg-mpm","lat":-5.0554,"lng":144.91943},"geometry":{"type":"MultiPolygon","coordinates":[[[[147.13396,-5.19085],[147.22332,-5.42425],[147.12721,-5.44329],[147.0044,-5.30202],[147.02752,-5.23545],[147.13396,-5.19085]]],[[[144.60581,-4.00661],[144.86785,-4.09922],[144.865,-4.16155],[145.07781,-4.35662],[145.34571,-4.39023],[145.78663,-4.8235],[145.75961,-5.47698],[145.89381,-5.5136],[145.96949,-5.46526],[146.46095,-5.5993],[146.79339,-5.81618],[146.48034,-5.99876],[145.86787,-5.99633],[145.5881,-5.91623],[145.45839,-5.95809],[145.3648,-5.85954],[145.16636,-5.87453],[145.038,-5.78766],[144.84809,-5.55144],[144.50454,-5.29978],[144.1872,-5.22288],[144.15506,-5.13007],[143.96856,-4.98073],[144.44558,-4.66886],[144.56351,-4.48024],[144.60581,-4.00661]]],[[[146.21266,-4.79559],[146.25815,-4.80926],[146.24732,-4.85231],[146.21266,-4.84254],[146.21266,-4.79559]]],[[[146.0534,-4.60019],[146.02857,-4.72145],[145.93922,-4.76092],[145.88697,-4.71795],[145.9559,-4.53899],[146.0534,-4.60019]]],[[[145.1089,-4.08213],[145.0547,-4.12884],[145.02369,-4.07049],[145.06935,-4.04323],[145.1089,-4.08213]]]]}},{"type":"Feature","properties":{"id":"pg-mrl","lat":-2.08554,"lng":146.94346},"geometry":{"type":"MultiPolygon","coordinates":[[[[147.813,-2.23756],[147.84002,-2.34092],[147.73048,-2.32643],[147.813,-2.23756]]],[[[147.44207,-1.99017],[147.43116,-2.06081],[147.29176,-2.06422],[147.20574,-2.18613],[146.95493,-2.19476],[146.7024,-2.11435],[146.72771,-2.17669],[146.57154,-2.22812],[146.52019,-2.14959],[146.6172,-2.10687],[146.58058,-1.99521],[146.65789,-1.96331],[147.11004,-1.96331],[147.41578,-2.04583],[147.38087,-1.96152],[147.44207,-1.99017]]]]}},{"type":"Feature","properties":{"id":"pg-ncd","lat":-9.45795,"lng":147.20751},"geometry":{"type":"Polygon","coordinates":[[[147.28678,-9.52126],[147.20314,-9.52825],[147.12224,-9.43125],[147.07936,-9.43328],[147.09995,-9.4817],[147.06175,-9.4342],[147.17286,-9.38103],[147.25807,-9.4095],[147.28678,-9.52126]]]}},{"type":"Feature","properties":{"id":"pg-nik","lat":-2.57143,"lng":150.26114},"geometry":{"type":"MultiPolygon","coordinates":[[[[153.13722,-4.37591],[153.04103,-4.48577],[153.07521,-4.60182],[152.89772,-4.84832],[152.68979,-4.54778],[152.68784,-4.16383],[152.28859,-3.56976],[151.80909,-3.3611],[151.61248,-3.16619],[151.09059,-2.8327],[150.9358,-2.76653],[150.75978,-2.76881],[150.76002,-2.71103],[150.89243,-2.69752],[150.79347,-2.615],[150.81267,-2.55584],[151.17042,-2.78509],[151.21632,-2.86924],[151.43735,-2.90887],[151.81381,-3.18743],[152.0525,-3.24668],[152.42465,-3.65651],[152.5062,-3.65732],[152.57496,-3.82106],[152.75522,-3.89617],[152.8235,-3.87135],[152.8711,-3.9909],[152.94606,-3.98553],[153.12843,-4.24814],[153.13722,-4.37591]]],[[[151.02622,-2.97064],[150.83497,-2.96014],[150.76979,-2.97959],[150.88234,-2.90301],[151.02622,-2.97064]]],[[[152.00587,-2.82041],[151.91584,-2.84429],[151.91304,-2.70539],[152.00978,-2.74481],[152.00587,-2.82041]]],[[[151.96022,-2.65154],[152.01539,-2.60272],[152.02654,-2.6596],[151.96022,-2.65154]]],[[[150.44728,-2.48447],[150.45135,-2.65838],[150.18678,-2.67946],[149.95875,-2.46299],[150.20786,-2.37477],[150.44728,-2.48447]]],[[[150.0005,-1.6858],[149.92726,-1.68499],[149.91212,-1.65374],[149.96412,-1.6303],[150.0005,-1.6858]]],[[[149.72478,-1.42889],[149.79298,-1.58034],[149.73902,-1.59401],[149.56023,-1.49774],[149.58074,-1.34637],[149.72478,-1.42889]]],[[[153.62965,-4.12998],[153.58985,-4.08807],[153.66065,-4.02207],[153.67058,-4.09026],[153.62965,-4.12998]]],[[[153.73805,-4.00189],[153.69654,-4.02321],[153.67888,-4.02646],[153.73805,-4.00189]]],[[[153.23341,-3.44427],[153.24708,-3.49896],[153.19174,-3.47096],[153.23341,-3.44427]]],[[[153.32789,-3.36858],[153.3309,-3.39886],[153.26759,-3.40325],[153.32789,-3.36858]]],[[[152.65064,-3.04648],[152.64381,-3.22454],[152.53156,-3.07527],[152.65064,-3.04648]]],[[[152.05128,-2.99521],[151.99241,-2.94479],[151.97193,-2.84783],[152.07154,-2.91668],[152.05128,-2.99521]]]]}},{"type":"Feature","properties":{"id":"pg-npp","lat":-8.99855,"lng":148.088},"geometry":{"type":"Polygon","coordinates":[[[147.97738,-8.00406],[147.99855,-8.05535],[148.14633,-8.04567],[148.2295,-8.55462],[148.44532,-8.67474],[148.58562,-9.06406],[148.75831,-9.10369],[149.14186,-8.97454],[149.31804,-9.02256],[149.29273,-9.10369],[149.33424,-9.14528],[149.26466,-9.18222],[149.18727,-9.39072],[149.22657,-9.48675],[149.46135,-9.59409],[148.99321,-9.69269],[148.94572,-9.80653],[148.97554,-9.92833],[148.80935,-9.96053],[148.31372,-9.7578],[148.04138,-9.56965],[148.0372,-9.44061],[147.94764,-9.30904],[147.80073,-9.1552],[147.73892,-9.16068],[147.51175,-8.86587],[147.5102,-8.75337],[147.61882,-8.5616],[147.5948,-8.50548],[146.99178,-8.00018],[147.97738,-8.00406]]]}},{"type":"Feature","properties":{"id":"pg-nsb","lat":-6.15777,"lng":155.21583},"geometry":{"type":"MultiPolygon","coordinates":[[[[155.96388,-6.70192],[155.91236,-6.80901],[155.91578,-6.72715],[155.87818,-6.80153],[155.81642,-6.78216],[155.69703,-6.87664],[155.33009,-6.71966],[155.17311,-6.52793],[155.23487,-6.45436],[155.21485,-6.31707],[154.9909,-6.20875],[154.75587,-5.94785],[154.70021,-5.76686],[154.72739,-5.56894],[154.77036,-5.55877],[154.70021,-5.43109],[154.89194,-5.55462],[155.06935,-5.55218],[155.21339,-5.86989],[155.37037,-5.95729],[155.45216,-6.13714],[155.59083,-6.21999],[155.63852,-6.1784],[155.81332,-6.36484],[155.96388,-6.70192]]],[[[154.72739,-5.21136],[154.63185,-5.45908],[154.57765,-5.11956],[154.53565,-5.13746],[154.62436,-5.01336],[154.72739,-5.21136]]],[[[154.17945,-4.47194],[154.25367,-4.55478],[154.23227,-4.58066],[154.17945,-4.47194]]],[[[154.15138,-4.43808],[154.15122,-4.37884],[154.15821,-4.43808],[154.15138,-4.43808]]],[[[154.73786,-3.44185],[154.61348,-3.24101],[154.55318,-3.20632],[154.62776,-3.22689],[154.73786,-3.44185]]]]}},{"type":"Feature","properties":{"id":"pg-san","lat":-3.94053,"lng":141.78174},"geometry":{"type":"MultiPolygon","coordinates":[[[[140.97687,-4.98849],[140.97446,-2.60052],[141.27589,-2.64235],[141.88543,-2.9638],[142.01043,-2.96038],[142.06284,-3.06015],[143.08513,-3.35312],[143.05523,-3.52149],[142.75607,-3.41002],[142.6507,-3.44971],[142.60259,-3.55549],[142.63412,-3.86519],[142.51273,-4.06213],[141.79634,-4.09474],[141.73949,-4.01588],[141.34241,-4.28775],[141.36784,-4.58799],[142.19621,-4.61832],[142.29874,-4.6777],[142.35723,-5.16294],[142.27517,-5.36525],[142.20892,-5.40685],[140.97687,-4.98849]]],[[[142.81813,-1.73333],[142.85239,-1.69264],[142.86549,-1.7033],[142.81813,-1.73333]]]]}},{"type":"Feature","properties":{"id":"pg-shm","lat":-5.85124,"lng":142.94807},"geometry":{"type":"Polygon","coordinates":[[[142.32359,-4.96781],[142.7632,-5.01969],[142.78863,-5.5054],[142.89415,-5.64064],[143.24813,-5.77753],[143.49267,-5.95741],[143.74309,-5.92496],[144.01326,-6.01777],[144.53994,-6.36778],[144.53617,-6.43842],[144.45147,-6.48374],[144.45716,-6.57179],[144.71461,-6.73855],[143.68459,-6.83576],[142.68016,-6.8093],[142.63856,-5.93938],[142.17818,-5.49233],[142.35155,-5.1956],[142.32359,-4.96781]]]}},{"type":"Feature","properties":{"id":"pg-wbk","lat":-5.6124,"lng":149.66209},"geometry":{"type":"MultiPolygon","coordinates":[[[[150.77005,-6.09999],[150.4214,-6.28606],[150.17791,-6.25799],[150.10336,-6.30267],[150.05405,-6.25774],[150.01206,-6.32122],[149.98878,-6.27402],[149.63543,-6.3082],[149.48813,-6.12005],[149.32057,-6.05486],[149.05291,-6.16172],[149.05307,-6.00652],[148.86818,-5.99285],[148.87526,-5.94264],[148.77931,-5.93133],[148.76442,-5.86273],[148.38624,-5.77508],[148.32895,-5.68377],[148.34205,-5.5333],[148.42994,-5.44476],[148.55641,-5.53997],[148.65187,-5.48089],[148.84767,-5.54095],[148.97804,-5.46526],[149.22438,-5.5993],[149.49879,-5.5888],[149.6701,-5.47894],[149.70932,-5.56748],[149.79298,-5.50693],[149.87281,-5.5276],[149.98023,-5.43808],[149.91652,-5.34922],[150.02638,-5.22503],[150.03492,-5.03436],[150.11256,-5.00774],[150.2024,-5.06211],[150.07537,-5.15911],[150.08155,-5.2667],[150.03207,-5.29518],[150.14235,-5.53411],[150.28981,-5.56658],[150.49342,-5.44744],[150.63396,-5.55674],[150.77166,-5.45289],[150.90593,-5.49],[150.99985,-5.42498],[151.08286,-5.16383],[151.36891,-4.9035],[151.64881,-4.94879],[151.67398,-5.00946],[151.4589,-5.01768],[151.34625,-5.07974],[151.16652,-5.42277],[151.24599,-5.45434],[151.21106,-5.51703],[151.08027,-5.62152],[150.99061,-5.60328],[150.97319,-5.70322],[150.60376,-5.80368],[150.60624,-5.90967],[150.77005,-6.09999]]],[[[151.22332,-4.91839],[151.17107,-4.95623],[151.11948,-4.92571],[151.16017,-4.88812],[151.22332,-4.91839]]],[[[149.12192,-4.88307],[149.17758,-4.89414],[149.1561,-4.92401],[149.12192,-4.88307]]],[[[149.54908,-4.65976],[149.56023,-4.71795],[149.51246,-4.66334],[149.4546,-4.69248],[149.49342,-4.65203],[149.54908,-4.65976]]]]}},{"type":"Feature","properties":{"id":"pg-whm","lat":-5.8313,"lng":144.32823},"geometry":{"type":"Polygon","coordinates":[[[144.34099,-5.24283],[144.50454,-5.29978],[144.83724,-5.54225],[145.038,-5.78766],[144.79874,-5.78487],[144.80649,-5.94212],[144.72055,-6.0016],[144.73652,-6.1481],[144.59689,-6.40018],[143.76996,-5.87494],[144.08323,-5.715],[144.11671,-5.58932],[144.04788,-5.42964],[144.34099,-5.24283]]]}},{"type":"Feature","properties":{"id":"pg-wpd","lat":-7.46732,"lng":142.20139},"geometry":{"type":"MultiPolygon","coordinates":[[[[143.64438,-8.66131],[143.62892,-8.7304],[143.17888,-8.41912],[143.47486,-8.52532],[143.64438,-8.66131]]],[[[143.81593,-8.49537],[143.79607,-8.53826],[143.78028,-8.51328],[143.81593,-8.49537]]],[[[143.31666,-8.37225],[143.57374,-8.37371],[143.61061,-8.47503],[143.50978,-8.48113],[143.31666,-8.37225]]],[[[143.63795,-8.34059],[143.64828,-8.42588],[143.54086,-8.35003],[143.63795,-8.34059]]],[[[143.68824,-8.15358],[143.6338,-8.16473],[143.59938,-8.11077],[143.65406,-8.10426],[143.68824,-8.15358]]],[[[143.69044,-8.10019],[143.5818,-8.06862],[143.56422,-8.02996],[143.65602,-8.03965],[143.69044,-8.10019]]],[[[140.96316,-6.40426],[140.97687,-4.98849],[142.20892,-5.40685],[142.20071,-5.53108],[142.63856,-5.93938],[142.68016,-6.8093],[142.99875,-6.837],[143.00231,-7.03823],[143.94288,-7.99156],[143.80397,-7.93255],[143.91383,-8.00758],[143.76735,-8.04022],[143.65089,-7.98138],[143.48894,-7.98903],[143.44842,-7.91888],[143.36402,-7.89642],[143.55982,-8.04485],[143.62916,-8.2304],[142.98048,-8.33563],[142.70037,-8.26141],[142.42872,-8.32415],[142.38136,-8.19346],[142.31674,-8.15895],[142.14047,-8.22649],[142.35402,-8.18873],[142.45216,-8.37331],[142.72828,-8.31666],[143.10206,-8.46722],[143.39527,-8.76873],[143.39649,-8.97772],[143.05274,-9.09336],[142.61248,-9.33465],[142.2107,-9.15895],[141.62127,-9.23406],[141.34588,-9.14153],[141.1526,-9.23219],[140.97698,-9.10613],[140.97716,-6.89663],[140.84921,-6.70285],[140.95019,-6.49872],[140.91252,-6.43857],[140.96316,-6.40426]]]]}}]}
