{"type":"FeatureCollection","features":[{"type":"Feature","properties":{"id":"ph-abr","lat":17.53743,"lng":120.7714},"geometry":{"type":"Polygon","coordinates":[[[120.6182,17.81902],[120.96422,17.95952],[121.02562,17.83881],[121.10292,17.81622],[121.1176,17.57562],[121.00815,17.48984],[120.89684,17.18758],[120.81302,17.21182],[120.73044,17.1557],[120.67484,17.26153],[120.53552,17.33832],[120.58585,17.47981],[120.4672,17.49924],[120.48281,17.58797],[120.6182,17.81902]]]}},{"type":"Feature","properties":{"id":"ph-agn","lat":9.05121,"lng":125.61922},"geometry":{"type":"Polygon","coordinates":[[[125.20875,9.08649],[125.31178,8.99433],[125.51661,9.01594],[125.542,9.18919],[125.46526,9.4447],[125.69179,9.42852],[125.76699,9.21243],[125.66215,8.87659],[125.70337,8.71275],[125.53469,8.69973],[125.43175,8.59689],[125.3207,8.58984],[125.32333,8.88557],[125.20875,9.08649]]]}},{"type":"Feature","properties":{"id":"ph-ags","lat":8.63226,"lng":125.74249},"geometry":{"type":"Polygon","coordinates":[[[125.76703,9.21277],[125.80207,8.96669],[126.03265,8.66764],[125.99126,8.56888],[126.06898,8.3907],[126.22282,8.34879],[126.20504,8.2148],[126.29119,7.99584],[125.37429,7.99775],[125.3207,8.58984],[125.43175,8.59689],[125.53469,8.69973],[125.70337,8.71275],[125.66215,8.87659],[125.76703,9.21277]]]}},{"type":"Feature","properties":{"id":"ph-akl","lat":11.64087,"lng":122.31338},"geometry":{"type":"Polygon","coordinates":[[[121.85385,11.76944],[121.96371,11.9339],[122.38795,11.72744],[122.5922,11.55429],[122.51421,11.46235],[122.3844,11.4607],[122.3322,11.34401],[122.17986,11.32122],[122.12426,11.48261],[122.14565,11.75489],[121.9806,11.83127],[121.85385,11.76944]]]}},{"type":"Feature","properties":{"id":"ph-alb","lat":13.31118,"lng":123.57665},"geometry":{"type":"MultiPolygon","coordinates":[[[[124.19679,13.17333],[124.0656,13.21076],[124.20965,13.19579],[124.19679,13.17333]]],[[[123.60548,13.51667],[123.85564,13.22866],[123.76759,13.22431],[123.74578,13.06415],[123.88299,13.14606],[123.93538,13.11851],[123.90802,13.05414],[123.65688,13.04468],[123.49616,12.9744],[123.44125,13.03685],[123.31007,13.01236],[123.29246,13.24473],[123.44697,13.3783],[123.57874,13.37763],[123.54505,13.50538],[123.60548,13.51667]]],[[[124.08448,13.2674],[123.95834,13.23705],[123.91245,13.28864],[124.08448,13.2674]]],[[[123.90187,13.23835],[123.84596,13.27025],[123.84889,13.35415],[123.92213,13.32998],[123.89031,13.27407],[123.90187,13.23835]]],[[[123.78736,13.39907],[123.82748,13.37311],[123.84555,13.36782],[123.82309,13.35196],[123.78736,13.39907]]]]}},{"type":"Feature","properties":{"id":"ph-ant","lat":11.12849,"lng":122.16019},"geometry":{"type":"MultiPolygon","coordinates":[[[[122.0158,10.44546],[121.9297,10.46662],[121.98487,10.62491],[121.93702,10.7757],[122.0451,11.0174],[122.10719,11.65794],[122.08448,11.72468],[121.85385,11.76944],[121.9806,11.83127],[122.16188,11.72905],[122.12426,11.48261],[122.19815,11.20433],[122.33086,11.05266],[122.17852,10.76978],[122.03475,10.63713],[122.0158,10.44546]]],[[[121.52605,11.84658],[121.49537,11.82783],[121.41261,11.84028],[121.44288,11.86799],[121.52605,11.84658]]],[[[121.40642,12.06245],[121.37184,12.01113],[121.35865,12.11469],[121.40642,12.06245]]]]}},{"type":"Feature","properties":{"id":"ph-apa","lat":18.13427,"lng":121.21975},"geometry":{"type":"Polygon","coordinates":[[[120.93849,17.96707],[120.9821,18.17021],[120.90924,18.2407],[120.95709,18.44678],[121.05921,18.53169],[121.47861,18.27036],[121.46156,18.09833],[121.31841,17.84258],[121.42879,17.71763],[121.1268,17.68352],[121.10292,17.81622],[121.02562,17.83881],[120.93849,17.96707]]]}},{"type":"Feature","properties":{"id":"ph-aur","lat":15.71935,"lng":121.45074},"geometry":{"type":"Polygon","coordinates":[[[122.24464,16.51056],[122.20387,16.23652],[122.05925,16.07779],[121.99171,16.03852],[122.13527,16.26073],[122.05055,16.18085],[121.75229,16.07689],[121.56739,15.91572],[121.62916,15.66112],[121.3899,15.37787],[121.44618,15.20793],[121.33009,15.03236],[121.2933,15.09071],[121.36844,15.47068],[121.26726,15.77759],[121.80831,16.2187],[122.03754,16.50762],[122.24464,16.51056]]]}},{"type":"Feature","properties":{"id":"ph-ban","lat":14.71039,"lng":120.41457},"geometry":{"type":"Polygon","coordinates":[[[120.54542,14.82709],[120.59791,14.5056],[120.56463,14.44123],[120.46705,14.42105],[120.38201,14.48029],[120.37794,14.60204],[120.28541,14.65375],[120.24391,14.76703],[120.42245,14.864],[120.46007,14.94152],[120.54542,14.82709]]]}},{"type":"Feature","properties":{"id":"ph-bas","lat":6.5752,"lng":122.05135},"geometry":{"type":"MultiPolygon","coordinates":[[[[122.06666,6.74071],[122.33522,6.60334],[122.23536,6.57119],[122.18865,6.45108],[121.96225,6.40485],[121.8108,6.64517],[121.92018,6.67565],[121.96525,6.5792],[122.09902,6.58671],[122.06666,6.74071]]],[[[121.62892,6.58857],[121.58253,6.63166],[121.61671,6.67227],[121.62892,6.65742],[121.62892,6.58857]]]]}},{"type":"Feature","properties":{"id":"ph-bcd","lat":10.64962,"lng":122.99328},"geometry":{"type":"Polygon","coordinates":[[[122.9199,10.61832],[122.97584,10.74242],[123.06776,10.68093],[123.02487,10.59261],[122.9199,10.61832]]]}},{"type":"Feature","properties":{"id":"ph-ben","lat":16.60506,"lng":120.71798},"geometry":{"type":"Polygon","coordinates":[[[120.50441,16.28392],[120.48291,16.5162],[120.61882,16.69392],[120.66223,16.89577],[120.77354,16.92098],[120.87937,16.79872],[120.89146,16.39001],[120.77695,16.29063],[120.75659,16.20067],[120.64207,16.19209],[120.50441,16.28392]]]}},{"type":"Feature","properties":{"id":"ph-bil","lat":11.58332,"lng":124.48731},"geometry":{"type":"Polygon","coordinates":[[[124.5232,11.68627],[124.60914,11.48656],[124.47267,11.47394],[124.34913,11.68008],[124.5232,11.68627]]]}},{"type":"Feature","properties":{"id":"ph-boh","lat":9.87769,"lng":124.21878},"geometry":{"type":"MultiPolygon","coordinates":[[[[123.86052,9.63007],[123.78517,9.55231],[123.72633,9.58698],[123.82065,9.63959],[123.86052,9.63007]]],[[[124.57016,9.84052],[124.62403,9.80182],[124.5962,9.73729],[124.49985,9.7683],[124.2942,9.60676],[123.93751,9.6175],[123.80104,9.75776],[123.88608,9.91486],[124.05079,9.97931],[124.22267,10.15192],[124.33131,10.16153],[124.35597,10.1103],[124.39682,10.15192],[124.57765,10.03392],[124.57016,9.84052]]],[[[124.60621,10.14761],[124.58888,10.08625],[124.52955,10.06855],[124.5276,10.11734],[124.60621,10.14761]]]]}},{"type":"Feature","properties":{"id":"ph-btg","lat":13.90518,"lng":121.10127},"geometry":{"type":"MultiPolygon","coordinates":[[[[121.08579,13.57062],[121.04347,13.56123],[121.04347,13.56757],[121.08579,13.57062]]],[[[120.93605,13.6516],[120.8755,13.63483],[120.82643,13.68826],[120.8825,13.65945],[120.93605,13.6516]]],[[[121.45458,13.81922],[121.43002,13.65693],[121.27882,13.59504],[121.04754,13.62726],[121.00375,13.78091],[120.88746,13.69351],[120.90626,13.89647],[120.74594,13.93378],[120.69744,13.91389],[120.72291,13.85541],[120.6526,13.84553],[120.66342,13.77538],[120.60133,13.96914],[120.59596,14.21796],[120.86893,14.07609],[121.18095,14.13852],[121.27304,13.9483],[121.45458,13.81922]]]]}},{"type":"Feature","properties":{"id":"ph-btn","lat":20.41456,"lng":121.97064},"geometry":{"type":"MultiPolygon","coordinates":[[[[121.83839,20.34077],[121.8921,20.29735],[121.85084,20.27342],[121.83839,20.34077]]],[[[122.0276,20.48115],[121.9712,20.36848],[121.92213,20.35415],[121.96599,20.46064],[122.0276,20.48115]]],[[[121.87989,20.78449],[121.78639,20.70307],[121.86598,20.8382],[121.87989,20.78449]]],[[[121.9367,21.06562],[121.9297,21.06452],[121.93483,21.07323],[121.9367,21.06562]]],[[[121.95427,21.11839],[121.94744,21.11616],[121.95069,21.12238],[121.95427,21.11839]]]]}},{"type":"Feature","properties":{"id":"ph-buk","lat":8.03946,"lng":124.98876},"geometry":{"type":"Polygon","coordinates":[[[124.90254,8.59265],[125.3207,8.58984],[125.32385,8.21335],[125.4348,7.70806],[125.3037,7.6784],[125.28107,7.58284],[125.06005,7.42477],[124.89928,7.40968],[124.60447,7.91021],[124.67118,7.96003],[124.55977,8.11889],[124.61982,8.4136],[124.82125,8.41225],[124.83313,8.53426],[124.90254,8.59265]]]}},{"type":"Feature","properties":{"id":"ph-bul","lat":14.95459,"lng":121.07453},"geometry":{"type":"Polygon","coordinates":[[[120.91621,14.69439],[120.84059,14.76122],[120.66383,14.77896],[120.72651,14.89403],[120.90511,15.01516],[120.93766,15.22067],[121.1177,15.26005],[121.3026,15.18145],[121.34208,14.88927],[121.15427,14.75843],[120.91621,14.69439]]]}},{"type":"Feature","properties":{"id":"ph-cag","lat":17.96089,"lng":121.7735},"geometry":{"type":"MultiPolygon","coordinates":[[[[121.03272,18.62181],[121.17066,18.62547],[121.64967,18.31395],[121.64503,18.36945],[121.89552,18.2792],[122.03956,18.32022],[122.15284,18.51879],[122.23536,18.51537],[122.32496,18.33661],[122.16977,18.10049],[122.13575,17.73729],[122.18463,17.54131],[121.65286,17.51816],[121.56636,17.56342],[121.40068,17.78842],[121.31903,17.82346],[121.46156,18.09833],[121.47861,18.27036],[121.07285,18.53623],[120.95709,18.44678],[121.03272,18.62181]]],[[[121.27524,18.87588],[121.47779,18.8819],[121.40675,18.85082],[121.27524,18.87588]]],[[[121.98911,18.94912],[121.86573,18.82193],[121.83416,18.8343],[121.90235,19.00536],[121.98911,18.94912]]],[[[121.22584,19.16621],[121.25896,19.04572],[121.24496,19.01846],[121.19028,19.08735],[121.22584,19.16621]]],[[[121.54086,19.30012],[121.47096,19.26923],[121.35084,19.37592],[121.51661,19.39354],[121.54086,19.30012]]],[[[121.97731,19.57738],[121.96095,19.49177],[121.89552,19.54662],[121.97731,19.57738]]]]}},{"type":"Feature","properties":{"id":"ph-cam","lat":9.12987,"lng":124.73977},"geometry":{"type":"Polygon","coordinates":[[[124.78419,9.19977],[124.77019,9.07738],[124.63648,9.18236],[124.70851,9.25019],[124.78419,9.19977]]]}},{"type":"Feature","properties":{"id":"ph-can","lat":14.03061,"lng":122.91205},"geometry":{"type":"Polygon","coordinates":[[[122.30999,14.09628],[122.41627,14.32477],[122.52784,14.3487],[122.6443,14.28473],[122.70427,14.34589],[123.04225,14.09805],[123.08774,13.89346],[123.04884,13.82197],[122.92369,13.96494],[122.47979,14.15082],[122.30999,14.09628]]]}},{"type":"Feature","properties":{"id":"ph-cap","lat":11.39097,"lng":122.67705},"geometry":{"type":"Polygon","coordinates":[[[122.5922,11.55429],[122.62233,11.50873],[122.72478,11.61176],[122.83033,11.60529],[122.94451,11.52241],[122.90073,11.43793],[123.0442,11.51586],[123.08961,11.52969],[122.8776,11.19818],[122.58666,11.23611],[122.52155,11.18624],[122.31525,11.21622],[122.2211,11.17239],[122.17986,11.32122],[122.3322,11.34401],[122.3844,11.4607],[122.51421,11.46235],[122.5922,11.55429]]]}},{"type":"Feature","properties":{"id":"ph-cas","lat":13.67088,"lng":123.19281},"geometry":{"type":"MultiPolygon","coordinates":[[[[122.90881,13.97026],[123.1159,13.72211],[123.30177,13.78946],[123.28028,13.90644],[123.32553,13.94001],[123.33546,13.98216],[123.29005,13.93456],[123.21811,13.99274],[123.3318,14.09951],[123.41733,13.90644],[123.44467,13.96166],[123.68141,13.88467],[123.71168,13.93439],[123.97267,13.72931],[123.85939,13.74262],[123.79737,13.68797],[123.57049,13.72297],[123.52662,13.60602],[123.59358,13.52947],[123.54505,13.50538],[123.57874,13.37763],[123.44697,13.3783],[123.29246,13.24473],[123.16879,13.4492],[122.85914,13.60611],[122.81471,13.6538],[122.86256,13.69477],[122.76686,13.79955],[122.65317,13.82608],[122.558,13.93328],[122.90881,13.97026]]],[[[123.67473,13.95197],[123.62013,13.90892],[123.6032,13.91661],[123.63828,13.98115],[123.67473,13.95197]]]]}},{"type":"Feature","properties":{"id":"ph-cat","lat":13.74396,"lng":124.24494},"geometry":{"type":"Polygon","coordinates":[[[124.41798,13.87295],[124.4087,13.6673],[124.35532,13.65961],[124.33473,13.5576],[124.25164,13.59919],[124.18775,13.5229],[124.04737,13.60602],[124.02605,13.66962],[124.12941,13.81831],[124.13689,14.07836],[124.21567,14.08649],[124.30812,13.90644],[124.41798,13.87295]]]}},{"type":"Feature","properties":{"id":"ph-cav","lat":14.26733,"lng":120.86114},"geometry":{"type":"Polygon","coordinates":[[[120.59668,14.2188],[120.9608,14.49523],[121.01476,14.32817],[121.07471,14.31587],[121.02386,14.12653],[120.89829,14.07878],[120.59668,14.2188]]]}},{"type":"Feature","properties":{"id":"ph-ceb","lat":10.34088,"lng":123.77941},"geometry":{"type":"MultiPolygon","coordinates":[[[[123.93443,10.3093],[123.6526,10.06363],[123.4795,9.54857],[123.32765,9.40815],[123.38706,9.97378],[123.72316,10.49421],[123.97291,11.07734],[123.95875,11.17593],[124.04566,11.27717],[123.99952,11.07734],[124.05494,11.06367],[124.06178,10.98428],[124.04005,10.48436],[124.0149,10.37246],[123.93516,10.40107],[123.93443,10.3093]]],[[[123.81804,11.15473],[123.73365,11.15428],[123.70485,11.2412],[123.74578,11.29247],[123.81804,11.15473]]]]}},{"type":"Feature","properties":{"id":"ph-com","lat":7.50665,"lng":126.04166},"geometry":{"type":"Polygon","coordinates":[[[125.95427,7.04741],[125.82667,7.43221],[125.88382,7.48525],[125.8525,7.52804],[125.91689,7.542],[125.94387,7.75643],[125.91989,7.82616],[125.77788,7.65685],[125.67544,7.99672],[126.18303,7.99496],[126.21858,7.45464],[126.29362,7.29888],[125.95427,7.04741]]]}},{"type":"Feature","properties":{"id":"ph-dao","lat":7.16212,"lng":126.33088},"geometry":{"type":"Polygon","coordinates":[[[126.29119,7.99584],[126.48748,7.74673],[126.58286,7.71943],[126.56918,7.30109],[126.61769,7.27684],[126.45151,6.98355],[126.32398,6.97809],[126.33961,6.78653],[126.24269,6.91926],[126.17213,6.90388],[126.25717,6.74482],[126.20021,6.28319],[126.09506,6.51411],[126.07911,6.84251],[125.98341,6.92089],[125.95427,7.04741],[126.29362,7.29888],[126.21858,7.45464],[126.18303,7.99496],[126.29119,7.99584]]]}},{"type":"Feature","properties":{"id":"ph-das","lat":6.2047,"lng":125.58789},"geometry":{"type":"MultiPolygon","coordinates":[[[[125.3768,5.43122],[125.41871,5.36848],[125.33424,5.38768],[125.3768,5.43122]]],[[[125.50994,7.01557],[125.38063,6.65721],[125.40553,6.58885],[125.43214,6.61579],[125.58985,6.49917],[125.71062,6.11103],[125.66733,5.95014],[125.43637,5.61766],[125.32277,5.57551],[125.47888,5.83546],[125.52973,6.09291],[125.46462,6.29838],[125.26298,6.32432],[125.14133,6.43067],[125.19358,6.66254],[125.1497,6.78222],[125.2789,7.00908],[125.50994,7.01557]]]]}},{"type":"Feature","properties":{"id":"ph-dav","lat":7.50665,"lng":125.57185},"geometry":{"type":"MultiPolygon","coordinates":[[[[125.78191,7.1352],[125.77687,6.89403],[125.67408,7.07022],[125.71583,7.19595],[125.78191,7.1352]]],[[[125.66831,7.25702],[125.63901,7.08877],[125.50994,7.01557],[125.30277,7.01735],[125.2976,7.12225],[125.22252,7.18333],[125.3037,7.6784],[125.40034,7.66661],[125.44137,7.73937],[125.37429,7.99775],[125.67544,7.99672],[125.77788,7.65685],[125.91989,7.82616],[125.91689,7.542],[125.8525,7.52804],[125.88382,7.48525],[125.8339,7.45559],[125.83071,7.35427],[125.66831,7.25702]]]]}},{"type":"Feature","properties":{"id":"ph-eas","lat":11.65644,"lng":125.37734},"geometry":{"type":"MultiPolygon","coordinates":[[[[125.8318,10.72012],[125.76938,10.70039],[125.68727,10.80516],[125.73146,10.80805],[125.8318,10.72012]]],[[[125.18826,12.36643],[125.5005,12.2486],[125.53826,12.1835],[125.45948,12.12568],[125.52516,12.05695],[125.44581,11.94733],[125.49366,11.79023],[125.45021,11.75043],[125.5005,11.70112],[125.46632,11.61176],[125.52101,11.46035],[125.63771,11.36848],[125.55502,11.21186],[125.69361,11.19257],[125.76051,11.02277],[125.65154,11.1494],[125.42465,11.0904],[125.31707,11.14956],[125.24138,11.09439],[125.34918,11.4145],[125.28003,11.55986],[125.24314,11.96697],[125.20365,12.01544],[125.12263,11.99787],[125.10661,12.12965],[125.18826,12.36643]]]]}},{"type":"Feature","properties":{"id":"ph-gui","lat":10.57831,"lng":122.6295},"geometry":{"type":"Polygon","coordinates":[[[122.67018,10.76203],[122.73707,10.64004],[122.68686,10.50601],[122.53663,10.41942],[122.48243,10.50336],[122.55348,10.54914],[122.53663,10.60749],[122.67018,10.76203]]]}},{"type":"Feature","properties":{"id":"ph-ifu","lat":16.81319,"lng":121.1454},"geometry":{"type":"Polygon","coordinates":[[[121.56346,17.08655],[121.57101,16.91096],[121.52481,16.84543],[121.34115,16.78094],[121.28017,16.66487],[120.90263,16.59738],[120.85095,16.84626],[120.93622,16.85597],[121.00949,16.98305],[121.56346,17.08655]]]}},{"type":"Feature","properties":{"id":"ph-ili","lat":11.01779,"lng":122.60115},"geometry":{"type":"Polygon","coordinates":[[[122.61004,10.75609],[122.58985,10.69872],[122.22657,10.64224],[122.00964,10.47331],[122.03475,10.63713],[122.31835,10.99979],[122.31897,11.07793],[122.24032,11.15679],[122.31525,11.21622],[122.50501,11.18387],[122.58666,11.23611],[122.8776,11.19818],[123.16358,11.59809],[123.13136,11.18268],[123.04127,11.1634],[122.95069,11.03579],[122.81202,10.99848],[122.76148,10.81074],[122.61004,10.75609]]]}},{"type":"Feature","properties":{"id":"ph-iln","lat":18.20545,"lng":120.74116},"geometry":{"type":"Polygon","coordinates":[[[120.42614,17.89404],[120.57911,18.32514],[120.57016,18.50178],[120.77084,18.56147],[120.813,18.64452],[120.90919,18.56721],[120.99511,18.60606],[120.90924,18.2407],[120.9821,18.17021],[120.93849,17.96707],[120.6182,17.81902],[120.53903,17.70373],[120.53986,17.86651],[120.42614,17.89404]]]}},{"type":"Feature","properties":{"id":"ph-ils","lat":17.29993,"lng":120.52012},"geometry":{"type":"Polygon","coordinates":[[[120.39791,16.91919],[120.4437,17.38849],[120.40211,17.51887],[120.33383,17.55638],[120.42614,17.89404],[120.50089,17.89725],[120.53903,17.70373],[120.4672,17.49924],[120.58585,17.47981],[120.53552,17.33832],[120.67484,17.26153],[120.73044,17.1557],[120.81302,17.21182],[120.87379,17.18205],[120.79131,17.10562],[120.77354,16.92098],[120.63784,16.86011],[120.59505,16.65263],[120.52394,16.91204],[120.39791,16.91919]]]}},{"type":"Feature","properties":{"id":"ph-isa","lat":17.00074,"lng":122.02814},"geometry":{"type":"Polygon","coordinates":[[[121.42755,16.63552],[121.33536,16.7643],[121.57101,16.91096],[121.57194,17.27104],[121.65286,17.51816],[122.18463,17.54131],[122.25115,17.36018],[122.43539,17.29243],[122.41684,17.14582],[122.52906,17.09052],[122.24464,16.51056],[122.03754,16.50762],[121.75198,16.39574],[121.56987,16.61061],[121.42755,16.63552]]]}},{"type":"Feature","properties":{"id":"ph-kal","lat":17.39403,"lng":121.30068},"geometry":{"type":"Polygon","coordinates":[[[121.42879,17.71763],[121.67012,17.48973],[121.57059,17.25006],[121.42425,17.29832],[121.19449,17.1681],[120.91482,17.24933],[121.00815,17.48984],[121.1176,17.57562],[121.10468,17.6675],[121.42879,17.71763]]]}},{"type":"Feature","properties":{"id":"ph-lag","lat":14.25502,"lng":121.32056},"geometry":{"type":"Polygon","coordinates":[[[121.46621,14.56288],[121.59447,14.21949],[121.50373,14.07454],[121.26446,13.96152],[121.18095,14.13852],[121.03295,14.144],[121.07471,14.31587],[121.01484,14.35914],[121.14344,14.38817],[121.13941,14.52741],[121.24235,14.30181],[121.26095,14.51436],[121.33443,14.44302],[121.30922,14.29055],[121.38838,14.34509],[121.36678,14.50129],[121.46621,14.56288]]]}},{"type":"Feature","properties":{"id":"ph-lan","lat":8.0454,"lng":124.01883},"geometry":{"type":"Polygon","coordinates":[[[123.70086,7.97647],[123.96892,8.16779],[124.23227,8.21288],[124.26169,8.32418],[124.37714,8.37561],[124.57248,8.23722],[124.55977,8.11889],[124.62974,8.00747],[124.31043,8.22379],[124.28888,8.08333],[124.05882,7.90401],[123.99339,7.70186],[123.7942,7.71052],[123.61468,7.83349],[123.69367,7.89084],[123.70086,7.97647]]]}},{"type":"Feature","properties":{"id":"ph-lap","lat":10.28044,"lng":123.95749},"geometry":{"type":"Polygon","coordinates":[[[123.94781,10.30654],[124.04384,10.32428],[123.9332,10.25435],[123.94781,10.30654]]]}},{"type":"Feature","properties":{"id":"ph-las","lat":7.82187,"lng":124.3485},"geometry":{"type":"Polygon","coordinates":[[[124.16731,7.43185],[124.0652,7.60273],[123.86927,7.73973],[123.99339,7.70186],[124.05882,7.90401],[124.16258,8.01682],[124.25446,8.03419],[124.29911,8.21557],[124.35813,8.22513],[124.66612,7.97305],[124.60447,7.91021],[124.80864,7.61111],[124.59176,7.62476],[124.50664,7.69023],[124.16731,7.43185]]]}},{"type":"Feature","properties":{"id":"ph-ley","lat":10.84756,"lng":124.88826},"geometry":{"type":"MultiPolygon","coordinates":[[[[124.32765,10.70401],[124.37843,10.62832],[124.28435,10.60383],[124.32765,10.70401]]],[[[124.52068,10.66576],[124.46241,10.63105],[124.40846,10.68382],[124.46583,10.71361],[124.52068,10.66576]]],[[[124.56267,10.99433],[124.5145,10.87368],[124.39601,10.93407],[124.40431,11.30268],[124.31137,11.46678],[124.32911,11.55711],[124.62989,11.30443],[124.74439,11.32856],[124.84571,11.43301],[124.93816,11.41999],[124.97633,11.27261],[125.04176,11.24803],[125.01385,10.75458],[125.16778,10.62214],[124.91044,10.49244],[124.90372,10.2757],[124.76601,10.18544],[124.79225,10.32567],[124.73561,10.42032],[124.80096,10.67829],[124.77882,10.82144],[124.63722,10.99421],[124.56267,10.99433]]]]}},{"type":"Feature","properties":{"id":"ph-lun","lat":16.53782,"lng":120.40515},"geometry":{"type":"Polygon","coordinates":[[[120.40136,16.2095],[120.33627,16.29218],[120.27613,16.61188],[120.32643,16.83096],[120.39791,16.91919],[120.51557,16.91737],[120.59505,16.65263],[120.47195,16.46375],[120.52601,16.23208],[120.40136,16.2095]]]}},{"type":"Feature","properties":{"id":"ph-mad","lat":13.41081,"lng":121.97192},"geometry":{"type":"Polygon","coordinates":[[[122.11525,13.46499],[122.12029,13.35664],[122.0088,13.20478],[121.81373,13.35224],[121.85865,13.5655],[121.90919,13.5229],[121.99789,13.55077],[122.11525,13.46499]]]}},{"type":"Feature","properties":{"id":"ph-mag","lat":7.1402,"lng":124.2627},"geometry":{"type":"Polygon","coordinates":[[[124.21925,7.32095],[124.24675,7.40412],[124.16731,7.43185],[124.46458,7.66956],[124.49269,7.43319],[124.32567,7.17502],[124.49021,7.22793],[124.44722,7.09807],[124.68152,6.95095],[124.72089,6.99596],[124.66684,7.07874],[124.72234,7.20096],[124.90858,6.63944],[124.80771,6.65675],[124.69371,6.77809],[124.71107,6.84589],[124.64281,6.86031],[124.47243,6.7259],[124.03722,6.75855],[123.97495,6.8039],[124.02947,7.11514],[124.18377,7.22639],[124.281,7.16526],[124.30545,7.22232],[124.21925,7.32095]]]}},{"type":"Feature","properties":{"id":"ph-mas","lat":12.16033,"lng":123.73764},"geometry":{"type":"MultiPolygon","coordinates":[[[[123.99952,12.00837],[124.05486,11.72557],[123.85564,11.9134],[123.74293,11.92695],[123.73268,12.00837],[123.48536,12.21809],[123.15968,11.91779],[123.21599,12.13349],[123.29461,12.21723],[123.21811,12.22809],[123.27345,12.42365],[123.23471,12.59276],[123.35646,12.54926],[123.32643,12.43806],[123.43409,12.51862],[123.55242,12.45661],[123.58814,12.35102],[123.68824,12.33779],[123.79363,12.18716],[123.79493,12.24689],[123.88966,12.20767],[124.0503,11.97114],[123.99952,12.00837]]],[[[123.79477,12.34333],[123.58318,12.62393],[123.60922,12.68745],[123.73268,12.59125],[123.79477,12.34333]]],[[[123.03981,13.12808],[123.37582,12.69359],[122.97389,13.0187],[122.94451,13.11131],[123.03981,13.12808]]]]}},{"type":"Feature","properties":{"id":"ph-mdc","lat":12.86591,"lng":121.00484},"geometry":{"type":"MultiPolygon","coordinates":[[[[121.12827,12.17499],[121.05161,12.22093],[121.05991,12.27839],[121.08814,12.26708],[121.12827,12.17499]]],[[[121.23015,12.21434],[121.11362,12.25129],[121.10108,12.33051],[121.11598,12.30524],[121.14259,12.31005],[120.91635,12.5124],[120.92213,12.61709],[120.79786,12.72944],[120.75831,13.00239],[120.64235,13.18325],[120.51482,13.23054],[120.45248,13.42023],[120.32765,13.39688],[120.35662,13.51838],[120.75457,13.46674],[120.89339,13.50469],[120.89177,13.4029],[120.77922,13.25511],[121.23201,13.05579],[121.23015,12.21434]]],[[[120.23764,13.80463],[120.26433,13.67373],[120.10825,13.77684],[120.0857,13.86078],[120.23764,13.80463]]]]}},{"type":"Feature","properties":{"id":"ph-mde","lat":10.36384,"lng":123.94445},"geometry":{"type":"Polygon","coordinates":[[[123.93516,10.40107],[123.97291,10.32661],[123.93443,10.3093],[123.93516,10.40107]]]}},{"type":"Feature","properties":{"id":"ph-mdr","lat":12.94495,"lng":121.36551},"geometry":{"type":"Polygon","coordinates":[[[120.89339,13.50469],[120.97739,13.53034],[121.02687,13.42158],[121.12159,13.37202],[121.19711,13.4409],[121.43051,13.22427],[121.43629,13.14606],[121.55299,13.11131],[121.48951,13.03677],[121.47779,12.85871],[121.54566,12.61123],[121.43784,12.52163],[121.39576,12.28954],[121.35475,12.32412],[121.24781,12.21992],[121.24751,13.0312],[120.77922,13.25511],[120.89177,13.4029],[120.89339,13.50469]]]}},{"type":"Feature","properties":{"id":"ph-mnl","lat":14.5546,"lng":121.05917},"geometry":{"type":"Polygon","coordinates":[[[121.01484,14.35914],[120.93188,14.72102],[121.15427,14.75843],[121.14344,14.38817],[121.01484,14.35914]]]}},{"type":"Feature","properties":{"id":"ph-mou","lat":17.04565,"lng":121.04691},"geometry":{"type":"Polygon","coordinates":[[[121.57059,17.25006],[121.56346,17.08655],[121.05311,17.00475],[120.91937,16.84471],[120.77354,16.92098],[120.79131,17.10562],[120.91482,17.24933],[121.19449,17.1681],[121.42425,17.29832],[121.57059,17.25006]]]}},{"type":"Feature","properties":{"id":"ph-msc","lat":8.28695,"lng":123.71147},"geometry":{"type":"Polygon","coordinates":[[[123.549,8.61884],[123.58131,8.58283],[123.61671,8.67072],[123.7588,8.60749],[123.8576,8.40941],[123.88299,8.1645],[123.67758,8.01061],[123.55502,8.07062],[123.549,8.61884]]]}},{"type":"Feature","properties":{"id":"ph-msr","lat":8.72769,"lng":125.05011},"geometry":{"type":"Polygon","coordinates":[[[124.46998,8.62482],[124.65748,8.51455],[124.63648,8.43195],[124.75318,8.50023],[124.80942,9.00947],[124.91529,8.99413],[125.11573,8.83055],[125.18735,8.87592],[125.20362,9.08195],[125.32333,8.88557],[125.3207,8.58984],[124.87727,8.58087],[124.82125,8.41225],[124.61982,8.4136],[124.57248,8.23722],[124.39414,8.3752],[124.26169,8.32418],[124.40577,8.6079],[124.46998,8.62482]]]}},{"type":"Feature","properties":{"id":"ph-nco","lat":7.21444,"lng":124.85584},"geometry":{"type":"MultiPolygon","coordinates":[[[[124.46458,7.66956],[124.59176,7.62476],[124.80864,7.61111],[124.88967,7.41567],[124.99364,7.38988],[125.26598,7.57856],[125.22252,7.18333],[125.31502,7.0282],[125.1497,6.78222],[124.84512,6.75855],[124.83303,6.97529],[124.78616,6.98081],[124.79789,7.0745],[124.72234,7.20096],[124.66684,7.07874],[124.72089,6.99596],[124.68152,6.95095],[124.44722,7.09807],[124.49021,7.22793],[124.32567,7.17502],[124.49269,7.43319],[124.46458,7.66956]]],[[[124.19459,7.25365],[124.25111,7.31471],[124.30545,7.22232],[124.281,7.16526],[124.19459,7.25365]]]]}},{"type":"Feature","properties":{"id":"ph-nec","lat":10.18614,"lng":122.99553},"geometry":{"type":"Polygon","coordinates":[[[122.5971,9.43765],[122.4026,9.69941],[122.39519,9.84284],[122.47462,9.97435],[122.70777,9.9864],[122.87281,10.10041],[122.81471,10.51504],[122.9199,10.61832],[123.02487,10.59261],[123.06776,10.68093],[122.97584,10.74242],[122.95818,10.86445],[123.21355,10.9964],[123.52182,10.91991],[123.57081,10.77924],[123.47364,10.52676],[123.36573,10.39251],[123.14394,10.42184],[123.17577,10.27188],[123.01257,9.9644],[122.5971,9.43765]]]}},{"type":"Feature","properties":{"id":"ph-ner","lat":9.76752,"lng":123.00329},"geometry":{"type":"Polygon","coordinates":[[[123.36573,10.39251],[123.29037,10.09357],[123.16236,9.8902],[123.13624,9.64484],[123.17742,9.58991],[123.13551,9.55268],[123.32114,9.34317],[123.31764,9.2569],[123.23015,9.10761],[123.03321,9.0353],[122.95769,9.08124],[122.8449,9.34707],[122.5971,9.43765],[123.01257,9.9644],[123.17577,10.27188],[123.14394,10.42184],[123.36573,10.39251]]]}},{"type":"Feature","properties":{"id":"ph-nsa","lat":12.45767,"lng":124.79769},"geometry":{"type":"MultiPolygon","coordinates":[[[[124.37055,12.29005],[124.27621,12.53327],[124.30502,12.58299],[124.67921,12.51594],[124.87721,12.53339],[124.87672,12.59125],[125.04957,12.52936],[125.16627,12.57811],[125.34962,12.3994],[125.29771,12.29067],[125.20882,12.37645],[125.04077,12.25843],[124.82177,12.22623],[124.67924,12.23047],[124.48711,12.33051],[124.37055,12.29005]]],[[[124.18198,12.40693],[124.13746,12.43757],[124.13356,12.47077],[124.18198,12.40693]]]]}},{"type":"Feature","properties":{"id":"ph-nue","lat":15.63458,"lng":121.00988},"geometry":{"type":"Polygon","coordinates":[[[120.86201,15.16507],[120.74419,15.34061],[120.7631,15.61124],[120.66223,15.65791],[120.62729,15.81873],[120.76765,15.84431],[120.82397,15.7903],[120.91906,15.93655],[120.8865,16.10067],[121.01373,16.13581],[121.18478,16.04982],[121.36575,15.43544],[121.3026,15.18145],[121.1177,15.26005],[120.86201,15.16507]]]}},{"type":"Feature","properties":{"id":"ph-nuv","lat":16.27513,"lng":121.04078},"geometry":{"type":"Polygon","coordinates":[[[121.44771,15.9243],[121.26726,15.77759],[121.16752,16.08093],[121.01373,16.13581],[120.8865,16.10067],[120.86377,16.16341],[120.75659,16.20067],[120.77695,16.29063],[120.89146,16.39001],[120.90263,16.59738],[121.28017,16.66487],[121.33536,16.7643],[121.37981,16.71293],[121.35789,16.43347],[121.42663,16.36474],[121.28762,16.25963],[121.32162,16.1062],[121.44771,15.9243]]]}},{"type":"Feature","properties":{"id":"ph-pam","lat":15.08549,"lng":120.6568},"geometry":{"type":"Polygon","coordinates":[[[120.65577,14.78124],[120.62127,14.87287],[120.59392,14.81826],[120.60133,14.90082],[120.54542,14.82709],[120.48322,14.87232],[120.36902,15.15582],[120.57799,15.25762],[120.74791,15.27374],[120.84537,15.16652],[120.93766,15.22067],[120.90511,15.01516],[120.65577,14.78124]]]}},{"type":"Feature","properties":{"id":"ph-pan","lat":15.99752,"lng":120.33877},"geometry":{"type":"MultiPolygon","coordinates":[[[[119.88819,15.80573],[119.85402,15.94916],[119.75587,15.94457],[119.78191,16.32225],[119.87029,16.3854],[119.92579,16.36498],[119.90187,16.2508],[120.08774,16.15721],[120.13885,16.04613],[120.29225,16.05561],[120.29908,16.0174],[120.36329,16.05549],[120.32936,16.0795],[120.40136,16.2095],[120.52601,16.23208],[120.84702,16.17478],[120.92598,15.97763],[120.82397,15.7903],[120.76765,15.84431],[120.62729,15.81873],[120.60125,15.86983],[120.53665,15.74266],[120.39516,15.75289],[120.24695,15.61403],[120.13844,15.82095],[120.00831,15.85252],[119.88819,15.80573]]],[[[120.01222,16.24152],[119.92237,16.30378],[119.97316,16.35057],[120.00563,16.31175],[120.01222,16.24152]]]]}},{"type":"Feature","properties":{"id":"ph-plw","lat":12.13937,"lng":120.04379},"geometry":{"type":"MultiPolygon","coordinates":[[[[118.51873,6.97093],[118.44516,6.98233],[118.43141,7.02709],[118.52459,7.04365],[118.51873,6.97093]]],[[[117.07586,8.06957],[117.08676,7.87214],[117.00994,7.80028],[116.96168,8.062],[116.99675,8.02733],[117.07586,8.06957]]],[[[116.99586,8.10301],[117.04542,8.13581],[117.06813,8.08625],[117.03053,8.06826],[116.99586,8.10301]]],[[[117.18483,8.15013],[117.1548,8.18041],[117.20485,8.16681],[117.18483,8.15013]]],[[[117.35133,8.20722],[117.28972,8.18431],[117.28443,8.32274],[117.35532,8.30272],[117.35133,8.20722]]],[[[117.24285,8.34321],[117.21461,8.26512],[117.18141,8.28799],[117.24285,8.34321]]],[[[118.75636,9.66767],[118.35377,9.18317],[118.13209,9.12665],[118.01368,8.8876],[117.77369,8.70307],[117.5656,8.66108],[117.51287,8.50678],[117.34498,8.47126],[117.19077,8.33832],[117.26393,8.61009],[117.65553,9.05793],[117.76189,9.07795],[117.90447,9.26122],[118.00318,9.2333],[118.13356,9.34317],[118.36012,9.65843],[118.53053,9.77424],[118.77166,10.13081],[118.77947,10.0563],[118.83237,10.08365],[118.81577,10.18891],[118.9336,10.20966],[118.94972,10.28221],[119.02475,10.30956],[119.00196,10.39753],[119.07203,10.39151],[119.12037,10.48774],[119.13527,10.38813],[119.27809,10.50821],[119.25074,10.55598],[119.3191,10.59007],[119.34498,10.72358],[119.2234,10.85082],[119.2225,10.94172],[119.29168,10.93268],[119.27809,10.87495],[119.46754,10.73265],[119.4568,10.83096],[119.35523,10.87775],[119.32,11.00088],[119.36061,11.00096],[119.33497,11.10293],[119.41529,11.05622],[119.38795,11.18659],[119.50196,11.42333],[119.56707,11.30142],[119.51637,11.1175],[119.57244,11.01533],[119.51759,11.01187],[119.50457,10.88495],[119.53159,10.81981],[119.60271,10.82441],[119.59083,10.67243],[119.65358,10.67512],[119.66277,10.57099],[119.72535,10.51862],[119.56324,10.37348],[119.35597,10.32884],[119.1963,10.05634],[118.77418,9.93415],[118.77784,9.7342],[118.70094,9.77554],[118.75636,9.66767]]],[[[119.64129,11.01529],[119.57976,11.04597],[119.57976,11.09785],[119.63209,11.06989],[119.64129,11.01529]]],[[[119.58953,11.14179],[119.57293,11.17915],[119.61313,11.20026],[119.63233,11.18163],[119.58953,11.14179]]],[[[119.96062,8.8771],[119.95834,8.87718],[119.95973,8.8806],[119.96062,8.8771]]],[[[119.96925,8.88093],[119.96827,8.8841],[119.97193,8.88239],[119.96925,8.88093]]],[[[119.96608,8.88569],[119.96323,8.88703],[119.96518,8.88793],[119.96608,8.88569]]],[[[119.96852,8.89004],[119.96567,8.89142],[119.96762,8.89228],[119.96852,8.89004]]],[[[121.25717,9.62446],[121.22364,9.6057],[121.25864,9.64484],[121.25717,9.62446]]],[[[119.99057,10.55598],[119.94272,10.51504],[119.9087,10.55598],[119.91489,10.48086],[119.80649,10.44611],[119.75262,10.53978],[119.84986,10.64476],[119.99057,10.55598]]],[[[121.08717,10.82347],[121.02516,10.86445],[121.09327,10.91039],[121.08717,10.82347]]],[[[119.82203,11.3874],[119.83286,11.42617],[119.77084,11.40632],[119.71616,11.46035],[119.83286,11.46035],[119.85841,11.52143],[119.8698,11.44062],[119.82203,11.3874]]],[[[120.07651,11.85814],[120.06707,11.74177],[119.96697,11.66437],[120.00489,11.78254],[119.92921,11.77558],[119.85402,11.95441],[119.91969,11.98151],[120.07651,11.85814]]],[[[120.27638,11.96491],[120.27833,11.82404],[120.26791,11.81623],[120.2033,11.94758],[120.27638,11.96491]]],[[[120.31275,11.99201],[120.1421,12.02949],[120.10792,11.96743],[120.00115,12.01118],[119.89503,12.20767],[119.84767,12.16673],[119.92237,12.27652],[119.88071,12.26903],[119.88502,12.3227],[120.19606,12.11201],[120.22975,12.21866],[120.3475,12.06733],[120.31275,11.99201]]]]}},{"type":"Feature","properties":{"id":"ph-que","lat":14.20881,"lng":121.66484},"geometry":{"type":"MultiPolygon","coordinates":[[[[121.72486,13.96914],[121.45458,13.81922],[121.26446,13.96152],[121.50373,14.07454],[121.60046,14.24983],[121.3458,14.79284],[121.33009,15.03236],[121.41991,15.20806],[121.48146,15.18252],[121.59449,14.8592],[121.72495,14.73078],[121.61394,14.68989],[121.60816,14.63019],[121.78004,14.12617],[121.93629,13.99518],[122.23194,13.90644],[122.18344,13.98896],[122.29331,13.97012],[122.31373,14.0163],[122.20867,14.08763],[122.16293,14.16779],[122.25172,14.25031],[122.30947,14.08012],[122.47979,14.15082],[122.81589,13.99372],[122.4131,13.94806],[122.50961,13.82001],[122.49757,13.65204],[122.636,13.5371],[122.56715,13.56387],[122.66326,13.42048],[122.69068,13.22866],[122.58814,13.17402],[122.50506,13.2392],[122.50115,13.36807],[122.39519,13.5229],[122.19402,13.62279],[122.05991,13.80463],[121.72486,13.96914]]],[[[122.18344,14.03059],[122.03338,14.09203],[121.92661,14.22126],[121.96404,14.22614],[122.18344,14.03059]]],[[[122.39698,14.73225],[122.35402,14.67951],[122.31642,14.69892],[122.39698,14.73225]]],[[[122.2566,14.74592],[122.12127,14.80687],[122.10572,14.84394],[122.20387,14.83877],[122.2566,14.74592]]],[[[122.05787,14.9833],[122.00538,14.99018],[121.96811,14.90257],[122.02589,14.73631],[121.9402,14.64008],[121.91944,14.81025],[121.81837,14.94603],[121.83326,15.0353],[121.99383,15.04291],[122.05787,14.9833]]]]}},{"type":"Feature","properties":{"id":"ph-qui","lat":16.31412,"lng":121.63391},"geometry":{"type":"Polygon","coordinates":[[[122.03754,16.50762],[121.87239,16.2819],[121.44771,15.9243],[121.32162,16.1062],[121.28762,16.25963],[121.42166,16.34634],[121.43066,16.40262],[121.35789,16.43347],[121.39965,16.65123],[121.56987,16.61061],[121.75198,16.39574],[122.03754,16.50762]]]}},{"type":"Feature","properties":{"id":"ph-riz","lat":14.59029,"lng":121.28761},"geometry":{"type":"Polygon","coordinates":[[[121.34208,14.88927],[121.35459,14.74716],[121.46053,14.57151],[121.36678,14.50129],[121.38838,14.34509],[121.30922,14.29055],[121.3303,14.45524],[121.24679,14.50247],[121.24235,14.30181],[121.11844,14.60907],[121.20576,14.82638],[121.34208,14.88927]]]}},{"type":"Feature","properties":{"id":"ph-rom","lat":12.3902,"lng":122.57748},"geometry":{"type":"MultiPolygon","coordinates":[[[[122.67018,12.31753],[122.61183,12.27652],[122.42302,12.46288],[122.64373,12.47948],[122.67018,12.31753]]],[[[122.15602,12.64834],[122.05991,12.17284],[122.01222,12.10456],[121.93442,12.38007],[121.99317,12.4418],[121.99586,12.59272],[122.15602,12.64834]]],[[[122.27963,12.61913],[122.27963,12.47451],[122.24562,12.57075],[122.27963,12.61913]]],[[[121.72576,12.93989],[121.68474,12.92015],[121.68865,12.94717],[121.72576,12.93989]]]]}},{"type":"Feature","properties":{"id":"ph-sar","lat":6.06878,"lng":125.37737},"geometry":{"type":"MultiPolygon","coordinates":[[[[125.30242,5.59219],[125.28826,5.70604],[125.18116,5.79833],[125.278,5.97923],[125.23425,6.15833],[125.27187,6.26608],[125.07539,6.34246],[125.14081,6.43487],[125.26298,6.32432],[125.44622,6.31367],[125.51113,6.21693],[125.47888,5.83546],[125.37656,5.63366],[125.30242,5.59219]]],[[[125.08871,5.88471],[124.93873,5.86396],[124.60581,5.99234],[124.37028,6.13265],[124.39141,6.20373],[124.78942,6.01168],[125.04821,6.00485],[125.11223,5.95336],[125.08871,5.88471]]]]}},{"type":"Feature","properties":{"id":"ph-sco","lat":6.31747,"lng":124.89042},"geometry":{"type":"Polygon","coordinates":[[[125.22926,6.0954],[125.15789,6.10879],[125.11223,5.95336],[125.05307,5.95814],[125.04821,6.00485],[124.78942,6.01168],[124.39637,6.21295],[124.38288,6.16221],[124.2493,6.29248],[124.64173,6.29233],[124.63397,6.63944],[124.67299,6.5905],[124.75169,6.6367],[124.85567,6.53149],[125.1765,6.56333],[125.07539,6.34246],[125.27187,6.26608],[125.22926,6.0954]]]}},{"type":"Feature","properties":{"id":"ph-sig","lat":9.23955,"lng":123.61113},"geometry":{"type":"Polygon","coordinates":[[[123.69801,9.16502],[123.63233,9.09833],[123.4712,9.18545],[123.6421,9.29365],[123.69801,9.16502]]]}},{"type":"Feature","properties":{"id":"ph-sle","lat":10.33006,"lng":125.14183},"geometry":{"type":"MultiPolygon","coordinates":[[[[125.30616,9.93745],[125.14576,10.07071],[125.13746,10.16551],[125.22926,10.12116],[125.30616,9.93745]]],[[[125.16993,10.61961],[125.27329,10.27798],[125.14088,10.2788],[125.15105,10.18545],[125.11704,10.1975],[124.99098,10.38133],[125.03175,10.02025],[124.76601,10.18544],[124.90372,10.2757],[124.91044,10.49244],[125.16993,10.61961]]]]}},{"type":"Feature","properties":{"id":"ph-slu","lat":5.98436,"lng":121.11217},"geometry":{"type":"MultiPolygon","coordinates":[[[[120.86069,5.57437],[120.8978,5.49852],[120.81983,5.54328],[120.86069,5.57437]]],[[[120.87371,5.68293],[120.80812,5.66429],[120.79664,5.67862],[120.83302,5.70677],[120.87371,5.68293]]],[[[120.92937,5.73322],[120.89088,5.70978],[120.90431,5.7591],[120.92937,5.73322]]],[[[121.23113,5.80093],[121.1465,5.78954],[121.13502,5.82152],[121.17994,5.84675],[121.23113,5.80093]]],[[[121.42872,5.96979],[121.29249,5.85883],[121.22779,5.94212],[120.93409,5.88569],[120.87184,5.96101],[121.04225,6.09711],[121.17905,6.06363],[121.21778,5.99893],[121.42872,5.96979]]],[[[121.94321,6.03364],[121.85768,6.00227],[121.77662,6.07738],[121.87094,6.03311],[121.94321,6.03364]]],[[[120.56959,6.37189],[120.56983,6.24364],[120.49464,6.24934],[120.56959,6.37189]]]]}},{"type":"Feature","properties":{"id":"ph-sor","lat":12.75432,"lng":123.97699},"geometry":{"type":"Polygon","coordinates":[[[123.93538,13.11851],[124.08155,13.00951],[124.12672,13.07868],[124.18824,13.03954],[124.11622,12.91645],[124.12941,12.67719],[124.05494,12.53726],[123.87859,12.64521],[123.79363,12.83145],[124.00245,12.87971],[124.02516,12.95531],[123.8934,12.9748],[123.83937,12.88817],[123.72535,12.84512],[123.69825,12.93089],[123.61573,12.88947],[123.49616,12.9744],[123.65688,13.04468],[123.90802,13.05414],[123.93538,13.11851]]]}},{"type":"Feature","properties":{"id":"ph-suk","lat":6.4665,"lng":124.35173},"geometry":{"type":"Polygon","coordinates":[[[124.37028,6.13265],[124.22877,6.19701],[124.07195,6.40152],[124.03722,6.75855],[124.51951,6.73375],[124.64281,6.86031],[124.71107,6.84589],[124.69371,6.77809],[124.86802,6.63629],[124.90858,6.63944],[124.89649,6.72889],[125.1497,6.78222],[125.17673,6.56332],[124.85567,6.53149],[124.75169,6.6367],[124.67299,6.5905],[124.63397,6.63944],[124.64173,6.29233],[124.2493,6.29248],[124.37028,6.13265]]]}},{"type":"Feature","properties":{"id":"ph-sun","lat":9.5518,"lng":125.61279},"geometry":{"type":"MultiPolygon","coordinates":[[[[125.46526,9.4447],[125.39747,9.69941],[125.45948,9.82294],[125.5892,9.75463],[125.64356,9.61127],[125.93409,9.49234],[125.7292,9.31328],[125.69179,9.42852],[125.46526,9.4447]]],[[[125.99757,9.65607],[125.94695,9.56623],[125.93483,9.75991],[125.97283,9.75463],[125.99757,9.65607]]],[[[126.18019,9.8015],[126.0486,9.75463],[125.96599,9.85025],[126.01441,9.86449],[125.98341,9.9018],[126.07146,10.05907],[126.13795,9.90192],[126.11061,9.85708],[126.18019,9.8015]]],[[[125.71453,9.88085],[125.58318,10.00971],[125.59669,10.08983],[125.52101,10.06257],[125.49529,10.10871],[125.52215,10.31696],[125.64967,10.4619],[125.68385,10.36441],[125.63771,10.24811],[125.71453,9.88085]]]]}},{"type":"Feature","properties":{"id":"ph-sur","lat":8.71102,"lng":126.12481},"geometry":{"type":"Polygon","coordinates":[[[125.93409,9.49234],[125.9712,9.45409],[125.91098,9.40493],[125.99391,9.39777],[126.05795,9.246],[126.22462,9.29096],[126.17897,9.093],[126.34547,8.85326],[126.23414,8.73363],[126.25457,8.68521],[126.11052,8.60712],[126.15846,8.52757],[126.37013,8.54181],[126.40528,8.49262],[126.33253,8.34707],[126.38844,8.29291],[126.33863,8.21459],[126.45932,8.24018],[126.46616,8.09553],[126.38347,7.89956],[126.31397,7.94019],[126.21755,8.15397],[126.22282,8.34879],[126.06898,8.3907],[125.99126,8.56888],[126.02397,8.68841],[125.80207,8.96669],[125.7292,9.31328],[125.93409,9.49234]]]}},{"type":"Feature","properties":{"id":"ph-tar","lat":15.50885,"lng":120.47897},"geometry":{"type":"Polygon","coordinates":[[[120.76362,15.25938],[120.55619,15.25421],[120.38059,15.169],[120.14381,15.40645],[120.24695,15.61403],[120.39516,15.75289],[120.53665,15.74266],[120.60125,15.86983],[120.66223,15.65791],[120.7631,15.61124],[120.76362,15.25938]]]}},{"type":"Feature","properties":{"id":"ph-taw","lat":5.20726,"lng":120.03105},"geometry":{"type":"MultiPolygon","coordinates":[[[[119.43539,4.90278],[119.49659,4.73359],[119.45655,4.65571],[119.43539,4.90278]]],[[[119.8309,4.82095],[119.834,4.79662],[119.81235,4.81684],[119.8309,4.82095]]],[[[119.83692,4.86286],[119.80437,4.92744],[119.85076,4.88788],[119.83692,4.86286]]],[[[119.81251,5.06989],[119.74578,5.04401],[119.79835,5.12104],[119.81251,5.06989]]],[[[120.25196,5.26651],[120.19117,5.12637],[120.18963,5.19652],[120.12094,5.218],[119.95411,5.07551],[119.81935,5.0598],[119.82179,5.13056],[120.19858,5.34959],[120.25196,5.26651]]]]}},{"type":"Feature","properties":{"id":"ph-wsa","lat":11.67526,"lng":125.14016},"geometry":{"type":"MultiPolygon","coordinates":[[[[124.7894,11.68488],[124.83155,11.53632],[124.73268,11.72162],[124.7894,11.68488]]],[[[125.22543,11.10554],[125.17237,11.2652],[125.00099,11.28978],[125.00701,11.42617],[124.8283,11.50873],[124.97779,11.59276],[125.04371,11.75776],[124.89243,11.76146],[124.79412,11.85814],[124.82398,11.90583],[124.76108,11.90131],[124.67986,12.02973],[124.49317,12.0978],[124.37055,12.29005],[124.48711,12.33051],[124.67924,12.23047],[124.84564,12.2269],[125.1618,12.31568],[125.12263,11.99787],[125.20365,12.01544],[125.24314,11.96697],[125.28003,11.55986],[125.34918,11.4145],[125.22543,11.10554]]],[[[124.22926,12.06363],[124.16432,12.03775],[124.14625,12.05305],[124.18198,12.08015],[124.22926,12.06363]]]]}},{"type":"Feature","properties":{"id":"ph-zan","lat":7.81288,"lng":122.31582},"geometry":{"type":"Polygon","coordinates":[[[122.34799,7.45254],[122.37257,7.37275],[122.28045,7.2945],[122.15447,6.92813],[122.09571,6.89741],[121.96119,6.9582],[121.8978,7.14029],[122.05104,7.30781],[122.04689,7.45254],[122.14601,7.58881],[122.09653,7.7447],[122.25172,7.98013],[122.63844,8.10855],[122.67921,8.16421],[122.7352,8.11547],[122.94532,8.16185],[123.01368,8.23241],[122.95818,8.3085],[123.05543,8.50495],[123.30096,8.52424],[123.43637,8.64948],[123.39015,8.71939],[123.51295,8.69888],[123.55611,8.23195],[123.18889,8.23061],[123.18476,7.98778],[122.57281,7.88107],[122.37158,7.71503],[122.29314,7.57757],[122.26068,7.47102],[122.34799,7.45254]]]}},{"type":"Feature","properties":{"id":"ph-zas","lat":7.76722,"lng":123.27257},"geometry":{"type":"Polygon","coordinates":[[[123.67758,8.01061],[123.69367,7.89084],[123.44467,7.80134],[123.48569,7.66356],[123.35353,7.57209],[123.45167,7.45254],[123.431,7.36872],[123.28028,7.52021],[123.14064,7.51313],[123.18678,7.62621],[123.12941,7.7331],[123.09645,7.7143],[123.08564,7.80759],[122.91387,7.86978],[122.91584,7.91842],[123.06528,8.00003],[123.18476,7.98778],[123.18889,8.23061],[123.55611,8.23195],[123.55502,8.07062],[123.67758,8.01061]]]}},{"type":"Feature","properties":{"id":"ph-zmb","lat":15.30632,"lng":120.10447},"geometry":{"type":"Polygon","coordinates":[[[120.28338,14.80671],[120.20932,14.88003],[120.17555,14.75739],[120.07993,14.80394],[120.00514,15.26944],[119.88819,15.42902],[119.96388,15.51435],[119.8672,15.74307],[120.00831,15.85252],[120.15032,15.81128],[120.23259,15.65212],[120.16365,15.3432],[120.33129,15.25116],[120.46007,14.94152],[120.42245,14.864],[120.28338,14.80671]]]}},{"type":"Feature","properties":{"id":"ph-zsi","lat":7.66181,"lng":122.93557},"geometry":{"type":"MultiPolygon","coordinates":[[[[122.95167,7.38642],[122.84205,7.29426],[122.80055,7.32095],[122.82838,7.43081],[122.95167,7.38642]]],[[[123.08564,7.80759],[123.0066,7.47236],[122.91725,7.54751],[122.82203,7.45942],[122.78566,7.49177],[122.82838,7.52766],[122.81471,7.74335],[122.65105,7.78608],[122.44386,7.60859],[122.48561,7.57852],[122.45444,7.50776],[122.43995,7.54194],[122.26068,7.47102],[122.37158,7.71503],[122.71394,7.93497],[122.91584,7.91842],[122.92255,7.83136],[123.08564,7.80759]]]]}}]}
