{"type":"FeatureCollection","features":[{"type":"Feature","properties":{"id":"pk-ba","lat":28.46953,"lng":65.5482},"geometry":{"type":"Polygon","coordinates":[[[68.97727,31.64148],[69.30116,31.94128],[69.53599,31.94092],[69.66229,32.03138],[69.82166,32.0576],[69.84445,31.87118],[69.94362,31.89495],[69.91478,31.51539],[70.00429,31.45423],[70.02496,31.33008],[70.07539,31.41687],[70.23254,31.47524],[70.23771,30.82205],[70.06573,30.68317],[69.92982,30.28949],[69.96165,30.22265],[70.04185,30.23015],[69.84776,29.82717],[69.60023,29.64654],[69.57031,29.43645],[69.6595,29.4041],[69.66601,29.32304],[69.7427,29.28031],[69.69598,29.11047],[69.51475,28.92656],[69.47129,28.69321],[69.33239,28.57733],[69.38515,28.48656],[68.46686,28.4525],[67.92514,28.02312],[67.40207,27.86388],[67.20575,27.5577],[67.13593,27.28789],[67.16172,26.60473],[67.43731,26.11125],[67.43995,25.8617],[67.3737,25.67267],[66.96633,25.04297],[66.68133,24.91055],[66.71754,25.23119],[66.54786,25.36563],[66.59116,25.3996],[66.53102,25.51813],[66.3755,25.62568],[66.20395,25.59321],[66.09441,25.47484],[66.33644,25.55337],[66.4922,25.48102],[66.45753,25.45376],[66.49838,25.39851],[66.2518,25.47289],[65.65211,25.34447],[65.39536,25.39228],[65.23227,25.37067],[65.15528,25.29609],[64.74439,25.32404],[64.66863,25.25511],[64.71022,25.17939],[64.65504,25.16572],[64.60035,25.17316],[64.6277,25.22846],[64.56544,25.27025],[64.4393,25.2346],[64.09449,25.33588],[64.08375,25.42674],[64.15528,25.44693],[64.04542,25.45034],[63.97657,25.41279],[64.04884,25.41649],[64.05974,25.34455],[63.57252,25.36498],[63.46949,25.28925],[63.5005,25.19367],[63.14405,25.26093],[63.02784,25.22036],[62.52748,25.26419],[62.34311,25.15546],[62.38105,25.08757],[62.25606,25.09863],[62.31528,25.13019],[62.29748,25.18513],[62.14519,25.21841],[62.05899,25.16164],[62.09718,25.10712],[61.88111,25.10301],[61.84734,25.03791],[61.72955,25.02178],[61.78305,25.18797],[61.58823,25.20209],[61.66035,25.76918],[61.7545,25.81997],[61.83295,26.22538],[62.09417,26.31483],[62.12383,26.374],[62.26512,26.36098],[62.29199,26.50123],[62.4185,26.56231],[62.75356,26.64416],[63.14134,26.6254],[63.18956,26.84601],[63.26165,26.87175],[63.23136,27.06584],[63.31963,27.11731],[63.1771,27.25844],[62.89242,27.21348],[62.74235,27.26681],[62.8147,27.49496],[62.73568,27.99498],[62.76152,28.24644],[62.57564,28.22903],[62.36279,28.41889],[61.89279,28.5426],[61.5665,28.87098],[61.48775,29.08066],[61.33282,29.27491],[61.33737,29.37438],[60.84438,29.85818],[62.47751,29.40782],[63.5686,29.49748],[64.08609,29.3866],[64.1726,29.4843],[64.4777,29.57037],[65.03637,29.54016],[66.27521,29.88515],[66.34053,29.95657],[66.2193,30.05786],[66.30529,30.24477],[66.32182,30.43737],[66.26798,30.60139],[66.36626,30.92287],[66.55003,30.97697],[66.69699,31.19582],[66.83848,31.27701],[67.00209,31.31587],[67.02286,31.23939],[67.3462,31.20776],[67.76473,31.33406],[67.77036,31.39467],[67.61146,31.4108],[67.56898,31.52986],[67.69631,31.52082],[67.84271,31.6235],[67.96606,31.63822],[68.13856,31.82467],[68.49802,31.72525],[68.5498,31.75352],[68.41875,31.78302],[68.52748,31.82297],[68.68829,31.76861],[68.80384,31.60257],[68.97727,31.64148]]]}},{"type":"Feature","properties":{"id":"pk-gb","lat":35.77875,"lng":74.8546},"geometry":{"type":"Polygon","coordinates":[[[75.97681,36.46176],[76.01441,36.2304],[75.90144,36.11361],[75.92232,36.03165],[76.08996,35.97812],[76.16603,35.80624],[76.55546,35.89786],[76.57076,35.75126],[76.77735,35.64611],[77.04897,35.11044],[77.01311,34.98639],[76.92112,34.92071],[76.75762,34.91513],[76.74387,34.81927],[76.65261,34.74698],[76.43816,34.76289],[76.15497,34.66166],[76.0234,34.67716],[75.77711,34.50381],[75.30696,34.57402],[75.22454,34.63862],[75.24894,34.76231],[75.1614,34.86196],[74.97459,34.81295],[74.79909,34.85191],[74.63383,34.94049],[74.48888,35.12009],[74.1247,35.0992],[73.80962,35.23352],[73.72783,35.21155],[73.69021,35.35743],[73.78416,35.44714],[73.77206,35.52197],[73.30708,35.60031],[73.12559,35.7248],[73.15474,35.82489],[73.08839,35.8759],[72.79238,35.83756],[72.5156,35.90396],[72.58909,36.01615],[72.52914,36.09754],[72.57203,36.2427],[72.98493,36.47276],[73.09448,36.6033],[73.0734,36.69854],[73.41601,36.75207],[73.87935,36.71161],[73.8873,36.77052],[73.71184,36.89414],[74.0353,36.81558],[74.12967,36.89842],[74.43559,37.00322],[74.53739,36.96224],[74.54235,37.02167],[74.66245,37.05448],[74.82451,36.99412],[74.87236,36.9071],[74.92497,36.97087],[75.10015,36.99412],[75.3513,36.91578],[75.43191,36.72293],[75.57051,36.76675],[75.72874,36.72319],[75.97681,36.46176]]]}},{"type":"Feature","properties":{"id":"pk-is","lat":33.64234,"lng":73.0543},"geometry":{"type":"Polygon","coordinates":[[[72.81026,33.66192],[73.12621,33.80434],[73.32052,33.67575],[73.16363,33.49227],[73.06632,33.62275],[72.83388,33.58955],[72.81026,33.66192]]]}},{"type":"Feature","properties":{"id":"pk-jk","lat":33.98337,"lng":73.9028},"geometry":{"type":"Polygon","coordinates":[[[75.22454,34.63862],[75.01778,34.62972],[74.34888,34.77343],[73.91934,34.64254],[73.92596,34.56497],[73.77486,34.37095],[73.93774,34.30421],[73.99055,34.21851],[73.89371,34.0543],[73.9767,34.00459],[74.22837,34.01289],[74.27229,33.96214],[73.97071,33.74706],[73.9767,33.64839],[74.15778,33.49424],[73.98849,33.20862],[74.15385,33.04018],[74.31126,32.99429],[74.33379,32.84926],[73.6405,33.1033],[73.65486,33.18469],[73.57983,33.23926],[73.63502,33.5408],[73.57311,33.63366],[73.57983,33.91046],[73.4002,34.37553],[73.45012,34.56259],[73.62344,34.56399],[73.70871,34.76331],[74.01784,34.88066],[74.09938,35.09274],[74.46377,35.12365],[74.66112,34.91811],[74.79909,34.85191],[74.97459,34.81295],[75.1614,34.86196],[75.24894,34.76231],[75.22454,34.63862]]]}},{"type":"Feature","properties":{"id":"pk-kp","lat":34.08833,"lng":72.43045},"geometry":{"type":"Polygon","coordinates":[[[73.64008,36.89664],[73.881,36.77646],[73.88575,36.71419],[73.41601,36.75207],[73.0734,36.69854],[73.09448,36.6033],[72.98493,36.47276],[72.57203,36.2427],[72.52914,36.09754],[72.58909,36.01615],[72.5156,35.90396],[72.79238,35.83756],[73.08839,35.8759],[73.15474,35.82489],[73.12559,35.7248],[73.30708,35.60031],[73.77206,35.52197],[73.78416,35.44714],[73.69021,35.35743],[73.71553,35.22514],[74.10186,35.14049],[74.0568,34.93291],[73.70871,34.76331],[73.62344,34.56399],[73.45012,34.56259],[73.4002,34.37553],[73.4741,34.26918],[73.51864,34.00777],[73.36439,33.96558],[73.31194,33.86762],[72.92747,33.72745],[72.84473,33.75706],[72.87641,33.81773],[72.77848,33.94821],[72.65994,33.85535],[72.61586,33.88519],[72.65188,33.9325],[72.52553,34.02123],[72.43091,34.01146],[72.24063,33.93808],[72.23443,33.76613],[72.08762,33.79003],[72.02215,33.74626],[71.87818,33.42352],[71.7233,33.35536],[71.69927,33.2727],[71.75467,33.18392],[71.70036,33.06163],[71.57106,33.20968],[71.41888,33.24138],[71.4612,33.04093],[71.18814,32.96987],[71.10634,32.79149],[71.16824,32.59832],[71.25842,32.58992],[71.264,32.49344],[71.3332,32.53476],[71.34684,32.43244],[70.89948,31.70972],[70.87064,31.42467],[70.77814,31.29416],[70.55981,31.32481],[70.40059,31.24706],[70.1728,31.99384],[70.07121,32.17367],[70.20494,32.30061],[70.34209,32.34162],[70.46364,32.50202],[70.58761,32.47895],[70.37532,32.7209],[70.37842,32.83518],[70.49852,33.02171],[70.72879,33.06615],[70.87204,33.18859],[70.58451,33.28339],[70.48565,33.4162],[70.73034,33.49568],[70.76496,33.59082],[70.99213,33.55589],[71.10014,33.5942],[71.13522,33.74311],[71.34529,33.62921],[71.63628,33.64479],[71.5644,33.57867],[71.61127,33.55377],[71.83937,33.62971],[71.78661,33.67249],[71.85286,33.77954],[71.73632,33.84315],[71.65442,33.7613],[71.52078,33.73254],[71.37712,33.98671],[71.34203,34.15543],[71.49288,34.2269],[71.69261,34.43756],[71.64031,34.53686],[71.7987,34.7584],[71.59902,34.77876],[71.44524,34.93776],[71.63793,35.18969],[71.52983,35.30089],[71.62088,35.41014],[71.59349,35.54936],[71.49272,35.60956],[71.51535,35.70149],[71.3564,35.93305],[71.16592,36.04571],[71.31914,36.20058],[71.55835,36.32786],[71.61044,36.45793],[71.78263,36.39654],[71.77322,36.48005],[72.17165,36.65363],[72.16968,36.71135],[72.6296,36.83295],[73.64008,36.89664]]]}},{"type":"Feature","properties":{"id":"pk-pb","lat":30.85758,"lng":72.26741},"geometry":{"type":"Polygon","coordinates":[[[75.02367,32.46626],[75.35905,32.26167],[75.29466,32.14889],[74.82864,32.02544],[74.78368,31.94286],[74.69842,31.95025],[74.55042,31.827],[74.48944,31.71119],[74.61718,31.45891],[74.50639,31.17541],[74.53677,31.11516],[74.65883,31.08379],[74.40128,30.8931],[74.31921,30.89341],[74.16367,30.6649],[74.06745,30.61054],[74.05753,30.53137],[73.85175,30.37267],[73.94435,30.18829],[73.73972,30.04845],[73.37033,29.92732],[73.23287,29.5366],[72.93036,29.04769],[72.35458,28.76719],[72.14994,28.35377],[71.9083,28.13557],[71.86086,27.95021],[70.76176,27.70978],[70.67174,27.79109],[70.63319,27.93163],[70.50679,28.02896],[70.34194,28.01147],[70.18903,27.89179],[70.01209,27.97312],[69.73242,28.4662],[69.53041,28.52821],[69.38515,28.48656],[69.33285,28.5587],[69.47129,28.69321],[69.52034,28.93805],[69.70746,29.12982],[69.74332,29.30749],[69.68978,29.29248],[69.66245,29.40082],[69.57031,29.43645],[69.60023,29.64654],[69.83856,29.81188],[70.03627,30.2111],[69.92982,30.28949],[70.07291,30.69733],[70.23771,30.82205],[70.25879,31.14986],[70.4039,31.19174],[70.40059,31.24706],[70.55981,31.32481],[70.77814,31.29416],[70.87064,31.42467],[70.85457,31.55244],[70.98361,31.8794],[71.22902,32.18191],[71.34079,32.41523],[71.33676,32.53101],[71.264,32.49344],[71.25842,32.58992],[71.16437,32.60716],[71.10634,32.79149],[71.15538,32.92975],[71.29708,33.01346],[71.4488,33.02444],[71.42725,33.24732],[71.57106,33.20968],[71.70036,33.06163],[71.75467,33.18392],[71.69927,33.2727],[71.7233,33.35536],[71.87818,33.42352],[72.02215,33.74626],[72.08762,33.79003],[72.23443,33.76613],[72.24063,33.93808],[72.52553,34.02123],[72.65188,33.9325],[72.61586,33.88519],[72.65994,33.85535],[72.77848,33.94821],[72.87641,33.81773],[72.84473,33.75706],[72.92912,33.74662],[72.81026,33.66192],[72.83388,33.58955],[73.06632,33.62275],[73.16363,33.49227],[73.32052,33.68709],[73.12621,33.80434],[73.51864,34.00777],[73.57983,33.91046],[73.57311,33.63366],[73.63502,33.5408],[73.57383,33.38739],[73.6405,33.1033],[73.80586,33.01514],[73.94301,33.01819],[74.34619,32.76689],[74.57377,32.75255],[74.67175,32.84058],[74.62958,32.58809],[74.68932,32.47135],[75.02367,32.46626]]]}},{"type":"Feature","properties":{"id":"pk-sd","lat":26.32068,"lng":68.72616},"geometry":{"type":"MultiPolygon","coordinates":[[[[67.39039,24.04926],[67.45802,24.06273],[67.48536,24.04853],[67.42693,24.00751],[67.39039,24.04926]]],[[[70.18903,27.89179],[69.99354,27.57108],[69.53444,27.12558],[69.47284,26.76658],[69.77226,26.59507],[70.05606,26.58908],[70.15807,26.53011],[70.08325,25.92994],[70.26458,25.6973],[70.65386,25.67445],[70.65448,25.39659],[70.84857,25.16332],[71.06386,24.68258],[70.95482,24.58452],[70.97714,24.46494],[71.08277,24.41151],[70.91772,24.36172],[70.75545,24.23144],[70.56766,24.27281],[70.56291,24.42409],[70.41635,24.40195],[70.09787,24.29883],[69.97204,24.16522],[69.71459,24.16858],[69.56307,24.27676],[68.96264,24.25723],[68.9042,24.32058],[68.83877,24.23645],[68.79919,24.32908],[68.74731,24.33118],[68.72447,23.96518],[68.33043,23.96657],[68.18304,23.84211],[68.15748,23.9051],[68.1491,23.69452],[68.06275,23.72313],[68.10222,23.81574],[68.01352,23.93928],[68.05388,23.82941],[68.01352,23.76854],[67.86891,23.85049],[67.85523,23.91193],[67.83172,23.80952],[67.7186,23.8437],[67.71567,23.79169],[67.6316,23.80345],[67.6504,23.93305],[67.61451,23.85008],[67.49106,23.88312],[67.54054,23.93928],[67.45118,23.9877],[67.53305,24.07026],[67.34132,24.08637],[67.27914,24.28124],[67.36248,24.34394],[67.27166,24.36909],[67.28663,24.43952],[67.1836,24.59032],[67.25262,24.59032],[67.15211,24.61571],[67.24513,24.76166],[66.9651,24.84357],[66.65414,24.83918],[66.99088,25.06689],[67.43514,25.83093],[67.43731,26.11125],[67.16172,26.60473],[67.13454,27.25332],[67.19288,27.53163],[67.40207,27.86388],[67.92514,28.02312],[68.47291,28.45483],[69.53041,28.52821],[69.79949,28.39519],[69.97715,28.00188],[70.18903,27.89179]]]]}},{"type":"Feature","properties":{"id":"pk-ta","lat":32.93927,"lng":69.96897},"geometry":{"type":"Polygon","coordinates":[[[71.04753,34.55112],[71.0806,34.67292],[71.28948,34.87503],[71.44524,34.93776],[71.59902,34.77876],[71.78366,34.781],[71.75731,34.66021],[71.64031,34.53686],[71.69261,34.43756],[71.34017,34.13807],[71.51737,33.73448],[71.65442,33.7613],[71.73632,33.84315],[71.85595,33.77685],[71.78661,33.67249],[71.83937,33.62971],[71.61127,33.55377],[71.5644,33.57867],[71.63628,33.64479],[71.34529,33.62921],[71.13522,33.74311],[71.10014,33.5942],[70.99213,33.55589],[70.76496,33.59082],[70.73034,33.49568],[70.48565,33.4162],[70.58451,33.28339],[70.87204,33.18859],[70.72879,33.06615],[70.49852,33.02171],[70.37842,32.83518],[70.37532,32.7209],[70.58761,32.47895],[70.46364,32.50202],[70.34209,32.34162],[70.20494,32.30061],[70.07121,32.17367],[70.21099,31.88565],[70.40855,31.20331],[70.26422,31.15505],[70.24592,31.06632],[70.23254,31.47524],[70.07539,31.41687],[70.02496,31.33008],[70.00429,31.45423],[69.91478,31.51539],[69.94362,31.89495],[69.84445,31.87118],[69.82166,32.0576],[69.66229,32.03138],[69.53599,31.94092],[69.30116,31.94128],[69.23286,32.46267],[69.42602,32.65509],[69.37631,32.77188],[69.47729,32.85683],[69.51418,33.05669],[69.99473,33.12733],[70.29445,33.31895],[70.15497,33.50661],[70.17409,33.63211],[70.11813,33.71652],[69.95752,33.7527],[69.84719,33.92695],[69.87261,34.01723],[70.00284,34.04379],[70.52198,33.9387],[70.86222,33.96478],[71.0467,34.04188],[71.12205,34.35682],[70.95565,34.51001],[71.04753,34.55112]]]}}]}
