{"type":"FeatureCollection","features":[{"type":"Feature","properties":{"id":"pl-ds","lat":50.91405,"lng":16.34101},"geometry":{"type":"Polygon","coordinates":[[[15.25378,50.96903],[15.00397,51.02069],[14.96098,50.99265],[14.98206,50.85907],[14.81039,50.85845],[15.02206,51.23677],[14.95065,51.39654],[15.12944,51.45562],[15.24623,51.42265],[15.40333,51.51784],[15.61469,51.48042],[15.94479,51.76989],[16.09652,51.75234],[16.18199,51.65579],[16.49908,51.75291],[16.61183,51.71488],[16.67612,51.60951],[16.94298,51.51267],[17.22926,51.59432],[17.45726,51.57515],[17.55658,51.53505],[17.49519,51.45027],[17.52392,51.37033],[17.71843,51.34467],[17.71461,51.15016],[17.55379,51.10908],[17.13335,50.57872],[17.02039,50.54681],[16.94401,50.42027],[16.86577,50.4224],[17.0084,50.20996],[16.81771,50.18676],[16.70123,50.09493],[16.58424,50.12743],[16.34374,50.36995],[16.19956,50.40628],[16.4259,50.56756],[16.33164,50.64404],[15.982,50.60363],[15.97146,50.67861],[15.84816,50.67515],[15.79224,50.74269],[15.3561,50.77546],[15.25378,50.96903]]]}},{"type":"Feature","properties":{"id":"pl-kp","lat":53.00574,"lng":18.50112},"geometry":{"type":"Polygon","coordinates":[[[19.74787,53.09314],[19.64865,53.05526],[19.64576,52.93093],[19.45838,52.89832],[19.44039,52.78678],[19.49786,52.67169],[19.36112,52.51243],[19.38045,52.44264],[19.29591,52.33417],[18.76891,52.29112],[18.54608,52.43362],[18.42485,52.42556],[18.3523,52.48662],[18.15861,52.45179],[17.61653,52.66717],[17.51824,52.654],[17.44662,52.71797],[17.53746,52.83889],[17.33127,52.95623],[17.39039,53.08097],[17.3507,53.15913],[17.44207,53.20549],[17.29748,53.34031],[17.50759,53.56159],[17.74551,53.5573],[17.92411,53.69564],[18.25566,53.69419],[18.58298,53.60525],[18.7594,53.62523],[18.96011,53.53753],[19.12827,53.55588],[19.28547,53.36455],[19.68131,53.26295],[19.74787,53.09314]]]}},{"type":"Feature","properties":{"id":"pl-lb","lat":52.26357,"lng":15.26637},"geometry":{"type":"Polygon","coordinates":[[[14.95065,51.39654],[14.92656,51.46133],[14.71004,51.53024],[14.73246,51.65835],[14.58581,51.80389],[14.7614,52.07667],[14.68637,52.12103],[14.71241,52.23591],[14.58415,52.29123],[14.5454,52.38215],[14.63232,52.49674],[14.63242,52.64991],[14.78993,52.6911],[15.02981,52.87533],[15.24871,52.84649],[15.34814,52.93331],[15.30101,52.95232],[15.73313,52.98894],[15.92578,53.10534],[16.03037,53.10322],[16.0219,52.8853],[15.92464,52.80965],[15.97683,52.74309],[15.83111,52.69332],[15.88495,52.46331],[15.83658,52.42424],[15.89901,52.34848],[15.85705,52.10375],[16.11047,51.96541],[16.11316,51.86495],[16.2747,51.86823],[16.37112,51.74919],[16.18199,51.65579],[16.09652,51.75234],[15.94479,51.76989],[15.61469,51.48042],[15.40333,51.51784],[15.24623,51.42265],[15.12944,51.45562],[14.95065,51.39654]]]}},{"type":"Feature","properties":{"id":"pl-ld","lat":51.49943,"lng":19.4094},"geometry":{"type":"Polygon","coordinates":[[[19.29591,52.33417],[19.64142,52.21924],[19.9182,52.26769],[20.06382,52.19247],[20.1002,52.10398],[20.25172,52.05765],[20.20789,51.99553],[20.27311,51.89818],[20.48157,51.87955],[20.61293,51.79601],[20.67102,51.63354],[20.44757,51.64346],[20.42163,51.58724],[20.52219,51.41162],[20.43207,51.28995],[20.199,51.15559],[20.02506,51.15233],[19.97576,51.07171],[20.0541,50.94635],[19.86394,50.98645],[19.83737,50.86069],[19.75056,50.80429],[19.50789,50.84232],[19.3543,50.97136],[19.10801,50.96852],[18.91144,51.03712],[18.65564,50.99523],[18.53048,51.08262],[18.17257,51.11076],[18.05485,51.30245],[18.1859,51.39113],[18.33783,51.40503],[18.35912,51.62693],[18.43136,51.75682],[18.65925,51.78573],[18.71868,51.84593],[18.71351,52.00969],[18.89728,52.05548],[18.91691,52.14607],[19.07856,52.2088],[19.05696,52.29547],[19.29591,52.33417]]]}},{"type":"Feature","properties":{"id":"pl-lu","lat":51.22808,"lng":22.77007},"geometry":{"type":"Polygon","coordinates":[[[23.08699,52.29234],[23.21226,52.23167],[23.48769,52.18162],[23.63745,52.08447],[23.67641,51.99409],[23.53244,51.65897],[23.6976,51.40443],[23.63518,51.3047],[23.86359,51.14827],[23.97934,50.93751],[24.14316,50.85643],[23.95764,50.80801],[24.10843,50.62988],[24.10647,50.53862],[24.01066,50.49278],[23.98131,50.40478],[23.713,50.3824],[23.65868,50.327],[23.38889,50.42669],[23.08276,50.31246],[22.59493,50.36207],[22.52661,50.42292],[22.65787,50.47899],[22.61209,50.5681],[22.22152,50.65965],[22.26244,50.7599],[22.15682,50.80093],[21.97636,50.77282],[21.84428,50.82977],[21.80046,50.92973],[21.77162,51.15145],[21.86319,51.47843],[21.82123,51.56259],[21.64595,51.61116],[21.89689,51.6568],[21.85317,51.72775],[21.94681,51.78206],[21.84128,51.95838],[22.59969,52.0623],[22.70118,52.13609],[22.89827,52.10214],[23.08699,52.29234]]]}},{"type":"Feature","properties":{"id":"pl-ma","lat":49.82633,"lng":20.25074},"geometry":{"type":"Polygon","coordinates":[[[19.76926,49.39311],[19.55677,49.45388],[19.40743,49.64033],[19.43636,49.70989],[19.29891,49.74828],[19.11235,49.92021],[19.40505,50.17503],[19.30531,50.25047],[19.4036,50.26003],[19.50168,50.36114],[19.83923,50.39429],[19.96563,50.44488],[19.95633,50.48446],[20.05069,50.48436],[20.28458,50.39863],[20.42865,50.205],[20.6335,50.17441],[20.78388,50.29776],[21.18127,50.33584],[21.29527,50.4108],[21.2162,50.2382],[21.22799,49.94824],[21.3455,49.86355],[21.22902,49.78911],[21.42632,49.69968],[21.51442,49.41721],[21.06882,49.41921],[21.03327,49.39967],[21.07254,49.35719],[20.91896,49.29033],[20.68952,49.4005],[20.31765,49.39161],[20.13586,49.30888],[20.05049,49.17323],[19.93793,49.22511],[19.76068,49.19421],[19.80864,49.2709],[19.76926,49.39311]]]}},{"type":"Feature","properties":{"id":"pl-mz","lat":52.24347,"lng":21.5018},"geometry":{"type":"Polygon","coordinates":[[[21.52295,53.44351],[21.65597,53.138],[21.84676,53.05165],[21.97761,52.86199],[22.1747,52.87905],[22.26358,52.76709],[22.37789,52.79412],[22.41189,52.60064],[22.51762,52.52935],[22.56268,52.40406],[22.95201,52.36652],[23.08699,52.29234],[22.89827,52.10214],[22.70118,52.13609],[22.59969,52.0623],[21.84128,51.95838],[21.94681,51.78206],[21.85317,51.72775],[21.89689,51.6568],[21.64595,51.61116],[21.82123,51.56259],[21.86319,51.47843],[21.77162,51.15145],[21.81544,51.05508],[21.49557,51.01317],[21.18468,51.07799],[21.13569,51.16468],[20.87276,51.10096],[20.51692,51.23039],[20.43207,51.28995],[20.52229,51.44373],[20.42163,51.58724],[20.44757,51.64346],[20.6581,51.61711],[20.61293,51.79601],[20.48157,51.87955],[20.27311,51.89818],[20.20789,51.99553],[20.25172,52.05765],[20.1002,52.10398],[20.06382,52.19247],[19.9182,52.26769],[19.64142,52.21924],[19.29591,52.33417],[19.38045,52.44264],[19.36112,52.51243],[19.49786,52.67169],[19.44039,52.78678],[19.45838,52.89832],[19.64576,52.93093],[19.64865,53.05526],[19.87675,53.15112],[20.31579,53.10632],[20.70399,53.27595],[21.52295,53.44351]]]}},{"type":"Feature","properties":{"id":"pl-op","lat":50.56277,"lng":17.80937},"geometry":{"type":"Polygon","coordinates":[[[16.95879,50.4146],[17.02039,50.54681],[17.13335,50.57872],[17.57973,51.12675],[17.74923,51.1514],[17.91739,51.06582],[18.15014,51.13613],[18.42568,51.05962],[18.53048,51.08262],[18.65564,50.99523],[18.61357,50.81674],[18.53544,50.78481],[18.46702,50.64562],[18.58866,50.51097],[18.4141,50.50738],[18.35746,50.41945],[18.36284,50.21091],[18.07996,50.1357],[18.00245,50.04677],[18.03242,50.00284],[17.83936,49.97364],[17.73197,50.09488],[17.58418,50.14588],[17.73817,50.20236],[17.70799,50.31104],[17.42956,50.23978],[17.18761,50.37848],[16.95879,50.4146]]]}},{"type":"Feature","properties":{"id":"pl-pd","lat":53.29773,"lng":22.692},"geometry":{"type":"Polygon","coordinates":[[[22.8376,54.40092],[23.44904,54.15494],[23.59094,53.61125],[23.89366,53.15195],[23.85935,53.06798],[23.91134,53.00506],[23.90875,52.69986],[23.3923,52.50964],[23.16813,52.28172],[23.03904,52.28916],[22.95201,52.36652],[22.56268,52.40406],[22.51762,52.52935],[22.41189,52.60064],[22.37789,52.79412],[22.26358,52.76709],[22.1747,52.87905],[21.97761,52.86199],[21.84676,53.05165],[21.65597,53.138],[21.52295,53.44351],[21.9373,53.49932],[22.54305,53.7739],[22.62211,53.9248],[22.34812,54.1786],[22.44218,54.257],[22.73167,54.3017],[22.8376,54.40092]]]}},{"type":"Feature","properties":{"id":"pl-pk","lat":49.9059,"lng":22.16657},"geometry":{"type":"Polygon","coordinates":[[[21.92841,49.33079],[21.51442,49.41721],[21.42632,49.69968],[21.22902,49.78911],[21.3455,49.86355],[21.22799,49.94824],[21.2162,50.2382],[21.29527,50.4108],[21.61329,50.53449],[21.80625,50.69138],[21.84428,50.82977],[21.97636,50.77282],[22.19506,50.79168],[22.26244,50.7599],[22.22152,50.65965],[22.61209,50.5681],[22.65787,50.47899],[22.52661,50.42292],[22.59493,50.36207],[23.08276,50.31246],[23.38889,50.42669],[23.65868,50.327],[23.10146,49.95711],[22.64092,49.52876],[22.73776,49.27539],[22.68175,49.16124],[22.85342,49.08476],[22.85528,48.99401],[22.04075,49.19746],[21.92841,49.33079]]]}},{"type":"Feature","properties":{"id":"pl-pm","lat":54.10931,"lng":18.04469},"geometry":{"type":"Polygon","coordinates":[[[19.60955,54.45673],[19.75826,54.43426],[19.36515,54.22816],[19.38634,54.27658],[19.27389,54.2816],[19.24278,54.23132],[19.2958,54.14651],[19.2093,54.0721],[19.26356,53.97691],[19.38923,53.93516],[19.3698,53.89576],[19.55036,53.84927],[19.49042,53.76933],[19.27586,53.71925],[19.12827,53.55588],[18.96011,53.53753],[18.7594,53.62523],[17.92411,53.69564],[17.74551,53.5573],[17.50759,53.56159],[17.39721,53.43379],[17.09573,53.48805],[16.94773,53.58815],[16.93026,53.69667],[17.00178,53.75331],[16.95218,53.81682],[17.0577,53.82638],[16.88313,53.96503],[16.81131,54.18884],[16.96664,54.22336],[16.97005,54.3866],[16.78521,54.5767],[17.33741,54.74901],[18.3169,54.83832],[18.75172,54.69009],[18.82407,54.63223],[18.45631,54.78766],[18.41505,54.75312],[18.47592,54.64008],[18.52296,54.64655],[18.57407,54.45038],[18.7173,54.38202],[19.00213,54.34492],[19.37721,54.37763],[19.60955,54.45673]]]}},{"type":"Feature","properties":{"id":"pl-sk","lat":50.7228,"lng":20.79734},"geometry":{"type":"Polygon","coordinates":[[[20.43207,51.28995],[20.75174,51.11675],[21.01167,51.11494],[21.10551,51.17119],[21.2531,51.05001],[21.49557,51.01317],[21.81544,51.05508],[21.84045,50.7399],[21.61329,50.53449],[21.18127,50.33584],[20.78388,50.29776],[20.6335,50.17441],[20.42865,50.205],[20.28458,50.39863],[19.82528,50.50958],[19.95437,50.5781],[19.74167,50.70569],[19.85257,50.76595],[19.75056,50.80429],[19.83737,50.86069],[19.86394,50.98645],[20.0541,50.94635],[19.97576,51.07171],[20.00057,51.13207],[20.199,51.15559],[20.43207,51.28995]]]}},{"type":"Feature","properties":{"id":"pl-sl","lat":50.23069,"lng":18.84689},"geometry":{"type":"Polygon","coordinates":[[[19.44887,49.60036],[19.2341,49.50721],[19.1725,49.40226],[18.96228,49.38918],[18.96115,49.49279],[18.8332,49.51026],[18.78844,49.6686],[18.61771,49.71387],[18.55921,49.90719],[18.29245,49.90781],[18.01907,50.04409],[18.07996,50.1357],[18.36284,50.21091],[18.35746,50.41945],[18.4141,50.50738],[18.58866,50.51097],[18.46702,50.64562],[18.53544,50.78481],[18.61357,50.81674],[18.65564,50.99523],[18.91144,51.03712],[19.10801,50.96852],[19.3543,50.97136],[19.50789,50.84232],[19.84864,50.78941],[19.74167,50.70569],[19.95437,50.5781],[19.82528,50.50958],[19.96563,50.44488],[19.60814,50.34447],[19.50168,50.36114],[19.4036,50.26003],[19.30531,50.25047],[19.40505,50.17503],[19.11235,49.92021],[19.29891,49.74828],[19.43636,49.70989],[19.40743,49.64033],[19.44887,49.60036]]]}},{"type":"Feature","properties":{"id":"pl-wn","lat":53.75362,"lng":20.96008},"geometry":{"type":"Polygon","coordinates":[[[22.76722,54.35627],[22.81134,54.39263],[22.73167,54.3017],[22.44218,54.257],[22.34812,54.1786],[22.62211,53.9248],[22.48558,53.73791],[21.9373,53.49932],[20.70399,53.27595],[20.31579,53.10632],[19.87675,53.15112],[19.74787,53.09314],[19.68131,53.26295],[19.28547,53.36455],[19.12827,53.55588],[19.27586,53.71925],[19.49042,53.76933],[19.55036,53.84927],[19.3698,53.89576],[19.38923,53.93516],[19.23007,54.00947],[19.2093,54.0721],[19.2958,54.14651],[19.24971,54.26537],[19.38634,54.27658],[19.36515,54.22816],[19.74322,54.43363],[22.76722,54.35627]]]}},{"type":"Feature","properties":{"id":"pl-wp","lat":52.33575,"lng":17.29798},"geometry":{"type":"Polygon","coordinates":[[[18.94513,52.32301],[19.07856,52.2088],[18.91691,52.14607],[18.89728,52.05548],[18.71351,52.00969],[18.71868,51.84593],[18.67062,51.79343],[18.43136,51.75682],[18.35912,51.62693],[18.33783,51.40503],[18.07097,51.3247],[18.15014,51.13613],[17.85372,51.06805],[17.71461,51.15016],[17.71843,51.34467],[17.52392,51.37033],[17.49519,51.45027],[17.55658,51.53505],[17.34678,51.59401],[16.94298,51.51267],[16.82774,51.5383],[16.67612,51.60951],[16.61183,51.71488],[16.37112,51.74919],[16.2747,51.86823],[16.11316,51.86495],[16.11047,51.96541],[15.85705,52.10375],[15.89901,52.34848],[15.83658,52.42424],[15.88495,52.46331],[15.82573,52.64966],[15.83803,52.70267],[15.97683,52.74309],[15.92464,52.80965],[16.0219,52.8853],[16.03854,53.00674],[16.27883,52.9932],[16.45619,53.12472],[16.70361,53.2058],[16.75157,53.28241],[16.54507,53.36604],[16.52853,53.44152],[16.76531,53.46121],[16.83652,53.58521],[16.91032,53.5952],[17.09573,53.48805],[17.39721,53.43379],[17.29748,53.34031],[17.44207,53.20549],[17.3507,53.15913],[17.39039,53.08097],[17.33127,52.95623],[17.53746,52.83889],[17.44662,52.71797],[17.51824,52.654],[17.61653,52.66717],[18.15861,52.45179],[18.3523,52.48662],[18.42485,52.42556],[18.54608,52.43362],[18.76891,52.29112],[18.94513,52.32301]]]}},{"type":"Feature","properties":{"id":"pl-zp","lat":53.58668,"lng":15.5934},"geometry":{"type":"Polygon","coordinates":[[[14.60797,52.59646],[14.12392,52.85065],[14.14449,52.95992],[14.34334,53.04862],[14.44163,53.25184],[14.29694,53.52914],[14.28858,53.74164],[14.59059,53.59837],[14.62379,53.63923],[14.54493,53.70405],[14.62379,53.76952],[14.63063,53.85151],[14.58709,53.81265],[14.4319,53.90615],[14.31886,53.81818],[14.20082,53.87816],[14.21005,53.93846],[14.40675,53.92182],[15.85971,54.24999],[16.17921,54.26301],[16.21518,54.29963],[16.13771,54.29027],[16.3239,54.34992],[16.28159,54.35859],[16.56959,54.5572],[16.78521,54.5767],[16.97005,54.3866],[16.96664,54.22336],[16.81131,54.18884],[16.88313,53.96503],[17.0577,53.82638],[16.95218,53.81682],[17.00178,53.75331],[16.93026,53.69667],[16.94773,53.58815],[16.83652,53.58521],[16.76531,53.46121],[16.52853,53.44152],[16.54507,53.36604],[16.75157,53.28241],[16.70361,53.2058],[16.21744,52.9787],[16.03854,53.00674],[16.03037,53.10322],[15.92578,53.10534],[15.73313,52.98894],[15.30101,52.95232],[15.34814,52.93331],[15.24871,52.84649],[15.02981,52.87533],[14.78993,52.6911],[14.65433,52.66991],[14.60797,52.59646]]]}}]}
