{"type":"FeatureCollection","features":[{"type":"Feature","properties":{"id":"ps-gzz","lat":31.46632,"lng":34.41041},"geometry":{"type":"Polygon","coordinates":[[[34.4812,31.58314],[34.55603,31.53983],[34.36734,31.39281],[34.3509,31.28925],[34.24835,31.21145],[34.20027,31.31427],[34.4812,31.58314]]]}},{"type":"Feature","properties":{"id":"ps-wbk","lat":31.98324,"lng":35.27473},"geometry":{"type":"Polygon","coordinates":[[[35.21036,32.54187],[35.39291,32.49448],[35.40686,32.41479],[35.56096,32.38472],[35.52282,32.05784],[35.55941,31.76535],[35.45875,31.49157],[35.16491,31.36227],[34.90095,31.34848],[34.86715,31.39643],[34.95531,31.61187],[35.12574,31.7331],[35.23797,31.70933],[35.26281,31.74863],[35.22202,31.87918],[35.18617,31.80874],[34.97743,31.83337],[35.03901,31.90864],[34.95822,32.18645],[35.00068,32.33573],[35.06435,32.46314],[35.21036,32.54187]]]}}]}
