{"type":"FeatureCollection","features":[{"type":"Feature","properties":{"id":"pt-01","lat":40.69016,"lng":-8.48783},"geometry":{"type":"Polygon","coordinates":[[[-8.7879,40.52296],[-8.75036,40.64395],[-8.57266,40.75556],[-8.66845,40.74746],[-8.6837,40.78311],[-8.64558,40.82368],[-8.65526,40.84492],[-8.7508,40.65314],[-8.6552,41.01665],[-8.44814,41.05548],[-8.38961,41.01186],[-8.29019,41.08338],[-8.22438,41.00941],[-8.08774,41.0067],[-8.11539,40.85348],[-8.24965,40.85536],[-8.32499,40.72718],[-8.24864,40.61897],[-8.30199,40.5939],[-8.25324,40.51453],[-8.33135,40.48435],[-8.37046,40.34423],[-8.51547,40.29036],[-8.50493,40.42007],[-8.5656,40.40441],[-8.60887,40.48399],[-8.67538,40.43469],[-8.7879,40.52296]]]}},{"type":"Feature","properties":{"id":"pt-02","lat":37.83675,"lng":-7.94249},"geometry":{"type":"Polygon","coordinates":[[[-6.95058,38.19839],[-7.02398,38.02256],[-7.12326,38.04001],[-7.2727,37.97701],[-7.51461,37.52833],[-7.78564,37.47409],[-8.07069,37.32674],[-8.30571,37.43389],[-8.46596,37.37539],[-8.80762,37.44942],[-8.82653,37.60057],[-8.75219,37.73078],[-8.8087,37.72289],[-8.80137,37.82676],[-8.61257,37.75436],[-8.52167,37.85301],[-8.32856,37.84673],[-8.29336,37.98153],[-8.40134,38.076],[-8.13508,38.22325],[-8.15826,38.32652],[-7.51713,38.19633],[-7.28805,38.33187],[-7.15214,38.17648],[-6.95058,38.19839]]]}},{"type":"Feature","properties":{"id":"pt-03","lat":41.52507,"lng":-8.32599},"geometry":{"type":"Polygon","coordinates":[[[-8.50307,41.73383],[-8.04793,41.81404],[-8.118,41.69234],[-7.99072,41.68376],[-7.9985,41.61121],[-7.81355,41.58258],[-8.01829,41.32781],[-8.21929,41.41458],[-8.60422,41.34941],[-8.60988,41.41106],[-8.7751,41.46756],[-8.8198,41.6178],[-8.55206,41.62888],[-8.50307,41.73383]]]}},{"type":"Feature","properties":{"id":"pt-04","lat":41.4861,"lng":-6.79609},"geometry":{"type":"Polygon","coordinates":[[[-6.48213,41.30299],[-6.64664,41.26761],[-6.818,41.05414],[-7.07533,41.08669],[-7.11264,41.19224],[-7.32619,41.15775],[-7.43228,41.21599],[-7.31743,41.34022],[-7.36231,41.44192],[-7.23619,41.53028],[-7.25252,41.60428],[-7.17266,41.74737],[-7.19994,41.96372],[-6.57166,41.94261],[-6.5758,41.8829],[-6.52422,41.86742],[-6.5774,41.73973],[-6.54153,41.6589],[-6.36594,41.66361],[-6.20595,41.57028],[-6.48213,41.30299]]]}},{"type":"Feature","properties":{"id":"pt-05","lat":39.92482,"lng":-7.51562},"geometry":{"type":"Polygon","coordinates":[[[-6.9421,40.25498],[-7.0431,40.18137],[-6.87971,40.00919],[-7.02114,39.69401],[-7.5661,39.68042],[-7.80471,39.55712],[-7.95026,39.66616],[-7.96496,39.73773],[-8.04188,39.74393],[-8.06154,39.62422],[-8.22911,39.65944],[-8.26494,39.84046],[-7.89486,40.04686],[-7.80719,40.04071],[-7.73557,40.10551],[-7.80688,40.18504],[-7.78213,40.23204],[-7.45352,40.41342],[-7.27115,40.40978],[-7.30973,40.27961],[-7.11026,40.3193],[-6.9421,40.25498]]]}},{"type":"Feature","properties":{"id":"pt-06","lat":40.23107,"lng":-8.35217},"geometry":{"type":"Polygon","coordinates":[[[-8.90248,40.04741],[-8.85326,40.13923],[-8.78498,40.11872],[-8.90844,40.20067],[-8.7879,40.52296],[-8.67538,40.43469],[-8.60887,40.48399],[-8.5656,40.40441],[-8.50493,40.42007],[-8.52245,40.29677],[-8.4572,40.28565],[-8.35021,40.37201],[-8.11622,40.33891],[-7.8452,40.49373],[-7.80223,40.46415],[-7.8376,40.42379],[-7.7673,40.3341],[-7.82463,40.26147],[-7.73557,40.10551],[-7.80719,40.04071],[-7.87137,40.05616],[-8.12635,39.92123],[-8.17456,40.08634],[-8.38995,39.93255],[-8.41987,40.01497],[-8.53547,39.95596],[-8.5673,40.02805],[-8.629,39.99632],[-8.90248,40.04741]]]}},{"type":"Feature","properties":{"id":"pt-07","lat":38.65085,"lng":-7.92678},"geometry":{"type":"Polygon","coordinates":[[[-7.22588,38.76613],[-7.35921,38.44636],[-7.16718,38.27208],[-7.13749,38.17558],[-7.28805,38.33187],[-7.51713,38.19633],[-8.16213,38.31756],[-8.30835,38.37704],[-8.28856,38.42484],[-8.3685,38.53574],[-8.56994,38.52894],[-8.6514,38.58886],[-8.50782,38.71283],[-8.54658,38.76704],[-8.3746,38.85267],[-8.1342,38.78737],[-8.26006,38.91396],[-8.14578,39.02547],[-7.82797,38.8991],[-7.63813,38.91928],[-7.52705,39.0002],[-7.39326,38.81492],[-7.24252,38.84339],[-7.22588,38.76613]]]}},{"type":"Feature","properties":{"id":"pt-08","lat":37.24954,"lng":-8.16019},"geometry":{"type":"MultiPolygon","coordinates":[[[[-7.95572,36.98054],[-7.8601,37.00043],[-7.85326,36.98676],[-7.90388,36.96589],[-7.95572,36.98054]]],[[[-7.50633,37.51812],[-7.40022,37.17235],[-7.51179,37.17178],[-7.81957,36.99873],[-7.9912,37.01411],[-7.9768,36.98676],[-8.17915,37.0881],[-8.58015,37.12397],[-8.99787,37.02147],[-8.80762,37.44942],[-8.46596,37.37539],[-8.30571,37.43389],[-8.07069,37.32674],[-7.78564,37.47409],[-7.50633,37.51812]]]]}},{"type":"Feature","properties":{"id":"pt-09","lat":40.74041,"lng":-7.2068},"geometry":{"type":"Polygon","coordinates":[[[-6.79444,40.3564],[-6.9421,40.25498],[-7.11026,40.3193],[-7.29299,40.27511],[-7.27115,40.40978],[-7.45352,40.41342],[-7.73394,40.24416],[-7.82463,40.26147],[-7.7673,40.3341],[-7.8376,40.42379],[-7.82463,40.49784],[-7.5777,40.5723],[-7.5399,40.68537],[-7.6186,40.79544],[-7.5579,40.87156],[-7.44551,40.81955],[-7.42339,40.9173],[-7.34148,40.93776],[-7.37355,41.00956],[-7.30066,41.15935],[-7.11264,41.19224],[-7.08613,41.09728],[-6.92745,41.0481],[-6.82116,40.87006],[-6.85046,40.58223],[-6.81252,40.51463],[-6.85712,40.44213],[-6.79444,40.3564]]]}},{"type":"Feature","properties":{"id":"pt-10","lat":39.65369,"lng":-8.88051},"geometry":{"type":"Polygon","coordinates":[[[-9.34759,39.29248],[-9.40929,39.37519],[-9.20592,39.41547],[-8.90248,40.04741],[-8.629,39.99632],[-8.5673,40.02805],[-8.53547,39.95596],[-8.41987,40.01497],[-8.38995,39.93255],[-8.27316,39.97637],[-8.23507,40.06399],[-8.14919,40.0688],[-8.10797,39.96531],[-8.14578,39.89147],[-8.3291,39.76646],[-8.44292,39.74228],[-8.47077,39.83731],[-8.66582,39.77331],[-8.6722,39.56511],[-8.75111,39.47955],[-8.90813,39.45981],[-8.99415,39.299],[-9.07389,39.30923],[-9.16936,39.2212],[-9.23119,39.31636],[-9.34759,39.29248]]]}},{"type":"Feature","properties":{"id":"pt-lis-reg","lat":38.93974,"lng":-9.22299},"geometry":{"type":"MultiPolygon","coordinates":[[[[-9.06139,38.85224],[-9.05456,38.83299],[-9.07966,38.82014],[-9.06139,38.85224]]],[[[-8.95263,38.79491],[-9.01154,38.9134],[-8.94323,39.0152],[-8.79035,39.07062],[-8.85436,39.03139],[-8.95263,38.79491]]],[[[-8.92272,39.04926],[-9.10025,38.83023],[-9.1125,38.71418],[-9.32178,38.67032],[-9.49169,38.70759],[-9.34759,39.29248],[-9.23119,39.31636],[-9.16936,39.2212],[-9.06704,39.31166],[-8.87465,39.25424],[-8.81659,39.20092],[-8.90271,39.17151],[-8.79175,39.08241],[-8.92272,39.04926]]]]}},{"type":"Feature","properties":{"id":"pt-12","lat":39.22914,"lng":-7.71608},"geometry":{"type":"Polygon","coordinates":[[[-7.10486,38.82719],[-7.22588,38.76613],[-7.24252,38.84339],[-7.36913,38.80146],[-7.52796,39.00044],[-7.63813,38.91928],[-7.83846,38.90016],[-7.92326,38.97023],[-8.09811,38.97785],[-8.118,39.02674],[-8.24138,39.01227],[-8.33362,39.11697],[-7.96886,39.39021],[-8.01023,39.4687],[-7.96801,39.53686],[-7.86181,39.52022],[-7.69547,39.6527],[-7.5661,39.68042],[-7.31353,39.45744],[-7.32665,39.34132],[-7.16749,39.11348],[-6.98569,39.06676],[-7.10486,38.82719]]]}},{"type":"Feature","properties":{"id":"pt-13","lat":41.19978,"lng":-8.29743},"geometry":{"type":"Polygon","coordinates":[[[-8.6552,41.01665],[-8.64835,41.15278],[-8.73717,41.24966],[-8.7751,41.46756],[-8.60988,41.41106],[-8.60422,41.34941],[-8.21929,41.41458],[-8.03614,41.32502],[-7.9755,41.37009],[-7.87546,41.24679],[-7.94016,41.13801],[-8.22303,41.10349],[-8.38961,41.01186],[-8.44814,41.05548],[-8.6552,41.01665]]]}},{"type":"Feature","properties":{"id":"pt-14","lat":39.30491,"lng":-8.5381},"geometry":{"type":"Polygon","coordinates":[[[-8.95575,38.84091],[-8.76513,39.09772],[-8.90271,39.17151],[-8.81659,39.20092],[-8.9841,39.2604],[-9.00286,39.34943],[-8.89452,39.47064],[-8.75111,39.47955],[-8.6722,39.56511],[-8.66582,39.77331],[-8.47077,39.83731],[-8.44292,39.74228],[-8.2791,39.79478],[-8.22019,39.6465],[-8.13947,39.61616],[-8.06154,39.62422],[-8.04188,39.74393],[-7.96496,39.73773],[-7.95026,39.66616],[-7.80471,39.55712],[-7.96801,39.53686],[-8.01023,39.4687],[-7.96886,39.39021],[-8.33362,39.11697],[-8.19691,39.0009],[-8.26006,38.91396],[-8.1751,38.87427],[-8.15162,38.77448],[-8.29915,38.86148],[-8.54658,38.76704],[-8.69647,38.83639],[-8.76204,38.7381],[-8.91108,38.74311],[-8.95575,38.84091]]]}},{"type":"Feature","properties":{"id":"pt-15","lat":38.27606,"lng":-8.4657},"geometry":{"type":"Polygon","coordinates":[[[-8.80137,37.82676],[-8.82067,37.92727],[-8.89485,37.95254],[-8.7744,38.18695],[-8.79507,38.35923],[-8.94262,38.48139],[-8.79857,38.42609],[-8.6068,38.41869],[-8.73616,38.45185],[-8.77335,38.56533],[-8.7884,38.48139],[-8.90583,38.5124],[-9.23062,38.41869],[-9.18379,38.55154],[-9.25267,38.66548],[-9.10774,38.65888],[-8.93154,38.77814],[-8.76204,38.7381],[-8.70316,38.8344],[-8.60782,38.83037],[-8.59322,38.77247],[-8.4963,38.74771],[-8.65159,38.60617],[-8.63812,38.55036],[-8.3685,38.53574],[-8.28856,38.42484],[-8.30835,38.37704],[-8.16213,38.31756],[-8.13048,38.23457],[-8.39119,38.10165],[-8.29336,37.98153],[-8.32856,37.84673],[-8.52167,37.85301],[-8.61257,37.75436],[-8.80137,37.82676]]]}},{"type":"Feature","properties":{"id":"pt-16","lat":41.87712,"lng":-8.53055},"geometry":{"type":"Polygon","coordinates":[[[-8.22236,42.15363],[-8.20402,42.06955],[-8.09508,42.04092],[-8.23022,41.90468],[-8.17926,41.81261],[-8.50307,41.73383],[-8.55206,41.62888],[-8.8198,41.6178],[-8.82706,41.68281],[-8.69616,41.72199],[-8.82999,41.69465],[-8.88031,41.73686],[-8.87475,41.84956],[-8.7508,41.96898],[-8.62688,42.05103],[-8.22236,42.15363]]]}},{"type":"Feature","properties":{"id":"pt-17","lat":41.55643,"lng":-7.53772},"geometry":{"type":"Polygon","coordinates":[[[-8.05045,41.81599],[-7.9061,41.91385],[-7.89659,41.85794],[-7.72203,41.89925],[-7.60736,41.87318],[-7.60607,41.82554],[-7.46938,41.85254],[-7.44272,41.80595],[-7.20932,41.88916],[-7.17266,41.74737],[-7.25252,41.60428],[-7.23619,41.53028],[-7.36231,41.44192],[-7.31743,41.34022],[-7.39298,41.24637],[-7.55015,41.18276],[-7.89605,41.15912],[-7.87546,41.24679],[-7.9755,41.37009],[-7.81355,41.58258],[-7.9985,41.61121],[-8.02855,41.702],[-8.118,41.69234],[-8.05045,41.81599]]]}},{"type":"Feature","properties":{"id":"pt-18","lat":40.76131,"lng":-7.94956},"geometry":{"type":"Polygon","coordinates":[[[-7.84329,41.18444],[-7.41742,41.21573],[-7.30066,41.15935],[-7.37355,41.00956],[-7.34148,40.93776],[-7.42339,40.9173],[-7.44551,40.81955],[-7.5579,40.87156],[-7.6186,40.79544],[-7.5399,40.68537],[-7.5777,40.5723],[-8.11622,40.33891],[-8.35021,40.37201],[-8.33135,40.48435],[-8.25324,40.51453],[-8.30199,40.5939],[-8.24864,40.61897],[-8.32499,40.72718],[-8.24965,40.85536],[-8.11539,40.85348],[-8.0872,40.9999],[-8.22438,41.00941],[-8.29019,41.08338],[-7.84329,41.18444]]]}},{"type":"Feature","properties":{"id":"pt-20","lat":37.80793,"lng":-25.47252},"geometry":{"type":"MultiPolygon","coordinates":[[[[-25.01692,36.97044],[-25.1691,36.94599],[-25.20165,36.99042],[-25.09447,37.02448],[-25.01692,36.97044]]],[[[-25.13231,37.7862],[-25.50569,37.70673],[-25.70425,37.74404],[-25.85949,37.85391],[-25.84146,37.90599],[-25.76456,37.91157],[-25.55378,37.82966],[-25.19783,37.86441],[-25.13231,37.7862]]],[[[-28.0406,38.40908],[-28.45954,38.40567],[-28.5489,38.52855],[-28.3745,38.55048],[-28.0406,38.40908]]],[[[-28.60973,38.5974],[-28.72704,38.51488],[-28.8424,38.59943],[-28.71959,38.64521],[-28.60973,38.5974]]],[[[-27.76061,38.54902],[-28.03454,38.59007],[-28.31554,38.75507],[-28.03433,38.66633],[-27.76061,38.54902]]],[[[-27.04255,38.74445],[-27.0891,38.63101],[-27.30476,38.65888],[-27.39171,38.75886],[-27.14428,38.79609],[-27.04255,38.74445]]],[[[-28.04516,39.02558],[-28.03433,39.10505],[-27.9359,39.03596],[-27.98347,39.01512],[-28.04516,39.02558]]],[[[-31.15954,39.50178],[-31.15665,39.37263],[-31.26879,39.36465],[-31.25577,39.50747],[-31.15954,39.50178]]],[[[-31.09997,39.66401],[-31.14965,39.71149],[-31.08267,39.72272],[-31.09997,39.66401]]]]}},{"type":"Feature","properties":{"id":"pt-30","lat":32.73208,"lng":-16.94428},"geometry":{"type":"MultiPolygon","coordinates":[[[[-16.0231,30.03229],[-16.02725,30.02961],[-16.02798,30.0336],[-16.0231,30.03229]]],[[[-15.86441,30.15253],[-15.85977,30.13329],[-15.87475,30.13793],[-15.86441,30.15253]]],[[[-16.52184,32.5395],[-16.54235,32.58051],[-16.48705,32.49168],[-16.52184,32.5395]]],[[[-16.8959,32.64159],[-17.14297,32.70555],[-17.24645,32.8286],[-17.18489,32.87417],[-16.67268,32.75861],[-16.8959,32.64159]]],[[[-16.37829,33.03205],[-16.36168,33.09032],[-16.28913,33.10871],[-16.27538,33.06025],[-16.37829,33.03205]]]]}}]}
