{"type":"FeatureCollection","features":[{"type":"Feature","properties":{"id":"pw-002","lat":7.43889,"lng":134.51951},"geometry":{"type":"Polygon","coordinates":[[[134.51053,7.40417],[134.48292,7.44579],[134.48756,7.46992],[134.56573,7.432],[134.51053,7.40417]]]}},{"type":"Feature","properties":{"id":"pw-004","lat":7.38706,"lng":134.55567},"geometry":{"type":"Polygon","coordinates":[[[134.59425,7.42113],[134.5962,7.36994],[134.52377,7.36103],[134.51053,7.40417],[134.59425,7.42113]]]}},{"type":"Feature","properties":{"id":"pw-010","lat":6.90178,"lng":134.15684},"geometry":{"type":"Polygon","coordinates":[[[134.15968,6.88447],[134.13673,6.91909],[134.13966,6.93427],[134.17319,6.92487],[134.15968,6.88447]]]}},{"type":"Feature","properties":{"id":"pw-050","lat":2.96725,"lng":131.79101},"geometry":{"type":"MultiPolygon","coordinates":[[[[131.785,2.97407],[131.813,2.96043],[131.77882,2.95283],[131.785,2.97407]]],[[[131.13111,3.02949],[131.19207,3.04881],[131.13844,3.01895],[131.13111,3.02949]]]]}},{"type":"Feature","properties":{"id":"pw-100","lat":8.06289,"lng":134.70419},"geometry":{"type":"Polygon","coordinates":[[[134.69281,8.07554],[134.72734,8.08288],[134.70125,8.05025],[134.69281,8.07554]]]}},{"type":"Feature","properties":{"id":"pw-150","lat":7.31985,"lng":134.50512},"geometry":{"type":"MultiPolygon","coordinates":[[[[134.34913,7.23778],[134.45834,7.25674],[134.37794,7.21914],[134.34913,7.23778]]],[[[134.44947,7.32836],[134.52735,7.33153],[134.52223,7.31135],[134.44947,7.32836]]]]}},{"type":"Feature","properties":{"id":"pw-212","lat":7.4956,"lng":134.6139},"geometry":{"type":"Polygon","coordinates":[[[134.59469,7.51232],[134.636,7.50316],[134.60963,7.48804],[134.59469,7.51232]]]}},{"type":"Feature","properties":{"id":"pw-214","lat":7.63224,"lng":134.64477},"geometry":{"type":"Polygon","coordinates":[[[134.66017,7.68602],[134.66334,7.63858],[134.65821,7.59105],[134.62295,7.6259],[134.66017,7.68602]]]}},{"type":"Feature","properties":{"id":"pw-218","lat":7.70199,"lng":134.64526},"geometry":{"type":"Polygon","coordinates":[[[134.66017,7.68602],[134.62371,7.71796],[134.62534,7.73408],[134.66017,7.68602]]]}},{"type":"Feature","properties":{"id":"pw-222","lat":7.59705,"lng":134.5897},"geometry":{"type":"Polygon","coordinates":[[[134.54713,7.58039],[134.5691,7.61372],[134.62295,7.6259],[134.61991,7.57303],[134.54713,7.58039]]]}},{"type":"Feature","properties":{"id":"pw-224","lat":7.49878,"lng":134.54027},"geometry":{"type":"Polygon","coordinates":[[[134.48756,7.46992],[134.54425,7.52353],[134.58068,7.47403],[134.56573,7.432],[134.48756,7.46992]]]}},{"type":"Feature","properties":{"id":"pw-226","lat":7.47216,"lng":134.58735},"geometry":{"type":"Polygon","coordinates":[[[134.59469,7.51232],[134.59425,7.42113],[134.56573,7.432],[134.59469,7.51232]]]}},{"type":"Feature","properties":{"id":"pw-227","lat":7.54456,"lng":134.57264},"geometry":{"type":"Polygon","coordinates":[[[134.52833,7.5161],[134.54713,7.58039],[134.61991,7.57303],[134.58068,7.47403],[134.52833,7.5161]]]}},{"type":"Feature","properties":{"id":"pw-228","lat":7.57116,"lng":134.62011},"geometry":{"type":"Polygon","coordinates":[[[134.62364,7.60011],[134.62574,7.5305],[134.60777,7.54221],[134.62364,7.60011]]]}},{"type":"Feature","properties":{"id":"pw-350","lat":7.04751,"lng":134.26629},"geometry":{"type":"Polygon","coordinates":[[[134.27149,7.07453],[134.27996,7.02049],[134.23439,6.98432],[134.23569,7.00849],[134.27149,7.07453]]]}},{"type":"Feature","properties":{"id":"pw-370","lat":5.30868,"lng":132.2195},"geometry":{"type":"Polygon","coordinates":[[[132.22674,5.30435],[132.21388,5.30711],[132.22022,5.31025],[132.22674,5.30435]]]}}]}
