{"type":"FeatureCollection","features":[{"type":"Feature","properties":{"id":"py-1","lat":-22.8031,"lng":-57.25234},"geometry":{"type":"Polygon","coordinates":[[[-57.97313,-22.08105],[-57.84388,-22.14371],[-57.66369,-22.10061],[-57.61407,-22.17699],[-57.38499,-22.21327],[-56.90368,-22.23694],[-56.87955,-22.28996],[-56.58202,-22.36199],[-56.72219,-22.53315],[-56.65222,-22.81757],[-56.69382,-22.87855],[-56.54081,-22.87643],[-56.49241,-22.78863],[-56.27987,-22.69598],[-56.12815,-23.05249],[-56.19259,-23.2144],[-56.38113,-23.40022],[-56.52523,-23.44363],[-56.8627,-23.41904],[-57.27402,-23.50027],[-57.44618,-23.47448],[-57.48403,-23.27305],[-57.63986,-23.0988],[-57.78941,-23.02138],[-57.79236,-22.85685],[-57.9402,-22.71634],[-57.77515,-22.65546],[-57.83057,-22.55919],[-57.83119,-22.37719],[-57.97377,-22.23435],[-57.97313,-22.08105]]]}},{"type":"Feature","properties":{"id":"py-10","lat":-25.36871,"lng":-54.95973},"geometry":{"type":"Polygon","coordinates":[[[-54.59798,-25.39752],[-54.58336,-25.64484],[-54.64315,-25.68794],[-54.58956,-25.83294],[-54.6064,-25.94663],[-54.66227,-25.97991],[-54.66497,-26.23886],[-54.78882,-26.17349],[-54.8799,-26.19044],[-54.8916,-26.14347],[-55.02726,-26.23695],[-55.23675,-26.19825],[-55.29145,-26.08332],[-55.23298,-26.02311],[-55.50963,-25.97356],[-55.52619,-25.85026],[-55.39822,-25.61627],[-55.43033,-25.55048],[-55.48924,-25.5556],[-55.25641,-25.2613],[-55.21533,-25.23159],[-55.11319,-25.28207],[-55.12014,-25.24213],[-55.02416,-25.3399],[-54.9494,-25.33773],[-55.01108,-25.18792],[-55.32972,-24.95967],[-55.29158,-24.58372],[-55.22753,-24.50217],[-55.09531,-24.47272],[-55.07904,-24.54579],[-54.91571,-24.56201],[-54.7906,-24.66868],[-54.66836,-24.63881],[-54.62653,-24.68919],[-54.35843,-24.73142],[-54.46228,-25.03723],[-54.42662,-25.14947],[-54.59798,-25.39752]]]}},{"type":"Feature","properties":{"id":"py-11","lat":-25.53782,"lng":-57.43228},"geometry":{"type":"Polygon","coordinates":[[[-57.63878,-25.6158],[-57.55692,-25.45984],[-57.58346,-25.23443],[-57.52377,-25.10917],[-57.45499,-25.11247],[-57.24663,-25.39018],[-57.16175,-25.42532],[-57.40264,-25.6835],[-57.40701,-25.8978],[-57.50359,-26.01107],[-57.6972,-25.81264],[-57.81966,-25.84978],[-57.7537,-25.67275],[-57.63878,-25.6158]]]}},{"type":"Feature","properties":{"id":"py-12","lat":-26.53424,"lng":-57.93783},"geometry":{"type":"Polygon","coordinates":[[[-58.21306,-26.41865],[-58.0865,-26.12719],[-57.87272,-26.0103],[-57.87535,-25.87615],[-57.77407,-25.80742],[-57.55534,-25.91769],[-57.47698,-26.16719],[-57.70549,-26.4125],[-57.61973,-26.818],[-57.42173,-27.04429],[-57.19591,-27.09566],[-57.31012,-27.42921],[-58.02196,-27.25983],[-58.6042,-27.31626],[-58.65329,-27.15627],[-58.51154,-27.06016],[-58.47547,-26.93799],[-58.31579,-26.87412],[-58.34003,-26.8086],[-58.24794,-26.75816],[-58.23554,-26.64984],[-58.17864,-26.65067],[-58.21306,-26.41865]]]}},{"type":"Feature","properties":{"id":"py-13","lat":-22.96862,"lng":-55.89225},"geometry":{"type":"Polygon","coordinates":[[[-56.4218,-22.07447],[-56.21426,-22.27538],[-55.86103,-22.28954],[-55.76024,-22.39196],[-55.72393,-22.56963],[-55.62368,-22.63867],[-55.65657,-22.85571],[-55.53524,-23.22912],[-55.5338,-23.53044],[-55.59784,-23.65566],[-55.93227,-23.84692],[-56.05908,-23.84852],[-55.97717,-23.75829],[-55.93364,-23.53391],[-56.11414,-23.59458],[-56.14776,-23.5198],[-56.04296,-23.42338],[-56.07639,-23.33098],[-56.30103,-23.33966],[-56.12737,-23.0587],[-56.27509,-22.70141],[-56.48381,-22.78274],[-56.54081,-22.87643],[-56.69382,-22.87855],[-56.65222,-22.81757],[-56.72219,-22.53315],[-56.58202,-22.36199],[-56.84286,-22.28903],[-56.71537,-22.21544],[-56.64881,-22.2635],[-56.52164,-22.09989],[-56.4218,-22.07447]]]}},{"type":"Feature","properties":{"id":"py-14","lat":-24.15486,"lng":-55.23945},"geometry":{"type":"Polygon","coordinates":[[[-55.5338,-23.53044],[-55.43018,-23.92856],[-55.36718,-23.98965],[-55.20086,-24.01951],[-54.94364,-23.96918],[-54.63922,-23.80444],[-54.24529,-24.05062],[-54.33464,-24.14891],[-54.26219,-24.35851],[-54.33453,-24.49669],[-54.35843,-24.73142],[-54.62653,-24.68919],[-54.66836,-24.63881],[-54.7906,-24.66868],[-54.91571,-24.56201],[-55.07904,-24.54579],[-55.11676,-24.4675],[-55.50979,-24.54889],[-55.75083,-24.78267],[-55.81424,-24.74567],[-56.10902,-24.36487],[-56.15354,-24.1608],[-55.99415,-24.02985],[-56.05908,-23.84852],[-55.90658,-23.83736],[-55.59784,-23.65566],[-55.5338,-23.53044]]]}},{"type":"Feature","properties":{"id":"py-15","lat":-23.68897,"lng":-59.04021},"geometry":{"type":"Polygon","coordinates":[[[-60.33737,-24.01641],[-60.78778,-23.87345],[-60.7505,-23.64641],[-60.06361,-23.49986],[-59.97339,-23.2052],[-59.93445,-22.79577],[-59.74097,-22.52901],[-59.73105,-22.43093],[-59.61648,-22.41202],[-59.60786,-22.30753],[-59.30759,-22.20144],[-59.34229,-22.08304],[-59.16881,-22.16102],[-58.26323,-22.19803],[-58.19409,-22.28091],[-57.84897,-22.42302],[-57.77515,-22.65546],[-57.9402,-22.71634],[-57.79236,-22.85685],[-57.78941,-23.02138],[-57.63986,-23.0988],[-57.48403,-23.27305],[-57.45041,-23.57381],[-57.27583,-23.73152],[-57.34376,-23.92324],[-57.23358,-24.09471],[-57.16302,-24.11744],[-57.21981,-24.22079],[-57.09067,-24.67746],[-57.24867,-24.89145],[-57.19953,-24.98421],[-57.28539,-24.98245],[-57.42228,-25.11247],[-57.52377,-25.10917],[-57.56968,-25.22234],[-57.67198,-25.28983],[-57.8707,-25.08529],[-58.22406,-24.94122],[-58.33599,-24.99186],[-58.45077,-24.86174],[-58.8092,-24.77678],[-59.29506,-24.51292],[-60.03367,-24.00701],[-60.33737,-24.01641]]]}},{"type":"Feature","properties":{"id":"py-16","lat":-20.86865,"lng":-58.86076},"geometry":{"type":"Polygon","coordinates":[[[-58.17528,-19.82137],[-58.11854,-20.21442],[-58.15632,-20.26166],[-58.09508,-20.2722],[-58.08299,-20.37617],[-57.9894,-20.43312],[-57.98062,-20.69274],[-57.91809,-20.6698],[-57.86021,-20.73026],[-57.94041,-20.79361],[-57.85964,-20.83165],[-57.91483,-20.90565],[-57.81758,-20.9536],[-57.83396,-21.17385],[-57.90429,-21.27493],[-57.85556,-21.33074],[-57.94915,-21.5083],[-57.89561,-21.68844],[-57.98837,-22.04904],[-57.96573,-22.25683],[-57.88739,-22.2898],[-57.84897,-22.42302],[-58.19409,-22.28091],[-58.26323,-22.19803],[-59.16881,-22.16102],[-59.42042,-22.04651],[-59.93817,-22.04046],[-59.95817,-21.8981],[-59.85177,-21.46964],[-59.6955,-21.33487],[-59.73689,-21.06869],[-59.87435,-20.78638],[-59.85546,-20.69817],[-61.92474,-20.06513],[-61.73723,-19.63958],[-60.00638,-19.2981],[-59.08954,-19.28673],[-58.17528,-19.82137]]]}},{"type":"Feature","properties":{"id":"py-19","lat":-21.96928,"lng":-61.25673},"geometry":{"type":"Polygon","coordinates":[[[-62.2756,-22.51351],[-62.62529,-22.30505],[-62.65036,-22.23446],[-62.2757,-21.06657],[-62.26883,-20.55311],[-61.92474,-20.06513],[-59.85546,-20.69817],[-59.87435,-20.78638],[-59.73689,-21.06869],[-59.6955,-21.33487],[-59.85177,-21.46964],[-59.95817,-21.8981],[-59.93817,-22.04046],[-59.42042,-22.04651],[-59.34229,-22.08304],[-59.3042,-22.19565],[-59.59452,-22.29564],[-59.61648,-22.41202],[-59.73725,-22.43925],[-59.74097,-22.52901],[-59.94391,-22.81546],[-59.97339,-23.2052],[-60.06416,-23.50048],[-60.7505,-23.64641],[-60.78778,-23.87345],[-60.97483,-23.82407],[-61.11885,-23.66641],[-61.10986,-23.60698],[-61.50107,-23.40782],[-61.51606,-23.34498],[-61.733,-23.24339],[-61.95645,-23.03441],[-62.2756,-22.51351]]]}},{"type":"Feature","properties":{"id":"py-2","lat":-24.18059,"lng":-56.67355},"geometry":{"type":"Polygon","coordinates":[[[-55.75083,-24.78267],[-55.94937,-24.84195],[-56.04575,-24.9715],[-56.23633,-24.78335],[-56.4945,-25.02173],[-56.70472,-24.91528],[-56.9984,-24.96778],[-57.05871,-25.03759],[-57.21343,-24.98897],[-57.24867,-24.89145],[-57.09067,-24.67746],[-57.21981,-24.22079],[-57.16302,-24.11744],[-57.23358,-24.09471],[-57.34376,-23.92324],[-57.27583,-23.73152],[-57.42569,-23.61789],[-57.44618,-23.47448],[-57.27402,-23.50027],[-56.8627,-23.41904],[-56.58117,-23.45175],[-56.24359,-23.32256],[-56.0843,-23.32421],[-56.04296,-23.42338],[-56.14776,-23.5198],[-56.13202,-23.56528],[-56.08644,-23.61391],[-55.93624,-23.53019],[-55.93309,-23.59985],[-56.05908,-23.84852],[-55.99415,-24.02985],[-56.14579,-24.14039],[-56.15659,-24.26162],[-55.91361,-24.63503],[-55.75083,-24.78267]]]}},{"type":"Feature","properties":{"id":"py-3","lat":-25.23086,"lng":-56.94535},"geometry":{"type":"Polygon","coordinates":[[[-56.4945,-25.02173],[-56.5638,-25.34925],[-56.81474,-25.51296],[-56.74632,-25.65347],[-56.90032,-25.65828],[-56.90259,-25.53942],[-57.10351,-25.51632],[-57.45499,-25.11247],[-57.28539,-24.98245],[-57.05871,-25.03759],[-56.9984,-24.96778],[-56.70472,-24.91528],[-56.4945,-25.02173]]]}},{"type":"Feature","properties":{"id":"py-4","lat":-25.81829,"lng":-56.25394},"geometry":{"type":"Polygon","coordinates":[[[-56.35906,-25.57777],[-55.92041,-25.60996],[-55.82819,-25.67683],[-55.62463,-25.65032],[-55.66944,-25.73006],[-56.0335,-25.89403],[-56.0989,-26.01852],[-56.35891,-26.01025],[-56.48257,-26.08781],[-56.51492,-26.1738],[-56.58651,-26.17587],[-56.66333,-26.03722],[-56.59905,-25.93557],[-56.67062,-25.74256],[-56.35906,-25.57777]]]}},{"type":"Feature","properties":{"id":"py-5","lat":-25.10482,"lng":-55.81958},"geometry":{"type":"Polygon","coordinates":[[[-56.04575,-24.9715],[-55.96991,-24.85709],[-55.75083,-24.78267],[-55.52281,-24.55571],[-55.22753,-24.50217],[-55.29158,-24.58372],[-55.32972,-24.95967],[-55.01108,-25.18792],[-54.9494,-25.33773],[-55.22683,-25.23128],[-55.59924,-25.65761],[-55.82819,-25.67683],[-55.92041,-25.60996],[-56.35906,-25.57777],[-56.64679,-25.71037],[-56.74632,-25.65347],[-56.81474,-25.51296],[-56.5638,-25.34925],[-56.4945,-25.02173],[-56.23633,-24.78335],[-56.04575,-24.9715]]]}},{"type":"Feature","properties":{"id":"py-6","lat":-26.13081,"lng":-55.91872},"geometry":{"type":"Polygon","coordinates":[[[-56.0335,-25.89403],[-55.42537,-25.55534],[-55.40005,-25.62298],[-55.52619,-25.85026],[-55.50963,-25.97356],[-55.22668,-26.0305],[-55.31558,-26.07867],[-55.3816,-26.22765],[-55.73987,-26.35689],[-55.84705,-26.46464],[-55.99895,-26.5082],[-56.10238,-26.66514],[-56.41167,-26.77563],[-56.57225,-26.7224],[-56.57659,-26.67036],[-56.78343,-26.54076],[-56.58651,-26.17587],[-56.51492,-26.1738],[-56.48257,-26.08781],[-56.26573,-25.99206],[-56.1738,-26.04218],[-56.0989,-26.01852],[-56.0335,-25.89403]]]}},{"type":"Feature","properties":{"id":"py-7","lat":-26.8257,"lng":-55.80645},"geometry":{"type":"Polygon","coordinates":[[[-54.66497,-26.23886],[-54.80701,-26.66121],[-54.9199,-26.67413],[-54.97527,-26.78782],[-55.12578,-26.86358],[-55.13836,-26.9537],[-55.414,-26.97985],[-55.46185,-27.09798],[-55.59828,-27.16754],[-55.59133,-27.32836],[-55.75473,-27.4437],[-55.89284,-27.33487],[-56.12455,-27.2989],[-56.27984,-27.38965],[-56.36754,-27.58064],[-56.54644,-27.45507],[-56.63802,-27.45291],[-56.68731,-27.25611],[-56.53411,-27.12098],[-56.57225,-26.7224],[-56.41167,-26.77563],[-56.10238,-26.66514],[-55.98407,-26.49802],[-55.3816,-26.22765],[-55.3121,-26.07758],[-55.23675,-26.19825],[-55.02726,-26.23695],[-54.8916,-26.14347],[-54.8799,-26.19044],[-54.78882,-26.17349],[-54.66497,-26.23886]]]}},{"type":"Feature","properties":{"id":"py-8","lat":-26.93115,"lng":-57.03468},"geometry":{"type":"Polygon","coordinates":[[[-57.10899,-27.49062],[-57.31012,-27.42921],[-57.19591,-27.09566],[-57.42173,-27.04429],[-57.61973,-26.818],[-57.70549,-26.4125],[-57.56219,-26.54417],[-57.34055,-26.62323],[-57.18777,-26.58163],[-57.09075,-26.43441],[-57.01091,-26.40454],[-56.56794,-26.67863],[-56.53411,-27.12098],[-56.68731,-27.25611],[-56.63802,-27.45291],[-56.77116,-27.50674],[-56.90435,-27.41869],[-57.10899,-27.49062]]]}},{"type":"Feature","properties":{"id":"py-9","lat":-26.08913,"lng":-57.05852},"geometry":{"type":"Polygon","coordinates":[[[-56.74632,-25.65347],[-56.64679,-25.71037],[-56.66542,-25.80711],[-56.59902,-25.95051],[-56.66951,-25.99697],[-56.58651,-26.17587],[-56.78343,-26.54076],[-57.0393,-26.40397],[-57.18777,-26.58163],[-57.36711,-26.62101],[-57.56219,-26.54417],[-57.70549,-26.4125],[-57.47698,-26.16719],[-57.50359,-26.01107],[-57.40701,-25.8978],[-57.41352,-25.7036],[-57.20263,-25.44837],[-57.16175,-25.42532],[-57.08816,-25.52609],[-56.90259,-25.53942],[-56.90032,-25.65828],[-56.74632,-25.65347]]]}},{"type":"Feature","properties":{"id":"py-asu","lat":-25.36099,"lng":-57.59684},"geometry":{"type":"Polygon","coordinates":[[[-57.59754,-25.40336],[-57.67198,-25.28983],[-57.58346,-25.23443],[-57.53915,-25.31861],[-57.59754,-25.40336]]]}}]}
