{"type":"FeatureCollection","features":[{"type":"Feature","properties":{"id":"qa-da","lat":25.32838,"lng":51.49224},"geometry":{"type":"MultiPolygon","coordinates":[[[[51.45268,25.21519],[51.4616,25.15713],[51.42925,25.19697],[51.45268,25.21519]]],[[[51.51572,25.38284],[51.51881,25.29706],[51.61109,25.23754],[51.54329,25.21815],[51.44506,25.35969],[51.51572,25.38284]]]]}},{"type":"Feature","properties":{"id":"qa-kh","lat":25.74781,"lng":51.34412},"geometry":{"type":"Polygon","coordinates":[[[51.41651,25.95209],[51.55942,25.91376],[51.59449,25.75825],[51.54461,25.73737],[51.57683,25.68867],[51.50514,25.68716],[51.54949,25.63117],[51.45268,25.65765],[51.40063,25.55089],[51.30202,25.55115],[51.21363,25.73238],[50.94955,25.77529],[50.97258,25.82517],[51.10392,25.82422],[51.10392,25.92833],[51.24446,25.92833],[51.34594,25.8291],[51.41684,25.82969],[51.41651,25.95209]]]}},{"type":"Feature","properties":{"id":"qa-ms","lat":26.0172,"lng":51.19248},"geometry":{"type":"Polygon","coordinates":[[[50.9724,25.82511],[50.98422,25.98135],[51.04737,26.05305],[51.25123,26.1601],[51.34685,26.10488],[51.41684,25.82969],[51.34594,25.8291],[51.24446,25.92833],[51.10392,25.92833],[51.10392,25.82422],[50.9724,25.82511]]]}},{"type":"Feature","properties":{"id":"qa-ra","lat":25.17168,"lng":51.1061},"geometry":{"type":"Polygon","coordinates":[[[51.03888,24.55987],[50.9286,24.58721],[50.80787,24.74665],[50.85279,24.77001],[50.85108,24.89081],[50.75782,25.18623],[50.75099,25.4947],[50.79709,25.5299],[50.84718,25.46735],[50.785,25.60456],[50.8506,25.65298],[50.88868,25.52949],[50.9559,25.60468],[50.97755,25.64615],[50.88868,25.66665],[50.93287,25.81061],[51.21363,25.73238],[51.30432,25.38437],[51.44506,25.35969],[51.54329,25.21815],[51.42925,25.19697],[51.4616,25.15713],[51.40351,25.06085],[51.33178,25.08986],[51.33295,25.00958],[51.22104,25.00958],[51.21526,24.62585],[51.03888,24.55987]]]}},{"type":"Feature","properties":{"id":"qa-us","lat":25.46763,"lng":51.35828},"geometry":{"type":"Polygon","coordinates":[[[51.28744,25.56578],[51.40063,25.55089],[51.44506,25.35969],[51.30432,25.38437],[51.28744,25.56578]]]}},{"type":"Feature","properties":{"id":"qa-wa","lat":24.79981,"lng":51.35462},"geometry":{"type":"Polygon","coordinates":[[[51.61109,25.23754],[51.58693,24.95344],[51.34059,24.56989],[51.33912,24.64619],[51.22096,24.64423],[51.22104,25.00958],[51.33295,25.00958],[51.33178,25.08986],[51.40351,25.06085],[51.43823,25.13785],[51.61109,25.23754]]]}},{"type":"Feature","properties":{"id":"qa-za","lat":25.45211,"lng":51.46222},"geometry":{"type":"Polygon","coordinates":[[[51.5359,25.62238],[51.49138,25.61823],[51.47193,25.52139],[51.51572,25.38284],[51.44506,25.35969],[51.40583,25.6108],[51.45268,25.65765],[51.5359,25.62238]]]}}]}
