{"type":"FeatureCollection","features":[{"type":"Feature","properties":{"id":"ro-ab","lat":46.01146,"lng":23.52134},"geometry":{"type":"Polygon","coordinates":[[[22.81301,46.31066],[22.6881,46.42197],[22.73978,46.56543],[22.99672,46.53101],[23.07728,46.4553],[23.40372,46.52708],[23.62391,46.47251],[23.65497,46.40089],[24.02678,46.44828],[24.02161,46.37655],[24.14331,46.31286],[24.19747,46.17806],[24.01371,46.00463],[23.87206,46.01828],[23.83573,45.92516],[23.7006,45.92025],[23.76344,45.85493],[23.61244,45.71127],[23.65342,45.48063],[23.58422,45.4473],[23.57379,45.5041],[23.4109,45.60259],[23.31608,45.87684],[23.07449,46.10458],[23.06653,46.18426],[22.9668,46.21938],[22.91419,46.31521],[22.81301,46.31066]]]}},{"type":"Feature","properties":{"id":"ro-ag","lat":44.96503,"lng":24.87074},"geometry":{"type":"Polygon","coordinates":[[[25.30924,45.3885],[25.27094,45.19202],[25.18883,45.19125],[25.16309,45.12985],[25.23523,45.01596],[25.18774,44.66704],[25.31714,44.56576],[25.29978,44.46522],[24.966,44.3884],[24.77206,44.40788],[24.68979,44.70518],[24.73062,44.73215],[24.63315,44.75714],[24.56365,44.89142],[24.4651,44.81985],[24.43782,44.85003],[24.51197,44.91411],[24.52722,45.56182],[24.7719,45.6029],[25.09514,45.56962],[25.30924,45.3885]]]}},{"type":"Feature","properties":{"id":"ro-ar","lat":46.27568,"lng":21.90715},"geometry":{"type":"Polygon","coordinates":[[[21.30095,46.60393],[21.42354,46.65823],[21.82578,46.65808],[22.09377,46.60695],[22.42027,46.39022],[22.75528,46.33381],[22.61932,46.21824],[22.44709,46.19726],[22.40151,45.99166],[22.22896,45.89276],[21.95523,45.98215],[21.81601,45.90495],[21.72263,45.94934],[21.67034,45.90175],[21.45851,46.0391],[21.36183,45.97073],[21.18882,46.02047],[21.10996,45.97533],[20.70437,46.16853],[20.79866,46.26762],[21.03347,46.23134],[21.14448,46.28374],[21.17879,46.38446],[21.2807,46.41639],[21.24514,46.47688],[21.30095,46.60393]]]}},{"type":"Feature","properties":{"id":"ro-b","lat":44.45054,"lng":26.10556},"geometry":{"type":"Polygon","coordinates":[[[26.10447,44.59263],[26.21066,44.43408],[26.14784,44.41314],[26.14485,44.32639],[25.97583,44.43109],[26.04164,44.46699],[25.98929,44.51485],[26.10447,44.59263]]]}},{"type":"Feature","properties":{"id":"ro-bc","lat":46.39869,"lng":26.77713},"geometry":{"type":"Polygon","coordinates":[[[26.48482,46.02125],[26.34178,46.17759],[26.25161,46.15028],[26.29274,46.3197],[26.16784,46.30622],[26.14686,46.38471],[26.0249,46.41267],[26.06991,46.48719],[26.00878,46.66795],[26.25378,46.70444],[26.29972,46.63496],[26.40772,46.63509],[26.71437,46.74009],[26.83493,46.71963],[26.89467,46.81378],[26.97115,46.74366],[27.2255,46.74283],[27.32384,46.6725],[27.50171,46.33557],[27.51985,46.16261],[27.30679,46.17382],[27.11238,46.08091],[26.67045,46.07683],[26.60042,46.00923],[26.48482,46.02125]]]}},{"type":"Feature","properties":{"id":"ro-bh","lat":47.00102,"lng":22.16617},"geometry":{"type":"Polygon","coordinates":[[[21.42354,46.65823],[21.64853,46.94298],[21.63282,47.02269],[22.00158,47.39383],[22.00789,47.51741],[22.16761,47.59486],[22.35153,47.40574],[22.56393,47.3638],[22.49489,47.18064],[22.71942,46.97935],[22.68826,46.92029],[22.76133,46.86587],[22.66619,46.78435],[22.80789,46.61938],[22.80277,46.5569],[22.70252,46.53215],[22.70671,46.36875],[22.66495,46.36652],[22.42027,46.39022],[22.09377,46.60695],[21.42354,46.65823]]]}},{"type":"Feature","properties":{"id":"ro-bn","lat":47.1897,"lng":24.50646},"geometry":{"type":"Polygon","coordinates":[[[24.19685,46.78453],[24.23359,46.9128],[24.16083,46.95496],[24.12698,47.08232],[23.96234,47.1456],[23.93599,47.23381],[24.1259,47.45672],[24.38335,47.56211],[24.75919,47.5365],[24.87076,47.58283],[25.08424,47.49379],[25.00264,47.38656],[25.0568,47.3153],[25.06858,47.10296],[24.81598,47.02178],[24.73573,46.89404],[24.58199,46.89453],[24.48376,46.76727],[24.19685,46.78453]]]}},{"type":"Feature","properties":{"id":"ro-br","lat":45.14497,"lng":27.66598},"geometry":{"type":"Polygon","coordinates":[[[27.30477,45.23445],[27.58005,45.49335],[28.03021,45.39542],[27.98675,45.29233],[28.1224,45.24977],[28.0977,45.18417],[28.17795,45.13466],[28.05481,44.77701],[27.20065,44.81941],[27.17476,44.90925],[27.24643,44.94754],[27.26813,45.04847],[27.20964,45.06164],[27.15238,45.18427],[27.08489,45.15528],[27.06412,45.2014],[27.30477,45.23445]]]}},{"type":"Feature","properties":{"id":"ro-bt","lat":47.80525,"lng":26.75386},"geometry":{"type":"Polygon","coordinates":[[[26.68853,48.27483],[27.04277,48.1273],[27.09579,48.0056],[27.16876,47.98307],[27.2811,47.69301],[27.43134,47.57264],[27.23201,47.49111],[27.09249,47.51834],[27.05585,47.43633],[26.7339,47.49343],[26.61722,47.43072],[26.52673,47.61404],[26.11942,47.91749],[26.10253,47.97827],[26.25533,48.07234],[26.30349,48.21205],[26.68853,48.27483]]]}},{"type":"Feature","properties":{"id":"ro-bv","lat":45.76423,"lng":25.15532},"geometry":{"type":"Polygon","coordinates":[[[25.65097,45.48534],[25.30924,45.3885],[25.09514,45.56962],[24.70907,45.59877],[24.64933,45.77684],[24.75439,45.82023],[24.71542,45.90717],[24.84125,45.94689],[25.03148,46.12987],[25.33022,46.16462],[25.56731,46.03903],[25.5579,45.85431],[25.67097,45.75163],[25.89473,45.71778],[26.10045,45.5644],[26.04599,45.48226],[25.92403,45.51252],[25.84553,45.43826],[25.65097,45.48534]]]}},{"type":"Feature","properties":{"id":"ro-bz","lat":45.31049,"lng":26.78899},"geometry":{"type":"Polygon","coordinates":[[[26.30173,45.6021],[26.38044,45.80294],[26.56895,45.62476],[26.8433,45.52497],[26.9758,45.53332],[27.05016,45.45425],[27.42347,45.38653],[27.30477,45.23445],[27.06412,45.2014],[27.08489,45.15528],[27.15238,45.18427],[27.20964,45.06164],[27.26813,45.04847],[27.24643,44.94754],[27.17476,44.90925],[27.20328,44.78078],[26.66021,44.83597],[26.54735,44.91628],[26.57794,44.97741],[26.48947,45.02475],[26.41609,45.19843],[26.26215,45.21822],[26.17404,45.38653],[26.04599,45.48226],[26.22448,45.62285],[26.30173,45.6021]]]}},{"type":"Feature","properties":{"id":"ro-cj","lat":46.87003,"lng":23.48688},"geometry":{"type":"Polygon","coordinates":[[[24.00751,47.3246],[23.9363,47.24572],[23.95537,47.15557],[24.12698,47.08232],[24.16083,46.95496],[24.23871,46.89926],[24.10931,46.71653],[24.12078,46.64377],[24.04554,46.61772],[23.9717,46.48871],[23.98782,46.44223],[23.65497,46.40089],[23.62391,46.47251],[23.40372,46.52708],[23.07025,46.45629],[22.99672,46.53101],[22.80277,46.5569],[22.80339,46.62736],[22.66883,46.77531],[22.76133,46.86587],[22.68826,46.92029],[22.71942,46.97935],[22.86825,46.97233],[23.01847,46.87569],[23.19645,46.87419],[23.24233,46.93654],[23.34724,46.89176],[23.34212,46.9591],[23.4818,46.99486],[23.45446,47.06581],[23.50955,47.12689],[23.80411,47.21846],[23.84147,47.33324],[24.00751,47.3246]]]}},{"type":"Feature","properties":{"id":"ro-cl","lat":44.29374,"lng":27.14159},"geometry":{"type":"Polygon","coordinates":[[[27.22674,44.12072],[27.02748,44.17705],[26.41579,44.06379],[26.45149,44.20676],[26.28003,44.32146],[26.45645,44.46023],[26.4164,44.51454],[26.70703,44.56325],[27.09729,44.48803],[27.60517,44.4878],[28.02276,44.35471],[27.93398,44.26603],[27.22674,44.12072]]]}},{"type":"Feature","properties":{"id":"ro-cs","lat":45.11962,"lng":22.03229},"geometry":{"type":"Polygon","coordinates":[[[21.34281,44.83194],[21.53102,44.92465],[21.35139,44.99824],[21.53205,45.19512],[21.55019,45.30886],[21.47014,45.39077],[21.59179,45.54872],[21.90231,45.56009],[22.00809,45.50453],[22.05967,45.52844],[22.03683,45.56838],[22.44538,45.6629],[22.67844,45.49255],[22.70423,45.3068],[22.56253,45.14686],[22.64108,45.09239],[22.43174,44.75825],[22.22193,44.80615],[22.16111,44.60183],[22.03424,44.59617],[21.87198,44.69598],[21.65628,44.68766],[21.57804,44.77768],[21.34281,44.83194]]]}},{"type":"Feature","properties":{"id":"ro-ct","lat":44.19378,"lng":28.12125},"geometry":{"type":"Polygon","coordinates":[[[27.38384,44.01509],[27.25266,44.12152],[27.93398,44.26603],[28.11025,44.44261],[28.0039,44.53992],[28.03077,44.63707],[27.89853,44.70812],[27.89476,44.76897],[28.14522,44.78255],[28.28205,44.71053],[28.40448,44.76094],[28.79249,44.64472],[28.89772,44.71678],[28.98341,44.69261],[28.96209,44.63939],[28.93873,44.63426],[28.97267,44.67023],[28.9524,44.69636],[28.76694,44.63373],[28.78785,44.58649],[28.73268,44.56786],[28.77418,44.55231],[28.75847,44.46528],[28.92498,44.62055],[28.6351,44.31639],[28.67172,43.99738],[28.57838,43.74128],[28.22125,43.76198],[28.01481,43.83004],[27.91207,43.99334],[27.7217,43.94874],[27.63343,44.02977],[27.38384,44.01509]]]}},{"type":"Feature","properties":{"id":"ro-cv","lat":45.96938,"lng":26.00428},"geometry":{"type":"Polygon","coordinates":[[[26.48482,46.02125],[26.40478,45.91751],[26.3286,45.61809],[26.10045,45.5644],[25.89473,45.71778],[25.67097,45.75163],[25.5579,45.85431],[25.56731,46.03903],[25.44814,46.09202],[25.69097,46.29294],[25.89845,46.11584],[26.33372,46.18046],[26.48482,46.02125]]]}},{"type":"Feature","properties":{"id":"ro-db","lat":44.89187,"lng":25.51384},"geometry":{"type":"Polygon","coordinates":[[[26.02893,44.73815],[25.90713,44.56591],[25.39585,44.52795],[25.27854,44.43729],[25.31714,44.56576],[25.19069,44.65485],[25.23523,45.01596],[25.16309,45.12985],[25.18883,45.19125],[25.27094,45.19202],[25.30924,45.3885],[25.4298,45.45232],[25.71148,44.95674],[25.79029,44.9463],[25.82522,44.83744],[26.02893,44.73815]]]}},{"type":"Feature","properties":{"id":"ro-dj","lat":44.27681,"lng":23.66192},"geometry":{"type":"Polygon","coordinates":[[[22.91956,43.83423],[22.85104,43.87435],[22.87471,43.97205],[23.02302,44.03163],[23.00831,44.10045],[23.1395,44.17082],[23.17345,44.34344],[23.27572,44.38073],[23.20931,44.40282],[23.21892,44.45155],[23.30414,44.52328],[23.73223,44.62389],[23.74013,44.73308],[23.95816,44.52966],[23.9101,44.45791],[24.25674,44.21017],[24.27674,44.10217],[24.20491,44.04584],[24.29209,43.98863],[24.14961,43.75472],[23.48469,43.8806],[22.91956,43.83423]]]}},{"type":"Feature","properties":{"id":"ro-gj","lat":44.90731,"lng":23.35248},"geometry":{"type":"Polygon","coordinates":[[[23.01175,45.25915],[23.58578,45.35258],[23.83573,45.30664],[23.73672,44.6294],[23.4894,44.5503],[23.34228,44.65645],[23.10348,44.71768],[22.93744,44.84163],[22.91775,44.97299],[22.56253,45.14686],[22.66914,45.24047],[22.88143,45.29494],[23.01175,45.25915]]]}},{"type":"Feature","properties":{"id":"ro-gl","lat":45.8009,"lng":27.7487},"geometry":{"type":"Polygon","coordinates":[[[28.10782,46.0961],[28.08271,46.01471],[28.16797,45.63246],[28.06214,45.5936],[28.16405,45.53061],[28.21515,45.45036],[28.18167,45.41302],[27.85549,45.40741],[27.58005,45.49335],[27.25031,45.96934],[27.30865,46.05202],[27.47608,46.11372],[27.53318,46.11651],[27.62041,45.99626],[27.63142,46.12755],[28.10782,46.0961]]]}},{"type":"Feature","properties":{"id":"ro-gr","lat":44.14502,"lng":26.05224},"geometry":{"type":"Polygon","coordinates":[[[26.41579,44.06379],[26.11621,43.99887],[25.73295,43.71878],[25.64038,44.04517],[25.71893,44.25544],[25.52741,44.34871],[25.51362,44.50586],[25.90713,44.56591],[25.90512,44.36928],[26.14732,44.26004],[26.28003,44.32146],[26.4378,44.22624],[26.41579,44.06379]]]}},{"type":"Feature","properties":{"id":"ro-hd","lat":45.82276,"lng":22.91104},"geometry":{"type":"Polygon","coordinates":[[[23.58578,45.35258],[22.66914,45.24047],[22.67844,45.49255],[22.45365,45.64006],[22.54362,45.76868],[22.35495,45.94986],[22.41964,46.02533],[22.43809,46.1871],[22.61932,46.21824],[22.75528,46.33381],[22.91419,46.31521],[23.31608,45.87684],[23.4109,45.60259],[23.58035,45.49795],[23.58578,45.35258]]]}},{"type":"Feature","properties":{"id":"ro-hr","lat":46.56801,"lng":25.58595},"geometry":{"type":"Polygon","coordinates":[[[26.25161,46.15028],[25.85298,46.13563],[25.69097,46.29294],[25.4545,46.10587],[25.31332,46.16741],[25.18805,46.14344],[24.87665,46.31635],[25.03478,46.50595],[25.28071,46.66738],[25.268,46.96669],[25.20469,47.07643],[25.3898,47.13973],[25.56793,47.04881],[25.73707,47.03899],[25.86584,46.91285],[25.81696,46.8698],[25.82817,46.69361],[25.90093,46.63007],[25.91752,46.67974],[26.00878,46.66795],[26.06991,46.48719],[26.0249,46.41267],[26.14686,46.38471],[26.16784,46.30622],[26.29894,46.31113],[26.25161,46.15028]]]}},{"type":"Feature","properties":{"id":"ro-if","lat":44.48996,"lng":26.31576},"geometry":{"type":"Polygon","coordinates":[[[25.90713,44.56591],[26.04227,44.75326],[26.32845,44.75133],[26.43971,44.64386],[26.36752,44.56467],[26.46048,44.46806],[26.14732,44.26004],[25.89473,44.38194],[25.90713,44.56591]],[[26.19571,44.40267],[26.19122,44.51186],[26.11344,44.52532],[26.10447,44.59263],[25.98929,44.51485],[26.04164,44.46699],[25.97583,44.43109],[26.04164,44.38023],[26.14485,44.32639],[26.14784,44.41314],[26.19571,44.40267]]]}},{"type":"Feature","properties":{"id":"ro-il","lat":44.60087,"lng":27.21064},"geometry":{"type":"Polygon","coordinates":[[[26.43408,44.52328],[26.36752,44.56467],[26.43971,44.64386],[26.26964,44.7598],[26.60389,44.86507],[27.05244,44.82347],[27.13145,44.75954],[27.20065,44.81941],[27.83342,44.81422],[27.91089,44.7753],[27.89853,44.70812],[28.03077,44.63707],[28.0039,44.53992],[28.11025,44.44261],[28.02276,44.35471],[27.46585,44.50646],[27.09729,44.48803],[26.70703,44.56325],[26.43408,44.52328]]]}},{"type":"Feature","properties":{"id":"ro-is","lat":47.19911,"lng":27.14608},"geometry":{"type":"Polygon","coordinates":[[[27.43134,47.57264],[27.80655,47.14462],[28.02804,47.03297],[28.12261,46.84227],[27.83296,46.84128],[27.82645,46.91709],[27.78645,46.87781],[27.62553,46.97385],[27.64847,46.88055],[27.20483,46.85957],[27.14292,46.94458],[27.23945,46.99171],[27.16044,47.07051],[26.87245,47.01129],[26.64838,47.07635],[26.48234,47.2536],[26.57794,47.27869],[26.50456,47.35008],[26.65613,47.35292],[26.72491,47.49049],[27.04066,47.43447],[27.09249,47.51834],[27.23201,47.49111],[27.43134,47.57264]]]}},{"type":"Feature","properties":{"id":"ro-mh","lat":44.60256,"lng":23.05214},"geometry":{"type":"Polygon","coordinates":[[[23.00831,44.10045],[22.69074,44.22888],[22.68154,44.30531],[22.50512,44.40406],[22.48414,44.49977],[22.58046,44.5655],[22.75926,44.56467],[22.70014,44.63061],[22.42605,44.73365],[22.30492,44.67738],[22.17211,44.50535],[22.03424,44.59617],[22.16901,44.60896],[22.22803,44.81122],[22.43174,44.75825],[22.64108,45.09239],[22.83533,45.02836],[23.02669,44.76931],[23.4894,44.5503],[23.29075,44.51878],[23.20575,44.41641],[23.27386,44.37429],[23.17345,44.34344],[23.1395,44.17082],[23.00831,44.10045]]]}},{"type":"Feature","properties":{"id":"ro-mm","lat":47.64009,"lng":24.17046},"geometry":{"type":"Polygon","coordinates":[[[23.56324,48.00575],[24.2093,47.89759],[24.56163,47.94054],[25.0323,47.61234],[24.75919,47.5365],[24.36568,47.55909],[24.1259,47.45672],[24.00751,47.3246],[23.76204,47.30486],[23.65698,47.36458],[22.96757,47.43049],[23.11681,47.57648],[23.24967,47.53077],[23.32367,47.58526],[23.36093,47.66784],[23.24735,47.70675],[23.25556,47.74453],[23.45446,47.73507],[23.62066,47.8162],[23.48548,47.97423],[23.56324,48.00575]]]}},{"type":"Feature","properties":{"id":"ro-ms","lat":46.55322,"lng":24.57622},"geometry":{"type":"Polygon","coordinates":[[[24.19184,46.24415],[23.9717,46.48871],[24.04554,46.61772],[24.12078,46.64377],[24.16641,46.78216],[24.48376,46.76727],[24.58199,46.89453],[24.73573,46.89404],[24.81598,47.02178],[25.06858,47.10296],[25.20469,47.07643],[25.26412,46.98246],[25.28071,46.66738],[24.87045,46.32523],[25.18805,46.14344],[25.03148,46.12987],[24.98187,46.0636],[24.72131,46.08049],[24.67382,46.26581],[24.19184,46.24415]]]}},{"type":"Feature","properties":{"id":"ro-nt","lat":46.96814,"lng":26.47981},"geometry":{"type":"Polygon","coordinates":[[[25.86026,46.88329],[25.67128,47.0579],[25.81964,47.20694],[25.78347,47.27763],[25.89132,47.23185],[26.41547,47.29391],[26.66125,47.07129],[26.91312,47.00501],[27.14804,47.07506],[27.23945,46.99171],[27.14292,46.94458],[27.2255,46.74283],[26.97115,46.74366],[26.89467,46.81378],[26.83493,46.71963],[26.71437,46.74009],[26.39036,46.63328],[26.29972,46.63496],[26.25378,46.70444],[26.12407,46.65788],[25.92713,46.68185],[25.88899,46.63478],[25.82817,46.69361],[25.81696,46.8698],[25.86026,46.88329]]]}},{"type":"Feature","properties":{"id":"ro-ot","lat":44.30005,"lng":24.49415},"geometry":{"type":"Polygon","coordinates":[[[24.15938,43.75294],[24.29209,43.98863],[24.20491,44.04584],[24.27674,44.10217],[24.25674,44.21017],[23.90679,44.48023],[24.27798,44.61989],[24.33322,44.58317],[24.28635,44.7459],[24.35338,44.86026],[24.42696,44.91209],[24.4651,44.81985],[24.56365,44.89142],[24.63315,44.75714],[24.73062,44.73215],[24.68979,44.70518],[24.76539,44.41646],[24.85133,44.38993],[24.84125,44.11576],[24.63067,44.00982],[24.74519,43.80714],[24.66176,43.75566],[24.46634,43.80242],[24.15938,43.75294]]]}},{"type":"Feature","properties":{"id":"ro-ph","lat":45.07758,"lng":26.05579},"geometry":{"type":"Polygon","coordinates":[[[26.53479,44.81018],[26.01715,44.74034],[25.82522,44.83744],[25.81386,44.92178],[25.71148,44.95674],[25.52571,45.22375],[25.4298,45.45232],[25.65097,45.48534],[25.84553,45.43826],[25.94579,45.51019],[26.16071,45.40087],[26.26215,45.21822],[26.41609,45.19843],[26.60389,44.86507],[26.53479,44.81018]]]}},{"type":"Feature","properties":{"id":"ro-sb","lat":45.88105,"lng":24.23458},"geometry":{"type":"Polygon","coordinates":[[[24.70907,45.59877],[23.62608,45.45193],[23.60949,45.69328],[23.76344,45.85493],[23.70541,45.92575],[23.83573,45.92516],[23.87206,46.01828],[24.01371,46.00463],[24.19184,46.15959],[24.19184,46.24415],[24.67382,46.26581],[24.70736,46.08499],[24.98187,46.0636],[24.71542,45.90717],[24.75439,45.82023],[24.64933,45.77684],[24.70907,45.59877]]]}},{"type":"Feature","properties":{"id":"ro-sj","lat":47.15376,"lng":23.06043},"geometry":{"type":"Polygon","coordinates":[[[23.81294,47.31652],[23.80411,47.21846],[23.50955,47.12689],[23.45446,47.06581],[23.4818,46.99486],[23.34212,46.9591],[23.35612,46.89623],[23.23024,46.93538],[23.19645,46.87419],[23.01847,46.87569],[22.86825,46.97233],[22.71942,46.97935],[22.49489,47.18064],[22.58072,47.3214],[22.78241,47.3929],[23.04545,47.31427],[23.14058,47.41695],[23.81294,47.31652]]]}},{"type":"Feature","properties":{"id":"ro-sm","lat":47.68316,"lng":22.77467},"geometry":{"type":"Polygon","coordinates":[[[22.56299,47.75722],[22.75182,47.82768],[22.92411,48.00482],[23.06312,48.00746],[23.13908,48.09813],[23.48548,47.97423],[23.63001,47.83809],[23.45446,47.73507],[23.24409,47.73616],[23.35954,47.64257],[23.26797,47.53808],[23.12658,47.58071],[22.96881,47.4445],[23.1103,47.37685],[23.04545,47.31427],[22.80184,47.39277],[22.58072,47.3214],[22.48279,47.41029],[22.35153,47.40574],[22.16761,47.59486],[22.27309,47.72375],[22.45437,47.78739],[22.56299,47.75722]]]}},{"type":"Feature","properties":{"id":"ro-sv","lat":47.53264,"lng":25.78615},"geometry":{"type":"Polygon","coordinates":[[[25.26174,47.89858],[26.10253,47.97827],[26.12671,47.90628],[26.52673,47.61404],[26.56756,47.46806],[26.67339,47.41271],[26.65613,47.35292],[26.50456,47.35008],[26.57794,47.27869],[26.48234,47.2536],[26.37573,47.29701],[25.89132,47.23185],[25.78347,47.27763],[25.81964,47.20694],[25.67128,47.0579],[25.56793,47.04881],[25.3898,47.13973],[25.26986,47.06643],[25.06858,47.10296],[25.0568,47.3153],[25.00264,47.38656],[25.08935,47.48299],[24.95623,47.58229],[25.0323,47.61234],[24.94238,47.71556],[25.07995,47.74293],[25.26174,47.89858]]]}},{"type":"Feature","properties":{"id":"ro-tl","lat":45.07347,"lng":28.9162},"geometry":{"type":"Polygon","coordinates":[[[28.23764,45.45206],[28.33024,45.32292],[28.71006,45.22696],[28.80267,45.24417],[28.75967,45.27419],[28.78975,45.32142],[28.92989,45.2791],[29.32212,45.44384],[29.5697,45.39496],[29.65026,45.34612],[29.66649,45.23063],[29.62387,45.21027],[29.69956,45.16181],[29.61785,44.86148],[29.1561,44.78441],[29.00074,44.68891],[28.97495,44.74494],[29.1447,44.82665],[29.09636,44.87507],[29.04859,44.84715],[29.04176,44.92569],[29.10174,44.98029],[28.98325,45.01227],[28.86354,44.92231],[28.94614,44.7652],[28.80421,44.68423],[28.5269,44.69613],[28.40448,44.76094],[28.28205,44.71053],[28.05481,44.77701],[28.17795,45.13466],[28.0977,45.18417],[28.1224,45.24977],[27.98675,45.29233],[28.04369,45.41128],[28.23764,45.45206]]]}},{"type":"Feature","properties":{"id":"ro-tm","lat":45.61698,"lng":21.51087},"geometry":{"type":"Polygon","coordinates":[[[20.60756,46.12949],[20.71897,46.16457],[21.12458,45.97306],[21.18882,46.02047],[21.36183,45.97073],[21.49169,46.03662],[21.67034,45.90175],[21.72263,45.94934],[21.81601,45.90495],[21.93146,45.98221],[22.22022,45.89306],[22.35495,45.94986],[22.54362,45.76868],[22.45365,45.66559],[22.03683,45.56838],[22.05967,45.52844],[22.00809,45.50453],[21.90231,45.56009],[21.59179,45.54872],[21.48549,45.44953],[21.47402,45.37382],[21.55407,45.28008],[21.48439,45.1527],[20.98149,45.33279],[20.76713,45.47934],[20.78574,45.75256],[20.68807,45.7431],[20.57211,45.88769],[20.35393,45.97668],[20.24283,46.10809],[20.46855,46.17413],[20.60756,46.12949]]]}},{"type":"Feature","properties":{"id":"ro-tr","lat":44.08046,"lng":25.21233},"geometry":{"type":"Polygon","coordinates":[[[25.73295,43.71878],[25.40313,43.65005],[24.96367,43.74961],[24.7056,43.74377],[24.66176,43.75566],[24.74689,43.81466],[24.63067,44.00982],[24.84125,44.11576],[24.85133,44.38993],[25.32836,44.43569],[25.39585,44.52795],[25.51362,44.50586],[25.52741,44.34871],[25.71893,44.25544],[25.64038,44.04517],[25.73295,43.71878]]]}},{"type":"Feature","properties":{"id":"ro-vl","lat":45.11037,"lng":24.16873},"geometry":{"type":"Polygon","coordinates":[[[23.58578,45.35258],[23.58422,45.4473],[23.79398,45.50802],[24.52722,45.56182],[24.51197,44.91411],[24.43782,44.85003],[24.39699,44.90951],[24.28635,44.7459],[24.33322,44.58317],[24.27798,44.61989],[24.08352,44.51702],[23.95816,44.52966],[23.7884,44.68185],[23.83573,45.30664],[23.58578,45.35258]]]}},{"type":"Feature","properties":{"id":"ro-vn","lat":45.71385,"lng":26.951},"geometry":{"type":"Polygon","coordinates":[[[26.38044,45.80294],[26.48482,46.02125],[26.60042,46.00923],[26.67045,46.07683],[27.11238,46.08091],[27.30679,46.17382],[27.51985,46.16261],[27.53318,46.11651],[27.33025,46.0653],[27.25031,45.96934],[27.58005,45.49335],[27.42347,45.38653],[27.06381,45.45069],[26.9758,45.53332],[26.8433,45.52497],[26.56895,45.62476],[26.38044,45.80294]]]}},{"type":"Feature","properties":{"id":"ro-vs","lat":46.53578,"lng":27.82337},"geometry":{"type":"Polygon","coordinates":[[[28.12261,46.84227],[28.24425,46.63537],[28.24725,46.43619],[28.10896,46.23413],[28.14472,46.18323],[28.10782,46.0961],[27.63142,46.12755],[27.61034,46.00148],[27.53318,46.11651],[27.47903,46.39748],[27.32384,46.6725],[27.2255,46.74283],[27.20483,46.85957],[27.64847,46.88055],[27.62553,46.97385],[27.78645,46.87781],[27.82645,46.91709],[27.83296,46.84128],[28.12261,46.84227]]]}}]}
