{"type":"FeatureCollection","features":[{"type":"Feature","properties":{"id":"rs-00","lat":44.65293,"lng":20.39534},"geometry":{"type":"Polygon","coordinates":[[[19.97338,44.64119],[20.09411,44.70816],[20.08176,44.78314],[20.15685,44.8882],[20.32473,44.92917],[20.29069,44.9775],[20.36345,45.08106],[20.6364,44.84945],[20.6333,44.76522],[20.79478,44.66468],[20.80636,44.5632],[20.73711,44.53304],[20.83881,44.43326],[20.73148,44.38406],[20.78739,44.34918],[20.77204,44.29776],[20.44219,44.41889],[20.38907,44.2943],[20.26923,44.24195],[20.18712,44.31789],[20.22681,44.4129],[20.18727,44.53956],[20.12779,44.49517],[19.98997,44.52235],[19.97338,44.64119]]]}},{"type":"Feature","properties":{"id":"rs-01","lat":45.83733,"lng":19.60729},"geometry":{"type":"Polygon","coordinates":[[[19.52525,46.15641],[19.88037,46.14442],[19.76492,45.90244],[19.86063,45.77222],[19.74983,45.7415],[19.73815,45.63763],[19.6842,45.61892],[19.58654,45.66],[19.5776,45.74052],[19.43988,45.76935],[19.29831,46.02212],[19.52525,46.15641]]]}},{"type":"Feature","properties":{"id":"rs-02","lat":45.41911,"lng":20.53618},"geometry":{"type":"Polygon","coordinates":[[[20.64349,45.79514],[20.70006,45.7354],[20.78574,45.75256],[20.76713,45.47934],[21.01374,45.31315],[20.81933,45.25938],[20.72068,45.15332],[20.48612,45.20355],[20.39517,45.06515],[20.339,45.08035],[20.27781,45.14102],[20.31858,45.20923],[20.2019,45.39521],[20.2298,45.44302],[20.10304,45.53758],[20.12175,45.59825],[20.06294,45.60342],[20.09203,45.71737],[20.1648,45.79178],[20.34644,45.79033],[20.42411,45.7007],[20.33626,45.67499],[20.3236,45.6137],[20.51645,45.61039],[20.50627,45.67628],[20.61851,45.70302],[20.64349,45.79514]]]}},{"type":"Feature","properties":{"id":"rs-03","lat":45.86473,"lng":20.17904},"geometry":{"type":"Polygon","coordinates":[[[19.92915,46.16354],[20.24283,46.10809],[20.35393,45.97668],[20.6367,45.82702],[20.61986,45.70445],[20.50834,45.67881],[20.52911,45.61311],[20.36235,45.59841],[20.33181,45.67049],[20.42411,45.7007],[20.34799,45.78981],[20.1648,45.79178],[20.11415,45.72429],[19.86063,45.77222],[19.76492,45.90244],[19.85231,46.11951],[19.92915,46.16354]]]}},{"type":"Feature","properties":{"id":"rs-04","lat":45.02748,"lng":20.91226},"geometry":{"type":"Polygon","coordinates":[[[21.01667,45.32148],[21.45939,45.17404],[21.49412,45.11931],[21.35346,44.98981],[21.53629,44.8893],[20.76363,44.66837],[20.39517,45.06515],[20.48395,45.20272],[20.57841,45.21895],[20.72068,45.15332],[20.81933,45.25938],[21.01667,45.32148]]]}},{"type":"Feature","properties":{"id":"rs-05","lat":45.74605,"lng":19.2094},"geometry":{"type":"Polygon","coordinates":[[[19.23565,45.97771],[19.29831,46.02212],[19.33978,45.99053],[19.35254,45.8632],[19.61206,45.67639],[19.50354,45.54353],[19.39451,45.53567],[19.36428,45.43841],[19.19276,45.43426],[19.01918,45.49092],[19.10626,45.51164],[19.01809,45.5674],[18.932,45.54554],[18.91237,45.61923],[18.96849,45.66874],[18.84498,45.81571],[18.90131,45.9312],[18.9875,45.92381],[19.06543,46.01203],[19.23565,45.97771]]]}},{"type":"Feature","properties":{"id":"rs-06","lat":45.47084,"lng":19.78343},"geometry":{"type":"Polygon","coordinates":[[[19.03132,45.4162],[19.00962,45.49867],[19.36428,45.43841],[19.39451,45.53567],[19.50354,45.54353],[19.58654,45.66],[19.73697,45.63621],[19.7674,45.74935],[20.0709,45.75176],[20.11415,45.72429],[20.06294,45.60342],[20.12175,45.59825],[20.10304,45.53758],[20.2298,45.44302],[20.2019,45.39521],[20.31652,45.19569],[20.27781,45.14102],[19.98558,45.18977],[19.91261,45.14257],[19.42634,45.14616],[19.3973,45.22329],[18.97749,45.37121],[19.03132,45.4162]]]}},{"type":"Feature","properties":{"id":"rs-07","lat":44.90663,"lng":19.98957},"geometry":{"type":"Polygon","coordinates":[[[19.74896,44.91843],[18.99432,44.89483],[19.13168,44.95318],[19.04486,45.13725],[19.13767,45.14603],[19.12186,45.19579],[19.60307,45.13817],[20.185,45.18497],[20.35694,45.0345],[20.29069,44.9775],[20.32473,44.92917],[20.15685,44.8882],[20.08176,44.78314],[20.09411,44.70816],[19.94043,44.63178],[20.01011,44.68887],[19.72033,44.7645],[19.74896,44.91843]]]}},{"type":"Feature","properties":{"id":"rs-08","lat":44.4762,"lng":19.48483},"geometry":{"type":"Polygon","coordinates":[[[19.51619,44.09119],[19.157,44.29358],[19.10719,44.38272],[19.12992,44.51832],[19.32836,44.73396],[19.37663,44.863],[19.32486,44.92226],[19.74896,44.91843],[19.72033,44.7645],[20.01011,44.68887],[19.92074,44.64791],[19.97338,44.64119],[19.97106,44.56477],[19.85489,44.53516],[19.83479,44.38869],[19.48525,44.43408],[19.44871,44.35838],[19.49197,44.32231],[19.42572,44.25407],[19.55915,44.20826],[19.60498,44.11994],[19.51619,44.09119]]]}},{"type":"Feature","properties":{"id":"rs-09","lat":44.30122,"lng":19.83592},"geometry":{"type":"Polygon","coordinates":[[[19.78503,44.05287],[19.42572,44.25407],[19.49197,44.32231],[19.44902,44.3605],[19.48665,44.43548],[19.56101,44.44571],[19.83479,44.38869],[19.89773,44.55906],[20.12779,44.49517],[20.18474,44.54178],[20.22644,44.44943],[20.19229,44.30815],[20.26923,44.24195],[20.38907,44.2943],[20.4238,44.25236],[20.28675,44.12144],[20.12464,44.07369],[19.86466,44.13012],[19.77454,44.11599],[19.78503,44.05287]]]}},{"type":"Feature","properties":{"id":"rs-10","lat":44.45602,"lng":20.98976},"geometry":{"type":"Polygon","coordinates":[[[20.79478,44.66468],[21.05844,44.69634],[21.1745,44.47661],[21.11022,44.37099],[21.1683,44.25813],[21.13915,44.18332],[20.77204,44.29776],[20.78739,44.34918],[20.73148,44.38406],[20.83907,44.43543],[20.73711,44.53304],[20.80636,44.5632],[20.79478,44.66468]]]}},{"type":"Feature","properties":{"id":"rs-11","lat":44.41628,"lng":21.50688},"geometry":{"type":"Polygon","coordinates":[[[21.3598,44.82666],[21.57804,44.77768],[21.65628,44.68766],[22.00427,44.65154],[22.03617,44.58949],[21.79477,44.35595],[21.8972,44.22113],[21.95699,44.22311],[21.95068,44.09896],[21.69364,44.08263],[21.48782,44.1817],[21.35749,44.18252],[21.29268,44.2757],[21.26344,44.23839],[21.11988,44.29226],[21.1745,44.47661],[21.03684,44.72201],[21.3598,44.82666]]]}},{"type":"Feature","properties":{"id":"rs-12","lat":44.08802,"lng":20.82623},"geometry":{"type":"Polygon","coordinates":[[[20.72533,43.77511],[20.52622,43.94693],[20.63691,44.02021],[20.46194,44.15583],[20.38907,44.2943],[20.44219,44.41889],[21.13915,44.18332],[21.01467,43.85474],[20.9355,43.80461],[20.78899,43.83087],[20.72533,43.77511]]]}},{"type":"Feature","properties":{"id":"rs-13","lat":43.98871,"lng":21.41685},"geometry":{"type":"Polygon","coordinates":[[[20.95699,43.72818],[20.90837,43.80735],[21.01467,43.85474],[21.04216,43.97773],[21.09564,43.99969],[21.05425,44.04744],[21.13735,44.09292],[21.13404,44.2866],[21.26344,44.23839],[21.29268,44.2757],[21.36121,44.18092],[21.81777,44.06555],[21.63277,43.79717],[21.384,43.72369],[21.37439,43.77087],[21.26235,43.76834],[21.26065,43.84094],[21.23889,43.76924],[21.13957,43.74699],[21.14815,43.68705],[20.95699,43.72818]]]}},{"type":"Feature","properties":{"id":"rs-14","lat":44.26687,"lng":22.28512},"geometry":{"type":"Polygon","coordinates":[[[22.69164,44.22843],[22.6062,44.17457],[22.59297,44.06393],[22.50367,44.0199],[22.45287,44.03204],[22.46915,44.10852],[22.23273,44.1686],[22.19139,44.1155],[22.23867,44.01618],[22.12173,43.87564],[22.03285,43.95199],[21.77245,43.99184],[21.81777,44.06555],[21.96076,44.11012],[21.95575,44.22495],[21.80785,44.31094],[21.82025,44.39367],[21.91818,44.42822],[21.9298,44.51441],[22.03617,44.58949],[22.17211,44.50535],[22.30492,44.67738],[22.42605,44.73365],[22.76515,44.58281],[22.58046,44.5655],[22.47979,44.49041],[22.54935,44.34897],[22.68154,44.30531],[22.69164,44.22843]]]}},{"type":"Feature","properties":{"id":"rs-15","lat":43.71087,"lng":22.04773},"geometry":{"type":"Polygon","coordinates":[[[22.46589,44.01762],[22.39959,43.99334],[22.34947,43.80792],[22.51886,43.47425],[22.65893,43.40129],[22.57891,43.32573],[22.33727,43.38237],[22.30353,43.45854],[22.04742,43.49052],[21.97368,43.57197],[21.98587,43.52156],[21.9127,43.51357],[21.68956,43.6654],[21.70388,43.75635],[21.646,43.80293],[21.77116,43.99148],[22.03285,43.95199],[22.12173,43.87564],[22.23867,44.01618],[22.19139,44.1155],[22.23273,44.1686],[22.46915,44.10852],[22.46589,44.01762]]]}},{"type":"Feature","properties":{"id":"rs-16","lat":43.57654,"lng":19.74135},"geometry":{"type":"Polygon","coordinates":[[[19.80513,43.08996],[19.17591,43.48089],[19.25271,43.58863],[19.48959,43.56445],[19.50737,43.64718],[19.46168,43.76214],[19.22935,43.95768],[19.24351,44.00202],[19.55222,43.98342],[19.61888,44.03571],[19.51619,44.09119],[19.62695,44.1448],[19.78503,44.05287],[19.78673,44.12129],[20.06201,44.08532],[20.05576,43.98119],[20.1556,43.87704],[20.08769,43.84208],[20.17487,43.6561],[19.8937,43.53476],[19.99953,43.48401],[20.11896,43.29741],[20.26443,43.30666],[20.20118,43.2185],[20.2821,43.1569],[20.16562,43.13923],[20.05439,43.02222],[19.92915,43.11391],[19.80513,43.08996]]]}},{"type":"Feature","properties":{"id":"rs-17","lat":43.74909,"lng":20.3226},"geometry":{"type":"Polygon","coordinates":[[[20.62079,43.85918],[20.30587,43.53476],[20.40189,43.45404],[20.42142,43.35007],[20.3283,43.26072],[20.24469,43.31751],[20.10041,43.30901],[20.00181,43.48156],[19.8937,43.53476],[20.17487,43.6561],[20.08769,43.84208],[20.1556,43.87704],[20.05576,43.98119],[20.06201,44.08532],[20.2851,44.12072],[20.42313,44.2418],[20.63691,44.02021],[20.52622,43.94693],[20.62079,43.85918]]]}},{"type":"Feature","properties":{"id":"rs-18","lat":43.35826,"lng":20.61786},"geometry":{"type":"Polygon","coordinates":[[[20.80972,43.25961],[20.60404,43.19796],[20.66492,43.08541],[20.45945,42.95002],[20.4763,42.85553],[20.34535,42.82744],[20.33708,42.90697],[20.05439,43.02222],[20.16562,43.13923],[20.2821,43.1569],[20.20118,43.2185],[20.26742,43.29855],[20.32623,43.26005],[20.41274,43.33348],[20.40189,43.45404],[20.30587,43.53476],[20.62079,43.85918],[20.72145,43.77531],[20.86284,43.83939],[20.95699,43.72818],[20.87808,43.64447],[20.95136,43.613],[20.90651,43.57233],[20.94521,43.50603],[20.76031,43.50918],[20.7615,43.40402],[20.8291,43.38304],[20.80972,43.25961]]]}},{"type":"Feature","properties":{"id":"rs-19","lat":43.45502,"lng":21.16044},"geometry":{"type":"Polygon","coordinates":[[[20.8647,43.21734],[20.80972,43.25961],[20.8291,43.38304],[20.7615,43.40402],[20.76031,43.50918],[20.94521,43.50603],[20.90651,43.57233],[20.95136,43.613],[20.87808,43.64447],[20.91643,43.72689],[21.14815,43.68705],[21.13957,43.74699],[21.23889,43.76924],[21.26065,43.84094],[21.26716,43.76498],[21.50259,43.71733],[21.4782,43.59388],[21.56631,43.51853],[21.55484,43.40381],[21.21285,43.35394],[21.10634,43.24227],[20.968,43.25108],[20.91249,43.1388],[20.83204,43.17861],[20.8647,43.21734]]]}},{"type":"Feature","properties":{"id":"rs-20","lat":43.45737,"lng":21.88284},"geometry":{"type":"Polygon","coordinates":[[[21.49335,43.34738],[21.56564,43.41557],[21.56698,43.51641],[21.48099,43.58628],[21.5089,43.69852],[21.4659,43.74942],[21.646,43.80293],[21.77095,43.5769],[21.9127,43.51357],[21.98587,43.52156],[21.97368,43.57197],[22.04742,43.49052],[22.35153,43.42422],[22.32363,43.32428],[22.13739,43.33694],[22.167,43.26821],[22.11362,43.20294],[22.29562,43.10993],[22.19594,43.05474],[21.99182,43.15199],[21.79922,43.13905],[21.76594,43.24656],[21.69059,43.20878],[21.61246,43.24299],[21.59386,43.34919],[21.49335,43.34738]]]}},{"type":"Feature","properties":{"id":"rs-21","lat":43.10304,"lng":21.39875},"geometry":{"type":"Polygon","coordinates":[[[21.10851,43.08156],[20.91249,43.1388],[20.968,43.25108],[21.10195,43.24046],[21.21285,43.35394],[21.33966,43.38665],[21.59386,43.34919],[21.61494,43.2394],[21.76594,43.24656],[21.81488,43.12453],[21.45195,42.97552],[21.40842,42.84174],[21.26054,42.88656],[21.10851,43.08156]]]}},{"type":"Feature","properties":{"id":"rs-22","lat":43.15446,"lng":22.58861},"geometry":{"type":"Polygon","coordinates":[[[22.65893,43.40129],[22.98137,43.19899],[22.95563,43.10827],[22.72702,42.88689],[22.43804,42.88345],[22.35924,42.92955],[22.39003,42.95598],[22.20214,43.01492],[22.29562,43.10993],[22.11362,43.20294],[22.167,43.26821],[22.13739,43.33694],[22.32146,43.32361],[22.33727,43.38237],[22.57716,43.32537],[22.65893,43.40129]]]}},{"type":"Feature","properties":{"id":"rs-23","lat":42.92361,"lng":21.92773},"geometry":{"type":"Polygon","coordinates":[[[22.54479,42.87171],[22.28678,42.74592],[21.99342,42.81801],[21.81777,42.76933],[21.74425,42.67943],[21.37867,42.74414],[21.45195,42.97552],[21.90453,43.16341],[22.15522,43.05866],[22.23402,43.07399],[22.20436,43.01324],[22.54479,42.87171]]]}},{"type":"Feature","properties":{"id":"rs-24","lat":42.51522,"lng":22.08198},"geometry":{"type":"Polygon","coordinates":[[[22.42398,42.32589],[22.26885,42.37033],[22.06091,42.30109],[21.92903,42.33512],[21.67689,42.23495],[21.56407,42.24629],[21.51489,42.31783],[21.61742,42.38664],[21.81777,42.76933],[22.09734,42.82095],[22.28678,42.74592],[22.43045,42.81708],[22.4829,42.73378],[22.42533,42.57285],[22.53312,42.45759],[22.42398,42.32589]]]}}]}
