{"type":"FeatureCollection","features":[{"type":"Feature","properties":{"id":"rw-01","lat":-1.88961,"lng":30.13097},"geometry":{"type":"Polygon","coordinates":[[[30.01785,-2.07214],[29.99831,-1.84243],[30.13484,-1.77939],[30.24708,-1.84321],[30.27215,-1.93602],[30.20905,-2.07467],[30.16538,-2.02842],[30.01785,-2.07214]]]}},{"type":"Feature","properties":{"id":"rw-02","lat":-1.81452,"lng":30.53665},"geometry":{"type":"Polygon","coordinates":[[[30.41507,-2.31309],[30.20749,-2.33924],[30.1168,-2.43153],[29.95678,-2.32704],[30.01785,-2.07214],[30.16538,-2.02842],[30.20905,-2.07467],[30.27215,-1.93602],[30.25763,-1.6997],[30.06598,-1.38695],[30.25669,-1.21724],[30.33745,-1.06624],[30.44561,-1.05869],[30.55532,-1.31842],[30.73753,-1.40668],[30.73888,-1.48947],[30.83102,-1.59417],[30.79696,-1.92934],[30.88781,-2.08251],[30.84471,-2.32663],[30.78911,-2.37107],[30.52173,-2.39939],[30.41507,-2.31309]]]}},{"type":"Feature","properties":{"id":"rw-03","lat":-1.64891,"lng":29.9255},"geometry":{"type":"Polygon","coordinates":[[[29.91743,-1.47521],[30.07872,-1.39435],[30.17877,-1.52033],[30.2724,-1.82352],[30.13484,-1.77939],[29.99831,-1.84243],[29.9811,-1.90941],[29.81848,-1.85143],[29.63446,-1.70994],[29.63058,-1.58788],[29.44506,-1.49729],[29.53864,-1.40234],[29.81614,-1.32255],[29.91743,-1.47521]]]}},{"type":"Feature","properties":{"id":"rw-04","lat":-2.0781,"lng":29.37672},"geometry":{"type":"Polygon","coordinates":[[[29.30948,-2.69013],[29.11345,-2.59462],[29.03257,-2.62067],[29.01536,-2.72071],[28.9364,-2.68506],[28.85884,-2.4182],[29.13484,-2.19775],[29.14931,-1.79932],[29.34279,-1.51655],[29.44506,-1.49729],[29.63058,-1.58788],[29.671,-1.95225],[29.62273,-1.97395],[29.60578,-2.18226],[29.32838,-2.31124],[29.26688,-2.47185],[29.35995,-2.61262],[29.30948,-2.69013]]]}},{"type":"Feature","properties":{"id":"rw-05","lat":-2.2407,"lng":29.72677},"geometry":{"type":"Polygon","coordinates":[[[30.0165,-2.11146],[29.84239,-2.75244],[29.33969,-2.82644],[29.30948,-2.69013],[29.35995,-2.61262],[29.26688,-2.47185],[29.33851,-2.29915],[29.60578,-2.18226],[29.62273,-1.97395],[29.671,-1.95225],[29.65766,-1.73309],[29.9811,-1.90941],[30.0165,-2.11146]]]}}]}
