{"type":"FeatureCollection","features":[{"type":"Feature","properties":{"id":"sa-01","lat":23.33168,"lng":45.23212},"geometry":{"type":"Polygon","coordinates":[[[44.67245,25.56919],[44.73746,25.66208],[44.67772,25.99666],[44.38068,26.36477],[44.3888,26.62535],[44.84127,26.98626],[44.81533,27.0985],[44.61116,27.27053],[44.66764,27.43494],[44.7989,27.52041],[44.90163,27.45819],[45.00018,27.52778],[45.14508,27.41528],[45.24533,27.2319],[45.69238,27.05339],[45.91258,26.86175],[46.23039,26.81849],[46.58788,26.6106],[46.83025,26.62308],[47.06207,26.40883],[47.45248,26.22543],[47.49625,24.78911],[48.14118,24.27007],[48.2653,24.07101],[48.30458,23.87821],[47.74513,19.53126],[45.27262,19.25691],[44.91992,19.29539],[44.5168,19.51263],[44.10638,19.86695],[43.93678,20.10694],[44.05595,20.56066],[43.66755,20.97624],[43.39475,21.36175],[43.4258,21.79929],[43.50771,21.95597],[43.48523,22.50183],[43.31093,22.55413],[43.0588,22.53601],[42.99332,22.60397],[43.01053,22.81757],[42.96475,22.88021],[42.46137,22.9287],[42.35305,23.00071],[42.10697,23.66264],[41.97928,23.79193],[42.00129,24.4052],[42.18159,24.74113],[42.26882,24.78593],[42.5118,24.70183],[43.05027,24.68687],[43.13404,24.77836],[43.10629,24.96189],[43.2976,25.16585],[43.72,25.28055],[44.01931,25.5673],[44.67245,25.56919]]]}},{"type":"Feature","properties":{"id":"sa-02","lat":21.04256,"lng":41.42019},"geometry":{"type":"Polygon","coordinates":[[[41.59714,18.12113],[41.49334,18.22394],[41.43295,18.47427],[41.21022,18.69794],[41.24903,18.83417],[41.13649,18.93651],[41.17652,19.06737],[41.06861,19.12539],[41.03614,19.26455],[40.9559,19.34333],[40.94467,19.50568],[40.76043,19.60871],[40.79803,19.69233],[40.74488,19.777],[40.65659,19.75951],[40.53452,19.96182],[40.08383,20.27924],[39.90309,20.30825],[39.94068,20.25918],[39.7601,20.35082],[39.56739,20.56769],[39.50603,20.7464],[39.42319,20.77172],[39.44874,20.8273],[39.29713,20.92398],[39.17433,21.10887],[39.08074,21.31501],[39.17107,21.40412],[39.0923,21.57656],[39.10906,21.74779],[39.06674,21.72525],[38.93125,22.00607],[39.00569,22.00201],[39.04037,22.23578],[39.14275,22.40322],[39.07026,22.36583],[39.08152,22.54679],[38.98569,22.72427],[39.01303,22.76679],[38.94549,22.8312],[38.97088,22.74689],[38.9026,22.84317],[38.85117,22.94327],[38.91285,22.86197],[38.96469,22.87043],[38.89389,22.96515],[38.79957,22.99868],[38.79835,23.1496],[38.64384,23.41947],[38.92639,23.4419],[39.1826,23.18086],[39.41535,23.18083],[39.48672,23.0681],[39.91269,23.14644],[39.95428,23.04717],[39.88504,22.82109],[40.06741,22.71554],[40.08043,22.51273],[40.21479,22.49325],[40.40893,22.61635],[40.66494,22.58627],[41.22666,23.09409],[41.42345,23.18541],[41.44655,23.25445],[41.29932,23.34007],[41.28609,23.40273],[41.71764,23.64192],[41.76451,23.73041],[41.74994,23.94133],[41.98641,23.94931],[41.98656,23.77173],[42.10697,23.66264],[42.37729,22.97157],[42.93994,22.89232],[43.00619,22.83811],[42.98681,22.63012],[43.03647,22.54912],[43.48523,22.50183],[43.50771,21.95597],[43.4258,21.79929],[43.38886,21.38205],[43.66755,20.97624],[43.36958,20.83989],[43.22158,20.86495],[42.92392,20.79917],[42.25967,20.34677],[42.16934,20.37876],[41.97587,20.67065],[41.50706,20.57296],[41.40712,20.72879],[41.30676,20.76036],[41.2341,20.69465],[41.25664,20.49588],[41.13886,20.26499],[40.91448,20.19365],[40.80199,20.0841],[40.95076,19.95429],[40.97996,19.5601],[41.21581,19.37003],[41.34862,19.39851],[41.50535,19.76866],[41.7856,19.81634],[41.85856,19.76215],[41.83231,19.54653],[41.88926,19.38337],[41.8458,19.26229],[41.39053,19.1534],[41.41461,18.81782],[41.70632,18.75875],[41.80968,18.49518],[41.75242,18.27475],[41.59714,18.12113]]]}},{"type":"Feature","properties":{"id":"sa-03","lat":24.91927,"lng":39.94657},"geometry":{"type":"Polygon","coordinates":[[[38.64384,23.41947],[38.43702,23.80207],[37.93532,24.13901],[37.98307,24.16566],[37.93953,24.16144],[37.94795,24.20705],[37.86563,24.14989],[37.67609,24.29124],[37.62839,24.24804],[37.52272,24.26773],[37.4294,24.36731],[37.46321,24.42255],[37.38282,24.53957],[37.43134,24.65697],[37.98665,24.83954],[38.02128,25.44889],[37.87762,25.50173],[37.78744,25.74696],[37.56229,26.00885],[37.36767,26.11231],[37.27228,26.07781],[37.16691,26.33547],[37.26406,26.56843],[37.01545,26.71248],[36.98506,27.11992],[36.91768,27.18085],[36.78332,27.18245],[36.80285,27.23144],[37.21843,27.38078],[37.49929,27.29281],[37.74956,27.39438],[37.94046,27.09532],[38.19568,27.03259],[38.32307,26.79413],[38.52574,26.88451],[38.7048,26.8335],[38.74066,26.92761],[38.83332,26.82909],[39.15387,26.67729],[39.74215,26.7269],[39.83832,26.59489],[39.79073,26.36353],[39.95646,26.31],[39.90338,25.92229],[39.99366,25.33737],[40.09035,25.31277],[40.61466,25.41356],[40.87134,25.59154],[41.6101,25.48602],[41.65635,25.40638],[41.65,25.10214],[41.87344,24.99899],[41.97928,24.70307],[42.09627,24.61152],[42.00129,24.4052],[41.98641,23.94931],[41.74994,23.94133],[41.76451,23.73041],[41.71764,23.64192],[41.27555,23.37832],[41.44655,23.25445],[41.44267,23.20453],[41.22666,23.09409],[40.64122,22.57617],[40.43948,22.62169],[40.24026,22.4992],[40.10043,22.5009],[40.06741,22.71554],[39.88504,22.82109],[39.95428,23.04717],[39.91269,23.14644],[39.48672,23.0681],[39.41535,23.18083],[39.1826,23.18086],[38.92639,23.4419],[38.64384,23.41947]]]}},{"type":"Feature","properties":{"id":"sa-04","lat":23.29677,"lng":50.2534},"geometry":{"type":"MultiPolygon","coordinates":[[[[50.88101,24.6364],[51.03888,24.55987],[51.26881,24.6245],[51.30242,24.51716],[51.39527,24.63133],[51.4983,24.58356],[51.33619,24.44794],[51.27882,24.30777],[51.41285,24.32347],[51.56935,24.25617],[51.59352,24.07832],[52.55848,22.93858],[55.1053,22.62095],[55.18684,22.70358],[55.63757,21.97897],[54.97838,19.99542],[51.97861,18.99564],[49.03585,18.57972],[48.16195,18.14892],[47.58901,17.46328],[47.42857,17.0931],[48.2991,23.65497],[48.28964,23.99985],[48.14118,24.27007],[47.49625,24.78911],[47.43001,26.2617],[47.06207,26.40883],[46.83025,26.62308],[46.58788,26.6106],[46.23039,26.81849],[45.93428,26.85278],[45.69238,27.05339],[45.24533,27.2319],[45.12772,27.43618],[44.95114,27.57953],[44.97439,27.73978],[45.70231,28.75835],[45.94095,28.9063],[46.42732,29.07614],[47.43409,28.99459],[47.66813,28.53351],[48.43278,28.54048],[48.49855,28.49291],[48.46876,28.38711],[48.53549,28.40762],[48.52223,28.31883],[48.61842,28.21727],[48.65211,28.04609],[48.792,28.00702],[48.74366,27.96133],[48.88266,27.82673],[48.87452,27.76992],[48.8392,27.72858],[48.8576,27.80353],[48.80502,27.7565],[48.81251,27.8286],[48.77882,27.71955],[48.88014,27.68757],[48.8318,27.61249],[48.90064,27.63296],[48.89112,27.58812],[48.91432,27.57152],[48.96852,27.62035],[49.05893,27.53815],[49.23976,27.54511],[49.31276,27.44863],[49.1198,27.44115],[49.26385,27.41389],[49.2234,27.33129],[49.31276,27.34496],[49.3226,27.20572],[49.41236,27.20401],[49.37485,27.14907],[49.52443,27.13272],[49.48911,27.17475],[49.57211,27.19416],[49.57008,27.10407],[49.69947,26.95824],[49.97299,26.84235],[50.15846,26.66486],[49.98846,26.72443],[50.03061,26.49461],[50.19158,26.40355],[50.21656,26.32392],[50.14137,26.03596],[50.0324,26.20108],[49.97584,26.13959],[49.99,26.00178],[50.0241,26.03596],[50.10133,25.98949],[50.2575,25.6319],[50.14471,25.73334],[50.14869,25.69986],[50.34799,25.48212],[50.38136,25.51289],[50.47153,25.4372],[50.56218,25.05484],[50.72641,24.88166],[50.76059,24.7364],[50.80787,24.74665],[50.88101,24.6364]]],[[[49.50123,27.36054],[49.68881,27.31769],[49.56544,27.2978],[49.53126,27.34618],[49.45623,27.29035],[49.50123,27.36054]]]]}},{"type":"Feature","properties":{"id":"sa-05","lat":25.95774,"lng":43.41049},"geometry":{"type":"Polygon","coordinates":[[[44.62759,27.22237],[44.79828,27.11902],[44.84127,26.98626],[44.39174,26.64827],[44.37619,26.385],[44.67601,26.00089],[44.71213,25.57854],[44.01931,25.5673],[43.72,25.28055],[43.2976,25.16585],[43.10629,24.96189],[43.13404,24.77836],[43.05027,24.68687],[42.5118,24.70183],[42.26882,24.78593],[42.09627,24.61152],[41.99215,24.68544],[41.87344,24.99899],[41.65,25.10214],[41.64488,25.45434],[41.4098,25.5365],[41.94977,25.72595],[41.89608,25.91578],[41.95845,25.97283],[42.14159,25.94265],[42.13782,26.12189],[42.19508,26.2423],[42.35197,26.27101],[42.53511,26.5105],[42.91834,26.77123],[43.18138,26.88068],[43.41754,27.13129],[43.86939,27.32634],[44.26513,27.08729],[44.4783,27.07346],[44.62759,27.22237]]]}},{"type":"Feature","properties":{"id":"sa-06","lat":27.14059,"lng":41.79108},"geometry":{"type":"Polygon","coordinates":[[[44.45784,27.06928],[44.24043,27.09393],[43.93802,27.31779],[43.79695,27.30461],[43.34291,27.08788],[43.18138,26.88068],[42.91834,26.77123],[42.53511,26.5105],[42.35197,26.27101],[42.19508,26.2423],[42.13782,26.12189],[42.14159,25.94265],[41.95845,25.97283],[41.89608,25.91578],[41.9321,25.71225],[41.4098,25.5365],[40.84307,25.58575],[40.61466,25.41356],[40.04472,25.31499],[39.94746,25.42214],[39.90338,25.92229],[39.95646,26.31],[39.80949,26.34813],[39.77879,26.4088],[39.84039,26.54732],[39.81615,26.6568],[39.92478,26.88162],[40.16559,27.18726],[39.93067,27.34154],[39.81135,27.75283],[39.72846,27.84747],[39.43442,28.04273],[39.00013,28.16792],[39.15635,28.30272],[40.45891,28.82716],[40.73961,28.76008],[41.34242,28.87596],[41.69392,28.79581],[42.00098,28.83088],[42.38845,28.74429],[42.66823,28.52991],[42.96816,28.59875],[43.08722,28.38946],[43.47402,28.31564],[43.68119,28.41292],[43.7648,28.39057],[44.09377,27.84034],[44.52501,27.74552],[44.78526,27.54943],[44.62449,27.36326],[44.62759,27.22237],[44.45784,27.06928]]]}},{"type":"Feature","properties":{"id":"sa-07","lat":26.76187,"lng":39.42182},"geometry":{"type":"MultiPolygon","coordinates":[[[[36.94313,25.4055],[36.89975,25.36103],[36.77654,25.4964],[36.90431,25.39411],[36.94313,25.4055]]],[[[37.04005,25.40644],[36.94654,25.44188],[36.95183,25.46751],[37.01759,25.45771],[37.04005,25.40644]]],[[[36.87916,25.44335],[36.68141,25.55345],[36.7256,25.56517],[36.87916,25.44335]]],[[[36.83985,25.53583],[36.85564,25.5683],[36.86606,25.54588],[36.83985,25.53583]]],[[[36.90073,25.5493],[36.92775,25.59308],[36.92319,25.51944],[36.90073,25.5493]]],[[[36.66765,25.54975],[36.52947,25.59382],[36.49968,25.66254],[36.54363,25.70287],[36.52394,25.6529],[36.66765,25.54975]]],[[[36.54428,25.73135],[36.55844,25.83637],[36.59083,25.86054],[36.55543,25.79633],[36.60564,25.70112],[36.54428,25.73135]]],[[[37.38282,24.53957],[37.14861,24.85102],[37.2566,24.87124],[37.2422,25.17528],[36.93629,25.64615],[36.81739,25.75796],[36.79225,25.72061],[36.70232,25.77998],[36.66212,25.8791],[36.69606,26.02228],[36.51271,26.11099],[36.03199,26.90681],[35.55958,27.45563],[35.32276,27.87629],[35.16358,28.00934],[35.21632,28.05439],[35.05193,28.11957],[34.84645,28.07119],[34.83676,28.11628],[34.80486,28.07119],[34.8191,28.11278],[34.70924,28.14008],[34.64715,28.09911],[34.6683,28.07119],[34.61305,28.03022],[34.57439,28.09406],[34.65772,28.17056],[34.80378,28.52713],[34.77847,28.6645],[34.84278,28.88456],[35.21995,28.86118],[35.37374,28.92929],[35.85521,28.98428],[36.1201,28.90514],[36.40995,28.58311],[36.48866,28.56097],[36.85453,28.64461],[37.42586,28.57407],[37.54539,28.75429],[37.73809,28.86304],[37.78341,28.4577],[37.91017,28.31403],[38.12819,28.24608],[38.59649,28.22789],[38.68573,28.13678],[38.92903,28.20681],[39.47199,28.02444],[39.78747,27.79554],[39.93067,27.34154],[40.16559,27.18726],[39.95506,26.93632],[39.81615,26.6568],[39.71962,26.72961],[39.15387,26.67729],[38.83332,26.82909],[38.75942,26.92606],[38.7048,26.8335],[38.52574,26.88451],[38.32307,26.79413],[38.19568,27.03259],[37.94046,27.09532],[37.74956,27.39438],[37.49929,27.29281],[37.21843,27.38078],[36.80285,27.23144],[36.78332,27.18245],[36.91768,27.18085],[36.98506,27.11992],[37.01545,26.71248],[37.26406,26.56843],[37.16691,26.33547],[37.27228,26.07781],[37.36767,26.11231],[37.56229,26.00885],[37.78744,25.74696],[37.87762,25.50173],[38.02128,25.44889],[37.96681,24.81389],[37.75685,24.78918],[37.63799,24.68948],[37.43134,24.65697],[37.38282,24.53957]]]]}},{"type":"Feature","properties":{"id":"sa-08","lat":29.69082,"lng":42.64074},"geometry":{"type":"Polygon","coordinates":[[[39.15774,32.12135],[40.42413,31.92053],[42.0754,31.07986],[44.69183,29.20184],[46.42732,29.07614],[45.80101,28.83816],[45.62474,28.68153],[45.21272,28.01646],[44.97439,27.73978],[44.93868,27.61953],[44.99005,27.53263],[44.90163,27.45819],[44.52501,27.74552],[44.09377,27.84034],[43.7155,28.4154],[43.47402,28.31564],[43.11513,28.38264],[43.03007,28.43209],[42.96816,28.59875],[42.66823,28.52991],[42.38845,28.74429],[42.00098,28.83088],[41.69392,28.79581],[41.34242,28.87596],[40.73961,28.76008],[40.5436,28.81625],[40.71057,28.97898],[40.78705,29.41743],[41.75474,29.96422],[41.89763,30.12199],[41.68131,30.28151],[41.53145,30.50057],[41.17716,30.56043],[40.91883,30.72378],[40.17536,30.73632],[39.86783,30.86825],[39.1919,30.95806],[38.25775,30.88587],[38.14726,30.93013],[37.88382,31.21458],[37.86609,31.37194],[37.98652,31.75336],[38.96344,31.99433],[39.15774,32.12135]]]}},{"type":"Feature","properties":{"id":"sa-09","lat":17.38512,"lng":42.77381},"geometry":{"type":"MultiPolygon","coordinates":[[[[42.18631,16.6914],[42.17856,16.58348],[42.07317,16.6358],[42.11763,16.65986],[42.08575,16.69353],[41.95546,16.67011],[41.77817,16.81269],[41.75708,16.89637],[41.90514,16.74758],[42.03499,16.71577],[42.06218,16.8142],[42.18631,16.6914]]],[[[42.00185,16.76099],[41.83497,16.89175],[41.92848,16.9549],[41.8462,16.99746],[41.86085,17.01362],[41.93816,16.97289],[41.98518,16.8536],[41.9323,16.83836],[42.00185,16.76099]]],[[[43.17998,16.66462],[43.08495,16.67257],[43.03627,16.5363],[42.78948,16.37096],[42.71241,16.73062],[42.57586,16.83234],[42.5442,17.00434],[42.3567,17.18244],[42.36297,17.02481],[42.30787,17.44432],[41.71925,17.90925],[41.59352,18.09589],[41.64147,18.19685],[41.77071,18.314],[41.92264,18.31206],[41.92667,18.06469],[42.10077,18.03143],[42.1881,17.91289],[42.42028,17.8855],[42.62911,17.66076],[42.68234,17.68254],[42.77236,17.9256],[42.92516,17.99273],[42.96258,17.86723],[43.34199,17.48245],[43.16504,17.32592],[43.25217,17.27197],[43.15616,17.2097],[43.11843,17.08625],[43.11264,16.91003],[43.2115,16.79686],[43.17998,16.66462]]]]}},{"type":"Feature","properties":{"id":"sa-10","lat":18.45405,"lng":45.73307},"geometry":{"type":"Polygon","coordinates":[[[47.42857,17.0931],[47.16134,16.94744],[46.983,16.9491],[46.7101,17.27538],[46.32263,17.22407],[45.43038,17.31202],[45.16539,17.42839],[44.14901,17.40483],[43.91513,17.30184],[43.88671,17.35367],[43.75064,17.34566],[43.63845,17.43851],[43.67638,17.99792],[43.63928,18.19416],[44.08246,18.71395],[44.36688,18.85314],[44.39934,18.99698],[44.35913,19.19263],[44.50517,19.33177],[44.5168,19.51263],[44.91992,19.29539],[45.27262,19.25691],[47.74513,19.53126],[47.42857,17.0931]]]}},{"type":"Feature","properties":{"id":"sa-11","lat":20.01919,"lng":41.32971},"geometry":{"type":"Polygon","coordinates":[[[42.03204,20.62486],[41.98439,20.47136],[42.02734,20.32512],[41.84347,20.17833],[41.69873,19.79706],[41.49512,19.76091],[41.34862,19.39851],[41.19194,19.38065],[40.96911,19.57963],[40.95076,19.95429],[40.80199,20.0841],[40.91448,20.19365],[41.13886,20.26499],[41.24981,20.46945],[41.22914,20.67763],[41.28516,20.75196],[41.40712,20.72879],[41.50706,20.57296],[41.93163,20.68086],[42.03204,20.62486]]]}},{"type":"Feature","properties":{"id":"sa-12","lat":29.90887,"lng":39.33826},"geometry":{"type":"Polygon","coordinates":[[[36.01644,29.18995],[36.47708,29.49461],[36.72875,29.85353],[37.4702,29.99455],[37.64755,30.33086],[37.98138,30.49881],[36.95953,31.491],[37.98652,31.75336],[37.87307,31.24396],[38.19057,30.90271],[39.1919,30.95806],[39.86783,30.86825],[40.17536,30.73632],[40.88002,30.73283],[41.17716,30.56043],[41.53145,30.50057],[41.68131,30.28151],[41.90476,30.10245],[41.75474,29.96422],[40.78705,29.41743],[40.71057,28.97898],[40.5436,28.81625],[40.08043,28.69045],[39.15635,28.30272],[39.00013,28.16792],[38.90375,28.20794],[38.66186,28.13952],[38.59649,28.22789],[38.12819,28.24608],[37.91017,28.31403],[37.78341,28.4577],[37.7724,28.80705],[37.71639,28.86739],[37.54539,28.75429],[37.42586,28.57407],[36.85453,28.64461],[36.48866,28.56097],[36.40995,28.58311],[36.1201,28.90514],[35.85521,28.98428],[35.37374,28.92929],[35.21995,28.86118],[34.82537,28.89423],[34.94938,29.35169],[36.01644,29.18995]]]}},{"type":"Feature","properties":{"id":"sa-14","lat":19.2003,"lng":42.99208},"geometry":{"type":"Polygon","coordinates":[[[43.63845,17.43851],[43.48714,17.51749],[43.34199,17.48245],[42.96258,17.86723],[42.92516,17.99273],[42.77236,17.9256],[42.68234,17.68254],[42.62911,17.66076],[42.42028,17.8855],[42.1881,17.91289],[42.10077,18.03143],[41.94326,18.05006],[41.93303,18.2964],[41.77071,18.314],[41.80968,18.49518],[41.72322,18.7424],[41.40293,18.83751],[41.40216,19.18157],[41.47481,19.15103],[41.85525,19.28167],[41.86538,19.74073],[41.80472,19.81329],[41.69873,19.79706],[41.84347,20.17833],[42.02734,20.32512],[41.98439,20.47136],[42.03204,20.62486],[42.15276,20.39865],[42.25967,20.34677],[42.92392,20.79917],[43.22158,20.86495],[43.36958,20.83989],[43.66755,20.97624],[44.05595,20.56066],[43.93678,20.10694],[44.10638,19.86695],[44.5168,19.51263],[44.51308,19.35443],[44.3658,19.21903],[44.36688,18.85314],[44.08246,18.71395],[43.64801,18.22209],[43.63845,17.43851]]]}}]}
