{"type":"FeatureCollection","features":[{"type":"Feature","properties":{"id":"sb-ce","lat":-9.05682,"lng":160.19292},"geometry":{"type":"MultiPolygon","coordinates":[[[[159.84254,-9.16465],[159.81153,-9.1111],[159.83269,-9.10369],[159.84254,-9.16465]]],[[[160.28598,-9.13893],[160.31495,-9.0617],[160.41424,-9.13161],[160.36638,-9.18621],[160.21616,-9.17262],[160.28598,-9.13893]]],[[[159.2361,-9.02304],[159.23325,-9.10101],[159.17408,-9.13844],[159.19516,-9.05657],[159.2361,-9.02304]]],[[[160.08375,-9.05202],[160.14772,-8.98968],[160.30144,-9.06162],[160.2645,-9.13161],[160.08375,-9.05202]]],[[[159.19516,-9.02304],[159.09962,-9.11793],[159.04103,-9.05731],[159.13364,-8.98838],[159.19516,-9.02304]]],[[[160.11313,-8.9944],[160.07439,-8.95135],[160.09262,-8.94052],[160.11313,-8.9944]]]]}},{"type":"Feature","properties":{"id":"sb-ch","lat":-7.03802,"lng":156.96085},"geometry":{"type":"MultiPolygon","coordinates":[[[[156.84132,-8.11297],[156.78565,-8.0862],[156.78989,-8.05535],[156.84132,-8.11297]]],[[[156.60109,-8.02337],[156.58741,-8.1994],[156.54981,-7.93922],[156.60109,-8.02337]]],[[[156.94703,-7.97967],[157.00196,-7.87518],[157.13754,-7.87477],[157.20094,-8.00075],[157.16725,-8.13551],[157.05421,-8.12908],[156.94703,-7.97967]]],[[[156.55543,-7.81731],[156.51791,-7.80926],[156.54542,-7.79168],[156.55543,-7.81731]]],[[[156.80714,-7.72015],[156.72071,-7.93182],[156.65968,-7.93922],[156.49708,-7.67498],[156.53077,-7.59246],[156.61118,-7.56943],[156.72104,-7.70037],[156.80714,-7.72015]]],[[[155.61818,-7.36395],[155.57618,-7.38787],[155.50799,-7.37575],[155.54233,-7.32293],[155.61818,-7.36395]]],[[[155.86793,-7.06194],[155.78663,-7.11785],[155.67286,-7.08953],[155.73487,-6.96608],[155.86793,-7.06194]]],[[[157.52638,-7.37086],[157.44793,-7.43222],[157.32545,-7.39178],[157.3169,-7.3366],[157.27662,-7.37078],[157.01466,-7.28265],[156.68702,-6.89715],[156.46111,-6.73333],[156.45444,-6.63079],[156.54802,-6.61053],[157.04265,-6.89715],[157.18727,-7.17889],[157.38648,-7.32293],[157.52491,-7.30999],[157.52638,-7.37086]]],[[[156.13209,-6.93874],[156.04273,-6.9804],[156.08717,-6.90163],[156.04689,-6.85166],[156.07683,-6.8152],[156.13209,-6.93874]]],[[[158.24676,-8.80804],[158.18718,-8.83685],[158.15366,-8.79656],[158.20826,-8.67913],[158.24676,-8.80804]]],[[[157.64991,-8.76523],[157.47674,-8.73952],[157.45533,-8.70648],[157.55885,-8.69378],[157.64991,-8.76523]]],[[[158.1325,-8.54551],[158.06756,-8.60467],[158.11427,-8.66774],[158.03859,-8.75677],[157.87924,-8.68255],[157.89975,-8.56243],[157.95509,-8.57676],[157.96119,-8.52158],[158.1325,-8.54551]]],[[[157.41383,-8.49798],[157.33465,-8.66237],[157.41383,-8.72698],[157.31227,-8.69622],[157.20094,-8.56585],[157.36598,-8.41286],[157.41383,-8.49798]]],[[[157.81788,-8.61777],[157.57765,-8.43621],[157.56463,-8.3235],[157.63234,-8.38836],[157.54965,-8.26141],[157.2282,-8.31666],[157.22486,-8.21771],[157.3169,-8.18572],[157.44109,-7.97967],[157.60564,-8.00758],[157.63966,-8.2409],[157.74586,-8.22869],[157.83839,-8.33717],[157.90691,-8.4909],[157.88608,-8.58294],[157.79737,-8.55633],[157.81788,-8.61777]]],[[[157.10084,-8.20355],[157.12355,-8.32041],[157.09059,-8.24912],[157.02263,-8.1928],[157.10084,-8.20355]]],[[[157.18181,-8.27256],[157.1504,-8.21592],[157.09783,-8.15895],[157.18727,-8.18572],[157.18181,-8.27256]]],[[[157.79737,-7.47324],[157.67856,-7.44817],[157.72169,-7.38388],[157.77622,-7.40797],[157.79737,-7.47324]]],[[[157.61899,-7.45208],[157.54949,-7.45208],[157.4756,-7.4118],[157.58888,-7.39332],[157.61899,-7.45208]]]]}},{"type":"Feature","properties":{"id":"sb-ct","lat":-9.45016,"lng":160.00622},"geometry":{"type":"Polygon","coordinates":[[[159.93971,-9.43287],[160.02801,-9.42213],[160.04204,-9.43114],[160.02205,-9.46744],[159.93971,-9.43287]]]}},{"type":"Feature","properties":{"id":"sb-gu","lat":-9.64015,"lng":160.1771},"geometry":{"type":"Polygon","coordinates":[[[160.02801,-9.42213],[160.36638,-9.41277],[160.62843,-9.58229],[160.67302,-9.69801],[160.78541,-9.72747],[160.82472,-9.86728],[160.64479,-9.93711],[160.32032,-9.81512],[159.83562,-9.79388],[159.60182,-9.52191],[159.59213,-9.3615],[159.70899,-9.24774],[159.95382,-9.45031],[160.02205,-9.46744],[160.02801,-9.42213]]]}},{"type":"Feature","properties":{"id":"sb-is","lat":-8.01572,"lng":159.17615},"geometry":{"type":"MultiPolygon","coordinates":[[[[159.69947,-8.525],[159.54981,-8.4708],[159.55828,-8.38942],[159.63592,-8.38421],[159.69947,-8.525]]],[[[159.9004,-8.55071],[159.82504,-8.54209],[159.62721,-8.3576],[158.94809,-8.04909],[158.58497,-7.75433],[158.58497,-7.66863],[158.452,-7.532],[158.75172,-7.59344],[159.0857,-7.90358],[159.4026,-7.98235],[159.84205,-8.32562],[159.75758,-8.39756],[159.9004,-8.55071]]],[[[158.51661,-7.63096],[158.36215,-7.63763],[158.3169,-7.57936],[158.37875,-7.56268],[158.51661,-7.63096]]],[[[158.42115,-7.56129],[158.26856,-7.46697],[158.43482,-7.52776],[158.42115,-7.56129]]],[[[158.26938,-7.39056],[158.24903,-7.47324],[158.19435,-7.43222],[158.26938,-7.39056]]]]}},{"type":"Feature","properties":{"id":"sb-mk","lat":-10.51035,"lng":161.83721},"geometry":{"type":"MultiPolygon","coordinates":[[[[162.27174,-10.81439],[162.37827,-10.84482],[162.16196,-10.83115],[161.79217,-10.73496],[161.52467,-10.56422],[161.511,-10.36492],[161.28492,-10.32391],[161.30006,-10.20713],[161.50221,-10.25075],[161.8357,-10.44695],[162.11362,-10.45648],[162.28777,-10.69199],[162.27174,-10.81439]]],[[[161.77052,-10.27842],[161.7173,-10.23138],[161.73064,-10.20672],[161.77052,-10.27842]]]]}},{"type":"Feature","properties":{"id":"sb-ml","lat":-9.04404,"lng":160.99881},"geometry":{"type":"MultiPolygon","coordinates":[[[[161.97779,-9.85101],[161.92994,-9.70696],[161.97779,-9.68662],[161.97779,-9.85101]]],[[[161.37924,-9.41766],[161.35434,-9.33856],[161.54518,-9.60467],[161.5586,-9.78899],[161.48829,-9.69207],[161.4489,-9.73496],[161.40073,-9.67002],[161.37924,-9.41766]]],[[[161.29933,-9.58074],[161.17921,-9.38177],[160.86793,-9.15211],[160.69313,-8.75123],[160.65447,-8.6041],[160.71998,-8.5534],[160.60133,-8.32545],[160.70281,-8.36452],[160.70574,-8.30625],[160.75896,-8.31666],[160.99684,-8.60377],[160.94663,-8.81373],[161.15113,-8.94964],[161.20248,-9.13844],[161.28492,-9.18621],[161.24431,-9.20525],[161.27882,-9.28924],[161.23756,-9.29193],[161.39259,-9.60906],[161.29933,-9.58074]]],[[[162.73048,-8.37819],[162.75758,-8.37851],[162.73862,-8.38836],[162.73048,-8.37819]]],[[[160.63201,-7.92702],[160.6076,-7.88885],[160.61207,-7.87672],[160.63575,-7.89105],[160.63201,-7.92702]]]]}},{"type":"Feature","properties":{"id":"sb-rb","lat":-11.70302,"lng":160.39263},"geometry":{"type":"MultiPolygon","coordinates":[[[[160.56446,-11.77304],[160.48317,-11.84498],[160.27076,-11.63299],[160.02369,-11.60068],[159.96925,-11.50319],[160.00327,-11.46111],[160.08717,-11.49481],[160.56446,-11.77304]]],[[[159.792,-11.28395],[159.8532,-11.32448],[159.77735,-11.28362],[159.792,-11.28395]]]]}},{"type":"Feature","properties":{"id":"sb-te","lat":-10.76895,"lng":165.85912},"geometry":{"type":"MultiPolygon","coordinates":[[[[168.82293,-12.26727],[168.80242,-12.29062],[168.79786,-12.28191],[168.82293,-12.26727]]],[[[166.92402,-11.67429],[166.98415,-11.70986],[166.84302,-11.71332],[166.7672,-11.61712],[166.89345,-11.59378],[166.92402,-11.67429]]],[[[166.97967,-11.6386],[166.94435,-11.62542],[166.98487,-11.61435],[166.97967,-11.6386]]],[[[166.51645,-11.31128],[166.47769,-11.26998],[166.52511,-11.20905],[166.56471,-11.25993],[166.51645,-11.31128]]],[[[166.09569,-10.73923],[165.93422,-10.77574],[165.86196,-10.86854],[165.84042,-10.81457],[165.75647,-10.81216],[165.75303,-10.75189],[165.80181,-10.70859],[165.82195,-10.76216],[165.87806,-10.65685],[166.14276,-10.66925],[166.09569,-10.73923]]],[[[165.73561,-10.42457],[165.73219,-10.38991],[165.75506,-10.40691],[165.73561,-10.42457]]],[[[166.24244,-10.26898],[166.23731,-10.31113],[166.23854,-10.21502],[166.24244,-10.26898]]],[[[167.18084,-9.86012],[167.18531,-9.89463],[167.16578,-9.86834],[167.18084,-9.86012]]],[[[167.10402,-9.80657],[167.1045,-9.80185],[167.10825,-9.80462],[167.10402,-9.80657]]]]}}]}
