{"type":"FeatureCollection","features":[{"type":"Feature","properties":{"id":"sc-01","lat":-4.68502,"lng":55.51722},"geometry":{"type":"Polygon","coordinates":[[[55.5063,-4.67735],[55.52628,-4.68913],[55.50396,-4.68091],[55.5063,-4.67735]]]}},{"type":"Feature","properties":{"id":"sc-02","lat":-4.69212,"lng":55.49306},"geometry":{"type":"Polygon","coordinates":[[[55.50795,-4.71983],[55.478,-4.70641],[55.49518,-4.67784],[55.50795,-4.71983]]]}},{"type":"Feature","properties":{"id":"sc-03","lat":-4.58639,"lng":55.44892},"geometry":{"type":"Polygon","coordinates":[[[55.44689,-4.57423],[55.45994,-4.59855],[55.44074,-4.60452],[55.44689,-4.57423]]]}},{"type":"Feature","properties":{"id":"sc-04","lat":-4.72232,"lng":55.52291},"geometry":{"type":"Polygon","coordinates":[[[55.50019,-4.67959],[55.52153,-4.70781],[55.52809,-4.73683],[55.50019,-4.67959]]]}},{"type":"Feature","properties":{"id":"sc-05","lat":-4.74495,"lng":55.51282},"geometry":{"type":"Polygon","coordinates":[[[55.50795,-4.71983],[55.52575,-4.77007],[55.50967,-4.77135],[55.50795,-4.71983]]]}},{"type":"Feature","properties":{"id":"sc-06","lat":-4.75064,"lng":55.47383},"geometry":{"type":"Polygon","coordinates":[[[55.50503,-4.73909],[55.46349,-4.75977],[55.46817,-4.74151],[55.50503,-4.73909]]]}},{"type":"Feature","properties":{"id":"sc-07","lat":-4.32454,"lng":55.75791},"geometry":{"type":"MultiPolygon","coordinates":[[[[55.69011,-4.29177],[55.77716,-4.31849],[55.78704,-4.33059],[55.76799,-4.35029],[55.69011,-4.29177]]],[[[55.73291,-4.29246],[55.72213,-4.27684],[55.74295,-4.27833],[55.73291,-4.29246]]]]}},{"type":"Feature","properties":{"id":"sc-08","lat":-4.6054,"lng":55.43412},"geometry":{"type":"Polygon","coordinates":[[[55.43152,-4.62383],[55.43269,-4.58692],[55.44074,-4.58696],[55.43152,-4.62383]]]}},{"type":"Feature","properties":{"id":"sc-09","lat":-4.63876,"lng":55.44609},"geometry":{"type":"Polygon","coordinates":[[[55.43504,-4.63042],[55.46445,-4.6471],[55.45918,-4.65764],[55.43504,-4.63042]]]}},{"type":"Feature","properties":{"id":"sc-10","lat":-4.63262,"lng":55.41528},"geometry":{"type":"Polygon","coordinates":[[[55.4087,-4.6414],[55.41442,-4.61277],[55.43152,-4.62383],[55.4087,-4.6414]]]}},{"type":"Feature","properties":{"id":"sc-11","lat":-4.67354,"lng":55.50219},"geometry":{"type":"Polygon","coordinates":[[[55.48272,-4.66225],[55.51365,-4.66617],[55.50396,-4.68091],[55.48272,-4.66225]]]}},{"type":"Feature","properties":{"id":"sc-12","lat":-4.56696,"lng":55.44373},"geometry":{"type":"Polygon","coordinates":[[[55.44689,-4.57423],[55.4337,-4.56255],[55.46386,-4.57138],[55.44689,-4.57423]]]}},{"type":"Feature","properties":{"id":"sc-13","lat":-4.6651,"lng":55.46265},"geometry":{"type":"Polygon","coordinates":[[[55.49518,-4.67784],[55.44645,-4.67257],[55.45918,-4.65764],[55.49518,-4.67784]]]}},{"type":"Feature","properties":{"id":"sc-14","lat":-4.31136,"lng":55.69348},"geometry":{"type":"MultiPolygon","coordinates":[[[[55.64701,-4.34675],[55.64813,-4.35344],[55.64367,-4.34935],[55.64701,-4.34675]]],[[[55.66635,-4.32927],[55.6604,-4.33485],[55.66003,-4.33039],[55.66635,-4.32927]]],[[[55.76799,-4.35029],[55.69201,-4.3263],[55.67717,-4.29641],[55.76799,-4.35029]]],[[[55.66672,-4.20991],[55.67193,-4.21474],[55.65928,-4.21288],[55.66672,-4.20991]]]]}},{"type":"Feature","properties":{"id":"sc-15","lat":-4.48178,"lng":55.24541},"geometry":{"type":"MultiPolygon","coordinates":[[[[55.94007,-4.57866],[55.93907,-4.59225],[55.93252,-4.58243],[55.94007,-4.57866]]],[[[55.22145,-4.46347],[55.25994,-4.46299],[55.26026,-4.50009],[55.24195,-4.504],[55.22145,-4.46347]]],[[[55.84409,-4.34266],[55.8255,-4.37204],[55.83182,-4.33745],[55.84409,-4.34266]]],[[[55.92479,-4.33708],[55.91884,-4.34786],[55.91995,-4.33411],[55.92479,-4.33708]]],[[[55.88314,-4.3289],[55.87347,-4.33262],[55.86864,-4.31737],[55.88314,-4.3289]]],[[[55.86975,-4.28353],[55.87012,-4.29655],[55.86641,-4.28316],[55.86975,-4.28353]]],[[[55.65854,-3.8117],[55.65968,-3.79111],[55.66586,-3.81178],[55.65854,-3.8117]]]]}},{"type":"Feature","properties":{"id":"sc-16","lat":-4.61132,"lng":55.44665},"geometry":{"type":"Polygon","coordinates":[[[55.44074,-4.60452],[55.45885,-4.61812],[55.44733,-4.62076],[55.44074,-4.60452]]]}},{"type":"Feature","properties":{"id":"sc-17","lat":-4.61462,"lng":55.44323},"geometry":{"type":"Polygon","coordinates":[[[55.44733,-4.62076],[55.43591,-4.60847],[55.44074,-4.60452],[55.44733,-4.62076]]]}},{"type":"Feature","properties":{"id":"sc-18","lat":-4.60887,"lng":55.50042},"geometry":{"type":"MultiPolygon","coordinates":[[[[55.46441,-4.6254],[55.46445,-4.6471],[55.45523,-4.63218],[55.46441,-4.6254]]],[[[55.50407,-4.62973],[55.49853,-4.63848],[55.49167,-4.62988],[55.50407,-4.62973]]],[[[55.50334,-4.6236],[55.51282,-4.62725],[55.51107,-4.62958],[55.50334,-4.6236]]],[[[55.49678,-4.60303],[55.51443,-4.60055],[55.49678,-4.6147],[55.49678,-4.60303]]]]}},{"type":"Feature","properties":{"id":"sc-19","lat":-4.64879,"lng":55.47211},"geometry":{"type":"Polygon","coordinates":[[[55.45918,-4.65764],[55.47566,-4.63994],[55.47982,-4.67213],[55.45918,-4.65764]]]}},{"type":"Feature","properties":{"id":"sc-20","lat":-4.67269,"lng":55.5162},"geometry":{"type":"Polygon","coordinates":[[[55.5063,-4.67735],[55.51638,-4.66802],[55.52855,-4.68019],[55.5063,-4.67735]]]}},{"type":"Feature","properties":{"id":"sc-21","lat":-4.64309,"lng":55.40827},"geometry":{"type":"MultiPolygon","coordinates":[[[[55.39753,-4.67336],[55.40683,-4.675],[55.40537,-4.67993],[55.39753,-4.67336]]],[[[55.3627,-4.65932],[55.37291,-4.66789],[55.36051,-4.66133],[55.3627,-4.65932]]],[[[55.45918,-4.65764],[55.37127,-4.64692],[55.36726,-4.63926],[55.43152,-4.62383],[55.45918,-4.65764]]]]}},{"type":"Feature","properties":{"id":"sc-22","lat":-4.62559,"lng":55.43866},"geometry":{"type":"Polygon","coordinates":[[[55.43504,-4.63042],[55.43855,-4.61505],[55.44733,-4.62076],[55.43504,-4.63042]]]}},{"type":"Feature","properties":{"id":"sc-23","lat":-4.79378,"lng":55.52703},"geometry":{"type":"Polygon","coordinates":[[[55.49321,-4.77655],[55.52719,-4.78379],[55.53792,-4.80377],[55.49321,-4.77655]]]}},{"type":"Feature","properties":{"id":"sc-24","lat":-4.65127,"lng":55.47723},"geometry":{"type":"Polygon","coordinates":[[[55.48947,-4.65852],[55.47411,-4.65501],[55.47499,-4.64754],[55.48947,-4.65852]]]}},{"type":"Feature","properties":{"id":"sc-25","lat":-4.65497,"lng":55.48777},"geometry":{"type":"Polygon","coordinates":[[[55.47499,-4.64754],[55.49202,-4.65143],[55.48947,-4.65852],[55.47499,-4.64754]]]}},{"type":"Feature","properties":{"id":"sc-x02~","lat":-9.34108,"lng":46.35338},"geometry":{"type":"MultiPolygon","coordinates":[[[[46.50066,-9.74652],[46.47853,-9.74041],[46.50978,-9.71998],[46.50066,-9.74652]]],[[[47.5158,-9.70013],[47.50733,-9.71307],[47.50733,-9.69818],[47.5158,-9.70013]]],[[[46.52003,-9.38551],[46.23439,-9.45233],[46.20737,-9.38551],[46.32049,-9.42376],[46.46876,-9.38551],[46.44776,-9.33766],[46.52003,-9.38551]]],[[[46.28175,-9.3445],[46.3152,-9.32643],[46.42709,-9.33766],[46.3794,-9.35703],[46.28175,-9.3445]]],[[[56.28745,-7.11004],[56.27247,-7.15358],[56.24708,-7.19264],[56.2588,-7.14023],[56.28745,-7.11004]]],[[[52.74724,-7.00506],[52.7422,-6.99847],[52.74187,-6.99432],[52.74724,-7.00506]]],[[[55.37989,-5.86492],[55.38282,-5.85394],[55.38006,-5.86907],[55.37989,-5.86492]]],[[[53.34164,-5.42995],[53.3379,-5.43125],[53.334,-5.42018],[53.34164,-5.42995]]]]}}]}
