{"type":"FeatureCollection","features":[{"type":"Feature","properties":{"id":"sd-de","lat":12.1742,"lng":23.32119},"geometry":{"type":"Polygon","coordinates":[[[23.00555,10.68682],[22.86323,10.89182],[22.95646,11.2088],[22.91481,11.3961],[22.77187,11.40318],[22.5417,11.63299],[22.68144,12.27531],[22.62629,12.63381],[23.21459,13.38757],[23.40763,13.43353],[23.52325,13.55674],[23.99278,13.38502],[24.40211,13.55462],[24.54861,13.55747],[24.58292,13.45768],[24.35539,13.16294],[24.61641,13.09943],[24.03174,12.51262],[23.96836,12.07308],[23.76613,11.41124],[23.29732,11.1079],[23.00555,10.68682]]]}},{"type":"Feature","properties":{"id":"sd-dn","lat":16.17286,"lng":25.48591},"geometry":{"type":"Polygon","coordinates":[[[23.98131,19.99542],[27.48228,20.00015],[27.49639,16.67875],[26.91653,16.64707],[27.13052,14.87615],[27.22767,14.74639],[27.48399,14.00127],[27.44208,13.76087],[27.52264,13.60684],[27.3611,13.25007],[27.11734,12.8934],[27.10597,12.5935],[27.01709,12.40715],[27.0514,12.11363],[27.19165,11.82729],[26.65908,11.84886],[26.42679,11.99896],[26.18985,12.03555],[25.85359,12.42353],[26.00382,12.50322],[26.00149,12.55804],[25.36634,13.03647],[24.39544,13.12189],[24.36955,13.2247],[24.59192,13.47822],[24.54861,13.55747],[24.40211,13.55462],[23.99278,13.38502],[23.4894,13.59571],[23.59446,13.86794],[23.91516,14.21164],[24.15354,14.66742],[23.94064,15.16618],[24.00006,15.69865],[23.98131,19.99542]]]}},{"type":"Feature","properties":{"id":"sd-ds","lat":10.84342,"lng":25.24295},"geometry":{"type":"Polygon","coordinates":[[[23.63218,9.27757],[23.67404,9.69034],[23.62401,9.90777],[23.29122,10.43973],[23.00555,10.68682],[23.29732,11.1079],[23.76613,11.41124],[23.96836,12.07308],[24.03174,12.51262],[24.61641,13.09943],[25.36634,13.03647],[26.00149,12.55804],[26.00382,12.50322],[25.85359,12.42353],[26.18985,12.03555],[26.42679,11.99896],[26.65908,11.84886],[27.19165,11.82729],[27.30617,11.00003],[27.89507,9.59541],[27.08039,9.60683],[26.62574,9.48066],[25.90543,10.18127],[25.83933,10.42055],[25.07695,10.28687],[24.97628,9.96735],[24.7964,9.81886],[24.79252,9.5204],[24.68018,9.37336],[24.55838,8.88675],[24.38009,8.84422],[24.17033,8.68933],[23.50526,8.71074],[23.48232,8.78339],[23.56748,8.97483],[23.47808,8.95891],[23.43571,9.01893],[23.47426,9.17068],[23.63218,9.27757]]]}},{"type":"Feature","properties":{"id":"sd-dw","lat":13.91228,"lng":22.90769},"geometry":{"type":"Polygon","coordinates":[[[23.97262,15.69108],[23.9456,15.10717],[24.12977,14.80036],[24.12683,14.55632],[23.91516,14.21164],[23.59446,13.86794],[23.49281,13.64402],[23.52325,13.55674],[23.40763,13.43353],[23.21459,13.38757],[22.62629,12.63381],[22.68144,12.27531],[22.6124,12.0728],[22.45809,12.03043],[22.48403,12.16474],[22.37282,12.46312],[22.44569,12.61107],[22.20488,12.74336],[22.10587,12.65039],[21.93595,12.63954],[21.80945,12.79367],[21.96407,13.09835],[22.26761,13.33456],[22.07496,13.78032],[22.21469,13.95662],[22.54635,14.13971],[22.53188,14.22063],[22.42905,14.26461],[22.42491,14.47044],[22.36352,14.54353],[22.67658,14.68897],[22.65891,14.85741],[22.96566,15.2239],[22.97641,15.37364],[22.90675,15.5414],[23.06849,15.68669],[23.39581,15.68835],[23.5927,15.74901],[23.97262,15.69108]]]}},{"type":"Feature","properties":{"id":"sd-gd","lat":14.21302,"lng":35.22255},"geometry":{"type":"Polygon","coordinates":[[[36.43212,13.96992],[36.3821,13.57103],[36.23358,13.36164],[36.11442,12.93389],[36.11503,12.70181],[35.70137,12.66542],[35.27101,12.77718],[34.76142,13.17625],[34.4233,13.36086],[34.25882,13.61741],[34.30352,13.731],[34.14787,13.75229],[34.08317,13.83014],[33.90783,14.16252],[34.24952,14.79936],[34.0225,15.17099],[33.66418,15.31754],[33.54408,15.43198],[33.59328,15.52861],[33.79564,15.70661],[34.62459,15.50259],[34.92141,15.31002],[35.1306,14.8879],[35.40831,14.60696],[36.05742,14.79271],[36.4622,14.79377],[36.52638,14.26352],[36.43212,13.96992]]]}},{"type":"Feature","properties":{"id":"sd-gz","lat":14.46183,"lng":33.31256},"geometry":{"type":"Polygon","coordinates":[[[33.1009,15.31746],[33.22229,15.39586],[33.54408,15.43198],[33.66418,15.31754],[34.0225,15.17099],[34.25122,14.76078],[33.90783,14.16252],[33.98168,14.02473],[33.63736,14.09715],[33.37727,13.91553],[33.26911,14.02899],[33.14684,14.0454],[32.96391,13.74906],[32.83916,13.78937],[32.80315,13.64111],[32.66067,13.52654],[32.6306,13.81815],[32.42281,14.24469],[32.66817,14.67897],[32.6554,14.92619],[32.53686,15.02071],[32.63881,15.05495],[32.63385,15.237],[33.1009,15.31746]]]}},{"type":"Feature","properties":{"id":"sd-ka","lat":15.8422,"lng":35.49049},"geometry":{"type":"Polygon","coordinates":[[[36.87726,16.52731],[36.95426,16.27828],[36.67097,15.72312],[36.62787,15.44562],[36.42509,15.13344],[36.4622,14.79377],[35.97706,14.77778],[35.5098,14.61187],[35.35885,14.64105],[35.1306,14.8879],[34.88323,15.34919],[34.62459,15.50259],[34.36217,15.57745],[34.19846,15.96127],[34.23774,16.08879],[34.51627,16.43347],[35.25163,16.43936],[35.55652,16.56584],[35.65925,16.73366],[35.65631,17.17738],[36.04021,16.99015],[36.97337,17.06208],[36.99974,16.84213],[36.87726,16.52731]]]}},{"type":"Feature","properties":{"id":"sd-kh","lat":15.96753,"lng":32.72621},"geometry":{"type":"Polygon","coordinates":[[[33.54408,15.43198],[32.86335,15.30392],[32.61478,15.19349],[32.30783,15.20931],[31.60244,16.53876],[31.85194,16.67113],[32.11404,16.40158],[32.63974,16.31965],[33.00427,16.1355],[33.70764,15.91776],[34.19629,16.01729],[34.36217,15.57745],[33.76676,15.7063],[33.54408,15.43198]]]}},{"type":"Feature","properties":{"id":"sd-kn","lat":14.10428,"lng":29.49821},"geometry":{"type":"Polygon","coordinates":[[[29.76953,12.6852],[29.50014,12.28137],[29.24475,12.29843],[28.90796,12.49314],[28.6922,12.27738],[28.59748,11.95637],[28.31857,11.90901],[28.06598,11.9669],[27.89232,11.64589],[27.64499,11.40382],[27.37135,11.34067],[27.22488,11.42271],[27.19165,11.82729],[27.0514,12.11363],[27.01523,12.39643],[27.10597,12.5935],[27.11734,12.8934],[27.3611,13.25007],[27.52264,13.60684],[27.44208,13.76087],[27.48399,14.00127],[27.22767,14.74639],[27.13052,14.87615],[26.93699,16.6727],[31.06196,16.56227],[31.40845,16.59307],[31.60244,16.53876],[32.30783,15.20931],[31.97405,15.06846],[31.73603,14.68205],[31.59733,14.59764],[31.53557,14.47589],[31.52002,14.2073],[31.57712,13.99615],[31.71696,13.89352],[31.87834,13.60739],[32.05647,13.49551],[32.04407,13.26345],[31.64275,12.96505],[31.68947,12.59257],[31.46803,12.70289],[31.27068,12.61553],[31.14697,12.62334],[30.98532,12.44115],[30.73097,12.27574],[30.58059,12.31822],[30.41554,12.49888],[30.05179,12.50487],[29.96409,12.7285],[29.76953,12.6852]]]}},{"type":"Feature","properties":{"id":"sd-ks","lat":10.86887,"lng":29.78538},"geometry":{"type":"Polygon","coordinates":[[[31.92718,12.16928],[32.34834,11.70316],[32.34875,11.30758],[32.43071,11.08219],[31.94289,10.65555],[31.80196,10.37624],[31.23482,9.79232],[30.76528,9.72429],[30.48458,9.97203],[30.01298,10.27049],[29.61543,10.05815],[29.61388,9.91446],[29.48309,9.76168],[29.13226,9.66773],[28.91383,9.52903],[28.82875,9.42747],[28.84384,9.32455],[28.04511,9.33141],[27.99708,9.38493],[27.67597,10.06094],[27.24162,11.26267],[27.22488,11.42271],[27.37135,11.34067],[27.64499,11.40382],[27.89232,11.64589],[28.06598,11.9669],[28.36067,11.90901],[28.62906,11.97742],[28.6922,12.27738],[28.90796,12.49314],[29.24475,12.29843],[29.50014,12.28137],[29.76953,12.6852],[29.88234,12.73444],[30.00941,12.68625],[30.05179,12.50487],[30.41554,12.49888],[30.58059,12.31822],[30.70415,12.27176],[30.98532,12.44115],[31.11612,12.61282],[31.49351,12.69641],[31.68947,12.59257],[31.75168,12.22186],[31.92718,12.16928]]]}},{"type":"Feature","properties":{"id":"sd-nb","lat":11.06969,"lng":34.05066},"geometry":{"type":"Polygon","coordinates":[[[35.14856,11.87123],[35.04823,11.77138],[35.07314,11.54896],[34.94715,11.27487],[34.98415,11.1864],[34.91356,10.95298],[34.95066,10.86918],[34.76483,10.68025],[34.57477,10.88414],[34.40423,10.75984],[34.27949,10.56551],[34.32589,10.22356],[34.09821,9.67972],[34.0707,9.45459],[33.89775,9.45658],[33.8839,9.61985],[33.97325,9.85485],[33.91698,10.17452],[33.3813,10.64579],[33.14002,10.73904],[33.18209,10.84324],[33.08323,11.59916],[33.20922,12.21037],[33.31986,12.25871],[33.50874,12.23349],[34.39814,12.73369],[34.5541,12.62613],[34.7746,12.28649],[35.14856,11.87123]]]}},{"type":"Feature","properties":{"id":"sd-no","lat":19.45655,"lng":29.8573},"geometry":{"type":"Polygon","coordinates":[[[31.43548,21.99535],[32.52452,21.9954],[32.16696,18.91295],[32.58636,18.68152],[32.56466,18.26315],[32.68553,17.86493],[31.85194,16.67113],[31.60244,16.53876],[31.40845,16.59307],[31.06196,16.56227],[27.49639,16.67875],[27.48228,20.00015],[24.98052,20.00839],[24.98125,21.99535],[31.24841,21.99437],[31.42328,22.22696],[31.4918,22.17322],[31.43548,21.99535]]]}},{"type":"Feature","properties":{"id":"sd-nr","lat":19.18981,"lng":32.98394},"geometry":{"type":"Polygon","coordinates":[[[32.52452,21.9954],[33.15976,21.9954],[33.55535,21.71056],[33.27304,21.49691],[33.35123,21.30444],[33.2688,20.96412],[33.43189,20.78757],[33.53959,20.74656],[33.6771,20.47467],[33.62387,20.05193],[33.69632,19.63518],[33.64713,19.46667],[34.12911,18.36999],[34.70711,18.11414],[34.86276,17.96704],[35.12626,17.5303],[35.65631,17.17738],[35.65925,16.73366],[35.55652,16.56584],[35.40769,16.47618],[34.51627,16.43347],[34.19629,16.01729],[33.74676,15.91324],[33.00427,16.1355],[32.63974,16.31965],[32.11404,16.40158],[31.8693,16.62449],[31.85194,16.67113],[32.68553,17.86493],[32.56466,18.26315],[32.58636,18.68152],[32.16696,18.91295],[32.52452,21.9954]]]}},{"type":"Feature","properties":{"id":"sd-nw","lat":13.58881,"lng":32.27497},"geometry":{"type":"Polygon","coordinates":[[[33.20922,12.21037],[32.73178,12.21616],[32.74666,12.00273],[32.08221,11.99981],[31.92718,12.16928],[31.74517,12.23494],[31.64275,12.96505],[32.02634,13.23609],[32.05957,13.48484],[31.87834,13.60739],[31.71696,13.89352],[31.57712,13.99615],[31.52002,14.2073],[31.53557,14.47589],[31.59733,14.59764],[31.73603,14.68205],[31.97405,15.06846],[32.30783,15.20931],[32.61478,15.19349],[32.63912,15.12996],[32.63881,15.05495],[32.53655,14.99978],[32.6554,14.92619],[32.66817,14.67897],[32.42281,14.24469],[32.6306,13.81815],[32.64688,13.54222],[32.80315,13.64111],[32.86505,13.57023],[32.91146,13.20379],[33.09936,12.88919],[33.07502,12.66295],[33.20922,12.21037]]]}},{"type":"Feature","properties":{"id":"sd-rs","lat":19.52765,"lng":35.45852},"geometry":{"type":"MultiPolygon","coordinates":[[[[38.45929,17.89074],[38.23336,17.5257],[38.11946,17.5456],[38.07647,17.47986],[38.03885,17.54818],[37.89591,17.44255],[37.79886,17.47713],[37.72042,17.38385],[37.49604,17.31217],[37.49469,17.17461],[37.40343,17.02992],[37.13399,17.01643],[37.00046,17.0726],[36.04021,16.99015],[35.16316,17.49563],[34.86276,17.96704],[34.70711,18.11414],[34.11898,18.38441],[33.64402,19.47915],[33.69632,19.63518],[33.62387,20.05193],[33.67136,20.4965],[33.53959,20.74656],[33.26942,20.95634],[33.35123,21.30444],[33.27304,21.49691],[33.55535,21.71056],[33.15976,21.9954],[36.88364,21.99571],[36.8401,21.96613],[36.88787,21.65013],[37.313,21.05768],[37.25196,21.00605],[37.1893,21.09724],[37.27215,21.05427],[37.22975,21.12783],[37.10499,21.20751],[37.08644,21.04059],[37.22804,20.56501],[37.17514,20.34919],[37.22489,20.11953],[37.18881,20.01317],[37.26531,19.78685],[37.24383,19.57616],[37.43434,18.86172],[37.53981,18.71589],[37.67473,18.74095],[37.75807,18.62865],[37.92551,18.58504],[38.12186,18.4133],[38.07612,18.34812],[38.15167,18.24933],[38.24543,18.24391],[38.30616,18.30654],[38.27622,18.24201],[38.2173,18.21772],[38.39145,18.22419],[38.51222,18.07372],[38.54282,18.11839],[38.60157,18.00483],[38.45929,17.89074]]],[[[37.27564,20.84805],[37.27182,20.7661],[37.2544,20.74982],[37.24342,20.80402],[37.27564,20.84805]]]]}},{"type":"Feature","properties":{"id":"sd-si","lat":13.03272,"lng":33.97917},"geometry":{"type":"Polygon","coordinates":[[[35.70137,12.66542],[35.14856,11.87123],[34.7746,12.28649],[34.5541,12.62613],[34.39814,12.73369],[33.50874,12.23349],[33.31986,12.25871],[33.20922,12.21037],[33.07502,12.66295],[33.09936,12.88919],[32.91146,13.20379],[32.87451,13.54463],[32.80315,13.64111],[32.83916,13.78937],[32.96391,13.74906],[33.0792,13.99532],[33.1886,14.05607],[33.37727,13.91553],[33.63736,14.09715],[33.98168,14.02473],[34.14787,13.75229],[34.30352,13.731],[34.25882,13.61741],[34.4233,13.36086],[34.76142,13.17625],[35.27101,12.77718],[35.70137,12.66542]]]}}]}
