{"type":"FeatureCollection","features":[{"type":"Feature","properties":{"id":"se-ab","lat":59.52473,"lng":18.00038},"geometry":{"type":"MultiPolygon","coordinates":[[[[18.35711,58.977],[18.31642,58.92695],[18.19361,58.91132],[18.35711,58.977]]],[[[17.65219,59.07152],[17.68483,58.90082],[17.62582,58.95677],[17.65219,59.07152]]],[[[18.21656,59.02448],[18.1447,58.96906],[18.05063,58.96092],[18.10353,59.02265],[18.21656,59.02448]]],[[[18.4839,59.08271],[18.40528,59.00861],[18.34132,59.03343],[18.45086,59.11205],[18.4839,59.08271]]],[[[18.52036,59.22866],[18.34474,59.29926],[18.61231,59.25829],[18.51612,59.27131],[18.57814,59.24462],[18.52036,59.22866]]],[[[18.63803,59.36799],[18.7059,59.37124],[18.74708,59.33185],[18.6775,59.29955],[18.63803,59.36799]]],[[[18.24928,59.36668],[18.16554,59.34064],[18.10532,59.37763],[18.24928,59.36668]]],[[[18.73911,59.54043],[18.55641,59.42231],[18.51051,59.48314],[18.60971,59.54564],[18.73911,59.54043]]],[[[18.47301,60.05696],[18.59938,60.14826],[18.72071,60.12604],[18.74513,60.04971],[18.79664,60.00495],[18.7531,60.08218],[18.8169,60.11758],[18.90309,59.94721],[19.07163,59.89631],[19.03468,59.83503],[18.886,59.92988],[18.92408,59.85228],[18.7339,59.76879],[19.07447,59.7497],[18.91334,59.75178],[18.71412,59.67325],[18.73561,59.64151],[18.63998,59.58364],[18.26905,59.47744],[18.3073,59.3968],[18.18849,59.40742],[18.18141,59.4582],[18.00896,59.40852],[18.14617,59.34024],[18.09514,59.32681],[18.22055,59.31977],[18.31813,59.37592],[18.47006,59.3371],[18.44777,59.39545],[18.49562,59.39545],[18.42677,59.43643],[18.48463,59.43423],[18.63893,59.31509],[18.29127,59.3227],[18.27931,59.2617],[18.41228,59.21503],[18.31373,59.23408],[18.42416,59.14395],[18.01368,59.04491],[17.89283,58.86103],[17.77361,58.96068],[17.80348,58.90827],[17.77443,58.88622],[17.76881,59.12055],[17.71046,59.0528],[17.65895,59.16889],[17.60711,58.96597],[17.36491,59.02045],[17.28218,59.22],[17.52894,59.46195],[17.59487,59.57202],[17.58172,59.66619],[18.08988,59.75263],[18.17784,59.8288],[18.38997,59.88203],[18.49394,60.01076],[18.47301,60.05696]]],[[[18.66847,59.17426],[18.69093,59.20881],[18.75001,59.20515],[18.73797,59.19774],[18.66847,59.17426]]],[[[18.75766,59.29458],[18.77052,59.2508],[18.72267,59.2624],[18.75766,59.29458]]],[[[18.94825,59.37873],[18.89991,59.39374],[18.89943,59.4007],[18.94825,59.37873]]],[[[18.86948,59.39346],[18.84653,59.3959],[18.86508,59.39985],[18.86948,59.39346]]],[[[18.86061,59.42451],[18.89861,59.4457],[18.92579,59.43403],[18.89389,59.40717],[18.86061,59.42451]]],[[[18.90528,59.63361],[18.75685,59.57266],[18.92433,59.65693],[18.90528,59.63361]]],[[[18.98064,59.62434],[18.88559,59.5786],[18.85857,59.59577],[18.95248,59.65298],[18.98064,59.62434]]],[[[18.9878,59.78954],[18.89129,59.78559],[18.88575,59.79393],[18.95916,59.86371],[18.9878,59.78954]]],[[[18.73829,60.2145],[18.8003,60.17642],[18.8069,60.16059],[18.72438,60.15546],[18.73829,60.2145]]]]}},{"type":"Feature","properties":{"id":"se-ac","lat":64.89448,"lng":18.04647},"geometry":{"type":"MultiPolygon","coordinates":[[[[20.86891,63.67573],[20.84303,63.64419],[20.82594,63.64362],[20.86891,63.67573]]],[[[20.91977,63.76415],[20.93287,63.71528],[20.86476,63.68309],[20.88087,63.74238],[20.91977,63.76415]]],[[[20.86492,63.79682],[20.92042,63.77375],[20.8392,63.76756],[20.86492,63.79682]]],[[[14.36598,65.21576],[14.51429,65.31808],[14.56069,65.70105],[14.64885,65.80239],[14.54054,66.12545],[15.05338,66.15328],[15.48188,66.27487],[15.47608,66.35494],[16.88138,66.00595],[17.47214,65.75539],[18.71972,65.43792],[19.40324,65.16225],[20.11488,65.31157],[21.26623,65.1645],[21.58156,65.06771],[21.47926,65.06232],[21.50343,65.02143],[21.37778,64.96003],[21.24342,64.95311],[21.18133,64.83584],[21.03736,64.83271],[21.30584,64.7683],[21.22918,64.74771],[21.30494,64.66572],[21.14389,64.73298],[21.11118,64.69937],[21.35328,64.56952],[21.37403,64.60798],[21.48561,64.58344],[21.55193,64.53473],[21.34734,64.53197],[21.60646,64.45222],[21.37322,64.33039],[21.31853,64.36408],[21.33277,64.31501],[20.96656,64.1494],[20.89698,63.98371],[20.67481,63.84272],[20.67465,63.78925],[20.61264,63.82221],[20.54265,63.77534],[20.50343,63.82201],[20.41359,63.76756],[20.3943,63.6811],[20.32545,63.75397],[20.30795,63.65436],[20.28443,63.73286],[20.24285,63.65087],[20.03452,63.65681],[20.03053,63.60248],[19.88697,63.6031],[19.68735,63.43134],[19.57862,63.52119],[19.42042,63.54853],[19.52345,63.48583],[19.46144,63.46894],[19.50799,63.41185],[19.31555,63.45774],[18.93386,63.78081],[18.50557,63.85946],[18.42676,63.98292],[17.72985,63.88949],[16.78423,63.99723],[16.26302,64.25556],[16.06908,64.27024],[15.78759,64.42671],[15.71323,64.53048],[15.60554,64.46785],[15.2915,64.64458],[15.36891,64.67011],[15.26928,64.72248],[15.10045,64.7591],[14.70849,65.00043],[14.33285,65.11505],[14.36598,65.21576]]]]}},{"type":"Feature","properties":{"id":"se-bd","lat":66.97012,"lng":20.01544},"geometry":{"type":"MultiPolygon","coordinates":[[[[22.41782,65.44994],[22.29493,65.42817],[22.28517,65.43163],[22.41782,65.44994]]],[[[22.15358,65.43036],[22.21022,65.46581],[22.2317,65.41812],[22.15358,65.43036]]],[[[22.19801,65.54198],[22.31861,65.52399],[22.35825,65.49506],[22.2658,65.48176],[22.19801,65.54198]]],[[[22.61052,65.52399],[22.56756,65.51691],[22.55299,65.5301],[22.61052,65.52399]]],[[[22.64145,65.5891],[22.59742,65.55394],[22.52914,65.57624],[22.64145,65.5891]]],[[[22.57016,65.59479],[22.59506,65.61298],[22.6045,65.60029],[22.57016,65.59479]]],[[[22.98194,65.69359],[22.92726,65.68452],[22.88624,65.73737],[22.95623,65.73322],[22.98194,65.69359]]],[[[23.79949,65.73481],[23.73829,65.69672],[23.68149,65.72167],[23.71355,65.7519],[23.79949,65.73481]]],[[[22.74106,65.71361],[22.74684,65.77041],[22.81137,65.7141],[22.74106,65.71361]]],[[[19.96222,68.54119],[20.23663,68.65907],[20.35217,68.78567],[20.34111,68.91006],[20.10227,69.02214],[20.79535,69.01124],[20.93457,68.96695],[20.90573,68.89461],[22.07217,68.47701],[22.80825,68.3949],[23.06694,68.29025],[23.15521,68.21744],[23.16565,68.12204],[23.30652,68.14561],[23.383,68.05125],[23.64314,67.96319],[23.63611,67.91348],[23.48128,67.86464],[23.55353,67.58704],[23.43126,67.48552],[23.76519,67.42007],[23.78566,67.33752],[23.60272,67.26026],[23.58133,67.15314],[24.00404,66.8052],[23.89242,66.75091],[23.88188,66.56354],[23.65244,66.45884],[23.66277,66.31652],[23.72416,66.20663],[23.88932,66.16111],[24.01965,66.04894],[24.1631,65.8227],[23.92644,65.7604],[23.73943,65.82929],[23.47006,65.83332],[23.42848,65.76533],[23.37428,65.8227],[23.19597,65.82697],[23.23764,65.7687],[23.10304,65.70466],[22.65301,65.90839],[22.69972,65.80394],[22.66375,65.75751],[22.51149,65.77489],[22.5184,65.82266],[22.40553,65.86392],[22.32594,65.83698],[22.36744,65.80972],[22.3191,65.80223],[22.36061,65.76122],[22.32602,65.7355],[22.20924,65.76122],[22.38795,65.67251],[22.2815,65.70148],[22.28492,65.63154],[22.18922,65.62409],[22.30063,65.61152],[22.3086,65.66938],[22.38038,65.63402],[22.33334,65.60419],[22.40528,65.54194],[21.76417,65.72773],[22.20297,65.54898],[21.85353,65.53535],[22.03159,65.46703],[21.92775,65.40412],[21.58668,65.4182],[21.4489,65.35716],[21.70167,65.28588],[21.62281,65.24079],[21.34555,65.37279],[21.26441,65.33666],[21.53761,65.2309],[21.61883,65.14802],[21.54444,65.13744],[21.58166,65.06767],[21.26623,65.1645],[20.11488,65.31157],[19.42313,65.15954],[18.71972,65.43792],[17.47214,65.75539],[16.88138,66.00595],[15.47608,66.35494],[15.42627,66.49121],[15.66946,66.59942],[16.03884,66.88755],[16.41557,67.0527],[16.43789,67.20032],[16.12711,67.42276],[16.19956,67.50828],[16.42859,67.53402],[16.58723,67.6259],[16.808,67.91064],[17.32145,68.1053],[17.921,67.97285],[18.18858,68.19873],[18.13567,68.39572],[18.17184,68.53592],[18.43622,68.57385],[18.64458,68.50125],[19.03815,68.50564],[19.93101,68.3502],[20.24593,68.47737],[19.96222,68.54119]]]]}},{"type":"Feature","properties":{"id":"se-c","lat":60.03721,"lng":17.85826},"geometry":{"type":"MultiPolygon","coordinates":[[[[17.38022,60.62442],[17.57496,60.64789],[17.65895,60.6083],[17.60377,60.58413],[17.63819,60.51545],[17.74147,60.49844],[17.76222,60.5633],[17.94874,60.59919],[17.99537,60.55305],[17.96746,60.51211],[18.26222,60.38239],[18.20704,60.35505],[18.23487,60.32709],[18.42799,60.34878],[18.47446,60.29295],[18.42677,60.2862],[18.60483,60.23835],[18.40056,60.25959],[18.3169,60.32095],[18.41993,60.19351],[18.54851,60.17414],[18.41152,59.90089],[18.08988,59.75263],[17.58726,59.66951],[17.59038,59.56277],[17.4445,59.38532],[17.20058,59.51781],[16.96644,59.53213],[16.78753,59.79842],[16.8589,59.88435],[17.05036,59.83906],[17.19469,59.89753],[17.16565,59.99701],[17.30766,60.07742],[17.39406,60.22465],[17.22616,60.30958],[17.21748,60.38469],[17.38022,60.62442]]],[[[18.5547,60.32477],[18.40219,60.36982],[18.37875,60.5078],[18.48463,60.3664],[18.5547,60.32477]]]]}},{"type":"Feature","properties":{"id":"se-d","lat":59.07934,"lng":16.53308},"geometry":{"type":"Polygon","coordinates":[[[17.58627,58.96491],[17.61793,58.90205],[17.53598,58.90205],[17.58375,58.85358],[17.44728,58.89521],[17.48829,58.79963],[17.33741,58.80646],[17.3768,58.76439],[17.27605,58.7307],[17.02817,58.75117],[17.14568,58.6966],[16.97495,58.68537],[17.03582,58.6413],[16.92416,58.62543],[16.44099,58.69549],[16.07807,58.92503],[15.63985,59.0365],[15.80418,59.12218],[15.7786,59.20621],[15.89994,59.24228],[15.98417,59.34966],[16.27728,59.37519],[16.31764,59.39834],[16.2871,59.45374],[17.14813,59.52717],[17.45566,59.37612],[17.34186,59.32489],[17.28885,59.18646],[17.386,58.99826],[17.58627,58.96491]]]}},{"type":"Feature","properties":{"id":"se-e","lat":58.35853,"lng":15.62601},"geometry":{"type":"MultiPolygon","coordinates":[[[[16.8449,58.31037],[16.85581,58.27188],[16.83253,58.30418],[16.8449,58.31037]]],[[[16.91896,58.33637],[16.84604,58.31981],[16.78517,58.38007],[16.85971,58.40029],[16.83058,58.35594],[16.91896,58.33637]]],[[[16.23373,58.66926],[16.25489,58.63451],[16.19777,58.6374],[16.17921,58.62832],[16.78932,58.60716],[16.9402,58.49112],[16.7483,58.42902],[16.44142,58.48599],[16.41261,58.47748],[16.77125,58.3631],[16.63168,58.35395],[16.71079,58.29873],[16.79916,58.32364],[16.7068,58.27139],[16.80299,58.2447],[16.80983,58.1621],[16.77719,58.13052],[16.61744,58.20311],[16.74643,58.01659],[16.6447,58.03864],[16.68686,57.98924],[16.64553,57.99251],[16.57959,58.09506],[16.43991,58.12539],[16.02283,58.07832],[16.07621,57.97584],[16.05321,57.87585],[15.97565,57.82241],[15.66998,57.85719],[15.44312,57.71162],[15.19714,57.7234],[15.02475,57.91409],[15.10231,58.01475],[14.99979,58.15387],[14.87514,58.09718],[14.59785,58.11188],[14.42856,58.22438],[14.81153,58.64552],[15.84826,59.00989],[16.29811,58.82385],[16.44099,58.69549],[16.78143,58.63449],[16.23373,58.66926]]]]}},{"type":"Feature","properties":{"id":"se-f","lat":57.54385,"lng":14.64639},"geometry":{"type":"Polygon","coordinates":[[[13.08988,57.11],[13.68266,57.56512],[13.75061,57.85308],[14.01845,57.82867],[14.21198,57.91595],[14.42856,58.22438],[14.59785,58.11188],[14.87514,58.09718],[14.99979,58.15387],[15.10231,58.01475],[15.02475,57.91409],[15.15353,57.7403],[15.44312,57.71162],[15.66698,57.60914],[15.61283,57.55799],[15.6628,57.52972],[15.62946,57.46135],[15.52751,57.44011],[15.49536,57.30165],[15.55076,57.21139],[15.16469,57.24193],[15.17451,57.19703],[14.98377,57.15005],[14.76905,57.22772],[14.40437,57.15605],[14.35378,57.03246],[14.39306,56.95526],[14.32071,56.88849],[14.06532,57.05019],[13.86203,57.00228],[13.76209,57.03326],[13.69367,56.98342],[13.57589,57.07714],[13.39467,57.1206],[13.14249,57.03913],[13.08988,57.11]]]}},{"type":"Feature","properties":{"id":"se-g","lat":56.79131,"lng":14.39616},"geometry":{"type":"Polygon","coordinates":[[[13.50143,56.42384],[13.43828,56.57887],[13.30821,56.70186],[13.32128,56.83209],[13.64106,56.91275],[13.76209,57.03326],[13.86203,57.00228],[14.06532,57.05019],[14.32071,56.88849],[14.39306,56.95526],[14.35378,57.03246],[14.40437,57.15605],[14.80874,57.22777],[15.00087,57.15145],[15.17451,57.19703],[15.16469,57.24193],[15.37015,57.23878],[15.57624,57.19935],[15.8464,56.95823],[15.78263,56.9081],[15.53464,56.91115],[15.55619,56.81493],[15.39408,56.7677],[15.40912,56.56954],[15.34256,56.46934],[15.00304,56.45113],[14.86956,56.37909],[14.10894,56.54223],[13.99334,56.47924],[13.50143,56.42384]]]}},{"type":"Feature","properties":{"id":"se-h","lat":57.22635,"lng":16.01119},"geometry":{"type":"MultiPolygon","coordinates":[[[[17.09702,57.31737],[16.63697,56.55972],[16.56642,56.34614],[16.42848,56.21796],[16.41944,56.58564],[16.62086,56.87226],[16.73129,56.904],[16.96648,57.30459],[17.05486,57.35822],[17.09702,57.31737]]],[[[16.57959,58.09506],[16.78248,57.91511],[16.72731,57.92878],[16.75815,57.87702],[16.61061,57.89468],[16.6447,57.92133],[16.51531,57.99885],[16.577,57.90192],[16.4603,57.89468],[16.69996,57.74384],[16.41944,57.89468],[16.71485,57.70283],[16.577,57.70966],[16.63054,57.6291],[16.52052,57.62714],[16.51498,57.56631],[16.62916,57.55687],[16.68897,57.47175],[16.46909,57.27538],[16.46502,57.17731],[16.58326,57.04491],[16.43979,57.05174],[16.46811,56.94929],[16.40797,56.79914],[16.47446,56.78632],[16.35662,56.75845],[16.37159,56.66132],[16.24635,56.6424],[16.03104,56.3263],[15.85958,56.35062],[15.57856,56.50906],[15.36302,56.48213],[15.40912,56.56954],[15.39408,56.7677],[15.55619,56.81493],[15.53464,56.91115],[15.84609,56.94262],[15.50425,57.27619],[15.532,57.45337],[15.62094,57.45117],[15.66419,57.51949],[15.61283,57.55799],[15.66698,57.60914],[15.46358,57.6956],[15.46033,57.75069],[15.66998,57.85719],[16.00184,57.8342],[16.07621,57.97584],[16.02283,58.07832],[16.43991,58.12539],[16.57959,58.09506]]]]}},{"type":"Feature","properties":{"id":"se-i","lat":57.43244,"lng":18.50647},"geometry":{"type":"MultiPolygon","coordinates":[[[[18.85133,57.91511],[19.08522,57.82575],[18.94874,57.78266],[18.94125,57.72956],[18.80714,57.73444],[18.76466,57.6269],[18.81031,57.60733],[18.7732,57.47223],[18.92628,57.39265],[18.68043,57.31049],[18.71412,57.24291],[18.40642,57.14301],[18.4546,57.12743],[18.35987,57.09614],[18.3379,57.03124],[18.40008,57.00397],[18.31153,56.94806],[18.13868,56.92202],[18.29021,57.09272],[18.20086,57.06538],[18.22804,57.13369],[18.09938,57.25898],[18.17921,57.37954],[18.12818,57.54816],[18.67775,57.91389],[18.74244,57.91791],[18.80348,57.82575],[18.85133,57.91511]]],[[[19.32114,57.97272],[19.16196,57.92597],[19.12965,57.84687],[19.03679,57.90522],[19.09832,57.97655],[19.32114,57.97272]]],[[[19.29119,58.35025],[19.18775,58.39496],[19.33172,58.36762],[19.29119,58.35025]]]]}},{"type":"Feature","properties":{"id":"se-k","lat":56.27242,"lng":15.25058},"geometry":{"type":"MultiPolygon","coordinates":[[[[15.71778,56.1166],[15.69679,56.07429],[15.64235,56.10464],[15.66912,56.12393],[15.71778,56.1166]]],[[[16.06625,56.33595],[15.85174,56.08637],[15.78875,56.10643],[15.82651,56.15937],[15.59213,56.16055],[15.58644,56.20889],[15.36557,56.1411],[15.29526,56.18838],[14.72495,56.16763],[14.6823,56.11713],[14.76775,56.03071],[14.71551,56.00235],[14.5534,56.05403],[14.57645,56.20042],[14.41057,56.3378],[14.54075,56.47748],[14.89411,56.37826],[15.00304,56.45113],[15.56151,56.51025],[15.85958,56.35062],[16.06625,56.33595]]]]}},{"type":"Feature","properties":{"id":"se-m","lat":55.97037,"lng":13.58833},"geometry":{"type":"Polygon","coordinates":[[[14.5534,56.05403],[14.20851,55.82127],[14.19581,55.72565],[14.36752,55.5454],[14.18116,55.39082],[13.89723,55.43488],[13.38136,55.34602],[12.83277,55.38255],[12.85939,55.43488],[12.98569,55.4479],[12.91749,55.54719],[13.05486,55.69404],[12.92262,55.74946],[12.92604,55.83405],[12.8213,55.8867],[12.45143,56.30443],[12.81446,56.23615],[12.82944,56.27855],[12.62159,56.41934],[12.71372,56.46735],[12.91088,56.47436],[12.98518,56.37718],[13.20801,56.33801],[13.42056,56.42519],[13.99334,56.47924],[14.09468,56.5412],[14.27777,56.52391],[14.54075,56.47748],[14.41057,56.3378],[14.57645,56.20042],[14.5534,56.05403]]]}},{"type":"Feature","properties":{"id":"se-n","lat":56.95362,"lng":13.01141},"geometry":{"type":"Polygon","coordinates":[[[12.91088,56.47436],[12.93442,56.54707],[12.87176,56.64948],[12.73178,56.64704],[12.59832,56.82099],[12.35646,56.92381],[12.34099,57.01407],[12.1491,57.1883],[12.19125,57.21259],[12.10133,57.23672],[12.1565,57.24291],[12.09506,57.25039],[12.14405,57.31013],[12.04982,57.35114],[12.10873,57.39435],[12.06031,57.39435],[12.05926,57.45881],[11.97902,57.34658],[11.90333,57.39435],[11.94483,57.48994],[11.91284,57.58292],[12.30192,57.61643],[12.44656,57.29506],[12.68799,57.34358],[12.95149,57.27596],[12.93754,57.2086],[13.1166,57.15698],[13.08988,57.11],[13.14249,57.03913],[13.41249,57.12018],[13.69367,56.98342],[13.64106,56.91275],[13.32128,56.83209],[13.30821,56.70186],[13.43828,56.57887],[13.50143,56.42384],[13.19261,56.33868],[12.98518,56.37718],[12.91088,56.47436]]]}},{"type":"Feature","properties":{"id":"se-o","lat":58.15843,"lng":13.10931},"geometry":{"type":"MultiPolygon","coordinates":[[[[11.71656,58.06452],[11.59474,57.93561],[11.49789,58.02806],[11.71656,58.06452]]],[[[11.81528,58.18928],[11.8047,58.12572],[11.70818,58.09821],[11.5853,58.12311],[11.45769,58.07217],[11.40659,58.13109],[11.6631,58.23725],[11.68637,58.2912],[11.81528,58.18928]]],[[[11.66438,58.92007],[11.81109,59.24872],[12.08224,59.2],[12.18585,59.25494],[12.46873,59.1999],[12.41447,59.17716],[12.48521,59.14218],[12.74339,59.14678],[12.92808,58.81517],[13.40474,58.74641],[13.44572,58.75964],[13.37978,58.84287],[13.42154,58.92178],[13.58783,59.05133],[14.22671,59.04451],[14.31265,59.01635],[14.49641,58.73461],[14.67516,58.74194],[14.81153,58.64552],[14.2371,58.00153],[14.23384,57.9282],[14.01845,57.82867],[13.75061,57.85308],[13.68266,57.56512],[13.1166,57.15698],[12.93754,57.2086],[12.95149,57.27596],[12.67419,57.34668],[12.44656,57.29506],[12.30192,57.61643],[11.91284,57.58292],[11.83497,57.66193],[11.92368,57.70283],[11.70541,57.69843],[11.81039,57.7814],[11.65626,57.83942],[11.75929,57.90209],[11.79347,58.10008],[11.88966,58.21678],[11.80893,58.30219],[11.88282,58.33283],[11.72674,58.32709],[11.50587,58.24307],[11.66993,58.42219],[11.58863,58.40111],[11.55323,58.4632],[11.52247,58.33625],[11.39617,58.26459],[11.44337,58.30557],[11.3838,58.31818],[11.44858,58.34174],[11.42408,58.38813],[11.34588,58.34602],[11.42408,58.44269],[11.22088,58.34626],[11.20899,58.41893],[11.29371,58.47004],[11.23854,58.50788],[11.28631,58.5799],[11.17742,58.71857],[11.23341,58.80817],[11.1976,58.92251],[11.10816,58.95356],[11.18385,58.9914],[11.115,59.0082],[11.19361,59.08015],[11.32097,59.09951],[11.43814,58.99113],[11.45199,58.89604],[11.66438,58.92007]]]]}},{"type":"Feature","properties":{"id":"se-s","lat":59.88542,"lng":13.21415},"geometry":{"type":"Polygon","coordinates":[[[12.68251,61.04033],[13.0983,60.81665],[13.49166,60.46491],[13.66855,60.40698],[13.84528,60.26149],[13.97468,60.19738],[14.01752,60.2126],[13.97189,60.25725],[14.14304,60.23808],[14.2574,60.10713],[14.45109,60.03659],[14.35238,59.95944],[14.42809,59.90658],[14.48209,59.58365],[14.4298,59.52851],[14.47326,59.48247],[14.32991,59.30051],[14.31265,59.01635],[13.58783,59.05133],[13.38598,58.85643],[13.44572,58.75964],[13.28821,58.7422],[12.92808,58.81517],[12.85899,58.98808],[12.68675,59.17561],[12.585,59.12311],[12.21412,59.25215],[12.08224,59.2],[11.81109,59.24872],[11.671,59.58055],[11.89724,59.71398],[11.84959,59.87242],[12.14373,59.89841],[12.44676,60.05112],[12.52469,60.1617],[12.49172,60.31229],[12.60531,60.41916],[12.59435,60.51494],[12.377,60.7541],[12.25329,61.0017],[12.68251,61.04033]]]}},{"type":"Feature","properties":{"id":"se-t","lat":59.35196,"lng":15.0021},"geometry":{"type":"Polygon","coordinates":[[[14.47558,59.56251],[14.42809,59.90658],[14.35238,59.95944],[14.45109,60.03659],[14.77153,60.02249],[14.76916,60.09845],[14.84863,60.12005],[15.23843,60.01556],[15.53945,59.80663],[15.55826,59.63781],[15.73964,59.53978],[15.7522,59.44061],[15.6383,59.4034],[15.6273,59.29757],[15.80403,59.2361],[15.80899,59.12903],[15.64404,59.04596],[15.72362,58.98451],[15.60306,58.95728],[15.56694,58.88504],[15.27925,58.8454],[15.01126,58.69929],[14.81153,58.64552],[14.67516,58.74194],[14.49641,58.73461],[14.31265,59.01635],[14.32991,59.30051],[14.46783,59.47216],[14.42949,59.54081],[14.47558,59.56251]]]}},{"type":"Feature","properties":{"id":"se-u","lat":59.69929,"lng":16.21316},"geometry":{"type":"Polygon","coordinates":[[[16.96644,59.53213],[16.2871,59.45374],[16.29857,59.38281],[16.00464,59.35857],[15.89994,59.24228],[15.7786,59.20621],[15.80403,59.2361],[15.6273,59.29757],[15.6383,59.4034],[15.7522,59.44061],[15.73964,59.53978],[15.55826,59.63781],[15.57453,59.76077],[15.45475,59.88322],[15.53479,59.97267],[15.70874,59.98378],[15.70858,60.07788],[15.81535,60.17811],[16.05352,60.18149],[16.31996,60.07762],[16.96566,60.29565],[17.22616,60.30958],[17.38894,60.24007],[17.30766,60.07742],[17.16565,59.99701],[17.21097,59.95629],[17.18059,59.88472],[17.05036,59.83906],[16.8589,59.88435],[16.79136,59.80689],[16.96644,59.53213]]]}},{"type":"Feature","properties":{"id":"se-w","lat":61.06941,"lng":14.27165},"geometry":{"type":"Polygon","coordinates":[[[12.71083,61.05701],[12.88694,61.3615],[12.61378,61.54704],[12.41648,61.58229],[12.16172,61.72484],[12.31515,62.27176],[12.79708,62.20711],[13.04864,62.08117],[13.38211,62.00441],[13.32702,61.90578],[13.60649,61.65846],[14.48163,61.59149],[14.66679,61.56299],[14.71221,61.49235],[15.10154,61.49237],[15.18551,61.54415],[15.67602,61.21704],[15.76677,61.0818],[16.15594,60.9994],[16.38621,60.81355],[16.39541,60.74988],[16.2025,60.57997],[16.71937,60.20162],[16.31996,60.07762],[16.05352,60.18149],[15.81535,60.17811],[15.70858,60.07788],[15.70874,59.98378],[15.53479,59.97267],[15.45475,59.88322],[15.25812,60.00796],[14.84863,60.12005],[14.76916,60.09845],[14.77153,60.02249],[14.45109,60.03659],[14.2574,60.10713],[14.14304,60.23808],[13.98057,60.25891],[14.01752,60.2126],[13.95205,60.20377],[13.66855,60.40698],[13.50562,60.45636],[13.14145,60.78663],[12.71083,61.05701]]]}},{"type":"Feature","properties":{"id":"se-x","lat":61.27466,"lng":16.37459},"geometry":{"type":"Polygon","coordinates":[[[17.49855,62.14757],[17.42612,62.02656],[17.46046,62.00332],[17.34815,61.94758],[17.33741,61.82368],[17.40561,61.82111],[17.39918,61.72236],[17.51417,61.71381],[17.49635,61.63508],[17.33058,61.71809],[17.35092,61.67715],[17.13803,61.72553],[17.26856,61.69082],[17.09718,61.63614],[17.24789,61.60883],[17.05633,61.58218],[17.18653,61.56102],[17.08009,61.55048],[17.16619,61.52692],[17.12452,61.51325],[17.16928,61.44111],[17.22039,61.44798],[17.10402,61.39936],[17.27605,61.31403],[17.09718,61.32087],[17.21274,61.2353],[17.15187,61.20417],[17.18279,61.12324],[17.14568,61.11473],[17.19988,61.09589],[17.1587,61.01984],[17.24789,61.01236],[17.15821,60.94843],[17.3357,60.76691],[17.1867,60.69237],[17.37664,60.62389],[17.22384,60.40404],[17.22616,60.30958],[16.95119,60.29263],[16.8097,60.21059],[16.71736,60.21591],[16.2025,60.57997],[16.40704,60.78058],[16.15594,60.9994],[15.76677,61.0818],[15.67602,61.21704],[15.18551,61.54415],[15.10154,61.49237],[14.71221,61.49235],[14.66679,61.56299],[14.48163,61.59149],[14.56979,61.77473],[14.68415,61.86868],[14.8384,61.79628],[14.86321,61.8462],[15.11182,61.83827],[15.12515,62.0003],[15.4456,62.13993],[15.35868,62.28199],[15.5303,62.34906],[17.49855,62.14757]]]}},{"type":"Feature","properties":{"id":"se-y","lat":63.08468,"lng":17.64481},"geometry":{"type":"MultiPolygon","coordinates":[[[[18.07895,62.67976],[18.00611,62.70555],[18.02833,62.74518],[18.15984,62.74714],[18.07895,62.67976]]],[[[19.31121,63.46043],[19.25929,63.32905],[19.13307,63.3083],[19.11671,63.23664],[19.05738,63.26048],[19.11199,63.21955],[19.05275,63.17886],[18.90675,63.26708],[18.75115,63.25947],[18.91334,63.21206],[18.77312,63.16877],[18.75294,63.20767],[18.8239,63.21955],[18.70045,63.22577],[18.75563,63.15746],[18.56446,63.17792],[18.65463,63.11371],[18.55698,63.11652],[18.4782,63.02025],[18.40382,63.05565],[18.43409,63.01411],[18.24171,62.99982],[18.52443,62.99189],[18.57667,62.9584],[18.40333,62.96483],[18.52296,62.92475],[18.40008,62.91108],[18.47446,62.8769],[18.37761,62.83674],[18.20704,62.86945],[18.28272,62.84154],[18.19508,62.77741],[18.00896,62.79438],[18.14617,62.82225],[18.07732,62.85578],[17.93531,62.81704],[17.9214,62.91572],[17.83082,62.99982],[17.69361,62.9936],[17.84767,62.92129],[18.0027,62.70897],[17.99342,62.6599],[17.87184,62.67084],[18.06422,62.59577],[17.96827,62.56049],[17.93702,62.61563],[17.84311,62.48969],[17.65895,62.47842],[17.70737,62.43744],[17.56178,62.44375],[17.42677,62.54108],[17.34148,62.49811],[17.36801,62.34309],[17.65268,62.232],[17.51905,62.22793],[17.49855,62.14757],[15.58151,62.35806],[15.19373,62.27413],[15.00072,62.32772],[14.83778,62.45453],[14.8615,62.60171],[16.3549,62.73142],[16.65839,62.92249],[16.96489,62.97931],[16.0205,63.46194],[15.91234,63.63966],[16.59199,63.73694],[16.745,64.01746],[16.90174,63.95987],[17.72985,63.88949],[18.42676,63.98292],[18.52076,63.85205],[18.95619,63.77027],[19.31121,63.46043]]]]}},{"type":"Feature","properties":{"id":"se-z","lat":63.37542,"lng":14.14712},"geometry":{"type":"Polygon","coordinates":[[[14.33207,65.11396],[14.70849,65.00043],[15.10045,64.7591],[15.26928,64.72248],[15.36891,64.67011],[15.2915,64.64458],[15.60554,64.46785],[15.71323,64.53048],[15.78759,64.42671],[16.06908,64.27024],[16.26302,64.25556],[16.745,64.01746],[16.59199,63.73694],[15.91234,63.63966],[16.0205,63.46194],[16.96907,62.99344],[16.65839,62.92249],[16.3549,62.73142],[14.83437,62.59308],[14.85143,62.42523],[15.06604,62.2977],[15.35868,62.28199],[15.4549,62.16008],[15.12515,62.0003],[15.11182,61.83827],[14.86321,61.8462],[14.8384,61.79628],[14.68415,61.86868],[14.56979,61.77473],[14.48163,61.59149],[14.38236,61.58203],[13.60649,61.65846],[13.32702,61.90578],[13.38211,62.00441],[13.04864,62.08117],[12.79708,62.20711],[12.31515,62.27176],[12.09123,62.58631],[12.15624,62.73369],[12.0933,62.90743],[12.22269,63.00148],[11.99243,63.2889],[12.2198,63.47427],[12.17029,63.59813],[12.75527,63.99139],[13.23411,64.09087],[13.98233,64.0195],[14.16051,64.18725],[14.11555,64.44124],[13.64276,64.58402],[14.33207,65.11396]]]}}]}
