{"type":"FeatureCollection","features":[{"type":"Feature","properties":{"id":"sg-01","lat":1.35893,"lng":103.86507},"geometry":{"type":"Polygon","coordinates":[[[103.8981,1.30524],[103.80959,1.29381],[103.8413,1.4168],[103.90944,1.41261],[103.8981,1.30524]]]}},{"type":"Feature","properties":{"id":"sg-02","lat":1.36437,"lng":103.9345},"geometry":{"type":"Polygon","coordinates":[[[103.89762,1.37472],[103.96581,1.38996],[103.94228,1.35401],[103.89762,1.37472]]]}},{"type":"Feature","properties":{"id":"sg-03","lat":1.37573,"lng":103.81455},"geometry":{"type":"Polygon","coordinates":[[[103.76222,1.43098],[103.80494,1.44863],[103.88147,1.42658],[103.80635,1.32488],[103.76222,1.43098]]]}},{"type":"Feature","properties":{"id":"sg-04","lat":1.33008,"lng":103.91765},"geometry":{"type":"Polygon","coordinates":[[[103.8769,1.37278],[103.99187,1.35493],[103.8981,1.30524],[103.8769,1.37278]]]}},{"type":"Feature","properties":{"id":"sg-05","lat":1.35916,"lng":103.73311},"geometry":{"type":"Polygon","coordinates":[[[103.84693,1.27192],[103.64763,1.30842],[103.68385,1.4099],[103.76222,1.43098],[103.84693,1.27192]]]}}]}
