{"type":"FeatureCollection","features":[{"type":"Feature","properties":{"id":"si-001","lat":45.95395,"lng":13.87478},"geometry":{"type":"Polygon","coordinates":[[[14.12087,45.87875],[13.858,45.8265],[13.73278,45.90586],[13.85226,46.00205],[14.12087,45.87875]]]}},{"type":"Feature","properties":{"id":"si-002","lat":46.57987,"lng":16.23281},"geometry":{"type":"Polygon","coordinates":[[[16.1608,46.60589],[16.2408,46.65359],[16.2979,46.64785],[16.24751,46.55385],[16.1608,46.60589]]]}},{"type":"Feature","properties":{"id":"si-003","lat":46.38665,"lng":14.02246},"geometry":{"type":"Polygon","coordinates":[[[13.87893,46.36647],[13.99236,46.44481],[14.12785,46.40683],[14.15219,46.35185],[14.1016,46.29893],[13.87893,46.36647]]]}},{"type":"Feature","properties":{"id":"si-004","lat":46.34193,"lng":13.88239},"geometry":{"type":"Polygon","coordinates":[[[14.17906,46.28415],[13.88063,46.23012],[13.72736,46.30167],[13.84172,46.38218],[14.17906,46.28415]]]}},{"type":"Feature","properties":{"id":"si-005","lat":45.89151,"lng":14.38521},"geometry":{"type":"Polygon","coordinates":[[[14.39306,45.86041],[14.3375,45.92552],[14.34417,45.96112],[14.41476,45.92262],[14.39306,45.86041]]]}},{"type":"Feature","properties":{"id":"si-006","lat":46.34445,"lng":13.62775},"geometry":{"type":"Polygon","coordinates":[[[13.65878,46.44512],[13.84172,46.38218],[13.72736,46.30167],[13.39564,46.30673],[13.65878,46.44512]]]}},{"type":"Feature","properties":{"id":"si-007","lat":46.04084,"lng":13.53007},"geometry":{"type":"Polygon","coordinates":[[[13.46179,46.00639],[13.52258,46.0753],[13.62618,45.99662],[13.50944,45.96743],[13.46179,46.00639]]]}},{"type":"Feature","properties":{"id":"si-008","lat":45.92317,"lng":14.43244},"geometry":{"type":"Polygon","coordinates":[[[14.40732,46.03577],[14.49015,45.88087],[14.4422,45.86345],[14.36556,45.96546],[14.40732,46.03577]]]}},{"type":"Feature","properties":{"id":"si-009","lat":45.96784,"lng":15.64537},"geometry":{"type":"Polygon","coordinates":[[[15.69288,46.04164],[15.67608,45.8417],[15.54975,45.82369],[15.51526,45.89405],[15.69288,46.04164]]]}},{"type":"Feature","properties":{"id":"si-011","lat":46.22715,"lng":15.27731},"geometry":{"type":"Polygon","coordinates":[[[15.22613,46.31738],[15.35853,46.26054],[15.30995,46.19377],[15.21822,46.1931],[15.22613,46.31738]]]}},{"type":"Feature","properties":{"id":"si-012","lat":46.2726,"lng":14.51339},"geometry":{"type":"Polygon","coordinates":[[[14.46721,46.29165],[14.544,46.31198],[14.56855,46.25356],[14.46287,46.20615],[14.46721,46.29165]]]}},{"type":"Feature","properties":{"id":"si-013","lat":45.83542,"lng":14.37564},"geometry":{"type":"Polygon","coordinates":[[[14.30939,45.89123],[14.49822,45.87035],[14.4422,45.80049],[14.49248,45.75571],[14.41057,45.71008],[14.25833,45.79059],[14.30939,45.89123]]]}},{"type":"Feature","properties":{"id":"si-014","lat":46.11286,"lng":13.9763},"geometry":{"type":"Polygon","coordinates":[[[14.07369,46.15806],[14.02992,46.06613],[13.89495,46.06765],[13.90657,46.16354],[14.07369,46.15806]]]}},{"type":"Feature","properties":{"id":"si-015","lat":46.57559,"lng":16.28894},"geometry":{"type":"Polygon","coordinates":[[[16.30053,46.59734],[16.31066,46.53099],[16.24751,46.55385],[16.30053,46.59734]]]}},{"type":"Feature","properties":{"id":"si-016","lat":46.47463,"lng":14.82622},"geometry":{"type":"Polygon","coordinates":[[[14.67255,46.45979],[14.79666,46.5194],[14.96563,46.48946],[14.89173,46.42355],[14.75458,46.42146],[14.67255,46.45979]]]}},{"type":"Feature","properties":{"id":"si-017","lat":45.51725,"lng":15.21286},"geometry":{"type":"Polygon","coordinates":[[[15.28218,45.57149],[15.36137,45.48203],[15.32519,45.45283],[15.18422,45.4256],[15.06613,45.47393],[15.12128,45.51164],[15.06976,45.52285],[15.07363,45.60195],[15.28218,45.57149]]]}},{"type":"Feature","properties":{"id":"si-018","lat":46.46971,"lng":15.89228},"geometry":{"type":"Polygon","coordinates":[[[15.82341,46.49494],[15.92862,46.50409],[15.94722,46.48716],[15.89291,46.45226],[15.82341,46.49494]]]}},{"type":"Feature","properties":{"id":"si-019","lat":45.67847,"lng":14.01397},"geometry":{"type":"Polygon","coordinates":[[[14.03721,45.76101],[14.09338,45.71429],[14.05959,45.59959],[13.93835,45.64264],[13.9567,45.73997],[14.03721,45.76101]]]}},{"type":"Feature","properties":{"id":"si-020","lat":45.8257,"lng":14.73231},"geometry":{"type":"Polygon","coordinates":[[[14.75179,45.8833],[14.80455,45.79751],[14.79587,45.7431],[14.63697,45.85389],[14.75179,45.8833]]]}},{"type":"Feature","properties":{"id":"si-021","lat":46.05949,"lng":14.31815},"geometry":{"type":"Polygon","coordinates":[[[14.42887,46.02902],[14.342,46.01401],[14.18681,46.03791],[14.26733,46.10649],[14.4208,46.08106],[14.42887,46.02902]]]}},{"type":"Feature","properties":{"id":"si-022","lat":46.0984,"lng":14.67472},"geometry":{"type":"Polygon","coordinates":[[[14.75396,46.10018],[14.69221,46.07786],[14.59428,46.09662],[14.66642,46.11762],[14.75396,46.10018]]]}},{"type":"Feature","properties":{"id":"si-023","lat":46.1532,"lng":14.63857},"geometry":{"type":"Polygon","coordinates":[[[14.59428,46.09662],[14.5901,46.18912],[14.68306,46.19917],[14.68725,46.11729],[14.59428,46.09662]]]}},{"type":"Feature","properties":{"id":"si-024","lat":46.45561,"lng":15.99251},"geometry":{"type":"Polygon","coordinates":[[[16.02097,46.4907],[15.98309,46.41665],[15.94304,46.42053],[16.02097,46.4907]]]}},{"type":"Feature","properties":{"id":"si-025","lat":46.57178,"lng":15.05035},"geometry":{"type":"Polygon","coordinates":[[[15.06195,46.64956],[15.12578,46.60124],[15.06433,46.54233],[14.91951,46.61502],[15.06195,46.64956]]]}},{"type":"Feature","properties":{"id":"si-026","lat":46.4913,"lng":15.78641},"geometry":{"type":"Polygon","coordinates":[[[15.7815,46.46773],[15.75375,46.54698],[15.81767,46.51486],[15.7815,46.46773]]]}},{"type":"Feature","properties":{"id":"si-027","lat":46.12013,"lng":14.12233},"geometry":{"type":"Polygon","coordinates":[[[14.20433,46.18085],[14.18681,46.03791],[14.02186,46.0822],[14.07369,46.15806],[14.20433,46.18085]]]}},{"type":"Feature","properties":{"id":"si-028","lat":46.3399,"lng":16.01185},"geometry":{"type":"Polygon","coordinates":[[[16.07574,46.38446],[15.98913,46.29534],[15.99549,46.42882],[16.07574,46.38446]]]}},{"type":"Feature","properties":{"id":"si-029","lat":46.61979,"lng":15.98756},"geometry":{"type":"Polygon","coordinates":[[[15.9676,46.69456],[16.04174,46.66273],[16.01363,46.59369],[15.88811,46.64589],[15.9676,46.69456]]]}},{"type":"Feature","properties":{"id":"si-030","lat":46.28539,"lng":14.79683},"geometry":{"type":"Polygon","coordinates":[[[14.79758,46.34337],[14.877,46.301],[14.85483,46.25286],[14.70399,46.26979],[14.79758,46.34337]]]}},{"type":"Feature","properties":{"id":"si-031","lat":46.80391,"lng":16.21087},"geometry":{"type":"Polygon","coordinates":[[[16.13538,46.85585],[16.24452,46.82779],[16.25775,46.78004],[16.21057,46.745],[16.13538,46.85585]]]}},{"type":"Feature","properties":{"id":"si-032","lat":45.94838,"lng":14.67218},"geometry":{"type":"Polygon","coordinates":[[[14.74016,45.99815],[14.75179,45.8833],[14.60095,45.90888],[14.59738,45.98789],[14.74016,45.99815]]]}},{"type":"Feature","properties":{"id":"si-033","lat":46.82799,"lng":16.25345},"geometry":{"type":"Polygon","coordinates":[[[16.3111,46.79752],[16.25775,46.78004],[16.17949,46.85847],[16.28224,46.85993],[16.3111,46.79752]]]}},{"type":"Feature","properties":{"id":"si-034","lat":46.12636,"lng":15.12744},"geometry":{"type":"Polygon","coordinates":[[[15.12841,46.08597],[15.06505,46.13651],[15.11332,46.18338],[15.18846,46.1162],[15.12841,46.08597]]]}},{"type":"Feature","properties":{"id":"si-035","lat":45.53758,"lng":14.04838},"geometry":{"type":"Polygon","coordinates":[[[13.86793,45.60217],[13.9089,45.64378],[14.08982,45.61409],[14.11675,45.473],[13.86793,45.60217]]]}},{"type":"Feature","properties":{"id":"si-036","lat":45.9404,"lng":14.05805},"geometry":{"type":"Polygon","coordinates":[[[14.1387,46.00577],[14.12087,45.87875],[13.85226,46.00205],[13.86358,46.06316],[13.96011,46.08732],[14.1387,46.00577]]]}},{"type":"Feature","properties":{"id":"si-037","lat":45.93919,"lng":14.50772},"geometry":{"type":"Polygon","coordinates":[[[14.44514,45.97409],[14.55408,45.97239],[14.5701,45.86756],[14.4669,45.90598],[14.44514,45.97409]]]}},{"type":"Feature","properties":{"id":"si-038","lat":45.54858,"lng":14.27192},"geometry":{"type":"Polygon","coordinates":[[[14.4915,45.57917],[14.3728,45.47785],[14.11675,45.473],[14.08718,45.518],[14.09059,45.62424],[14.33264,45.67189],[14.4915,45.57917]]]}},{"type":"Feature","properties":{"id":"si-039","lat":45.90017,"lng":14.82433},"geometry":{"type":"Polygon","coordinates":[[[14.74016,45.99815],[14.92729,45.96298],[14.84894,45.79968],[14.75877,45.83736],[14.74016,45.99815]]]}},{"type":"Feature","properties":{"id":"si-040","lat":45.50443,"lng":13.64773},"geometry":{"type":"Polygon","coordinates":[[[13.61093,45.53802],[13.67514,45.54474],[13.67429,45.52068],[13.64664,45.48818],[13.61093,45.53802]]]}},{"type":"Feature","properties":{"id":"si-041","lat":46.422,"lng":14.08878},"geometry":{"type":"Polygon","coordinates":[[[13.99236,46.44481],[14.08103,46.47595],[14.14793,46.44042],[14.1016,46.40358],[13.99236,46.44481]]]}},{"type":"Feature","properties":{"id":"si-042","lat":46.4788,"lng":15.98933},"geometry":{"type":"Polygon","coordinates":[[[15.9772,46.44631],[15.98324,46.51925],[16.02034,46.5113],[15.9772,46.44631]]]}},{"type":"Feature","properties":{"id":"si-043","lat":46.3117,"lng":14.61524},"geometry":{"type":"Polygon","coordinates":[[[14.5901,46.18912],[14.53594,46.36032],[14.63991,46.36637],[14.71407,46.26307],[14.93008,46.21878],[14.5901,46.18912]]]}},{"type":"Feature","properties":{"id":"si-044","lat":46.08845,"lng":13.64656},"geometry":{"type":"Polygon","coordinates":[[[13.52258,46.0753],[13.66654,46.17517],[13.76891,46.1016],[13.63656,46.00112],[13.52258,46.0753]]]}},{"type":"Feature","properties":{"id":"si-045","lat":46.41479,"lng":15.77945},"geometry":{"type":"Polygon","coordinates":[[[15.68078,46.36769],[15.78227,46.43479],[15.83147,46.39479],[15.80248,46.35495],[15.68078,46.36769]]]}},{"type":"Feature","properties":{"id":"si-046","lat":46.24705,"lng":13.55007},"geometry":{"type":"Polygon","coordinates":[[[13.41012,46.20798],[13.39564,46.30673],[13.73666,46.28612],[13.62737,46.18173],[13.41012,46.20798]]]}},{"type":"Feature","properties":{"id":"si-047","lat":46.68105,"lng":16.39564},"geometry":{"type":"Polygon","coordinates":[[[16.36389,46.67485],[16.40502,46.68726],[16.4105,46.66837],[16.36389,46.67485]]]}},{"type":"Feature","properties":{"id":"si-048","lat":45.58938,"lng":14.90622},"geometry":{"type":"Polygon","coordinates":[[[15.06613,45.47393],[14.93783,45.52632],[14.81711,45.50125],[14.71097,45.62812],[14.77784,45.64869],[14.8137,45.75767],[14.98206,45.7663],[14.97664,45.70289],[15.10061,45.55063],[15.06976,45.52285],[15.12076,45.5165],[15.06613,45.47393]]]}},{"type":"Feature","properties":{"id":"si-049","lat":45.83762,"lng":13.72928},"geometry":{"type":"Polygon","coordinates":[[[13.58851,45.80648],[13.70917,45.865],[13.90254,45.81023],[13.69991,45.77052],[13.58851,45.80648]]]}},{"type":"Feature","properties":{"id":"si-05","lat":46.14822,"lng":14.93282},"geometry":{"type":"Polygon","coordinates":[[[14.91132,46.09287],[14.8168,46.17052],[14.99989,46.19899],[15.03126,46.12592],[14.91132,46.09287]]]}},{"type":"Feature","properties":{"id":"si-050","lat":45.51003,"lng":13.81009},"geometry":{"type":"Polygon","coordinates":[[[13.71176,45.59321],[13.86793,45.60217],[13.98264,45.47531],[13.889,45.42364],[13.65997,45.45998],[13.67514,45.54474],[13.75294,45.55288],[13.71176,45.59321]]]}},{"type":"Feature","properties":{"id":"si-051","lat":46.06786,"lng":15.57508},"geometry":{"type":"Polygon","coordinates":[[[15.49924,46.10933],[15.55898,46.12197],[15.66776,46.02639],[15.58368,45.99399],[15.49924,46.10933]]]}},{"type":"Feature","properties":{"id":"si-052","lat":46.26803,"lng":14.36967},"geometry":{"type":"Polygon","coordinates":[[[14.41724,46.28891],[14.39383,46.16034],[14.16651,46.28131],[14.32505,46.25475],[14.33032,46.33681],[14.40546,46.35164],[14.3668,46.30374],[14.41724,46.28891]]]}},{"type":"Feature","properties":{"id":"si-053","lat":46.42264,"lng":13.84154},"geometry":{"type":"Polygon","coordinates":[[[13.68585,46.46405],[13.70095,46.51975],[14.01492,46.48253],[13.84792,46.38123],[13.68585,46.46405]]]}},{"type":"Feature","properties":{"id":"si-054","lat":45.95496,"lng":15.4764},"geometry":{"type":"Polygon","coordinates":[[[15.52353,45.82682],[15.42976,45.77569],[15.35062,45.89169],[15.41842,46.06331],[15.60368,46.01823],[15.52353,45.82682]]]}},{"type":"Feature","properties":{"id":"si-055","lat":46.62564,"lng":15.62203},"geometry":{"type":"Polygon","coordinates":[[[15.52031,46.64772],[15.62175,46.67818],[15.66435,46.60356],[15.52031,46.64772]]]}},{"type":"Feature","properties":{"id":"si-056","lat":46.82453,"lng":16.07287},"geometry":{"type":"Polygon","coordinates":[[[16.05294,46.84606],[16.1252,46.83301],[16.056,46.81606],[16.05294,46.84606]]]}},{"type":"Feature","properties":{"id":"si-057","lat":46.12672,"lng":15.26008},"geometry":{"type":"Polygon","coordinates":[[[15.36333,46.18132],[15.36845,46.07212],[15.20195,46.06076],[15.11332,46.18338],[15.36333,46.18132]]]}},{"type":"Feature","properties":{"id":"si-058","lat":46.56563,"lng":15.83975},"geometry":{"type":"Polygon","coordinates":[[[15.7784,46.64816],[15.89818,46.58429],[15.9559,46.58822],[15.81627,46.49732],[15.75375,46.54698],[15.7784,46.64816]]]}},{"type":"Feature","properties":{"id":"si-059","lat":46.56346,"lng":16.41886},"geometry":{"type":"Polygon","coordinates":[[[16.37225,46.63634],[16.50083,46.54481],[16.5153,46.50171],[16.32865,46.54874],[16.39753,46.57819],[16.37225,46.63634]]]}},{"type":"Feature","properties":{"id":"si-060","lat":46.03028,"lng":15.00654},"geometry":{"type":"Polygon","coordinates":[[[14.83479,46.13698],[14.91132,46.09287],[14.99989,46.1191],[15.00237,46.05636],[15.07146,46.06471],[15.11611,46.0042],[14.99989,45.96443],[14.86567,46.07004],[14.71236,46.07931],[14.83479,46.13698]]]}},{"type":"Feature","properties":{"id":"si-061","lat":46.03816,"lng":14.58005},"geometry":{"type":"Polygon","coordinates":[[[14.74962,46.00296],[14.44514,45.97409],[14.40856,46.08287],[14.51393,46.14556],[14.72337,46.07336],[14.74962,46.00296]]]}},{"type":"Feature","properties":{"id":"si-062","lat":46.38103,"lng":14.8371},"geometry":{"type":"Polygon","coordinates":[[[14.89173,46.42355],[14.86693,46.31555],[14.78078,46.33852],[14.80409,46.42513],[14.89173,46.42355]]]}},{"type":"Feature","properties":{"id":"si-063","lat":46.52937,"lng":16.23758},"geometry":{"type":"Polygon","coordinates":[[[16.31066,46.53099],[16.2039,46.47293],[16.02034,46.5113],[16.16602,46.52775],[16.21677,46.58413],[16.31066,46.53099]]]}},{"type":"Feature","properties":{"id":"si-064","lat":45.97205,"lng":14.19048},"geometry":{"type":"Polygon","coordinates":[[[14.18681,46.03791],[14.29916,45.88573],[14.27647,45.84612],[14.10423,45.90619],[14.18681,46.03791]]]}},{"type":"Feature","properties":{"id":"si-065","lat":45.62249,"lng":14.46279},"geometry":{"type":"Polygon","coordinates":[[[14.5691,45.66425],[14.43894,45.58073],[14.38618,45.7075],[14.53749,45.73442],[14.5691,45.66425]]]}},{"type":"Feature","properties":{"id":"si-066","lat":45.63545,"lng":14.64806},"geometry":{"type":"Polygon","coordinates":[[[14.66367,45.57019],[14.60307,45.60357],[14.53749,45.73442],[14.73117,45.66732],[14.66367,45.57019]]]}},{"type":"Feature","properties":{"id":"si-067","lat":46.35244,"lng":14.71592},"geometry":{"type":"Polygon","coordinates":[[[14.80409,46.42513],[14.78078,46.33852],[14.68012,46.29061],[14.63991,46.36637],[14.80409,46.42513]]]}},{"type":"Feature","properties":{"id":"si-068","lat":46.17778,"lng":14.75046},"geometry":{"type":"Polygon","coordinates":[[[14.65045,46.16457],[14.89892,46.20868],[14.90171,46.19098],[14.65045,46.16457]]]}},{"type":"Feature","properties":{"id":"si-069","lat":46.3054,"lng":15.74094},"geometry":{"type":"Polygon","coordinates":[[[15.75793,46.26203],[15.68486,46.27408],[15.72145,46.33673],[15.68078,46.36769],[15.80248,46.35495],[15.75793,46.26203]]]}},{"type":"Feature","properties":{"id":"si-070","lat":46.5949,"lng":15.60463},"geometry":{"type":"Polygon","coordinates":[[[15.51394,46.63255],[15.59081,46.63038],[15.76925,46.55941],[15.73168,46.50476],[15.56378,46.50988],[15.51394,46.63255]]]}},{"type":"Feature","properties":{"id":"si-071","lat":46.12089,"lng":14.40172},"geometry":{"type":"Polygon","coordinates":[[[14.32505,46.09832],[14.45868,46.19325],[14.46923,46.14346],[14.40856,46.08287],[14.32505,46.09832]]]}},{"type":"Feature","properties":{"id":"si-072","lat":46.16093,"lng":14.55832},"geometry":{"type":"Polygon","coordinates":[[[14.51393,46.14556],[14.5378,46.17418],[14.5901,46.18912],[14.58979,46.14767],[14.51393,46.14556]]]}},{"type":"Feature","properties":{"id":"si-073","lat":45.64181,"lng":15.3262},"geometry":{"type":"Polygon","coordinates":[[[15.24991,45.71373],[15.37377,45.64021],[15.28218,45.57149],[15.22365,45.59996],[15.28354,45.64342],[15.24991,45.71373]]]}},{"type":"Feature","properties":{"id":"si-074","lat":46.53643,"lng":14.85044},"geometry":{"type":"Polygon","coordinates":[[[14.79666,46.5194],[14.85313,46.55346],[14.90264,46.51657],[14.88615,46.49649],[14.79666,46.5194]]]}},{"type":"Feature","properties":{"id":"si-075","lat":45.88867,"lng":13.62358},"geometry":{"type":"Polygon","coordinates":[[[13.57417,45.81903],[13.59931,45.91233],[13.70917,45.865],[13.6701,45.8226],[13.57417,45.81903]]]}},{"type":"Feature","properties":{"id":"si-076","lat":46.48108,"lng":15.21591},"geometry":{"type":"Polygon","coordinates":[[[15.19575,46.51091],[15.32483,46.45125],[15.23249,46.39252],[15.1236,46.422],[15.19575,46.51091]]]}},{"type":"Feature","properties":{"id":"si-077","lat":46.11801,"lng":14.74542},"geometry":{"type":"Polygon","coordinates":[[[14.83479,46.13698],[14.73474,46.09905],[14.67454,46.13889],[14.7721,46.16837],[14.83479,46.13698]]]}},{"type":"Feature","properties":{"id":"si-078","lat":46.7017,"lng":16.26385},"geometry":{"type":"Polygon","coordinates":[[[16.29949,46.77951],[16.35624,46.6847],[16.31438,46.64514],[16.19212,46.67206],[16.17563,46.7187],[16.29949,46.77951]]]}},{"type":"Feature","properties":{"id":"si-079","lat":46.35181,"lng":14.9359},"geometry":{"type":"Polygon","coordinates":[[[14.86693,46.31555],[14.90217,46.39391],[15.00191,46.38807],[14.97059,46.30294],[14.86693,46.31555]]]}},{"type":"Feature","properties":{"id":"si-080","lat":46.67198,"lng":16.16185},"geometry":{"type":"Polygon","coordinates":[[[16.1083,46.69038],[16.17873,46.69756],[16.2408,46.65359],[16.11031,46.62387],[16.1083,46.69038]]]}},{"type":"Feature","properties":{"id":"si-081","lat":46.63041,"lng":15.14537},"geometry":{"type":"Polygon","coordinates":[[[15.10559,46.64632],[15.17256,46.64136],[15.1835,46.61945],[15.12578,46.60124],[15.10559,46.64632]]]}},{"type":"Feature","properties":{"id":"si-082","lat":46.29813,"lng":14.29943},"geometry":{"type":"Polygon","coordinates":[[[14.32629,46.32136],[14.33001,46.2565],[14.27461,46.2749],[14.26717,46.32614],[14.32629,46.32136]]]}},{"type":"Feature","properties":{"id":"si-083","lat":46.26219,"lng":14.90484},"geometry":{"type":"Polygon","coordinates":[[[14.88491,46.24054],[14.877,46.301],[14.9664,46.31872],[14.97028,46.28384],[14.88491,46.24054]]]}},{"type":"Feature","properties":{"id":"si-084","lat":45.97645,"lng":13.71793},"geometry":{"type":"Polygon","coordinates":[[[13.61533,45.94591],[13.60396,46.01293],[13.78074,46.10897],[13.8659,46.00699],[13.73278,45.90586],[13.83397,45.8355],[13.62928,45.87901],[13.68731,45.92221],[13.61533,45.94591]]]}},{"type":"Feature","properties":{"id":"si-085","lat":45.81148,"lng":15.19399},"geometry":{"type":"Polygon","coordinates":[[[15.33103,45.75249],[15.12624,45.68191],[15.05808,45.78108],[15.23858,45.92435],[15.30607,45.88123],[15.2713,45.84188],[15.33103,45.75249]]]}},{"type":"Feature","properties":{"id":"si-086","lat":46.57625,"lng":16.27026},"geometry":{"type":"Polygon","coordinates":[[[16.25945,46.58336],[16.29981,46.58946],[16.26596,46.56915],[16.25945,46.58336]]]}},{"type":"Feature","properties":{"id":"si-087","lat":46.43055,"lng":16.1585},"geometry":{"type":"Polygon","coordinates":[[[16.23419,46.48489],[16.28028,46.37621],[16.09435,46.37226],[16.01409,46.50755],[16.23419,46.48489]]]}},{"type":"Feature","properties":{"id":"si-089","lat":46.61842,"lng":15.69327},"geometry":{"type":"Polygon","coordinates":[[[15.74475,46.56853],[15.64714,46.59408],[15.64574,46.64276],[15.73525,46.67043],[15.74475,46.56853]]]}},{"type":"Feature","properties":{"id":"si-090","lat":45.51852,"lng":13.60363},"geometry":{"type":"Polygon","coordinates":[[[13.69149,45.49779],[13.58953,45.48884],[13.56861,45.53925],[13.69149,45.49779]]]}},{"type":"Feature","properties":{"id":"si-091","lat":45.67916,"lng":14.24062},"geometry":{"type":"Polygon","coordinates":[[[14.32319,45.75411],[14.42623,45.64404],[14.0799,45.62791],[14.09338,45.71429],[14.32319,45.75411]]]}},{"type":"Feature","properties":{"id":"si-092","lat":46.04952,"lng":15.65537},"geometry":{"type":"Polygon","coordinates":[[[15.6236,46.07641],[15.67173,46.0574],[15.69288,46.04164],[15.63117,46.03419],[15.6236,46.07641]]]}},{"type":"Feature","properties":{"id":"si-093","lat":46.57864,"lng":15.32301},"geometry":{"type":"Polygon","coordinates":[[[15.38814,46.64558],[15.44338,46.5847],[15.37139,46.58734],[15.32282,46.51065],[15.27036,46.57258],[15.38814,46.64558]]]}},{"type":"Feature","properties":{"id":"si-094","lat":45.7758,"lng":14.16178},"geometry":{"type":"Polygon","coordinates":[[[14.27647,45.84612],[14.25833,45.79059],[14.32319,45.75411],[14.25647,45.72674],[14.1339,45.70362],[14.03721,45.76101],[14.04605,45.83694],[14.12599,45.8688],[14.27647,45.84612]]]}},{"type":"Feature","properties":{"id":"si-095","lat":46.32821,"lng":14.43941},"geometry":{"type":"Polygon","coordinates":[[[14.54555,46.35267],[14.37983,46.28927],[14.3668,46.30374],[14.44468,46.36637],[14.54555,46.35267]]]}},{"type":"Feature","properties":{"id":"si-096","lat":46.44098,"lng":15.87653},"geometry":{"type":"Polygon","coordinates":[[[15.7815,46.46773],[15.94428,46.48052],[15.94288,46.41422],[15.8695,46.38402],[15.7815,46.46773]]]}},{"type":"Feature","properties":{"id":"si-097","lat":46.78722,"lng":16.13896},"geometry":{"type":"Polygon","coordinates":[[[16.05337,46.71981],[16.13641,46.82944],[16.21057,46.745],[16.1083,46.69038],[16.05337,46.71981]]]}},{"type":"Feature","properties":{"id":"si-098","lat":46.45577,"lng":15.61903},"geometry":{"type":"Polygon","coordinates":[[[15.5458,46.48321],[15.73447,46.42833],[15.6875,46.40861],[15.5458,46.48321]]]}},{"type":"Feature","properties":{"id":"si-099","lat":46.06639,"lng":15.14882},"geometry":{"type":"Polygon","coordinates":[[[15.0941,46.04029],[15.10634,46.09352],[15.16345,46.09248],[15.24029,46.03368],[15.0941,46.04029]]]}},{"type":"Feature","properties":{"id":"si-100","lat":46.6433,"lng":16.05493},"geometry":{"type":"Polygon","coordinates":[[[16.01363,46.59369],[16.04174,46.66273],[16.11031,46.62387],[16.07228,46.58806],[16.01363,46.59369]]]}},{"type":"Feature","properties":{"id":"si-101","lat":46.58408,"lng":15.23273},"geometry":{"type":"Polygon","coordinates":[[[15.19931,46.5292],[15.20489,46.63896],[15.33278,46.64358],[15.19931,46.5292]]]}},{"type":"Feature","properties":{"id":"si-102","lat":46.36598,"lng":14.21359},"geometry":{"type":"Polygon","coordinates":[[[14.27461,46.2749],[14.11111,46.30671],[14.23818,46.42525],[14.27461,46.2749]]]}},{"type":"Feature","properties":{"id":"si-103","lat":46.53376,"lng":14.96719},"geometry":{"type":"Polygon","coordinates":[[[14.89406,46.60522],[15.00749,46.56894],[14.99198,46.49869],[14.92403,46.50478],[14.94527,46.56274],[14.89406,46.60522]]]}},{"type":"Feature","properties":{"id":"si-104","lat":45.74775,"lng":14.72913},"geometry":{"type":"Polygon","coordinates":[[[14.587,45.79343],[14.68771,45.81798],[14.82238,45.72785],[14.75474,45.63954],[14.64627,45.7075],[14.67516,45.76765],[14.587,45.79343]]]}},{"type":"Feature","properties":{"id":"si-105","lat":46.81056,"lng":16.03296},"geometry":{"type":"Polygon","coordinates":[[[15.97099,46.77505],[16.05294,46.84606],[16.05554,46.75596],[15.97099,46.77505]]]}},{"type":"Feature","properties":{"id":"si-106","lat":46.23064,"lng":15.64154},"geometry":{"type":"Polygon","coordinates":[[[15.74134,46.26606],[15.62657,46.19521],[15.5658,46.27366],[15.74134,46.26606]]]}},{"type":"Feature","properties":{"id":"si-107","lat":46.23153,"lng":15.73801},"geometry":{"type":"Polygon","coordinates":[[[15.79953,46.24861],[15.74977,46.21077],[15.67797,46.21446],[15.74134,46.26606],[15.79953,46.24861]]]}},{"type":"Feature","properties":{"id":"si-108","lat":46.52372,"lng":15.49445},"geometry":{"type":"Polygon","coordinates":[[[15.56037,46.56212],[15.53945,46.49742],[15.40819,46.47771],[15.45966,46.55003],[15.56037,46.56212]]]}},{"type":"Feature","properties":{"id":"si-109","lat":45.66282,"lng":15.16375},"geometry":{"type":"Polygon","coordinates":[[[15.07286,45.68223],[15.23641,45.70253],[15.28354,45.64342],[15.10541,45.5945],[15.03762,45.63132],[15.07286,45.68223]]]}},{"type":"Feature","properties":{"id":"si-110","lat":45.97088,"lng":15.28576},"geometry":{"type":"Polygon","coordinates":[[[15.36845,46.07212],[15.42989,46.00699],[15.36302,45.93477],[15.23858,45.92435],[15.09332,46.03073],[15.24029,46.03368],[15.2035,46.0837],[15.36845,46.07212]]]}},{"type":"Feature","properties":{"id":"si-111","lat":45.68858,"lng":13.88261},"geometry":{"type":"Polygon","coordinates":[[[13.89364,45.63376],[13.77872,45.74341],[13.70576,45.77974],[13.90254,45.81023],[13.98352,45.77294],[13.89364,45.63376]]]}},{"type":"Feature","properties":{"id":"si-112","lat":46.50019,"lng":15.08551},"geometry":{"type":"Polygon","coordinates":[[[14.96563,46.48946],[15.1034,46.57003],[15.19575,46.51091],[15.1236,46.422],[14.96563,46.48946]]]}},{"type":"Feature","properties":{"id":"si-113","lat":46.34469,"lng":15.61011},"geometry":{"type":"Polygon","coordinates":[[[15.55247,46.27774],[15.49474,46.39252],[15.33506,46.4774],[15.53945,46.49742],[15.6875,46.40861],[15.71184,46.29686],[15.55247,46.27774]]]}},{"type":"Feature","properties":{"id":"si-114","lat":46.33065,"lng":15.46664},"geometry":{"type":"Polygon","coordinates":[[[15.37651,46.31133],[15.42524,46.37125],[15.53231,46.34996],[15.55789,46.29345],[15.37651,46.31133]]]}},{"type":"Feature","properties":{"id":"si-115","lat":46.47901,"lng":15.75468},"geometry":{"type":"Polygon","coordinates":[[[15.73308,46.50323],[15.8186,46.45479],[15.80046,46.43158],[15.73447,46.42833],[15.73308,46.50323]]]}},{"type":"Feature","properties":{"id":"si-116","lat":46.54047,"lng":16.02962},"geometry":{"type":"Polygon","coordinates":[[[15.97828,46.58597],[16.05585,46.60579],[16.09032,46.56964],[16.02034,46.5113],[15.97828,46.58597]]]}},{"type":"Feature","properties":{"id":"si-117","lat":46.25667,"lng":14.44493},"geometry":{"type":"Polygon","coordinates":[[[14.38417,46.2217],[14.46721,46.29165],[14.45868,46.19325],[14.38417,46.2217]]]}},{"type":"Feature","properties":{"id":"si-118","lat":46.68324,"lng":15.71493},"geometry":{"type":"Polygon","coordinates":[[[15.63598,46.71756],[15.80434,46.69976],[15.80015,46.64687],[15.62244,46.66671],[15.63598,46.71756]]]}},{"type":"Feature","properties":{"id":"si-119","lat":45.80879,"lng":15.35476},"geometry":{"type":"Polygon","coordinates":[[[15.42976,45.77569],[15.33103,45.75249],[15.2713,45.84188],[15.38814,45.87658],[15.42976,45.77569]]]}},{"type":"Feature","properties":{"id":"si-120","lat":46.2037,"lng":15.42214},"geometry":{"type":"Polygon","coordinates":[[[15.36333,46.18132],[15.37651,46.31133],[15.52999,46.27663],[15.44787,46.22609],[15.54549,46.15517],[15.49257,46.06768],[15.36845,46.07212],[15.44028,46.12855],[15.36333,46.18132]]]}},{"type":"Feature","properties":{"id":"si-121","lat":45.90793,"lng":15.30799},"geometry":{"type":"Polygon","coordinates":[[[15.30375,45.86446],[15.23812,45.93213],[15.34251,45.95141],[15.36101,45.88374],[15.30375,45.86446]]]}},{"type":"Feature","properties":{"id":"si-122","lat":46.16558,"lng":14.30585},"geometry":{"type":"Polygon","coordinates":[[[14.24857,46.24297],[14.36541,46.19558],[14.39383,46.16034],[14.21115,46.08814],[14.22283,46.17083],[14.16196,46.17938],[14.24857,46.24297]]]}},{"type":"Feature","properties":{"id":"si-123","lat":45.95071,"lng":14.57127},"geometry":{"type":"Polygon","coordinates":[[[14.61619,45.99668],[14.56452,45.90474],[14.53547,46.01306],[14.61619,45.99668]]]}},{"type":"Feature","properties":{"id":"si-124","lat":46.21518,"lng":15.53137},"geometry":{"type":"Polygon","coordinates":[[[15.50513,46.15698],[15.44787,46.22609],[15.5658,46.27366],[15.61329,46.20426],[15.50513,46.15698]]]}},{"type":"Feature","properties":{"id":"si-125","lat":46.34445,"lng":15.03549},"geometry":{"type":"Polygon","coordinates":[[[14.99989,46.37722],[15.0666,46.35169],[15.05126,46.30725],[15.00842,46.3372],[14.99989,46.37722]]]}},{"type":"Feature","properties":{"id":"si-126","lat":46.41019,"lng":14.99995},"geometry":{"type":"Polygon","coordinates":[[[14.95633,46.45985],[15.08929,46.42647],[15.0666,46.35169],[14.90217,46.39391],[14.95633,46.45985]]]}},{"type":"Feature","properties":{"id":"si-127","lat":46.19979,"lng":15.31871},"geometry":{"type":"Polygon","coordinates":[[[15.30824,46.21826],[15.36333,46.18132],[15.29005,46.16744],[15.30824,46.21826]]]}},{"type":"Feature","properties":{"id":"si-128","lat":46.12893,"lng":13.82509},"geometry":{"type":"Polygon","coordinates":[[[13.79996,46.10365],[13.62401,46.21894],[13.72658,46.28591],[14.00512,46.22656],[13.89355,46.15421],[13.8659,46.00699],[13.79996,46.10365]]]}},{"type":"Feature","properties":{"id":"si-129","lat":46.11501,"lng":15.04353},"geometry":{"type":"Polygon","coordinates":[[[15.10634,46.09352],[15.00237,46.05636],[14.99989,46.19899],[15.111,46.18731],[15.06505,46.13651],[15.10634,46.09352]]]}},{"type":"Feature","properties":{"id":"si-130","lat":45.90585,"lng":15.03804},"geometry":{"type":"Polygon","coordinates":[[[15.23858,45.92435],[15.02568,45.83798],[14.86879,45.88735],[14.92729,45.96298],[15.0972,46.00691],[15.23858,45.92435]]]}},{"type":"Feature","properties":{"id":"si-131","lat":46.38526,"lng":14.34478},"geometry":{"type":"Polygon","coordinates":[[[14.24232,46.43824],[14.39584,46.44099],[14.43714,46.41888],[14.40546,46.35164],[14.30071,46.31898],[14.24232,46.43824]]]}},{"type":"Feature","properties":{"id":"si-132","lat":46.61253,"lng":16.31463},"geometry":{"type":"Polygon","coordinates":[[[16.31438,46.64514],[16.32849,46.58382],[16.28627,46.64124],[16.31438,46.64514]]]}},{"type":"Feature","properties":{"id":"si-133","lat":46.3804,"lng":15.12923},"geometry":{"type":"Polygon","coordinates":[[[15.09224,46.43417],[15.17554,46.40911],[15.19652,46.32766],[15.0666,46.35169],[15.09224,46.43417]]]}},{"type":"Feature","properties":{"id":"si-134","lat":45.84942,"lng":14.58675},"geometry":{"type":"Polygon","coordinates":[[[14.56421,45.79007],[14.49015,45.88087],[14.60095,45.90888],[14.68771,45.81798],[14.56421,45.79007]]]}},{"type":"Feature","properties":{"id":"si-135","lat":46.32331,"lng":15.94196},"geometry":{"type":"Polygon","coordinates":[[[15.99367,46.29061],[15.9189,46.27283],[15.91048,46.33813],[15.82511,46.30849],[15.80248,46.35495],[15.92846,46.38688],[15.99367,46.29061]]]}},{"type":"Feature","properties":{"id":"si-136","lat":45.79483,"lng":14.00135},"geometry":{"type":"Polygon","coordinates":[[[14.04605,45.83694],[14.03721,45.76101],[13.8859,45.82865],[13.97344,45.8772],[14.04605,45.83694]]]}},{"type":"Feature","properties":{"id":"si-137","lat":46.42188,"lng":15.30283},"geometry":{"type":"Polygon","coordinates":[[[15.33119,46.36521],[15.26773,46.36503],[15.23249,46.39252],[15.32483,46.45125],[15.33119,46.36521]]]}},{"type":"Feature","properties":{"id":"si-138","lat":46.19016,"lng":14.48241},"geometry":{"type":"Polygon","coordinates":[[[14.46923,46.14346],[14.46287,46.20615],[14.5378,46.17418],[14.51393,46.14556],[14.46923,46.14346]]]}},{"type":"Feature","properties":{"id":"si-139","lat":46.29053,"lng":15.33102},"geometry":{"type":"Polygon","coordinates":[[[15.26773,46.36503],[15.36876,46.33397],[15.35853,46.26054],[15.24014,46.32053],[15.26773,46.36503]]]}},{"type":"Feature","properties":{"id":"si-140","lat":45.94789,"lng":14.28039},"geometry":{"type":"Polygon","coordinates":[[[14.19038,46.02468],[14.39677,46.02412],[14.33373,45.94329],[14.37626,45.87149],[14.21425,45.95249],[14.19038,46.02468]]]}},{"type":"Feature","properties":{"id":"si-141","lat":46.54362,"lng":15.17099},"geometry":{"type":"Polygon","coordinates":[[[15.1034,46.57003],[15.21156,46.60165],[15.18877,46.51721],[15.1034,46.57003]]]}},{"type":"Feature","properties":{"id":"si-143","lat":46.34713,"lng":16.04969},"geometry":{"type":"Polygon","coordinates":[[[16.05523,46.38807],[16.05796,46.37753],[16.04992,46.31674],[16.04065,46.3796],[16.05523,46.38807]]]}},{"type":"Feature","properties":{"id":"si-144","lat":46.41112,"lng":15.38614},"geometry":{"type":"Polygon","coordinates":[[[15.33119,46.36521],[15.35837,46.39763],[15.31569,46.48218],[15.42276,46.42461],[15.41222,46.35484],[15.33119,46.36521]]]}},{"type":"Feature","properties":{"id":"si-146","lat":46.22682,"lng":14.1214},"geometry":{"type":"Polygon","coordinates":[[[14.16651,46.28131],[14.24857,46.24297],[14.23043,46.21067],[13.98848,46.18067],[14.00962,46.24645],[14.16651,46.28131]]]}},{"type":"Feature","properties":{"id":"si-147","lat":46.05383,"lng":14.12012},"geometry":{"type":"Polygon","coordinates":[[[14.05023,46.08509],[14.14056,46.06975],[14.18681,46.03791],[14.11121,46.01264],[14.05023,46.08509]]]}},{"type":"Feature","properties":{"id":"si-148","lat":46.62461,"lng":15.89833},"geometry":{"type":"Polygon","coordinates":[[[15.90237,46.58346],[15.86284,46.61095],[15.88811,46.64589],[15.9311,46.63826],[15.90237,46.58346]]]}},{"type":"Feature","properties":{"id":"si-149","lat":46.13452,"lng":15.56641},"geometry":{"type":"Polygon","coordinates":[[[15.62657,46.19521],[15.58998,46.13868],[15.60755,46.06587],[15.53603,46.13036],[15.62657,46.19521]]]}},{"type":"Feature","properties":{"id":"si-150","lat":45.7627,"lng":14.54282},"geometry":{"type":"Polygon","coordinates":[[[14.50509,45.84077],[14.56421,45.79007],[14.57614,45.73532],[14.4422,45.79576],[14.50509,45.84077]]]}},{"type":"Feature","properties":{"id":"si-151","lat":46.31052,"lng":15.01341},"geometry":{"type":"Polygon","coordinates":[[[15.09503,46.25767],[14.97028,46.28384],[15.00842,46.3372],[15.09503,46.25767]]]}},{"type":"Feature","properties":{"id":"si-152","lat":46.70685,"lng":16.03937},"geometry":{"type":"Polygon","coordinates":[[[16.01672,46.67069],[15.97053,46.74301],[15.97099,46.77505],[16.05554,46.75596],[16.12303,46.64387],[16.01672,46.67069]]]}},{"type":"Feature","properties":{"id":"si-153","lat":46.56013,"lng":15.97017},"geometry":{"type":"Polygon","coordinates":[[[15.98665,46.54667],[15.92645,46.57359],[15.97828,46.58597],[15.98665,46.54667]]]}},{"type":"Feature","properties":{"id":"si-154","lat":46.14036,"lng":15.4098},"geometry":{"type":"Polygon","coordinates":[[[15.38271,46.10819],[15.40333,46.15217],[15.44028,46.12855],[15.43563,46.11812],[15.38271,46.10819]]]}},{"type":"Feature","properties":{"id":"si-155","lat":46.3412,"lng":15.23053},"geometry":{"type":"Polygon","coordinates":[[[15.26773,46.36503],[15.22613,46.31738],[15.19032,46.38844],[15.23249,46.39252],[15.26773,46.36503]]]}},{"type":"Feature","properties":{"id":"si-156","lat":46.65412,"lng":16.35605},"geometry":{"type":"Polygon","coordinates":[[[16.40261,46.66311],[16.34787,46.61535],[16.31438,46.64514],[16.34074,46.68888],[16.40261,46.66311]]]}},{"type":"Feature","properties":{"id":"si-157","lat":45.66907,"lng":15.04379},"geometry":{"type":"Polygon","coordinates":[[[14.99648,45.77974],[15.12407,45.70682],[15.03762,45.63132],[14.97199,45.71158],[14.99648,45.77974]]]}},{"type":"Feature","properties":{"id":"si-158","lat":46.79307,"lng":16.08809},"geometry":{"type":"Polygon","coordinates":[[[16.13641,46.82944],[16.11202,46.76738],[16.05213,46.77009],[16.056,46.81606],[16.13641,46.82944]]]}},{"type":"Feature","properties":{"id":"si-159","lat":46.42479,"lng":15.83261},"geometry":{"type":"Polygon","coordinates":[[[15.83147,46.39479],[15.8186,46.45479],[15.8695,46.38402],[15.83147,46.39479]]]}},{"type":"Feature","properties":{"id":"si-160","lat":46.48119,"lng":15.66476},"geometry":{"type":"Polygon","coordinates":[[[15.53945,46.49742],[15.69649,46.51215],[15.70951,46.46497],[15.53945,46.49742]]]}},{"type":"Feature","properties":{"id":"si-161","lat":46.82228,"lng":16.31824},"geometry":{"type":"Polygon","coordinates":[[[16.29588,46.81017],[16.32978,46.8344],[16.3111,46.79752],[16.29588,46.81017]]]}},{"type":"Feature","properties":{"id":"si-162","lat":46.02156,"lng":14.30178},"geometry":{"type":"Polygon","coordinates":[[[14.27384,45.99394],[14.2526,46.03972],[14.34308,46.0291],[14.342,46.01401],[14.27384,45.99394]]]}},{"type":"Feature","properties":{"id":"si-163","lat":46.39384,"lng":14.46413},"geometry":{"type":"Polygon","coordinates":[[[14.43714,46.41888],[14.5687,46.3688],[14.40546,46.35164],[14.43714,46.41888]]]}},{"type":"Feature","properties":{"id":"si-164","lat":46.22303,"lng":14.5463},"geometry":{"type":"Polygon","coordinates":[[[14.58266,46.19806],[14.5007,46.20287],[14.55253,46.2432],[14.58266,46.19806]]]}},{"type":"Feature","properties":{"id":"si-165","lat":45.53572,"lng":14.74548},"geometry":{"type":"Polygon","coordinates":[[[14.97734,45.49173],[14.79716,45.46518],[14.66367,45.57019],[14.72368,45.59698],[14.81711,45.50125],[14.97734,45.49173]]]}},{"type":"Feature","properties":{"id":"si-166","lat":46.57388,"lng":16.12772},"geometry":{"type":"Polygon","coordinates":[[[16.11031,46.62387],[16.1608,46.60589],[16.17067,46.53026],[16.07776,46.54186],[16.11031,46.62387]]]}},{"type":"Feature","properties":{"id":"si-167","lat":46.5161,"lng":15.38521},"geometry":{"type":"Polygon","coordinates":[[[15.37604,46.58873],[15.45966,46.55003],[15.40819,46.47771],[15.31569,46.48218],[15.37604,46.58873]]]}},{"type":"Feature","properties":{"id":"si-168","lat":46.38159,"lng":15.93812},"geometry":{"type":"Polygon","coordinates":[[[15.98309,46.41665],[15.94257,46.36957],[15.90407,46.3936],[15.98309,46.41665]]]}},{"type":"Feature","properties":{"id":"si-169","lat":46.47331,"lng":15.71397},"geometry":{"type":"Polygon","coordinates":[[[15.69509,46.48662],[15.73308,46.50323],[15.71695,46.46001],[15.69509,46.48662]]]}},{"type":"Feature","properties":{"id":"si-170","lat":45.8571,"lng":15.09305},"geometry":{"type":"Polygon","coordinates":[[[15.14484,45.87332],[15.08604,45.80615],[15.0373,45.84087],[15.09751,45.89467],[15.14484,45.87332]]]}},{"type":"Feature","properties":{"id":"si-171","lat":46.40856,"lng":15.43825},"geometry":{"type":"Polygon","coordinates":[[[15.49474,46.39252],[15.40912,46.38089],[15.42276,46.42461],[15.49474,46.39252]]]}},{"type":"Feature","properties":{"id":"si-172","lat":46.29873,"lng":15.8762},"geometry":{"type":"Polygon","coordinates":[[[15.91048,46.33813],[15.8809,46.25934],[15.83178,46.33937],[15.91048,46.33813]]]}},{"type":"Feature","properties":{"id":"si-173","lat":46.28113,"lng":15.09479},"geometry":{"type":"Polygon","coordinates":[[[15.0666,46.35169],[15.12283,46.31697],[15.10402,46.25501],[15.05126,46.30725],[15.0666,46.35169]]]}},{"type":"Feature","properties":{"id":"si-174","lat":46.21058,"lng":15.08512},"geometry":{"type":"Polygon","coordinates":[[[15.09503,46.25767],[15.13089,46.19506],[15.04506,46.19331],[15.0511,46.22609],[15.09503,46.25767]]]}},{"type":"Feature","properties":{"id":"si-175","lat":46.55704,"lng":14.88226},"geometry":{"type":"Polygon","coordinates":[[[14.87706,46.60364],[14.94527,46.56274],[14.92403,46.50478],[14.81452,46.55134],[14.87706,46.60364]]]}},{"type":"Feature","properties":{"id":"si-176","lat":46.5249,"lng":16.2705},"geometry":{"type":"Polygon","coordinates":[[[16.27759,46.53388],[16.26395,46.51592],[16.26093,46.51358],[16.27759,46.53388]]]}},{"type":"Feature","properties":{"id":"si-177","lat":46.53238,"lng":15.24655},"geometry":{"type":"Polygon","coordinates":[[[15.27036,46.57258],[15.31212,46.49246],[15.18877,46.51721],[15.21481,46.54755],[15.27036,46.57258]]]}},{"type":"Feature","properties":{"id":"si-178","lat":46.59733,"lng":15.51508},"geometry":{"type":"Polygon","coordinates":[[[15.45811,46.53861],[15.51394,46.63255],[15.56037,46.56212],[15.45811,46.53861]]]}},{"type":"Feature","properties":{"id":"si-179","lat":45.75148,"lng":14.62121},"geometry":{"type":"Polygon","coordinates":[[[14.56421,45.79007],[14.67516,45.76765],[14.65759,45.71457],[14.57614,45.73532],[14.56421,45.79007]]]}},{"type":"Feature","properties":{"id":"si-180","lat":46.41365,"lng":14.65144},"geometry":{"type":"Polygon","coordinates":[[[14.66663,46.46052],[14.74296,46.39288],[14.5687,46.3688],[14.59015,46.43443],[14.66663,46.46052]]]}},{"type":"Feature","properties":{"id":"si-181","lat":46.63506,"lng":15.85687},"geometry":{"type":"Polygon","coordinates":[[[15.85679,46.60734],[15.80434,46.69976],[15.88857,46.66278],[15.85679,46.60734]]]}},{"type":"Feature","properties":{"id":"si-182","lat":46.50578,"lng":15.95772},"geometry":{"type":"Polygon","coordinates":[[[15.92412,46.53437],[15.98665,46.54667],[16.00743,46.5244],[15.94722,46.48716],[15.92412,46.53437]]]}},{"type":"Feature","properties":{"id":"si-183","lat":45.9097,"lng":13.65298},"geometry":{"type":"Polygon","coordinates":[[[13.64695,45.8972],[13.61533,45.94591],[13.68731,45.92221],[13.64695,45.8972]]]}},{"type":"Feature","properties":{"id":"si-184","lat":46.21193,"lng":15.01423},"geometry":{"type":"Polygon","coordinates":[[[14.97075,46.19778],[15.00997,46.25798],[15.0511,46.22609],[15.04506,46.19331],[14.97075,46.19778]]]}},{"type":"Feature","properties":{"id":"si-185","lat":46.51807,"lng":15.91097},"geometry":{"type":"Polygon","coordinates":[[[15.85446,46.50631],[15.93032,46.52982],[15.92862,46.50409],[15.85446,46.50631]]]}},{"type":"Feature","properties":{"id":"si-186","lat":46.12008,"lng":14.56029},"geometry":{"type":"Polygon","coordinates":[[[14.52059,46.13238],[14.58979,46.14767],[14.56932,46.10778],[14.52059,46.13238]]]}},{"type":"Feature","properties":{"id":"si-187","lat":46.56734,"lng":16.35043},"geometry":{"type":"Polygon","coordinates":[[[16.33562,46.59716],[16.39753,46.57819],[16.33454,46.55649],[16.33562,46.59716]]]}},{"type":"Feature","properties":{"id":"si-188","lat":46.57209,"lng":16.18464},"geometry":{"type":"Polygon","coordinates":[[[16.1608,46.60589],[16.20343,46.59194],[16.21677,46.58413],[16.17672,46.56005],[16.1608,46.60589]]]}},{"type":"Feature","properties":{"id":"si-189","lat":46.22788,"lng":14.96437},"geometry":{"type":"Polygon","coordinates":[[[14.97075,46.19778],[14.90031,46.26328],[15.00997,46.25798],[14.97075,46.19778]]]}},{"type":"Feature","properties":{"id":"si-190","lat":46.25781,"lng":15.1719},"geometry":{"type":"Polygon","coordinates":[[[15.22613,46.31738],[15.21636,46.19824],[15.11332,46.18338],[15.1312,46.32766],[15.22613,46.31738]]]}},{"type":"Feature","properties":{"id":"si-191","lat":46.29131,"lng":15.80937},"geometry":{"type":"Polygon","coordinates":[[[15.8809,46.25934],[15.79953,46.24861],[15.75793,46.26203],[15.80108,46.32058],[15.8809,46.25934]]]}},{"type":"Feature","properties":{"id":"si-192","lat":46.4052,"lng":14.1667},"geometry":{"type":"Polygon","coordinates":[[[14.13746,46.37216],[14.14987,46.44006],[14.24232,46.43824],[14.13746,46.37216]]]}},{"type":"Feature","properties":{"id":"si-193","lat":45.81098,"lng":14.93794},"geometry":{"type":"Polygon","coordinates":[[[15.0373,45.84087],[15.05808,45.78108],[14.877,45.74393],[14.80254,45.78028],[14.87716,45.86955],[15.0373,45.84087]]]}},{"type":"Feature","properties":{"id":"si-194","lat":46.03428,"lng":14.81535},"geometry":{"type":"Polygon","coordinates":[[[14.74962,46.00296],[14.73613,46.06561],[14.84424,46.07299],[14.95447,45.97507],[14.74962,46.00296]]]}},{"type":"Feature","properties":{"id":"si-195","lat":46.67867,"lng":15.89162},"geometry":{"type":"Polygon","coordinates":[[[15.78461,46.7122],[15.87855,46.72071],[15.9676,46.69456],[15.88857,46.66278],[15.78461,46.7122]]]}}]}
