{"type":"FeatureCollection","features":[{"type":"Feature","properties":{"id":"sk-bc","lat":48.50651,"lng":19.424},"geometry":{"type":"Polygon","coordinates":[[[20.46597,48.46379],[20.29523,48.26042],[20.13451,48.24667],[19.92863,48.13009],[19.62323,48.22701],[19.51398,48.20396],[19.4282,48.08585],[19.01902,48.0655],[19.07117,48.19664],[18.81346,48.16714],[18.85485,48.30646],[18.75475,48.41412],[18.54128,48.31989],[18.5712,48.38891],[18.48991,48.54923],[18.72158,48.63119],[18.87583,48.76405],[19.00104,48.74695],[19.03923,48.87671],[19.31027,48.85981],[19.56152,48.94239],[20.2727,48.87278],[20.18438,48.73351],[20.34716,48.60096],[20.3315,48.46309],[20.46597,48.46379]]]}},{"type":"Feature","properties":{"id":"sk-bl","lat":48.27922,"lng":17.21194},"geometry":{"type":"Polygon","coordinates":[[[17.26232,48.00728],[17.06969,48.03567],[17.08023,48.09761],[16.84758,48.35958],[16.86494,48.45808],[16.94906,48.54484],[17.22988,48.57352],[17.33975,48.65538],[17.37871,48.61827],[17.30952,48.55941],[17.35902,48.50944],[17.32052,48.45955],[17.47757,48.35994],[17.53219,48.19887],[17.30766,48.12755],[17.35277,48.0936],[17.26232,48.00728]]]}},{"type":"Feature","properties":{"id":"sk-ki","lat":48.64132,"lng":21.27547},"geometry":{"type":"Polygon","coordinates":[[[22.3708,48.85825],[22.3103,48.68168],[22.13873,48.56959],[22.13284,48.4048],[21.75901,48.33377],[21.59168,48.49301],[21.42456,48.56128],[21.10934,48.48911],[20.78409,48.56905],[20.3315,48.46309],[20.34716,48.60096],[20.18051,48.75129],[20.34127,48.92448],[20.29967,48.94492],[20.51785,49.01458],[20.63391,48.95226],[20.76817,49.00047],[20.98258,48.95665],[21.02836,48.90466],[21.25863,48.87007],[21.28287,48.8132],[21.48006,48.88107],[21.5367,48.79382],[21.68785,48.76082],[21.79601,48.79578],[21.78563,48.89526],[22.12013,48.84237],[22.21108,48.92172],[22.25547,48.861],[22.3708,48.85825]]]}},{"type":"Feature","properties":{"id":"sk-ni","lat":48.25491,"lng":18.35022},"geometry":{"type":"Polygon","coordinates":[[[19.01902,48.0655],[18.74318,47.97105],[18.74876,47.87072],[18.81645,47.83256],[18.69284,47.77796],[17.71925,47.77367],[17.89356,47.9194],[17.87977,48.05278],[17.76417,48.15494],[17.88023,48.20636],[17.84158,48.30346],[17.96834,48.46417],[17.85119,48.52288],[18.02312,48.63062],[18.01537,48.7163],[18.24254,48.62096],[18.22998,48.56737],[18.31256,48.50024],[18.48991,48.54923],[18.5712,48.38891],[18.54128,48.31989],[18.75475,48.41412],[18.85485,48.30646],[18.81346,48.16714],[19.07117,48.19664],[19.01902,48.0655]]]}},{"type":"Feature","properties":{"id":"sk-pv","lat":49.09166,"lng":21.23909},"geometry":{"type":"Polygon","coordinates":[[[21.26054,49.44944],[21.6199,49.42334],[21.75757,49.34893],[21.81958,49.37725],[21.96448,49.30857],[22.04075,49.19746],[22.53964,49.0722],[22.52052,48.99293],[22.3708,48.85825],[22.25547,48.861],[22.21108,48.92172],[22.12013,48.84237],[21.78563,48.89526],[21.79601,48.79578],[21.68785,48.76082],[21.5367,48.79382],[21.48006,48.88107],[21.28287,48.8132],[21.25863,48.87007],[20.76817,49.00047],[20.64554,48.95169],[20.42798,49.00337],[20.29967,48.94492],[20.34127,48.92448],[20.2727,48.87278],[19.99618,48.90658],[20.05405,48.93368],[19.97364,49.01225],[20.02641,49.11111],[19.90554,49.13261],[19.86829,49.20079],[20.05049,49.17323],[20.13586,49.30888],[20.31765,49.39161],[20.68952,49.4005],[20.91896,49.29033],[21.07254,49.35719],[21.05353,49.41445],[21.19409,49.4006],[21.26054,49.44944]]]}},{"type":"Feature","properties":{"id":"sk-ta","lat":48.3317,"lng":17.6755},"geometry":{"type":"Polygon","coordinates":[[[16.94906,48.54484],[17.02535,48.74633],[17.21221,48.86606],[17.41123,48.83022],[17.35732,48.78028],[17.47214,48.7571],[17.53359,48.62835],[17.71001,48.6837],[17.98808,48.61608],[17.85119,48.52288],[17.96834,48.46417],[17.84158,48.30346],[17.88023,48.20636],[17.76417,48.15494],[17.87977,48.05278],[17.89232,47.91576],[17.71925,47.77367],[17.26232,48.00728],[17.35277,48.0936],[17.30766,48.12755],[17.53219,48.19887],[17.47757,48.35994],[17.32052,48.45955],[17.36398,48.64644],[17.22988,48.57352],[16.94906,48.54484]]]}},{"type":"Feature","properties":{"id":"sk-tc","lat":48.89823,"lng":18.25449},"geometry":{"type":"Polygon","coordinates":[[[17.91408,49.0105],[18.09629,49.07029],[18.16058,49.2587],[18.36159,49.33019],[18.59109,49.11468],[18.60055,49.02967],[18.47627,48.94823],[18.70592,48.95378],[18.70607,48.85381],[18.83237,48.73749],[18.72158,48.63119],[18.36656,48.49177],[18.23602,48.55828],[18.24254,48.62096],[18.03619,48.71517],[17.98808,48.61608],[17.71001,48.6837],[17.53359,48.62835],[17.47214,48.7571],[17.35732,48.78028],[17.42956,48.83816],[17.72722,48.86291],[17.87873,48.93355],[17.91408,49.0105]]]}},{"type":"Feature","properties":{"id":"sk-zi","lat":49.16341,"lng":19.20261},"geometry":{"type":"Polygon","coordinates":[[[19.44339,49.60178],[19.62704,49.40187],[19.76926,49.39311],[19.80864,49.2709],[19.76068,49.19421],[19.86829,49.20079],[19.90554,49.13261],[20.02361,49.1153],[19.97364,49.01225],[20.05188,48.92957],[19.74663,48.89986],[19.56152,48.94239],[19.31027,48.85981],[19.03923,48.87671],[19.00104,48.74695],[18.83299,48.74416],[18.70607,48.85381],[18.70592,48.95378],[18.47064,48.95626],[18.60427,49.06894],[18.36159,49.33019],[18.38764,49.38975],[18.55621,49.49016],[18.8332,49.51026],[18.96115,49.49279],[18.96228,49.38918],[19.14171,49.3942],[19.2341,49.50721],[19.44339,49.60178]]]}}]}
