{"type":"FeatureCollection","features":[{"type":"Feature","properties":{"id":"sl-e","lat":8.23521,"lng":-10.86723},"geometry":{"type":"Polygon","coordinates":[[[-10.59218,9.04166],[-10.59968,8.81538],[-10.48186,8.67247],[-10.63188,8.53201],[-10.73528,8.2873],[-10.65978,8.33327],[-10.55436,8.31184],[-10.33758,8.49855],[-10.28224,8.48462],[-10.32094,8.18312],[-10.52925,8.12429],[-10.61214,8.03186],[-10.61519,7.76904],[-10.88571,7.52218],[-11.14421,7.34519],[-11.35209,7.41696],[-11.33447,7.58796],[-11.3784,7.61731],[-11.48299,7.54817],[-11.52045,7.68067],[-11.41788,7.71467],[-11.45436,7.82578],[-11.33778,7.96964],[-11.33969,8.0979],[-11.58019,8.50806],[-11.35395,8.52956],[-11.33964,8.78117],[-11.08663,9.06281],[-10.95098,9.05464],[-10.80127,8.94442],[-10.6927,8.95263],[-10.70882,9.00043],[-10.59218,9.04166]]]}},{"type":"Feature","properties":{"id":"sl-n","lat":9.13083,"lng":-11.87275},"geometry":{"type":"Polygon","coordinates":[[[-11.9101,9.99252],[-11.18854,9.9726],[-11.16027,9.87276],[-11.0101,9.74274],[-10.85259,9.51208],[-10.83176,9.39214],[-10.67513,9.30646],[-10.74634,9.08381],[-10.59218,9.04166],[-10.70882,9.00043],[-10.68666,8.95697],[-10.80892,8.94504],[-10.95098,9.05464],[-11.08663,9.06281],[-11.33964,8.78117],[-11.35395,8.52956],[-11.51844,8.5464],[-11.69724,8.48899],[-11.8441,8.34626],[-12.03882,8.3584],[-12.03882,8.24549],[-12.20977,8.34626],[-12.35797,8.33727],[-12.4528,8.26461],[-12.80673,8.37386],[-12.90047,8.27453],[-12.91866,8.33753],[-13.1256,8.44904],[-13.01305,8.56171],[-12.8697,8.56916],[-12.93114,8.58283],[-12.87589,8.68521],[-12.93643,8.607],[-13.06184,8.5832],[-13.02672,8.65107],[-13.08194,8.61693],[-13.1577,8.67097],[-13.10749,8.581],[-13.16242,8.51765],[-13.2412,8.67219],[-13.24022,8.82583],[-12.98571,8.85712],[-13.13036,8.86408],[-13.14265,8.91673],[-13.0751,8.93911],[-13.26696,8.95209],[-13.3011,9.04149],[-13.11591,9.04395],[-12.95915,9.17784],[-12.95791,9.27243],[-12.83583,9.28197],[-12.76415,9.34767],[-12.52246,9.73447],[-12.50833,9.86038],[-12.27674,9.92927],[-12.14135,9.87488],[-11.92177,9.92221],[-11.9101,9.99252]]]}},{"type":"Feature","properties":{"id":"sl-s","lat":7.69923,"lng":-11.99198},"geometry":{"type":"MultiPolygon","coordinates":[[[[-12.50438,7.56102],[-12.54967,7.38964],[-12.60554,7.47866],[-12.95165,7.57543],[-12.62141,7.63972],[-12.50438,7.56102]]],[[[-11.14421,7.34519],[-11.31721,7.21357],[-11.47619,6.91942],[-11.83959,7.14899],[-12.50658,7.38984],[-12.36946,7.38984],[-12.48925,7.44505],[-12.42833,7.5336],[-12.29507,7.53311],[-12.18383,7.60273],[-12.44107,7.5537],[-12.4855,7.65054],[-12.54393,7.65355],[-12.47216,7.78766],[-12.60188,7.68378],[-12.77807,7.7558],[-12.75984,7.82184],[-12.87589,7.82868],[-12.9591,7.9112],[-12.82128,7.91743],[-12.88842,7.97529],[-12.87589,8.10301],[-12.98107,8.18623],[-12.97875,8.24201],[-12.80673,8.37386],[-12.4528,8.26461],[-12.35797,8.33727],[-12.20977,8.34626],[-12.03882,8.24549],[-12.03882,8.3584],[-11.82581,8.35143],[-11.71905,8.47907],[-11.58019,8.50806],[-11.33581,8.0777],[-11.34196,7.96014],[-11.44423,7.87177],[-11.41788,7.71467],[-11.52045,7.68067],[-11.48774,7.56047],[-11.34941,7.60811],[-11.35602,7.41981],[-11.14421,7.34519]]]]}},{"type":"Feature","properties":{"id":"sl-w","lat":8.30603,"lng":-13.04971},"geometry":{"type":"Polygon","coordinates":[[[-12.90047,8.27453],[-13.16393,8.17129],[-13.16393,8.27436],[-13.28677,8.42451],[-13.28677,8.50023],[-12.91866,8.33753],[-12.90047,8.27453]]]}}]}
