{"type":"FeatureCollection","features":[{"type":"Feature","properties":{"id":"sm-01","lat":43.93981,"lng":12.41158},"geometry":{"type":"Polygon","coordinates":[[[12.41436,43.93121],[12.39565,43.94841],[12.42569,43.95683],[12.41436,43.93121]]]}},{"type":"Feature","properties":{"id":"sm-02","lat":43.90818,"lng":12.40341},"geometry":{"type":"Polygon","coordinates":[[[12.42137,43.91314],[12.39958,43.90322],[12.38996,43.91791],[12.42137,43.91314]]]}},{"type":"Feature","properties":{"id":"sm-03","lat":43.95332,"lng":12.46244},"geometry":{"type":"Polygon","coordinates":[[[12.4567,43.96034],[12.48799,43.94631],[12.44484,43.94038],[12.4567,43.96034]]]}},{"type":"Feature","properties":{"id":"sm-04","lat":43.92829,"lng":12.47187},"geometry":{"type":"Polygon","coordinates":[[[12.471,43.94172],[12.47803,43.92322],[12.45724,43.93336],[12.471,43.94172]]]}},{"type":"Feature","properties":{"id":"sm-05","lat":43.91421,"lng":12.45335},"geometry":{"type":"Polygon","coordinates":[[[12.46453,43.92446],[12.44126,43.89328],[12.43513,43.90397],[12.46453,43.92446]]]}},{"type":"Feature","properties":{"id":"sm-06","lat":43.94618,"lng":12.4487},"geometry":{"type":"Polygon","coordinates":[[[12.44106,43.91448],[12.4443,43.96789],[12.46453,43.92446],[12.44106,43.91448]]]}},{"type":"Feature","properties":{"id":"sm-07","lat":43.92757,"lng":12.42536},"geometry":{"type":"Polygon","coordinates":[[[12.42649,43.90397],[12.41813,43.94065],[12.44106,43.91448],[12.42649,43.90397]]]}},{"type":"Feature","properties":{"id":"sm-08","lat":43.90856,"lng":12.46855},"geometry":{"type":"Polygon","coordinates":[[[12.46803,43.92258],[12.47829,43.91704],[12.4644,43.90007],[12.46803,43.92258]]]}},{"type":"Feature","properties":{"id":"sm-09","lat":43.96068,"lng":12.4534},"geometry":{"type":"Polygon","coordinates":[[[12.45332,43.97905],[12.46453,43.95197],[12.42725,43.96939],[12.45332,43.97905]]]}}]}
