{"type":"FeatureCollection","features":[{"type":"Feature","properties":{"id":"sn-db","lat":14.78788,"lng":-16.03206},"geometry":{"type":"Polygon","coordinates":[[[-15.69994,14.84788],[-15.45582,14.83403],[-15.37962,14.6983],[-15.43126,14.5743],[-15.77348,14.74174],[-15.81595,14.60955],[-15.93295,14.53519],[-16.53126,14.58061],[-16.62045,14.62443],[-16.58846,14.69166],[-16.67905,14.88219],[-16.64045,14.94436],[-16.39948,15.01159],[-16.21764,14.9224],[-16.07713,15.00188],[-15.83187,15.00337],[-15.69994,14.84788]]]}},{"type":"Feature","properties":{"id":"sn-dk","lat":14.74685,"lng":-17.34524},"geometry":{"type":"Polygon","coordinates":[[[-17.14841,14.61319],[-17.33056,14.73631],[-17.43981,14.72207],[-17.43981,14.65375],[-17.53604,14.75739],[-17.18198,14.89709],[-17.14841,14.61319]]]}},{"type":"Feature","properties":{"id":"sn-fk","lat":14.26671,"lng":-16.54353},"geometry":{"type":"MultiPolygon","coordinates":[[[[-16.08538,13.58517],[-16.5614,13.58691],[-16.5089,13.74022],[-16.59887,13.6542],[-16.62975,13.76048],[-16.55655,13.84565],[-16.48705,13.80463],[-16.48705,14.00263],[-16.54943,13.86929],[-16.70006,13.76903],[-16.7434,13.96109],[-16.57641,13.98896],[-16.54235,14.03734],[-16.59073,14.04361],[-16.44148,14.15656],[-16.29696,14.15691],[-16.23541,14.10446],[-16.19743,13.90561],[-16.24073,13.80505],[-16.08538,13.58517]]],[[[-16.42772,14.17011],[-16.46874,14.19383],[-16.6317,14.01008],[-16.72106,14.0163],[-16.65225,14.09951],[-16.7279,14.06468],[-16.77505,13.83881],[-16.81128,14.12489],[-16.69497,14.42666],[-16.59379,14.471],[-16.51922,14.59921],[-15.93295,14.53519],[-15.81595,14.60955],[-15.77348,14.74174],[-15.44519,14.60912],[-15.43126,14.5743],[-15.59379,14.54411],[-15.83062,14.36533],[-16.25706,14.33959],[-16.42772,14.17011]]]]}},{"type":"Feature","properties":{"id":"sn-ka","lat":14.21131,"lng":-15.21593},"geometry":{"type":"Polygon","coordinates":[[[-14.86031,13.76559],[-15.0977,13.81998],[-15.26726,13.7418],[-15.58275,13.82733],[-15.6662,13.76928],[-15.70248,13.90352],[-15.85487,14.03777],[-15.799,14.38486],[-15.59379,14.54411],[-15.43126,14.5743],[-15.37962,14.6983],[-15.06282,14.59994],[-14.89797,14.67714],[-14.63908,14.55668],[-14.58637,14.02359],[-14.86031,13.76559]]]}},{"type":"Feature","properties":{"id":"sn-kd","lat":13.08568,"lng":-14.39373},"geometry":{"type":"Polygon","coordinates":[[[-13.3598,12.64974],[-15.14623,12.67923],[-15.13082,12.88445],[-15.27757,13.175],[-15.35975,13.20728],[-15.34239,13.36257],[-15.24834,13.39898],[-15.13765,13.58997],[-14.69814,13.34518],[-14.20169,13.22955],[-13.85104,13.33575],[-13.81871,13.42936],[-13.8825,13.50378],[-13.80295,13.53561],[-13.8076,13.47432],[-13.72879,13.46373],[-13.77008,13.37458],[-13.69216,13.36864],[-13.5117,12.99637],[-13.4808,12.70889],[-13.3598,12.64974]]]}},{"type":"Feature","properties":{"id":"sn-ke","lat":12.80036,"lng":-12.45052},"geometry":{"type":"Polygon","coordinates":[[[-11.89997,13.38218],[-11.82255,13.30671],[-11.74122,13.40781],[-11.61311,13.36081],[-11.53306,13.11181],[-11.45028,13.07509],[-11.4387,12.9589],[-11.39343,12.98081],[-11.4678,12.54353],[-11.37778,12.48022],[-11.38842,12.4039],[-12.10398,12.40736],[-12.36092,12.30561],[-12.46675,12.38447],[-12.59367,12.36157],[-12.64801,12.42575],[-12.77327,12.43506],[-12.91314,12.53634],[-13.05199,12.47226],[-13.07646,12.63592],[-13.33861,12.63923],[-13.4808,12.70889],[-13.47305,12.89182],[-13.62281,13.24012],[-13.58226,13.3249],[-13.36461,13.34101],[-13.30915,13.0218],[-12.97663,13.0576],[-12.85337,12.98423],[-12.74184,13.04586],[-12.68608,13.17206],[-12.53053,13.18087],[-12.44542,13.27772],[-12.36911,13.25131],[-12.26639,13.30707],[-12.27813,13.43914],[-12.06682,13.31587],[-11.89997,13.38218]]]}},{"type":"Feature","properties":{"id":"sn-kl","lat":13.97065,"lng":-15.99467},"geometry":{"type":"Polygon","coordinates":[[[-15.39407,13.77151],[-15.5182,13.5831],[-16.08538,13.58517],[-16.24073,13.80505],[-16.19722,13.89791],[-16.23541,14.10446],[-16.38021,14.16836],[-16.30574,14.29381],[-16.25706,14.33959],[-15.799,14.38486],[-15.85487,14.03777],[-15.70248,13.90352],[-15.6662,13.76928],[-15.58275,13.82733],[-15.39407,13.77151]]]}},{"type":"Feature","properties":{"id":"sn-lg","lat":15.39816,"lng":-15.66519},"geometry":{"type":"Polygon","coordinates":[[[-16.73533,15.47733],[-16.54093,15.80565],[-16.25748,15.84451],[-15.84107,16.1818],[-15.59116,15.9212],[-15.43399,15.93173],[-15.42671,15.99855],[-14.85446,15.99737],[-14.59223,15.87731],[-14.54143,15.80474],[-14.74099,15.67775],[-14.78453,15.44191],[-14.53418,15.36935],[-14.58497,15.12262],[-14.54198,15.10202],[-14.80267,15.03917],[-14.7301,14.84688],[-14.82444,14.66546],[-15.09683,14.60319],[-15.41577,14.71951],[-15.45939,14.83785],[-15.69994,14.84788],[-15.81678,15.00064],[-16.18162,14.99102],[-16.34367,15.31782],[-16.45137,15.32062],[-16.60929,15.12828],[-16.72267,15.28165],[-16.69042,15.42697],[-16.73533,15.47733]]]}},{"type":"Feature","properties":{"id":"sn-mt","lat":15.26738,"lng":-13.70669},"geometry":{"type":"Polygon","coordinates":[[[-13.71957,16.13561],[-13.48493,16.15498],[-13.5017,16.09514],[-13.44003,16.10186],[-13.31593,15.93045],[-13.23784,15.62344],[-13.10971,15.59641],[-13.08385,15.49275],[-12.96432,15.50916],[-12.91897,15.36537],[-12.82805,15.28387],[-12.88836,15.25088],[-12.78722,15.21416],[-12.77976,15.14639],[-12.58235,14.94947],[-12.73077,14.58474],[-12.94884,14.54624],[-13.2189,14.59456],[-13.51118,14.3985],[-13.78486,14.39426],[-14.26948,14.56252],[-14.35661,14.64365],[-14.63298,14.5109],[-14.63908,14.55668],[-14.84423,14.622],[-14.7301,14.84688],[-14.80267,15.03917],[-14.54198,15.10202],[-14.58497,15.12262],[-14.53418,15.36935],[-14.78453,15.44191],[-14.74099,15.67775],[-14.54143,15.80474],[-14.29834,15.63784],[-13.76135,16.05146],[-13.71957,16.13561]]]}},{"type":"Feature","properties":{"id":"sn-se","lat":12.90565,"lng":-15.56623},"geometry":{"type":"Polygon","coordinates":[[[-15.14623,12.67923],[-15.67705,12.43929],[-15.88396,12.44218],[-15.96386,12.60225],[-15.84,12.55707],[-15.76879,12.5926],[-15.65689,12.53758],[-15.58772,12.55801],[-15.50984,12.63581],[-15.5349,12.78303],[-15.40681,12.79971],[-15.39159,12.8382],[-15.54947,12.79434],[-15.54247,12.6494],[-15.64102,12.55948],[-15.69677,12.61416],[-15.90172,12.59805],[-15.98119,12.65265],[-16.02369,12.73752],[-15.9868,12.92686],[-15.92401,13.12282],[-15.8266,13.16168],[-15.81869,13.33353],[-15.34239,13.36257],[-15.35975,13.20728],[-15.27757,13.175],[-15.13082,12.88445],[-15.14623,12.67923]]]}},{"type":"Feature","properties":{"id":"sn-sl","lat":16.1587,"lng":-14.85059},"geometry":{"type":"Polygon","coordinates":[[[-14.94893,16.67055],[-14.34325,16.63666],[-13.97785,16.33797],[-13.96408,16.23007],[-13.84483,16.12605],[-13.72942,16.1895],[-13.71957,16.13561],[-13.76135,16.05146],[-14.29834,15.63784],[-14.49789,15.74669],[-14.70471,15.9535],[-14.85446,15.99737],[-15.42671,15.99855],[-15.43399,15.93173],[-15.59116,15.9212],[-15.84107,16.1818],[-16.25748,15.84451],[-16.54093,15.80565],[-16.45876,16.19415],[-16.38538,16.23493],[-16.27381,16.52318],[-16.13227,16.55475],[-16.05377,16.49543],[-15.67219,16.48137],[-15.46399,16.58147],[-15.12509,16.58271],[-15.10757,16.66539],[-15.04437,16.63191],[-14.94893,16.67055]]]}},{"type":"Feature","properties":{"id":"sn-tc","lat":14.09488,"lng":-13.30085},"geometry":{"type":"Polygon","coordinates":[[[-12.63227,15.10544],[-12.16502,14.64187],[-12.23643,14.51945],[-12.22173,14.39124],[-12.11561,14.35512],[-11.99758,14.16616],[-12.02533,13.98525],[-11.96291,13.82947],[-12.09763,13.70441],[-11.89041,13.46515],[-11.89997,13.38218],[-12.06682,13.31587],[-12.27813,13.43914],[-12.26639,13.30707],[-12.36911,13.25131],[-12.44542,13.27772],[-12.53053,13.18087],[-12.68608,13.17206],[-12.74184,13.04586],[-12.85337,12.98423],[-12.97663,13.0576],[-13.30915,13.0218],[-13.36461,13.34101],[-13.58226,13.3249],[-13.64115,13.24136],[-13.69546,13.3721],[-13.77008,13.37458],[-13.72879,13.46373],[-13.8076,13.47432],[-13.7984,13.53396],[-13.8825,13.50378],[-13.9885,13.57915],[-14.36555,13.45484],[-14.58554,13.66046],[-14.79602,13.6447],[-14.86031,13.76559],[-14.58637,14.02359],[-14.63298,14.5109],[-14.3979,14.63084],[-13.78486,14.39426],[-13.51118,14.3985],[-13.2189,14.59456],[-12.75547,14.56552],[-12.57264,14.89372],[-12.68958,15.09248],[-12.63227,15.10544]]]}},{"type":"Feature","properties":{"id":"sn-th","lat":14.79133,"lng":-16.88982},"geometry":{"type":"Polygon","coordinates":[[[-17.18198,14.89709],[-16.87824,15.2331],[-16.73533,15.47733],[-16.69042,15.42697],[-16.72267,15.28165],[-16.61425,15.13117],[-16.45137,15.32062],[-16.34367,15.31782],[-16.19898,15.01025],[-16.13242,14.96901],[-16.22627,14.92353],[-16.39948,15.01159],[-16.65931,14.93459],[-16.58748,14.68556],[-16.62045,14.62443],[-16.53126,14.58061],[-16.59379,14.471],[-16.69497,14.42666],[-16.81128,14.12489],[-16.87873,14.17455],[-16.95653,14.39012],[-17.11148,14.53022],[-17.18198,14.89709]]]}},{"type":"Feature","properties":{"id":"sn-zg","lat":12.47024,"lng":-16.34892},"geometry":{"type":"MultiPolygon","coordinates":[[[[-15.88396,12.44218],[-16.22239,12.45505],[-16.4123,12.36173],[-16.72844,12.33253],[-16.80297,12.48542],[-16.57974,12.6328],[-16.53332,12.56533],[-16.50475,12.59805],[-16.37096,12.55024],[-16.00788,12.63215],[-15.88396,12.44218]]],[[[-16.70841,13.15669],[-15.89744,13.1574],[-16.0489,12.6564],[-16.37096,12.56452],[-16.48957,12.63182],[-16.50133,12.70791],[-16.50817,12.62539],[-16.57022,12.69359],[-16.63467,12.66938],[-16.59073,12.76203],[-16.59691,12.79731],[-16.64721,12.63223],[-16.7731,12.58295],[-16.76122,12.7132],[-16.69896,12.7364],[-16.79621,12.71532],[-16.75212,13.08804],[-16.70841,13.15669]]]]}}]}
