{"type":"FeatureCollection","features":[{"type":"Feature","properties":{"id":"so-bk","lat":4.12406,"lng":43.86729},"geometry":{"type":"Polygon","coordinates":[[[43.96898,4.95396],[44.59681,4.91764],[44.79998,3.85995],[44.77993,3.26996],[44.40993,3.25996],[44.28002,3.33995],[44.30999,3.56996],[44.17997,3.84995],[43.95001,3.91994],[43.75002,3.84995],[43.58001,3.60996],[43.40999,3.56996],[43.11998,3.66996],[43.13993,3.84995],[42.8702,4.32817],[42.95255,4.50758],[43.11926,4.6477],[43.52849,4.84157],[43.96898,4.95396]]]}},{"type":"Feature","properties":{"id":"so-bn","lat":2.06862,"lng":45.36767},"geometry":{"type":"Polygon","coordinates":[[[45.60563,2.18304],[45.2662,1.98729],[45.39003,2.14995],[45.60563,2.18304]]]}},{"type":"Feature","properties":{"id":"so-br","lat":9.97615,"lng":49.90294},"geometry":{"type":"Polygon","coordinates":[[[48.93911,9.5627],[48.93911,11.24913],[49.4192,11.34479],[49.57683,11.46003],[49.85125,11.46491],[50.26832,11.5893],[50.43702,11.69062],[50.64112,11.95441],[50.79786,11.98912],[51.2927,11.83311],[51.08131,11.3415],[51.08595,11.18797],[51.1895,11.13831],[51.11508,10.99335],[51.16065,10.59846],[51.0101,10.43403],[51.22039,10.44204],[51.17612,10.56281],[51.41704,10.44749],[51.37608,10.36769],[51.24098,10.4256],[50.92739,10.32784],[50.80616,9.62446],[50.83741,9.4372],[50.64698,9.21137],[50.63364,9.07319],[50.43971,8.88817],[50.30348,8.50458],[50.16603,8.33336],[50.05,8.43995],[49.93001,8.45995],[49.83999,8.32996],[49.77994,8.52994],[49.44993,8.58994],[49.17997,8.76996],[49.11001,8.89995],[49.05998,9.56996],[48.93911,9.5627]]]}},{"type":"Feature","properties":{"id":"so-by","lat":2.63994,"lng":43.58865},"geometry":{"type":"Polygon","coordinates":[[[43.95001,3.91994],[44.17997,3.84995],[44.30999,3.56996],[44.28002,3.33995],[44.40993,3.25996],[44.65994,3.24996],[44.65002,2.21994],[42.97994,1.45996],[42.40003,1.94996],[42.60001,3.06994],[43.09993,3.05994],[43.11998,3.66996],[43.40999,3.56996],[43.58001,3.60996],[43.75002,3.84995],[43.95001,3.91994]]]}},{"type":"Feature","properties":{"id":"so-ga","lat":4.88495,"lng":46.86159},"geometry":{"type":"Polygon","coordinates":[[[45.51848,5.54056],[46.46696,6.53829],[47.60001,6.27993],[47.35001,5.74993],[47.60994,5.18994],[47.49997,4.48996],[47.84059,4.34138],[47.03981,3.46927],[46.38996,3.88994],[46.39999,4.22995],[46.14998,4.42996],[46.10998,4.73994],[46.22997,5.07995],[46.04001,5.02995],[45.71001,5.10995],[45.51848,5.54056]]]}},{"type":"Feature","properties":{"id":"so-ge","lat":2.38205,"lng":41.72171},"geometry":{"type":"Polygon","coordinates":[[[41.34273,3.20115],[41.92347,4.07055],[42.10289,4.19189],[42.8702,4.32817],[43.13993,3.84995],[43.09993,3.05994],[42.60001,3.06994],[42.40003,1.94996],[41.63997,1.93993],[41.41993,1.25998],[40.96849,1.23029],[40.96538,2.81414],[41.34273,3.20115]]]}},{"type":"Feature","properties":{"id":"so-hi","lat":4.32996,"lng":45.49234},"geometry":{"type":"Polygon","coordinates":[[[44.91259,4.89939],[45.51848,5.54056],[45.71001,5.10995],[46.04001,5.02995],[46.22997,5.07995],[46.10998,4.73994],[46.14998,4.42996],[46.39999,4.22995],[46.38996,3.88994],[46.02999,3.51994],[45.93997,3.24996],[45.26993,3.19996],[44.77993,3.26996],[44.79998,3.85995],[44.59681,4.91764],[44.91259,4.89939]]]}},{"type":"Feature","properties":{"id":"so-jd","lat":0.96612,"lng":42.9272},"geometry":{"type":"Polygon","coordinates":[[[43.52129,0.67227],[43.1849,0.31626],[42.72993,0.30996],[42.43,1.31992],[41.41993,1.25998],[41.63997,1.93993],[42.40003,1.94996],[42.52002,1.87994],[42.97994,1.45996],[43.52129,0.67227]]]}},{"type":"Feature","properties":{"id":"so-jh","lat":-0.24636,"lng":41.82462},"geometry":{"type":"Polygon","coordinates":[[[41.53594,-1.67631],[41.52287,-1.57277],[40.97975,-0.8708],[40.96849,1.23029],[42.43,1.31992],[42.72993,0.30996],[43.1849,0.31626],[42.16651,-0.80267],[42.07154,-0.82871],[41.97193,-0.99977],[41.95281,-0.89446],[41.97169,-1.02361],[41.88543,-1.20965],[41.82911,-1.16888],[41.8366,-1.2623],[41.53594,-1.67631]]]}},{"type":"Feature","properties":{"id":"so-mu","lat":6.02218,"lng":48.21957},"geometry":{"type":"Polygon","coordinates":[[[46.46696,6.53829],[47.53239,7.56586],[48.50002,7.40994],[49.03001,7.70994],[49.19,7.69994],[49.49996,7.56995],[49.64079,7.40912],[49.24732,6.81061],[49.07472,6.41527],[49.0713,6.21992],[48.85011,5.82445],[47.84059,4.34138],[47.49997,4.48996],[47.60994,5.18994],[47.35001,5.74993],[47.60001,6.27993],[46.46696,6.53829]]]}},{"type":"Feature","properties":{"id":"so-nu","lat":8.49495,"lng":49.04925},"geometry":{"type":"Polygon","coordinates":[[[47.53239,7.56586],[47.97917,7.99657],[48.93911,9.45123],[48.93911,9.5627],[49.05998,9.56996],[49.11001,8.89995],[49.17997,8.76996],[49.44993,8.58994],[49.77994,8.52994],[49.83999,8.32996],[49.93001,8.45995],[50.05,8.43995],[50.16603,8.33336],[50.09107,8.16104],[49.82423,7.93391],[49.81935,7.73994],[49.64079,7.40912],[49.49996,7.56995],[49.19,7.69994],[49.03001,7.70994],[48.50002,7.40994],[47.53239,7.56586]]]}},{"type":"Feature","properties":{"id":"so-sd","lat":2.87994,"lng":45.84548},"geometry":{"type":"Polygon","coordinates":[[[47.03981,3.46927],[46.02703,2.43814],[45.60563,2.18304],[45.32998,2.17995],[45.34,2.71994],[45.11997,3.03994],[45.06994,3.24996],[45.26993,3.19996],[45.93997,3.24996],[46.02999,3.51994],[46.38996,3.88994],[47.03981,3.46927]]]}},{"type":"Feature","properties":{"id":"so-sh","lat":1.77318,"lng":44.28819},"geometry":{"type":"Polygon","coordinates":[[[45.2662,1.98729],[44.55006,1.55907],[43.52129,0.67227],[42.97994,1.45996],[44.65002,2.21994],[44.65994,3.24996],[45.06994,3.24996],[45.11997,3.03994],[45.34,2.71994],[45.32998,2.17995],[45.39003,2.14995],[45.2662,1.98729]]]}}]}
