{"type":"FeatureCollection","features":[{"type":"Feature","properties":{"id":"sr-br","lat":4.69571,"lng":-55.07809},"geometry":{"type":"Polygon","coordinates":[[[-55.02581,5.32262],[-54.89708,5.14744],[-54.87264,4.98011],[-54.74112,4.88017],[-54.82065,4.53776],[-54.89747,4.4404],[-54.87334,4.29798],[-54.9401,4.14135],[-55.01129,4.17215],[-55.27008,4.01185],[-55.36664,4.49042],[-55.37649,4.85366],[-55.50299,5.08047],[-55.38692,5.18919],[-55.35034,5.31482],[-55.02581,5.32262]]]}},{"type":"Feature","properties":{"id":"sr-cm","lat":5.75779,"lng":-54.92679},"geometry":{"type":"Polygon","coordinates":[[[-55.12875,5.7412],[-55.08552,5.8828],[-55.01012,5.85554],[-54.86303,5.85554],[-55.12564,5.91865],[-55.15997,5.95811],[-55.11685,5.98526],[-54.70492,5.97482],[-54.73841,5.77438],[-54.628,5.5593],[-55.04919,5.53806],[-55.0888,5.62565],[-55.02736,5.67686],[-55.12875,5.7412]]]}},{"type":"Feature","properties":{"id":"sr-cr","lat":5.65405,"lng":-56.24412},"geometry":{"type":"Polygon","coordinates":[[[-56.60373,5.95033],[-55.93601,5.80466],[-55.89725,5.6767],[-55.97438,5.63139],[-55.91687,5.53987],[-56.06001,5.39497],[-56.48386,5.31678],[-56.48737,5.39972],[-56.55243,5.38494],[-56.56835,5.51806],[-56.49791,5.54302],[-56.59881,5.74854],[-56.60373,5.95033]]]}},{"type":"Feature","properties":{"id":"sr-ma","lat":5.61742,"lng":-54.35625},"geometry":{"type":"Polygon","coordinates":[[[-54.17097,5.34837],[-54.32065,5.21245],[-54.65493,5.37461],[-54.60785,5.48917],[-54.73841,5.77438],[-54.70492,5.97482],[-54.02046,5.83025],[-53.98636,5.74566],[-54.17097,5.34837]]]}},{"type":"Feature","properties":{"id":"sr-ni","lat":5.65281,"lng":-56.84586},"geometry":{"type":"Polygon","coordinates":[[[-57.33172,5.30761],[-57.16369,5.55707],[-57.06603,5.9501],[-56.95654,6.01157],[-56.60373,5.95033],[-56.59881,5.74854],[-56.49791,5.54302],[-56.56835,5.51806],[-56.55243,5.38494],[-56.48737,5.39972],[-56.48386,5.31678],[-57.25901,5.2712],[-57.27167,5.22286],[-57.28882,5.30854],[-57.33172,5.30761]]]}},{"type":"Feature","properties":{"id":"sr-pm","lat":5.84015,"lng":-55.17054},"geometry":{"type":"Polygon","coordinates":[[[-55.22977,5.90241],[-55.11083,5.88117],[-55.14381,5.76616],[-55.21107,5.79913],[-55.22977,5.90241]]]}},{"type":"Feature","properties":{"id":"sr-pr","lat":5.36489,"lng":-55.31703},"geometry":{"type":"Polygon","coordinates":[[[-55.03922,5.66684],[-55.0888,5.62565],[-55.04919,5.53806],[-54.628,5.5593],[-54.61307,5.52364],[-54.85946,4.97525],[-54.89708,5.14744],[-55.02581,5.32262],[-55.35034,5.31482],[-55.38692,5.18919],[-55.63342,4.98724],[-55.8169,5.10796],[-55.99877,5.10289],[-55.91687,5.53987],[-55.89999,5.40716],[-55.44565,5.42639],[-55.38245,5.49388],[-55.35217,5.67268],[-55.03922,5.66684]]]}},{"type":"Feature","properties":{"id":"sr-sa","lat":5.75933,"lng":-55.60619},"geometry":{"type":"Polygon","coordinates":[[[-55.89725,5.6767],[-55.89996,5.84196],[-55.95117,5.88151],[-55.86799,5.96981],[-55.39499,5.97388],[-55.25321,5.91779],[-55.44031,5.42835],[-55.89999,5.40716],[-55.88956,5.50158],[-55.97438,5.63139],[-55.89725,5.6767]]]}},{"type":"Feature","properties":{"id":"sr-si","lat":3.73732,"lng":-55.97737},"geometry":{"type":"Polygon","coordinates":[[[-54.08023,3.30972],[-54.21118,3.12741],[-54.1702,2.85306],[-54.37562,2.48378],[-54.53158,2.34017],[-54.70412,2.32482],[-54.70319,2.44585],[-54.88029,2.44734],[-54.97858,2.54305],[-54.95909,2.60899],[-55.12089,2.52481],[-55.13779,2.56217],[-55.25192,2.49789],[-55.32052,2.5183],[-55.39959,2.43019],[-55.72429,2.39691],[-55.97102,2.53034],[-56.01335,2.39882],[-56.14677,2.25619],[-56.07293,2.24152],[-55.91826,2.05039],[-55.95381,1.85327],[-56.42981,1.9227],[-56.6778,2.01841],[-56.88014,2.2948],[-56.95127,2.51546],[-57.00057,2.51416],[-57.08987,2.77389],[-57.20227,2.84624],[-57.18382,2.94468],[-57.23461,2.97036],[-57.23332,3.14167],[-57.28603,3.14239],[-57.30841,3.39491],[-57.47625,3.33894],[-57.64994,3.38594],[-57.64405,3.51666],[-57.82977,3.66244],[-57.87515,3.8122],[-58.03214,3.98772],[-58.06593,4.17184],[-57.95385,4.29901],[-57.83742,4.65088],[-57.9185,4.82976],[-57.68694,5.00626],[-57.28045,5.0261],[-57.32143,5.07016],[-57.28898,5.17103],[-57.23332,5.14212],[-57.1849,5.18315],[-57.23252,5.26057],[-56.7239,5.33327],[-56.38996,5.32035],[-56.28671,5.38784],[-56.06001,5.39497],[-55.91687,5.53987],[-55.99877,5.10289],[-55.75326,5.08729],[-55.6766,4.97809],[-55.50299,5.08047],[-55.37649,4.85366],[-55.31104,4.06988],[-55.25959,4.01278],[-55.01129,4.17215],[-54.94744,4.13303],[-54.89731,4.22935],[-54.89747,4.4404],[-54.82065,4.53776],[-54.74112,4.88017],[-54.8513,4.98094],[-54.799,5.16997],[-54.66929,5.37931],[-54.473,5.3065],[-54.32065,5.21245],[-54.48672,4.90296],[-54.41055,4.20858],[-54.33857,4.15233],[-54.35386,4.04172],[-54.29314,3.94981],[-53.98882,3.61099],[-54.08023,3.30972]]]}},{"type":"Feature","properties":{"id":"sr-wa","lat":5.7359,"lng":-55.22563},"geometry":{"type":"Polygon","coordinates":[[[-55.25321,5.91779],[-55.21107,5.79913],[-55.03379,5.66947],[-55.35217,5.67268],[-55.25321,5.91779]]]}}]}
