{"type":"FeatureCollection","features":[{"type":"Feature","properties":{"id":"ss-bn","lat":8.9397,"lng":26.99631},"geometry":{"type":"Polygon","coordinates":[[[27.89507,9.59541],[28.04511,9.33141],[28.84384,9.32455],[28.99924,9.26745],[28.8855,9.19778],[28.83398,9.03167],[27.93244,8.9741],[27.70015,8.25107],[26.78573,7.82435],[26.63272,7.82753],[26.24525,8.09343],[26.14856,8.29128],[26.07022,8.9053],[26.10231,9.98816],[26.62574,9.48066],[27.08039,9.60683],[27.89507,9.59541]]]}},{"type":"Feature","properties":{"id":"ss-bw","lat":8.47597,"lng":25.15552},"geometry":{"type":"Polygon","coordinates":[[[24.26319,8.2685],[24.12156,8.37231],[24.25054,8.57963],[24.23576,8.682],[24.17695,8.70986],[24.38009,8.84422],[24.55838,8.88675],[24.68018,9.37336],[24.79252,9.5204],[24.7964,9.81886],[24.97628,9.96735],[25.06703,10.27493],[25.83933,10.42055],[25.90279,10.18553],[26.10231,9.98816],[26.07022,8.9053],[26.14856,8.29128],[26.24525,8.09343],[26.73483,7.80862],[27.70015,8.25107],[27.95946,7.89239],[28.19376,7.82722],[28.54956,7.61721],[28.61053,7.40826],[28.63958,6.73597],[28.11924,6.69393],[27.93538,6.81651],[26.37922,6.63136],[26.0912,6.83033],[26.02609,6.99668],[25.3468,7.34503],[25.16459,7.56734],[25.27942,7.65948],[25.2297,7.85161],[25.0293,7.91885],[24.83211,8.16573],[24.26319,8.2685]]]}},{"type":"Feature","properties":{"id":"ss-ec","lat":4.83194,"lng":31.41575},"geometry":{"type":"Polygon","coordinates":[[[29.81485,4.34676],[29.78369,4.53383],[30.08502,4.77707],[30.15762,4.7909],[30.35001,4.69212],[30.56308,4.87298],[30.85634,5.0107],[30.87871,5.33973],[30.96016,5.58064],[30.43523,6.12032],[30.87003,6.19272],[31.17787,5.98284],[31.58379,5.88564],[31.67148,5.92651],[32.2082,5.89626],[32.19238,5.15664],[32.3333,4.7888],[32.09477,4.24189],[31.91369,4.08104],[31.80111,3.80647],[31.68683,3.71282],[31.52374,3.65608],[31.16758,3.79241],[30.94445,3.67929],[30.83954,3.4902],[30.74694,3.67487],[30.54302,3.61291],[30.52525,3.86754],[30.18935,3.95609],[30.12269,4.10246],[29.92415,4.24558],[29.93035,4.30865],[29.81485,4.34676]]]}},{"type":"Feature","properties":{"id":"ss-ee","lat":4.73079,"lng":33.48355},"geometry":{"type":"Polygon","coordinates":[[[35.2693,5.49179],[35.2507,5.43515],[35.32077,5.34872],[35.46929,5.43076],[35.80415,5.31802],[35.75165,4.85436],[35.92083,4.61933],[35.78122,4.61992],[35.7394,4.68113],[35.70036,4.58911],[35.61064,4.62001],[35.52218,4.78046],[35.57084,4.90431],[35.39612,4.92643],[35.4116,5.03038],[34.38119,4.62016],[33.49065,3.74975],[33.16447,3.76305],[32.99724,3.88553],[32.75643,3.76902],[32.3718,3.73107],[32.18778,3.61916],[32.15585,3.51178],[31.93002,3.59836],[31.80111,3.80647],[31.91369,4.08104],[32.09477,4.24189],[32.3333,4.7888],[32.19238,5.15664],[32.2082,5.89626],[34.18807,5.77546],[34.96796,6.00813],[34.97443,5.86311],[35.09866,5.62247],[35.2693,5.49179]]]}},{"type":"Feature","properties":{"id":"ss-ew","lat":5.55777,"lng":29.10685},"geometry":{"type":"Polygon","coordinates":[[[26.50947,6.18639],[26.27021,6.46565],[26.37922,6.63136],[27.93538,6.81651],[28.11924,6.69393],[28.63958,6.73597],[28.62154,6.29163],[28.93501,5.86243],[29.14683,5.74102],[29.65455,5.69965],[29.91149,6.10544],[29.92239,6.45713],[30.18444,6.47661],[30.43523,6.12032],[30.93783,5.62976],[30.96388,5.53796],[30.87871,5.33973],[30.85634,5.0107],[30.56308,4.87298],[30.35001,4.69212],[30.15762,4.7909],[30.08502,4.77707],[29.7883,4.53937],[29.45761,4.66953],[29.39023,4.49376],[29.2213,4.34069],[28.98622,4.49593],[28.78995,4.48859],[28.75543,4.55399],[28.3815,4.2753],[28.30316,4.35224],[28.17759,4.34723],[28.10173,4.44213],[28.04974,4.41914],[28.01403,4.55003],[27.77244,4.59582],[27.7526,4.77767],[27.64098,4.89094],[27.51458,4.92244],[27.26447,5.26014],[27.21806,5.42551],[27.26105,5.57759],[27.18235,5.70746],[26.98107,5.8592],[26.81891,5.89463],[26.77633,5.98188],[26.54358,6.03085],[26.48105,6.10495],[26.42483,6.07245],[26.50947,6.18639]]]}},{"type":"Feature","properties":{"id":"ss-jg","lat":7.607,"lng":32.13669},"geometry":{"type":"Polygon","coordinates":[[[33.00757,7.94406],[33.0513,7.80113],[33.34714,7.71896],[33.46233,7.7495],[33.88241,7.53608],[34.02369,7.38244],[34.03361,7.25026],[34.18141,7.16721],[34.206,7.05451],[34.50366,6.89002],[34.53632,6.74308],[34.70354,6.68492],[34.96796,6.00813],[34.18807,5.77546],[31.64637,5.93755],[31.24179,6.74021],[31.06351,6.91761],[30.84642,7.03394],[30.54029,7.50884],[30.5668,7.55654],[30.49435,7.65747],[30.54959,7.80146],[30.38448,8.11615],[30.3111,8.14968],[30.36014,8.46034],[30.27524,8.5587],[30.3094,8.68534],[30.22744,8.76042],[30.19126,8.99048],[30.35838,9.19988],[30.3249,9.34783],[30.50489,9.53637],[30.95985,9.51456],[31.40514,9.34566],[31.52653,9.36367],[31.94506,8.86734],[32.33733,9.03144],[32.60796,8.56904],[32.88092,8.35505],[32.84102,8.03367],[33.00757,7.94406]]]}},{"type":"Feature","properties":{"id":"ss-lk","lat":6.82679,"lng":30.09816},"geometry":{"type":"Polygon","coordinates":[[[29.69863,7.82118],[29.89614,7.78348],[30.21488,7.12949],[30.81572,7.08076],[31.06351,6.91761],[31.31817,6.62169],[31.67148,5.92651],[31.58379,5.88564],[31.17787,5.98284],[30.87003,6.19272],[30.43523,6.12032],[30.18444,6.47661],[29.92239,6.45713],[29.91149,6.10544],[29.65455,5.69965],[29.14683,5.74102],[28.93501,5.86243],[28.62154,6.29163],[28.63958,6.73597],[28.83615,6.63458],[29.00312,6.68127],[29.17567,7.16845],[29.69863,7.82118]]]}},{"type":"Feature","properties":{"id":"ss-nu","lat":10.01469,"lng":32.69796},"geometry":{"type":"Polygon","coordinates":[[[34.10725,8.60153],[33.97077,8.44538],[33.75187,8.36879],[33.62041,8.4607],[33.23516,8.45563],[33.16188,8.36151],[33.18514,8.14108],[33.00757,7.94406],[32.84102,8.03367],[32.88092,8.35505],[32.60796,8.56904],[32.35718,9.01849],[31.94506,8.86734],[31.52653,9.36367],[31.40514,9.34566],[30.93861,9.51766],[30.94991,9.75245],[31.23482,9.79232],[31.80196,10.37624],[31.94289,10.65555],[32.43071,11.08219],[32.34875,11.30758],[32.34834,11.70316],[32.08221,11.99981],[32.74666,12.00273],[32.73178,12.21616],[33.20922,12.21037],[33.08323,11.59916],[33.18209,10.84324],[33.14002,10.73904],[33.3813,10.64579],[33.91698,10.17452],[33.97325,9.85485],[33.88143,9.49921],[33.90085,9.45529],[34.0707,9.45459],[34.10725,8.60153]]]}},{"type":"Feature","properties":{"id":"ss-uy","lat":8.66353,"lng":29.81992},"geometry":{"type":"Polygon","coordinates":[[[30.77908,9.71987],[30.94991,9.75245],[30.93861,9.51766],[30.48814,9.52823],[30.3249,9.34783],[30.35838,9.19988],[30.19126,8.99048],[30.22744,8.76042],[30.3094,8.68534],[30.27524,8.5587],[30.36014,8.46034],[30.3111,8.14968],[30.38448,8.11615],[30.54959,7.80146],[30.49435,7.65747],[30.5668,7.55654],[30.54029,7.50884],[30.81572,7.08076],[30.33234,7.09249],[30.21488,7.12949],[29.88482,7.79728],[29.69863,7.82118],[29.63641,8.44636],[29.3507,8.64172],[29.09515,9.0295],[28.83398,9.03167],[28.8855,9.19778],[28.99971,9.27173],[28.84384,9.32455],[28.82875,9.42747],[29.13226,9.66773],[29.48309,9.76168],[29.61388,9.91446],[29.61543,10.05815],[30.01298,10.27049],[30.77908,9.71987]]]}},{"type":"Feature","properties":{"id":"ss-wr","lat":7.8598,"lng":28.88642},"geometry":{"type":"Polygon","coordinates":[[[27.91197,8.95852],[29.09515,9.0295],[29.3507,8.64172],[29.6623,8.40432],[29.69863,7.82118],[29.17567,7.16845],[29.02348,6.70827],[28.90504,6.64094],[28.80174,6.63985],[28.63958,6.73597],[28.61053,7.40826],[28.54956,7.61721],[28.19376,7.82722],[27.95946,7.89239],[27.70015,8.25107],[27.91197,8.95852]]]}}]}
