{"type":"FeatureCollection","features":[{"type":"Feature","properties":{"id":"sv-ah","lat":13.89688,"lng":-89.90612},"geometry":{"type":"Polygon","coordinates":[[[-90.09831,13.7314],[-90.10698,13.84407],[-90.00817,13.94969],[-89.83585,14.05909],[-89.7162,14.02522],[-89.81976,13.67968],[-89.91055,13.70924],[-89.95348,13.66507],[-90.09831,13.7314]]]}},{"type":"Feature","properties":{"id":"sv-ca","lat":13.85678,"lng":-88.73134},"geometry":{"type":"Polygon","coordinates":[[[-88.69081,14.01179],[-88.49542,13.97514],[-88.53234,13.75937],[-88.73561,13.81228],[-88.89384,13.76487],[-88.97273,13.90127],[-88.69081,14.01179]]]}},{"type":"Feature","properties":{"id":"sv-ch","lat":14.16002,"lng":-89.12804},"geometry":{"type":"Polygon","coordinates":[[[-89.34621,14.41308],[-89.15399,14.3513],[-89.10748,14.39597],[-88.96599,14.19138],[-88.88126,14.1842],[-88.83876,14.10041],[-88.74639,14.11134],[-88.69081,14.01179],[-88.92973,13.94791],[-89.11714,14.0755],[-89.41301,14.04023],[-89.40797,14.13583],[-89.24651,14.32285],[-89.34621,14.41308]]]}},{"type":"Feature","properties":{"id":"sv-cu","lat":13.81054,"lng":-89.00265},"geometry":{"type":"Polygon","coordinates":[[[-88.92973,13.94791],[-88.974,13.88468],[-88.85026,13.75063],[-88.94335,13.64229],[-89.02358,13.67294],[-89.1329,13.87045],[-89.14135,14.067],[-88.92973,13.94791]]]}},{"type":"Feature","properties":{"id":"sv-li","lat":13.74724,"lng":-89.35169},"geometry":{"type":"Polygon","coordinates":[[[-89.13572,13.41446],[-89.60943,13.51306],[-89.43758,13.7564],[-89.43089,13.92117],[-89.32478,14.07162],[-89.19659,13.93605],[-89.26238,13.73808],[-89.20349,13.65265],[-89.21145,13.52868],[-89.11267,13.46011],[-89.13572,13.41446]]]}},{"type":"Feature","properties":{"id":"sv-mo","lat":13.78107,"lng":-88.08962},"geometry":{"type":"Polygon","coordinates":[[[-88.23507,13.99287],[-88.09904,13.98982],[-88.01532,13.86636],[-87.9526,13.89203],[-87.93961,13.69798],[-88.00855,13.55145],[-88.20389,13.59535],[-88.25939,13.68578],[-88.20645,13.75353],[-88.26169,13.80861],[-88.23507,13.99287]]]}},{"type":"Feature","properties":{"id":"sv-pa","lat":13.48129,"lng":-88.96482},"geometry":{"type":"Polygon","coordinates":[[[-88.83156,13.26608],[-89.13572,13.41446],[-89.12959,13.6],[-89.02358,13.67294],[-88.89607,13.66258],[-88.8092,13.54811],[-88.78132,13.40546],[-88.83156,13.26608]]]}},{"type":"Feature","properties":{"id":"sv-sa","lat":14.09299,"lng":-89.57085},"geometry":{"type":"Polygon","coordinates":[[[-89.74801,14.0449],[-89.68984,14.17001],[-89.52451,14.23177],[-89.59835,14.32799],[-89.56988,14.41202],[-89.54135,14.38153],[-89.39818,14.44537],[-89.24651,14.32285],[-89.40797,14.13583],[-89.42412,14.05015],[-89.37136,14.04059],[-89.45663,13.77508],[-89.63483,13.82706],[-89.71883,13.90897],[-89.69586,13.99372],[-89.74801,14.0449]]]}},{"type":"Feature","properties":{"id":"sv-sm","lat":13.50708,"lng":-88.19675},"geometry":{"type":"Polygon","coordinates":[[[-88.49682,13.8512],[-88.25696,13.88484],[-88.20645,13.75353],[-88.25939,13.68578],[-88.20562,13.59651],[-88.00855,13.55145],[-88.02589,13.29792],[-88.08198,13.26867],[-88.09147,13.17271],[-88.34494,13.3503],[-88.38783,13.46272],[-88.36292,13.6494],[-88.52966,13.73583],[-88.49682,13.8512]]]}},{"type":"Feature","properties":{"id":"sv-so","lat":13.69446,"lng":-89.65114},"geometry":{"type":"Polygon","coordinates":[[[-89.60943,13.51306],[-89.80805,13.52686],[-89.95348,13.66507],[-89.91055,13.70924],[-89.81976,13.67968],[-89.77072,13.89398],[-89.67491,13.90538],[-89.61212,13.80712],[-89.57693,13.84275],[-89.43766,13.76531],[-89.60943,13.51306]]]}},{"type":"Feature","properties":{"id":"sv-ss","lat":13.81006,"lng":-89.16883},"geometry":{"type":"Polygon","coordinates":[[[-89.14135,14.067],[-89.13561,13.87804],[-89.02358,13.67294],[-89.18315,13.48812],[-89.26269,13.74208],[-89.1962,13.93437],[-89.2738,13.99695],[-89.26731,14.05211],[-89.14135,14.067]]]}},{"type":"Feature","properties":{"id":"sv-sv","lat":13.47539,"lng":-88.74065},"geometry":{"type":"Polygon","coordinates":[[[-88.73186,13.34149],[-88.83156,13.26608],[-88.82912,13.2963],[-88.78132,13.40546],[-88.80848,13.54532],[-88.89607,13.66258],[-88.84886,13.77931],[-88.73561,13.81228],[-88.53234,13.75937],[-88.48733,13.68826],[-88.65936,13.55501],[-88.73186,13.34149]]]}},{"type":"Feature","properties":{"id":"sv-un","lat":13.49683,"lng":-87.87666},"geometry":{"type":"MultiPolygon","coordinates":[[[[-87.72311,13.16408],[-87.70609,13.21173],[-87.69319,13.16786],[-87.72311,13.16408]]],[[[-87.76578,13.24801],[-87.76381,13.21429],[-87.78017,13.24164],[-87.76578,13.24801]]],[[[-87.79872,13.88233],[-87.70361,13.815],[-87.78993,13.53282],[-87.72115,13.46083],[-87.81717,13.40656],[-87.83829,13.44094],[-87.87377,13.36526],[-87.79809,13.26565],[-87.91246,13.19819],[-87.89293,13.16657],[-88.09147,13.17271],[-87.93961,13.69798],[-87.9526,13.89203],[-87.79872,13.88233]]]]}},{"type":"Feature","properties":{"id":"sv-us","lat":13.46051,"lng":-88.52454},"geometry":{"type":"Polygon","coordinates":[[[-88.11251,13.1712],[-88.32494,13.16657],[-88.35228,13.17402],[-88.32811,13.19709],[-88.35843,13.22866],[-88.33792,13.19453],[-88.41482,13.17158],[-88.44957,13.25458],[-88.4547,13.21503],[-88.59866,13.28388],[-88.72277,13.2696],[-88.57738,13.26284],[-88.53661,13.22122],[-88.59866,13.22866],[-88.47391,13.19863],[-88.4617,13.16828],[-88.81716,13.26162],[-88.73186,13.34149],[-88.65936,13.55501],[-88.43454,13.69214],[-88.36292,13.6494],[-88.35499,13.36601],[-88.22712,13.3088],[-88.11251,13.1712]]]}}]}
