{"type":"FeatureCollection","features":[{"type":"Feature","properties":{"id":"sy-di","lat":33.49609,"lng":36.29058},"geometry":{"type":"Polygon","coordinates":[[[36.18316,33.53149],[36.3511,33.54388],[36.31661,33.46069],[36.18316,33.53149]]]}},{"type":"Feature","properties":{"id":"sy-dr","lat":32.82363,"lng":36.08639},"geometry":{"type":"Polygon","coordinates":[[[36.00362,32.65509],[35.76973,32.74805],[35.93422,32.95848],[35.98729,32.95065],[35.96166,33.20482],[36.14697,33.20379],[36.23493,33.29086],[36.38158,33.19818],[36.51439,33.29218],[36.57087,33.19397],[36.48199,33.17084],[36.47264,33.1164],[36.54483,33.00383],[36.41931,32.997],[36.33626,32.89921],[36.3558,32.70741],[36.45062,32.66677],[36.40065,32.5785],[36.50664,32.55062],[36.51668,32.35701],[36.37311,32.38642],[36.17736,32.52732],[36.06625,32.51732],[36.00362,32.65509]]]}},{"type":"Feature","properties":{"id":"sy-dy","lat":35.40076,"lng":40.31418},"geometry":{"type":"Polygon","coordinates":[[[41.30846,35.55225],[41.19152,35.18214],[41.20423,34.79312],[40.98802,34.42852],[40.17311,34.07228],[39.44455,34.93639],[39.37437,35.14922],[39.24203,35.24927],[39.67497,35.77087],[39.64144,35.86432],[39.80453,36.46367],[39.90075,36.32429],[40.77496,35.6263],[41.30846,35.55225]]]}},{"type":"Feature","properties":{"id":"sy-ha","lat":36.4278,"lng":40.5787},"geometry":{"type":"Polygon","coordinates":[[[42.2112,37.32491],[42.3467,37.23977],[42.37719,37.06224],[41.81732,36.59973],[41.38541,36.51638],[41.27699,36.35478],[41.23669,36.06033],[41.35926,35.79275],[41.30846,35.55225],[40.77496,35.6263],[39.90075,36.32429],[39.78251,36.50082],[39.53824,36.55712],[39.44171,36.69237],[39.97981,36.80695],[40.70897,37.10048],[41.47977,37.07557],[42.00925,37.17561],[42.2112,37.32491]]]}},{"type":"Feature","properties":{"id":"sy-hi","lat":34.32544,"lng":38.25956},"geometry":{"type":"Polygon","coordinates":[[[36.43626,34.59784],[36.30893,34.68755],[36.26159,34.62724],[36.11214,34.62953],[36.28707,34.89358],[36.41941,34.85162],[36.49501,34.95254],[36.55971,34.90185],[36.87365,34.97833],[36.97276,34.8609],[37.18799,34.94469],[37.2544,34.90955],[37.34628,34.98463],[37.49728,34.96347],[37.51092,35.05171],[37.73685,35.11863],[37.99198,34.89875],[38.05698,35.00665],[38.24318,35.09605],[38.30167,35.38234],[38.68418,35.37231],[39.24203,35.24927],[39.34275,35.18199],[39.44455,34.93639],[40.17311,34.07228],[38.31574,33.13118],[37.64797,33.52788],[37.25554,33.94201],[37.06898,34.00979],[36.87008,34.22794],[36.60355,34.2001],[36.52514,34.42294],[36.31988,34.51412],[36.43626,34.59784]]]}},{"type":"Feature","properties":{"id":"sy-hl","lat":36.19341,"lng":37.44852},"geometry":{"type":"Polygon","coordinates":[[[38.22426,36.90839],[38.52936,36.83372],[38.64816,36.69916],[38.57323,36.66107],[38.5847,36.61559],[38.671,36.62526],[38.5844,36.37483],[38.15336,36.2459],[38.0621,36.14092],[38.18018,35.96251],[38.02143,35.63307],[38.2348,35.43587],[37.72383,35.4452],[37.12934,35.59157],[37.05565,35.71369],[37.09802,35.768],[37.00087,35.82153],[36.88093,36.03075],[36.72621,36.12648],[36.83902,36.24616],[36.76626,36.3322],[36.58777,36.32481],[36.53382,36.46248],[36.63986,36.82809],[36.9647,36.75383],[37.05307,36.61994],[37.44612,36.6342],[38.22426,36.90839]]]}},{"type":"Feature","properties":{"id":"sy-hm","lat":35.27813,"lng":37.26247},"geometry":{"type":"Polygon","coordinates":[[[37.21642,35.55147],[37.80853,35.43494],[38.2348,35.43587],[38.30167,35.38234],[38.29532,35.23718],[38.23976,35.0914],[38.05698,35.00665],[37.98872,34.89828],[37.74072,35.11863],[37.51092,35.05171],[37.49728,34.96347],[37.34628,34.98463],[37.2544,34.90955],[37.18799,34.94469],[36.97276,34.8609],[36.88403,34.97717],[36.55971,34.90185],[36.49501,34.95254],[36.42783,34.85353],[36.34045,34.84981],[36.26009,34.96629],[36.14403,34.97533],[36.26521,35.07111],[36.20128,35.42518],[36.19989,35.67725],[36.25482,35.75593],[36.41228,35.71121],[36.3929,35.50013],[36.42613,35.4366],[36.53708,35.40817],[36.82895,35.41704],[36.90403,35.35841],[36.99762,35.4259],[37.00955,35.32317],[37.08325,35.31909],[37.14205,35.34885],[37.13554,35.40647],[37.07782,35.38973],[37.0988,35.44226],[37.21642,35.55147]]]}},{"type":"Feature","properties":{"id":"sy-id","lat":35.81343,"lng":36.58885},"geometry":{"type":"Polygon","coordinates":[[[36.36143,36.21815],[36.67004,36.23732],[36.64876,36.30572],[36.76115,36.33267],[36.83902,36.24616],[36.72621,36.12648],[36.88093,36.03075],[36.99297,35.83112],[37.10097,35.76386],[37.05565,35.71369],[37.09224,35.62912],[37.21642,35.55147],[37.07689,35.40115],[37.13833,35.40414],[37.1405,35.34601],[37.0125,35.32087],[36.99762,35.4259],[36.90403,35.35841],[36.82895,35.41704],[36.42613,35.4366],[36.41228,35.71121],[36.26583,35.74407],[36.27947,35.79575],[36.15085,35.79471],[36.19689,35.95171],[36.35802,35.99398],[36.36143,36.21815]]]}},{"type":"Feature","properties":{"id":"sy-la","lat":35.49988,"lng":36.02061},"geometry":{"type":"Polygon","coordinates":[[[35.98026,35.92685],[36.28846,35.78588],[36.19942,35.67307],[36.25296,35.22343],[36.02564,35.2195],[35.9312,35.26149],[35.91896,35.41767],[35.7234,35.5821],[35.84034,35.74746],[35.79859,35.84968],[35.87086,35.85179],[35.9113,35.91775],[35.98026,35.92685]]]}},{"type":"Feature","properties":{"id":"sy-qu","lat":33.07922,"lng":35.93558},"geometry":{"type":"Polygon","coordinates":[[[35.8468,32.83578],[35.92383,32.96768],[35.87712,32.99264],[35.91133,33.16581],[35.82017,33.28055],[35.84298,33.3228],[35.88999,33.24056],[35.96337,33.24789],[35.98729,32.95065],[35.93422,32.95848],[35.8468,32.83578]]]}},{"type":"Feature","properties":{"id":"sy-ra","lat":36.05171,"lng":38.90678},"geometry":{"type":"Polygon","coordinates":[[[38.72501,36.69394],[39.44171,36.69237],[39.53824,36.55712],[39.80453,36.46367],[39.64144,35.86432],[39.67497,35.77087],[39.24203,35.24927],[38.68418,35.37231],[38.30167,35.38234],[38.02794,35.6186],[38.05187,35.76913],[38.18018,35.96251],[38.0621,36.14092],[38.15336,36.2459],[38.42518,36.29205],[38.59339,36.383],[38.66945,36.55808],[38.66542,36.63813],[38.57277,36.64694],[38.64057,36.67549],[38.63519,36.74404],[38.72501,36.69394]]]}},{"type":"Feature","properties":{"id":"sy-rd","lat":33.41938,"lng":36.85296},"geometry":{"type":"Polygon","coordinates":[[[36.26717,33.91039],[36.60355,34.2001],[36.87008,34.22794],[37.06898,34.00979],[37.25554,33.94201],[37.64797,33.52788],[38.31574,33.13118],[37.49461,32.69006],[37.2839,32.86259],[37.25719,32.94631],[36.96067,33.07806],[36.82383,33.22469],[36.57087,33.19397],[36.51083,33.29476],[36.38158,33.19818],[36.23493,33.29086],[36.21338,33.22627],[36.03106,33.17834],[35.95701,33.25154],[35.88999,33.24056],[35.83495,33.37807],[36.03845,33.58635],[35.92156,33.6403],[35.94843,33.70921],[36.13829,33.85062],[36.3575,33.82378],[36.26717,33.91039]],[[36.31661,33.46069],[36.33496,33.56211],[36.18316,33.53149],[36.21435,33.47642],[36.31661,33.46069]]]}},{"type":"Feature","properties":{"id":"sy-su","lat":32.785,"lng":36.86484},"geometry":{"type":"Polygon","coordinates":[[[37.49461,32.69006],[36.81938,32.31679],[36.51668,32.35701],[36.50664,32.55062],[36.4022,32.57669],[36.45062,32.66677],[36.3558,32.70741],[36.34122,32.94391],[36.54374,33.0022],[36.47264,33.1164],[36.50478,33.1864],[36.82383,33.22469],[36.96067,33.07806],[37.25719,32.94631],[37.2839,32.86259],[37.49461,32.69006]]]}},{"type":"Feature","properties":{"id":"sy-ta","lat":34.96321,"lng":36.03801},"geometry":{"type":"Polygon","coordinates":[[[36.11214,34.62953],[35.9699,34.64985],[35.86687,34.92422],[35.88787,35.1092],[35.96241,35.19794],[35.9312,35.26149],[36.25296,35.22343],[36.25699,35.04794],[36.13684,35.0022],[36.31316,34.90092],[36.11214,34.62953]]]}},{"type":"Feature","properties":{"id":"sy-x01~","lat":33.12368,"lng":35.85951},"geometry":{"type":"Polygon","coordinates":[[[35.75759,32.74435],[35.88807,32.94494],[35.76384,33.3344],[35.87009,33.43124],[35.81934,33.28443],[35.91133,33.16581],[35.86461,33.08155],[35.92383,32.96768],[35.75759,32.74435]]]}}]}
