{"type":"FeatureCollection","features":[{"type":"Feature","properties":{"id":"sz-hh","lat":-26.04714,"lng":31.35639},"geometry":{"type":"Polygon","coordinates":[[[31.40147,-25.736],[31.74697,-25.93079],[31.66885,-25.95221],[31.67691,-26.14207],[31.29115,-26.314],[31.26107,-26.45425],[31.08304,-26.41689],[30.89732,-26.29173],[31.11984,-25.91005],[31.40147,-25.736]]]}},{"type":"Feature","properties":{"id":"sz-lu","lat":-26.49536,"lng":31.84919},"geometry":{"type":"Polygon","coordinates":[[[31.94924,-25.9581],[32.07058,-26.00978],[32.03988,-26.28367],[32.1174,-26.58225],[32.11388,-26.84001],[31.99007,-26.80829],[31.9442,-27.16234],[31.53868,-26.95732],[31.49661,-26.89676],[31.55836,-26.76793],[31.48824,-26.76214],[31.60012,-26.61621],[31.60601,-26.40846],[31.68714,-26.30015],[31.67195,-25.94358],[31.86336,-25.98994],[31.94924,-25.9581]]]}},{"type":"Feature","properties":{"id":"sz-ma","lat":-26.5443,"lng":31.19462},"geometry":{"type":"Polygon","coordinates":[[[30.80244,-26.8089],[30.78291,-26.47239],[30.89732,-26.29173],[31.08304,-26.41689],[31.25296,-26.45652],[31.29115,-26.314],[31.66978,-26.15189],[31.69768,-26.24915],[31.60601,-26.40846],[31.60012,-26.61621],[31.48824,-26.76214],[31.06863,-26.87774],[31.04382,-26.7701],[30.80244,-26.8089]]]}},{"type":"Feature","properties":{"id":"sz-sh","lat":-27.09869,"lng":31.44339},"geometry":{"type":"Polygon","coordinates":[[[31.24471,-27.23259],[30.97607,-27.03504],[30.89949,-26.77191],[31.04382,-26.7701],[31.06863,-26.87774],[31.55309,-26.76353],[31.52017,-26.93753],[31.9442,-27.16234],[31.96826,-27.31626],[31.52653,-27.31089],[31.24471,-27.23259]]]}}]}
