{"type":"FeatureCollection","features":[{"type":"Feature","properties":{"id":"td-ba","lat":14.69724,"lng":18.88352},"geometry":{"type":"Polygon","coordinates":[[[16.94112,12.90841],[17.20213,13.25097],[17.23815,13.72061],[17.55141,13.82009],[17.99289,15.61641],[18.20905,15.45725],[18.47999,15.38387],[18.89242,15.49507],[19.13044,15.73072],[19.22077,16.1818],[19.36939,16.13349],[19.40975,15.98259],[19.55501,15.88637],[20.00005,15.78384],[20.00005,14.01062],[20.23854,13.88623],[20.30479,13.22322],[20.2604,13.04354],[19.99028,12.97058],[19.70575,13.05557],[19.09618,12.74868],[18.43529,12.76377],[17.98669,12.48244],[17.82592,12.45717],[17.56475,12.23626],[17.5601,12.15564],[17.38445,12.20907],[17.25753,12.51552],[17.12529,12.62311],[17.03889,12.82991],[16.94112,12.90841]]]}},{"type":"Feature","properties":{"id":"td-bg","lat":14.69454,"lng":16.94389},"geometry":{"type":"Polygon","coordinates":[[[15.88361,13.18788],[15.85741,13.7451],[15.75824,13.79017],[15.60072,13.75393],[15.59046,14.07674],[15.77427,14.14822],[16.11125,14.57711],[16.13167,14.81198],[16.48908,16.03738],[16.67139,16.34187],[17.85527,15.78457],[17.99289,15.61641],[17.55141,13.82009],[17.23815,13.72061],[17.20213,13.25097],[17.1317,13.144],[16.99729,13.18209],[16.44781,13.05099],[15.99999,13.04758],[15.88361,13.18788]]]}},{"type":"Feature","properties":{"id":"td-bo","lat":18.98295,"lng":18.31207},"geometry":{"type":"Polygon","coordinates":[[[18.91712,21.99685],[20.89333,21.02094],[20.00428,19.27952],[20.15256,18.68638],[20.42442,17.96966],[20.39971,17.1788],[20.30085,16.75866],[20.63702,15.84372],[20.48354,15.7116],[20.29176,15.66902],[20.11286,15.7641],[19.55501,15.88637],[19.40975,15.98259],[19.36939,16.13349],[19.22077,16.1818],[19.20744,15.94006],[19.04698,15.61465],[18.79124,15.45053],[18.47999,15.38387],[18.08492,15.53166],[17.84282,15.79252],[15.46852,16.90491],[15.49025,17.12454],[17.35984,20.41638],[17.40927,20.68824],[17.82941,20.71295],[18.1507,20.93538],[18.74385,21.1331],[18.71913,21.84981],[18.91712,21.99685]]]}},{"type":"Feature","properties":{"id":"td-cb","lat":11.1253,"lng":16.3292},"geometry":{"type":"Polygon","coordinates":[[[14.9648,12.09244],[14.89804,12.1528],[14.90486,12.24866],[15.30453,12.34076],[15.49855,12.26928],[15.713,12.35097],[15.9785,12.37139],[16.06019,12.4633],[16.64226,12.22843],[16.78522,11.73827],[16.98945,11.68721],[17.26517,11.49319],[17.2958,10.58436],[17.53374,10.4637],[17.32952,9.81583],[16.73989,10.02647],[16.63297,10.09561],[16.56812,10.25167],[16.44022,10.19287],[16.1963,10.21194],[16.10845,10.44603],[16.13398,10.74648],[15.74558,10.81123],[15.54875,10.92595],[15.34287,11.17038],[15.2313,11.18454],[15.02883,11.08022],[15.06061,11.41613],[15.13564,11.53082],[15.0694,11.66079],[15.11094,11.7829],[15.04418,11.87731],[15.08118,11.97167],[15.04056,12.05565],[15.1253,12.11357],[15.05001,12.18092],[14.9648,12.09244]]]}},{"type":"Feature","properties":{"id":"td-gr","lat":11.41927,"lng":18.06481},"geometry":{"type":"Polygon","coordinates":[[[17.26517,11.49319],[17.45919,11.66679],[17.62557,11.7151],[17.5171,11.93281],[17.56475,12.23626],[17.82592,12.45717],[17.98669,12.48244],[18.43529,12.76377],[19.11261,12.75173],[19.70575,13.05557],[20.17074,12.85441],[20.1695,12.78785],[20.04863,12.66848],[20.09405,12.59484],[19.88554,12.34338],[19.82001,12.08701],[19.3896,12.15895],[19.21922,11.99937],[19.29369,11.87287],[19.1908,11.67366],[19.0614,11.61572],[19.0122,11.70321],[18.86761,11.69236],[18.86043,11.34535],[19.62855,10.99168],[19.69294,10.91773],[19.65837,10.61847],[19.53372,10.49538],[19.37859,10.46913],[19.28159,10.34924],[19.30268,10.29994],[19.04946,10.03567],[18.79527,9.99484],[18.75697,9.88177],[18.60241,9.91097],[18.60706,10.02078],[18.45312,10.17912],[18.14513,10.34149],[17.93129,10.38242],[17.82716,10.47388],[17.53374,10.4637],[17.2958,10.58436],[17.26517,11.49319]]]}},{"type":"Feature","properties":{"id":"td-hl","lat":12.41735,"lng":15.44358},"geometry":{"type":"Polygon","coordinates":[[[14.56069,12.76622],[14.48104,13.00051],[15.01405,13.00334],[15.0432,13.09796],[14.99663,13.25966],[15.17404,13.20374],[15.2699,13.10204],[15.38317,13.19878],[15.2145,13.37241],[15.35682,13.40512],[15.74305,13.18214],[15.88361,13.18788],[15.99999,13.04758],[16.44781,13.05099],[16.8187,13.15951],[17.05966,13.17057],[17.1317,13.144],[16.94112,12.90841],[17.03889,12.82991],[17.12529,12.62311],[17.25753,12.51552],[17.38445,12.20907],[17.5601,12.15564],[17.5171,11.93281],[17.62557,11.7151],[17.45919,11.66679],[17.26517,11.49319],[16.98945,11.68721],[16.83628,11.69743],[16.67289,12.00377],[16.64226,12.22843],[16.06019,12.4633],[15.9785,12.37139],[15.713,12.35097],[15.49855,12.26928],[15.30453,12.34076],[14.90486,12.24866],[14.81918,12.63882],[14.56069,12.76622]]]}},{"type":"Feature","properties":{"id":"td-ka","lat":15.38462,"lng":15.20007},"geometry":{"type":"Polygon","coordinates":[[[13.60805,14.51827],[13.6656,14.56689],[13.64835,14.64942],[13.76436,14.71908],[13.75516,14.84721],[13.83391,15.0196],[14.36897,15.74963],[15.46852,16.90491],[16.67139,16.34187],[16.48908,16.03738],[16.13167,14.81198],[16.11125,14.57711],[15.77427,14.14822],[15.59046,14.07674],[15.60072,13.75393],[15.75824,13.79017],[15.85741,13.7451],[15.8402,13.64263],[15.89839,13.5215],[15.87167,13.1715],[15.56014,13.26483],[15.37582,13.75198],[14.80517,13.66382],[14.47744,14.10451],[14.35657,14.13495],[14.08734,14.41669],[13.60805,14.51827]]]}},{"type":"Feature","properties":{"id":"td-lc","lat":13.92825,"lng":14.0817},"geometry":{"type":"Polygon","coordinates":[[[14.06491,13.07799],[13.60731,13.7041],[13.44918,14.38013],[13.54386,14.51056],[13.73558,14.5157],[14.08734,14.41669],[14.35657,14.13495],[14.47744,14.10451],[14.80517,13.66382],[15.37582,13.75198],[15.56014,13.26483],[15.36814,13.40497],[15.21905,13.37779],[15.38209,13.18886],[15.25951,13.10122],[15.17404,13.20374],[14.99121,13.25749],[15.0432,13.09796],[14.99839,12.99983],[14.48104,13.00051],[14.41817,13.08114],[14.06491,13.07799]]]}},{"type":"Feature","properties":{"id":"td-lo","lat":8.82497,"lng":15.95897},"geometry":{"type":"Polygon","coordinates":[[[16.35743,9.23871],[16.59246,8.91749],[16.4905,8.73244],[16.00412,8.51101],[15.81364,8.31582],[15.61407,8.26203],[15.27321,8.44863],[15.42818,9.01346],[15.81814,9.02508],[16.02205,9.11727],[16.14695,9.08854],[16.35743,9.23871]]]}},{"type":"Feature","properties":{"id":"td-lr","lat":8.30019,"lng":16.49379},"geometry":{"type":"Polygon","coordinates":[[[17.23379,7.8108],[17.10193,7.67772],[16.88065,7.63287],[16.80552,7.54368],[16.61421,7.67958],[16.54868,7.87001],[16.39221,7.78361],[16.37081,7.6725],[16.04298,7.58393],[15.92526,7.48818],[15.75835,7.45557],[15.66853,7.51629],[15.51557,7.5122],[15.48105,7.52326],[15.56291,7.79244],[15.44074,7.83942],[15.21071,8.42182],[15.27321,8.44863],[15.57081,8.25815],[15.81364,8.31582],[16.00412,8.51101],[16.51349,8.75316],[16.59618,8.90266],[16.43536,9.12761],[16.9191,9.03614],[17.10483,9.06978],[17.11738,8.78365],[17.03346,8.63265],[17.24947,8.28456],[17.16673,8.15847],[17.08018,8.13682],[17.23379,7.8108]]]}},{"type":"Feature","properties":{"id":"td-ma","lat":8.70815,"lng":17.54436},"geometry":{"type":"Polygon","coordinates":[[[18.17543,8.02195],[17.85879,7.96044],[17.63988,7.98504],[17.23379,7.8108],[17.08018,8.13682],[17.16673,8.15847],[17.24947,8.29055],[17.03346,8.63265],[17.11738,8.78365],[17.10483,9.06978],[17.18565,9.15655],[17.06323,9.26336],[17.21004,9.38599],[17.23422,9.59202],[17.45519,9.64189],[17.57932,9.55886],[17.62493,9.45246],[17.71309,9.4555],[17.79517,9.29134],[18.16546,9.1601],[18.09148,9.0412],[17.96746,9.00739],[17.93751,8.85973],[18.0142,8.8037],[18.01247,8.62161],[18.12866,8.37882],[18.17543,8.02195]]]}},{"type":"Feature","properties":{"id":"td-mc","lat":9.36126,"lng":18.79545},"geometry":{"type":"Polygon","coordinates":[[[19.93209,9.06333],[19.02192,8.98522],[18.86978,8.84941],[19.12413,8.67508],[18.81304,8.27642],[18.63858,8.17764],[18.58928,8.04788],[18.17543,8.02195],[18.12866,8.37882],[18.01247,8.62161],[18.0142,8.8037],[17.93751,8.85973],[17.96746,9.00739],[18.09148,9.0412],[18.16546,9.1601],[17.79517,9.29134],[17.73437,9.43118],[17.62493,9.45246],[17.53653,9.58706],[17.54382,9.68396],[17.32952,9.81583],[17.53374,10.4637],[17.82716,10.47388],[17.93129,10.38242],[18.14513,10.34149],[18.45312,10.17912],[18.60706,10.02078],[18.60039,9.91309],[18.6977,9.86669],[18.76271,9.88451],[18.79527,9.99484],[19.04946,10.03567],[19.30268,10.29994],[19.28159,10.34924],[19.37859,10.46913],[19.53372,10.49538],[19.65837,10.61847],[19.60591,10.35916],[19.64095,10.22522],[19.57207,10.07561],[19.93209,9.06333]]]}},{"type":"Feature","properties":{"id":"td-me","lat":10.23073,"lng":15.78409},"geometry":{"type":"Polygon","coordinates":[[[15.38297,9.9302],[15.68124,9.99128],[15.4764,10.13274],[15.30142,10.31175],[15.21833,10.48722],[15.13823,10.52166],[15.02883,11.08022],[15.23688,11.18578],[15.42198,11.12397],[15.54875,10.92595],[15.74558,10.81123],[16.13398,10.74648],[16.12649,10.31503],[16.24628,10.14972],[16.15843,9.85573],[15.97394,9.68323],[15.83069,9.74132],[15.43826,9.18683],[15.08964,9.39443],[14.99477,9.67142],[14.73754,9.66583],[14.72285,9.78727],[14.73246,9.92381],[14.89814,9.96048],[15.21492,9.98409],[15.38297,9.9302]]]}},{"type":"Feature","properties":{"id":"td-mo","lat":9.28857,"lng":14.75626},"geometry":{"type":"Polygon","coordinates":[[[14.44049,9.99531],[14.73246,9.92381],[14.73754,9.66583],[14.99477,9.67142],[15.08964,9.39443],[15.44219,9.1827],[15.46389,9.02674],[15.30592,8.67177],[15.27321,8.44863],[15.21071,8.42182],[15.05193,8.64379],[14.34954,9.16836],[13.9476,9.63776],[14.17353,9.97503],[14.44049,9.99531]]]}},{"type":"Feature","properties":{"id":"td-nd","lat":12.11233,"lng":15.06586},"geometry":{"type":"Polygon","coordinates":[[[15.04056,12.05565],[15.01349,12.13401],[15.07432,12.1793],[15.12253,12.09065],[15.04056,12.05565]]]}},{"type":"Feature","properties":{"id":"td-od","lat":13.55296,"lng":21.21636},"geometry":{"type":"Polygon","coordinates":[[[22.18076,13.92056],[22.07372,13.77136],[22.26761,13.33456],[21.96407,13.09835],[21.80945,12.79367],[21.57448,12.88198],[21.2375,12.67774],[20.98221,12.66753],[20.84945,12.71859],[20.83924,12.88198],[20.68607,12.91261],[20.67586,13.04536],[20.29455,13.09233],[20.23854,13.88623],[20.00005,14.01062],[20.00005,14.15598],[20.28804,14.44139],[20.55154,14.47023],[20.84418,14.35504],[20.95808,14.20415],[21.1682,14.10146],[21.42172,14.1519],[21.70227,14.11087],[22.18076,13.92056]]]}},{"type":"Feature","properties":{"id":"td-sa","lat":10.49794,"lng":20.67421},"geometry":{"type":"Polygon","coordinates":[[[22.36469,10.95421],[22.17635,10.81621],[22.04861,10.83699],[22.00386,10.74327],[21.72263,10.63672],[21.71881,10.29663],[21.51324,10.20051],[21.37433,9.97311],[21.27129,9.98725],[21.1052,9.77403],[21.01994,9.74793],[20.98314,9.60368],[20.82615,9.41808],[20.65489,9.34297],[20.66792,9.30202],[20.54183,9.32163],[20.43517,9.13813],[20.1096,9.15117],[19.93209,9.06333],[19.57207,10.07561],[19.64095,10.22522],[19.60591,10.35916],[19.69294,10.92269],[18.86043,11.34535],[18.86761,11.69236],[19.0122,11.70321],[19.0614,11.61572],[19.1908,11.67366],[19.29369,11.87287],[19.21922,11.99937],[19.3896,12.15895],[19.82001,12.08701],[19.8675,11.97395],[19.95179,11.97679],[19.94993,12.06779],[20.25048,12.07244],[21.02914,11.64963],[21.26143,11.59641],[21.8387,11.69841],[22.04613,11.62513],[22.36469,10.95421]]]}},{"type":"Feature","properties":{"id":"td-si","lat":12.00363,"lng":21.48187},"geometry":{"type":"Polygon","coordinates":[[[22.55576,10.97897],[22.36469,10.95421],[22.04613,11.62513],[21.8387,11.69841],[21.26143,11.59641],[21.02914,11.64963],[20.22179,12.07833],[19.94993,12.06779],[19.95179,11.97679],[19.85262,11.97684],[19.81898,12.14334],[19.88554,12.34338],[20.09405,12.59484],[20.04863,12.66848],[20.17492,12.80434],[19.98062,12.98267],[20.25575,13.04117],[20.29455,13.09233],[20.67586,13.04536],[20.68607,12.91261],[20.83924,12.88198],[20.84945,12.71859],[20.98221,12.66753],[21.2375,12.67774],[21.57448,12.88198],[21.80945,12.79367],[21.93595,12.63954],[22.10587,12.65039],[22.20488,12.74336],[22.43246,12.62383],[22.37282,12.46312],[22.48403,12.16474],[22.45809,12.03043],[22.6124,12.0728],[22.5417,11.63299],[22.77187,11.40318],[22.91481,11.3961],[22.95367,11.25094],[22.86106,10.91915],[22.55576,10.97897]]]}},{"type":"Feature","properties":{"id":"td-ta","lat":9.61541,"lng":16.54777},"geometry":{"type":"Polygon","coordinates":[[[16.43536,9.12761],[16.35743,9.23871],[16.14695,9.08854],[16.00143,9.11397],[15.81814,9.02508],[15.56973,8.99139],[15.45242,9.04999],[15.43826,9.18683],[15.83069,9.74132],[15.97394,9.68323],[16.16649,9.86679],[16.24333,10.07158],[16.2194,10.19586],[16.44022,10.19287],[16.56812,10.25167],[16.63297,10.09561],[16.73989,10.02647],[17.13015,9.91697],[17.55839,9.66318],[17.53653,9.58706],[17.44372,9.64375],[17.20446,9.5682],[17.21004,9.38599],[17.06323,9.26336],[17.18565,9.15655],[17.10483,9.06978],[16.9191,9.03614],[16.43536,9.12761]]]}},{"type":"Feature","properties":{"id":"td-ti","lat":20.11994,"lng":16.52232},"geometry":{"type":"Polygon","coordinates":[[[15.9851,23.44472],[18.91712,21.99685],[18.71913,21.84981],[18.74385,21.1331],[18.1507,20.93538],[17.82941,20.71295],[17.40927,20.68824],[17.35984,20.41638],[15.49025,17.12454],[15.73602,19.90354],[15.97032,20.33633],[15.57024,20.75191],[15.5443,20.8903],[15.60931,20.95066],[15.30101,21.40133],[15.18453,21.4912],[15.17202,21.99339],[14.97991,22.99566],[15.9851,23.44472]]]}},{"type":"Feature","properties":{"id":"td-wf","lat":15.04066,"lng":21.40617},"geometry":{"type":"Polygon","coordinates":[[[23.11925,15.70722],[22.90675,15.5414],[22.97641,15.37364],[22.96566,15.2239],[22.65891,14.85741],[22.67658,14.68897],[22.36352,14.54353],[22.42491,14.47044],[22.42905,14.26461],[22.53188,14.22063],[22.54635,14.13971],[22.18076,13.92056],[21.70227,14.11087],[21.42172,14.1519],[21.1682,14.10146],[20.95808,14.20415],[20.84418,14.35504],[20.55154,14.47023],[20.28804,14.44139],[20.00005,14.15598],[20.00005,15.78384],[20.29176,15.66902],[20.5672,15.68545],[21.09662,15.98517],[21.31263,15.88792],[21.73178,15.99985],[21.91596,15.94445],[22.17945,15.99975],[22.27097,15.93143],[22.4707,15.9089],[22.5509,15.81237],[22.97424,15.82115],[23.11925,15.70722]]]}},{"type":"Feature","properties":{"id":"td-x01~","lat":18.32802,"lng":22.13357},"geometry":{"type":"Polygon","coordinates":[[[20.89333,21.02094],[23.98131,19.49612],[23.97262,15.69108],[23.70752,15.74886],[23.32057,15.68132],[23.11925,15.70722],[22.99765,15.8165],[22.56083,15.80958],[22.4707,15.9089],[22.27097,15.93143],[22.17713,15.9998],[21.91596,15.94445],[21.73178,15.99985],[21.31263,15.88792],[21.09662,15.98517],[20.83287,15.79945],[20.5672,15.68545],[20.48354,15.7116],[20.63702,15.84372],[20.30085,16.75866],[20.39971,17.1788],[20.42442,17.96966],[20.15256,18.68638],[20.00428,19.27952],[20.89333,21.02094]]]}}]}
