{"type":"FeatureCollection","features":[{"type":"Feature","properties":{"id":"tg-c","lat":8.57542,"lng":1.07154},"geometry":{"type":"Polygon","coordinates":[[[0.46248,8.7883],[0.7312,9.04862],[0.95171,9.02185],[1.00074,9.2058],[1.42015,9.29232],[1.5958,9.07681],[1.64045,8.47582],[1.60394,8.36748],[1.23644,8.372],[1.26455,8.16374],[1.20993,7.97884],[0.83998,7.96791],[0.60269,7.89313],[0.57385,8.20394],[0.71275,8.29797],[0.61632,8.48876],[0.40373,8.66208],[0.36587,8.77427],[0.46248,8.7883]]]}},{"type":"Feature","properties":{"id":"tg-k","lat":9.52489,"lng":0.80677},"geometry":{"type":"Polygon","coordinates":[[[0.38275,10.0296],[0.55431,9.87653],[0.67906,9.87831],[0.73694,10.1699],[0.99708,10.21651],[1.33101,9.99647],[1.32315,9.54231],[1.42015,9.29232],[1.00074,9.2058],[0.95171,9.02185],[0.7312,9.04862],[0.48363,8.83497],[0.43127,9.02759],[0.53137,9.40111],[0.41166,9.49224],[0.22681,9.43234],[0.30192,9.50746],[0.2302,9.57575],[0.37773,9.58942],[0.27764,9.60699],[0.26097,9.65716],[0.34709,9.66316],[0.38275,10.0296]]]}},{"type":"Feature","properties":{"id":"tg-m","lat":6.47983,"lng":1.22219},"geometry":{"type":"Polygon","coordinates":[[[1.18539,6.10049],[1.17619,6.15151],[1.02519,6.22233],[0.98354,6.3246],[0.7668,6.41935],[0.71308,6.53394],[0.88251,6.64414],[0.92364,6.80979],[1.12053,6.80762],[1.24094,6.72173],[1.56422,6.90309],[1.60107,6.74644],[1.56603,6.67815],[1.74411,6.42573],[1.78235,6.27727],[1.18539,6.10049]]]}},{"type":"Feature","properties":{"id":"tg-p","lat":7.44673,"lng":1.07055},"geometry":{"type":"Polygon","coordinates":[[[0.61229,7.69943],[0.60269,7.89313],[1.24032,7.99995],[1.23644,8.372],[1.60986,8.36548],[1.62567,6.99678],[1.53193,6.99193],[1.56422,6.90309],[1.52428,6.85284],[1.36646,6.82827],[1.24094,6.72173],[1.12053,6.80762],[0.93357,6.81374],[0.88251,6.64414],[0.71308,6.53394],[0.51928,6.83225],[0.54625,6.91477],[0.49457,6.97312],[0.59803,7.0312],[0.64444,7.30193],[0.62966,7.38916],[0.54821,7.38327],[0.49561,7.5043],[0.61229,7.69943]]]}},{"type":"Feature","properties":{"id":"tg-s","lat":10.49457,"lng":0.43392},"geometry":{"type":"Polygon","coordinates":[[[0.00112,11.08599],[-0.16611,11.13498],[0.48662,11.0032],[0.48765,10.93324],[0.90147,10.99274],[0.86292,10.79609],[0.78128,10.69304],[0.76071,10.38216],[0.99708,10.21651],[0.73694,10.1699],[0.6803,9.87901],[0.55431,9.87653],[0.42476,9.9618],[0.3536,10.11551],[0.3966,10.28322],[0.3088,10.2971],[0.27324,10.4066],[0.17986,10.39417],[0.02943,10.58253],[-0.08813,10.63349],[0.01941,11.03163],[0.00112,11.08599]]]}}]}
