{"type":"FeatureCollection","features":[{"type":"Feature","properties":{"id":"th-bkk","lat":13.75481,"lng":100.6178},"geometry":{"type":"Polygon","coordinates":[[[100.46698,13.49567],[100.40078,13.49064],[100.33566,13.79872],[100.48837,13.7981],[100.55152,13.94786],[100.90483,13.94979],[100.92359,13.81342],[100.85537,13.69198],[100.71321,13.71152],[100.66402,13.65297],[100.56139,13.70358],[100.49922,13.66545],[100.46698,13.49567]]]}},{"type":"Feature","properties":{"id":"th-11","lat":13.59788,"lng":100.76459},"geometry":{"type":"Polygon","coordinates":[[[100.84097,13.47819],[100.64967,13.52025],[100.59783,13.61225],[100.57586,13.5196],[100.46698,13.49567],[100.46305,13.58351],[100.57074,13.70805],[100.60567,13.65617],[100.71321,13.71152],[100.85537,13.69198],[100.94736,13.63294],[100.84097,13.47819]]]}},{"type":"Feature","properties":{"id":"th-12","lat":13.97403,"lng":100.36898},"geometry":{"type":"Polygon","coordinates":[[[100.30915,14.13622],[100.36254,14.0002],[100.55152,13.94786],[100.48837,13.7981],[100.33566,13.79872],[100.26368,14.0293],[100.30915,14.13622]]]}},{"type":"Feature","properties":{"id":"th-13","lat":14.07878,"lng":100.62688},"geometry":{"type":"Polygon","coordinates":[[[100.87057,14.26133],[100.91242,14.21391],[100.90483,13.94979],[100.66324,13.92008],[100.34016,14.04385],[100.35029,14.11371],[100.60335,14.12338],[100.87057,14.26133]]]}},{"type":"Feature","properties":{"id":"th-14","lat":14.41428,"lng":100.53387},"geometry":{"type":"Polygon","coordinates":[[[100.22099,14.17714],[100.28151,14.38336],[100.25407,14.48648],[100.41437,14.50909],[100.42817,14.44519],[100.49932,14.45547],[100.51565,14.6859],[100.59405,14.65593],[100.6066,14.54942],[100.77031,14.56149],[100.82277,14.24179],[100.55415,14.11304],[100.28321,14.11622],[100.22099,14.17714]]]}},{"type":"Feature","properties":{"id":"th-15","lat":14.6247,"lng":100.35893},"geometry":{"type":"Polygon","coordinates":[[[100.25407,14.48648],[100.19697,14.5635],[100.23236,14.78985],[100.33768,14.79426],[100.51565,14.6859],[100.49932,14.45547],[100.42817,14.44519],[100.41437,14.50909],[100.25407,14.48648]]]}},{"type":"Feature","properties":{"id":"th-16","lat":15.07438,"lng":100.89009},"geometry":{"type":"Polygon","coordinates":[[[101.30041,15.30201],[101.28067,15.08768],[101.38061,15.06107],[101.45384,14.90594],[101.3294,14.7654],[101.23023,14.74119],[101.0844,14.85323],[100.91646,14.74975],[100.83486,14.88343],[100.59405,14.65593],[100.48744,14.70784],[100.43685,15.05254],[100.55865,15.26194],[100.74406,15.43658],[100.73962,15.49758],[101.23163,15.39857],[101.30041,15.30201]]]}},{"type":"Feature","properties":{"id":"th-17","lat":14.95047,"lng":100.35797},"geometry":{"type":"Polygon","coordinates":[[[100.20921,14.90648],[100.30342,14.99446],[100.2722,15.11246],[100.34047,15.16024],[100.44289,15.06037],[100.49085,14.74548],[100.23236,14.78985],[100.20921,14.90648]]]}},{"type":"Feature","properties":{"id":"th-18","lat":15.21544,"lng":100.02017},"geometry":{"type":"Polygon","coordinates":[[[100.14033,14.92374],[99.72599,14.96118],[99.80882,15.08807],[99.72428,15.29281],[100.05806,15.26333],[100.05759,15.41968],[100.21107,15.35421],[100.30931,15.16755],[100.26725,15.0328],[100.30616,15.0004],[100.14033,14.92374]]]}},{"type":"Feature","properties":{"id":"th-19","lat":14.55429,"lng":100.97904},"geometry":{"type":"Polygon","coordinates":[[[101.19313,14.75592],[101.18714,14.54175],[101.24295,14.47979],[101.2062,14.37359],[101.16151,14.34775],[101.05893,14.40827],[100.91242,14.21391],[100.82277,14.24179],[100.77946,14.32634],[100.77031,14.56149],[100.61559,14.5471],[100.57436,14.58934],[100.78706,14.87152],[100.84292,14.88165],[100.91646,14.74975],[101.0844,14.85323],[101.19313,14.75592]]]}},{"type":"Feature","properties":{"id":"th-20","lat":13.0874,"lng":101.22463},"geometry":{"type":"Polygon","coordinates":[[[101.0026,12.79343],[100.97446,12.59805],[100.83741,12.70791],[100.91993,12.81094],[100.86459,12.91958],[100.9336,13.00275],[100.87827,13.09833],[100.94516,13.20091],[100.91245,13.29385],[100.98129,13.35904],[100.98067,13.46292],[101.1491,13.59013],[101.52086,13.40112],[101.71765,13.17173],[101.4633,13.03153],[101.18274,13.07646],[101.16957,13.02132],[101.08606,13.02249],[101.09557,12.91099],[101.0026,12.79343]]]}},{"type":"Feature","properties":{"id":"th-21","lat":12.84167,"lng":101.4294},"geometry":{"type":"Polygon","coordinates":[[[101.78909,12.69784],[101.41814,12.59565],[101.08774,12.68061],[100.97392,12.64938],[101.0026,12.79343],[101.0934,12.90368],[101.08606,13.02249],[101.16957,13.02132],[101.18274,13.07646],[101.4633,13.03153],[101.63724,13.15093],[101.82565,12.88991],[101.78909,12.69784]]]}},{"type":"Feature","properties":{"id":"th-22","lat":12.818,"lng":102.15287},"geometry":{"type":"Polygon","coordinates":[[[102.4901,12.99519],[102.49527,12.7461],[102.39729,12.67569],[102.41228,12.56574],[102.32965,12.55691],[102.37445,12.39067],[102.29168,12.31806],[102.30405,12.4274],[102.27003,12.39256],[102.27003,12.44037],[102.20102,12.43354],[102.26482,12.30622],[102.08717,12.46475],[102.11231,12.53726],[102.00929,12.56452],[102.05698,12.46833],[101.94988,12.60635],[101.94777,12.52973],[101.78909,12.69784],[101.82565,12.88991],[101.68705,13.11413],[101.99541,13.33619],[102.04352,13.15912],[102.17478,13.24493],[102.26542,13.19832],[102.32919,13.27263],[102.4901,12.99519]]]}},{"type":"Feature","properties":{"id":"th-23","lat":12.19314,"lng":102.44275},"geometry":{"type":"MultiPolygon","coordinates":[[[[102.55519,11.75983],[102.60816,11.64834],[102.59832,11.56338],[102.53004,11.60493],[102.55519,11.75983]]],[[[102.34278,12.1236],[102.4275,11.96137],[102.37916,12.00283],[102.29037,11.97484],[102.24952,12.15302],[102.34278,12.1236]]],[[[102.69221,12.17848],[102.9138,11.76554],[102.91358,11.6459],[102.76694,12.01179],[102.60572,12.22126],[102.5573,12.18374],[102.58237,12.04926],[102.50424,12.13337],[102.28647,12.20254],[102.26319,12.28954],[102.33627,12.30744],[102.37445,12.39067],[102.32965,12.55691],[102.41228,12.56574],[102.39544,12.67127],[102.44479,12.72984],[102.4952,12.74603],[102.48638,12.66119],[102.76208,12.43609],[102.69221,12.17848]]]]}},{"type":"Feature","properties":{"id":"th-24","lat":13.56571,"lng":101.60505},"geometry":{"type":"Polygon","coordinates":[[[100.98067,13.46292],[100.99578,13.49616],[100.84097,13.47819],[100.94736,13.63294],[100.84866,13.7041],[100.92359,13.81342],[100.90529,13.95535],[101.14083,13.96842],[101.15251,13.85058],[101.35405,13.85995],[101.56541,13.74994],[101.75578,13.80143],[101.87624,13.72314],[101.91733,13.58834],[101.98998,13.58018],[101.94482,13.46874],[101.99541,13.33619],[101.88647,13.22028],[101.71765,13.17173],[101.52086,13.40112],[101.27664,13.55124],[101.14104,13.58997],[100.98067,13.46292]]]}},{"type":"Feature","properties":{"id":"th-25","lat":14.0976,"lng":101.65683},"geometry":{"type":"Polygon","coordinates":[[[101.15515,13.84988],[101.13763,13.99651],[101.32506,14.06434],[101.30072,14.14459],[101.39689,14.26779],[101.51187,14.27822],[101.40929,14.42478],[101.61987,14.43188],[101.7532,14.31613],[101.88973,14.39336],[101.98388,14.36357],[101.94854,14.28086],[102.05282,14.18562],[102.04507,14.13087],[101.91252,14.03581],[101.86958,13.93321],[101.87624,13.72314],[101.75578,13.80143],[101.56541,13.74994],[101.35405,13.85995],[101.15515,13.84988]]]}},{"type":"Feature","properties":{"id":"th-26","lat":14.20619,"lng":101.14308},"geometry":{"type":"Polygon","coordinates":[[[101.16523,14.34698],[101.283,14.50284],[101.51497,14.28918],[101.39689,14.26779],[101.30072,14.14459],[101.31638,14.05847],[101.22155,14.05183],[101.14083,13.96842],[100.90529,13.95535],[100.94875,14.29538],[101.02601,14.3136],[101.05893,14.40827],[101.16523,14.34698]]]}},{"type":"Feature","properties":{"id":"th-27","lat":13.71575,"lng":102.26539},"geometry":{"type":"Polygon","coordinates":[[[102.91393,14.16495],[102.69862,13.7618],[102.54235,13.66971],[102.59775,13.60545],[102.31342,13.54101],[102.32919,13.27263],[102.27038,13.20227],[102.17478,13.24493],[102.03887,13.16137],[101.94559,13.45476],[101.98998,13.58018],[101.91536,13.59206],[101.90647,13.80877],[101.85588,13.83709],[101.91252,14.03581],[101.99091,14.06682],[102.05282,14.18562],[102.154,14.13578],[102.1923,14.18536],[102.29022,14.12764],[102.49104,14.14312],[102.5177,14.08705],[102.59418,14.14867],[102.91393,14.16495]]]}},{"type":"Feature","properties":{"id":"th-30","lat":14.91448,"lng":101.98919},"geometry":{"type":"Polygon","coordinates":[[[101.24295,14.47979],[101.18714,14.54175],[101.19313,14.75592],[101.27835,14.73001],[101.45415,14.87604],[101.38588,15.05479],[101.28067,15.08768],[101.30041,15.30201],[101.4264,15.2154],[101.87934,15.37994],[102.04032,15.65868],[102.08465,15.61961],[102.16036,15.73692],[102.32299,15.80692],[102.42417,15.69543],[102.6963,15.71847],[102.78926,15.63951],[102.82776,15.51161],[103.01224,15.45753],[102.95292,15.38547],[103.00124,15.35653],[102.98289,15.19375],[102.8538,15.15391],[102.70735,14.95291],[102.52359,14.96735],[102.56783,14.81463],[102.44236,14.8538],[102.50933,14.65296],[102.48649,14.55769],[102.61718,14.28574],[102.54938,14.09211],[102.42975,14.15536],[102.08631,14.158],[101.96264,14.2537],[101.96451,14.37739],[101.88973,14.39336],[101.7532,14.31613],[101.61987,14.43188],[101.24295,14.47979]]]}},{"type":"Feature","properties":{"id":"th-31","lat":15.06063,"lng":103.11494},"geometry":{"type":"Polygon","coordinates":[[[103.24328,14.34193],[102.88424,14.15637],[102.59418,14.14867],[102.61718,14.28574],[102.48649,14.55769],[102.50933,14.65296],[102.44236,14.8538],[102.56783,14.81463],[102.52359,14.96735],[102.70735,14.95291],[102.8538,15.15391],[102.98289,15.19375],[103.00124,15.35653],[102.95292,15.38547],[103.01845,15.445],[102.82776,15.51161],[102.79112,15.60732],[102.86858,15.63654],[102.94646,15.78922],[103.16774,15.36637],[103.25709,15.31175],[103.36695,15.35271],[103.49997,15.29989],[103.44488,15.186],[103.44317,14.9334],[103.28799,14.77013],[103.23306,14.59808],[103.24328,14.34193]]]}},{"type":"Feature","properties":{"id":"th-32","lat":14.89591,"lng":103.67322},"geometry":{"type":"Polygon","coordinates":[[[104.04572,14.35728],[103.67489,14.38649],[103.64719,14.44398],[103.24328,14.34193],[103.23306,14.59808],[103.28799,14.77013],[103.44317,14.9334],[103.44488,15.186],[103.49997,15.29989],[103.36695,15.35271],[103.25709,15.31175],[103.10268,15.42896],[103.11575,15.48228],[103.34323,15.40172],[103.88744,15.47092],[104.06097,15.40213],[104.07347,15.34656],[103.97803,15.26248],[104.01528,15.02601],[103.91689,14.85842],[103.99989,14.80372],[104.06231,14.6544],[104.04572,14.35728]]]}},{"type":"Feature","properties":{"id":"th-33","lat":14.93179,"lng":104.35588},"geometry":{"type":"Polygon","coordinates":[[[104.91838,14.40147],[104.69286,14.43398],[104.45262,14.35693],[104.17703,14.40421],[104.04572,14.35728],[104.06231,14.6544],[103.99989,14.80372],[103.91689,14.85842],[104.01776,15.0387],[103.97803,15.26248],[104.07673,15.35431],[103.98604,15.41025],[104.08432,15.53629],[104.12949,15.56453],[104.29491,15.34253],[104.46838,15.25959],[104.67447,15.25388],[104.73684,15.17148],[104.68858,15.13355],[104.69431,14.97157],[104.81332,14.89201],[104.91528,14.65172],[104.86081,14.65042],[104.83301,14.56009],[104.85275,14.44705],[104.91838,14.40147]]]}},{"type":"Feature","properties":{"id":"th-34","lat":15.15264,"lng":105.08648},"geometry":{"type":"Polygon","coordinates":[[[105.04731,14.21407],[104.97383,14.38065],[104.85275,14.44705],[104.85043,14.6328],[104.91482,14.65484],[104.81332,14.89201],[104.69431,14.97157],[104.68858,15.13355],[104.73684,15.17148],[104.67447,15.25388],[104.41826,15.2848],[104.43578,15.38687],[104.38193,15.43402],[104.40368,15.52838],[104.5121,15.58339],[104.62517,15.55828],[104.66078,15.64057],[104.81394,15.50691],[104.92288,15.48583],[105.05729,15.90456],[105.03476,15.99975],[105.10698,16.09585],[105.42207,16.00988],[105.36063,15.91939],[105.41205,15.79976],[105.61291,15.72147],[105.651,15.6346],[105.60428,15.43921],[105.47747,15.35281],[105.56397,15.27253],[105.44378,15.13381],[105.59307,14.99079],[105.48915,14.78633],[105.50754,14.56405],[105.41597,14.42816],[105.15501,14.33047],[105.04731,14.21407]]]}},{"type":"Feature","properties":{"id":"th-35","lat":15.81082,"lng":104.27838},"geometry":{"type":"Polygon","coordinates":[[[104.41826,15.2848],[104.25408,15.36792],[104.15104,15.50063],[104.12949,15.56453],[104.21124,15.60651],[104.12732,15.70217],[104.11171,15.82327],[104.01001,15.79836],[104.01068,15.91195],[104.02149,15.97802],[104.10944,15.98504],[104.10469,16.09111],[104.35588,16.3234],[104.49712,16.34187],[104.63127,16.21544],[104.67866,16.24077],[104.81069,16.16979],[104.57623,16.0955],[104.4642,15.90947],[104.42461,15.72126],[104.51975,15.56181],[104.40368,15.52838],[104.3826,15.41994],[104.43862,15.34992],[104.41826,15.2848]]]}},{"type":"Feature","properties":{"id":"th-36","lat":15.88217,"lng":101.86105},"geometry":{"type":"Polygon","coordinates":[[[102.33167,15.80583],[102.16036,15.73692],[102.08465,15.61961],[102.04032,15.65868],[101.87934,15.37994],[101.4264,15.2154],[101.30041,15.30201],[101.37286,15.41449],[101.39581,15.69878],[101.32987,15.75346],[101.3848,15.95851],[101.32909,16.01515],[101.34801,16.25903],[101.51218,16.5484],[101.51296,16.67766],[101.95257,16.63413],[102.07716,16.50388],[102.40856,16.45685],[102.45362,16.39781],[102.40613,16.24348],[102.26697,16.07326],[102.39249,15.98381],[102.33167,15.80583]]]}},{"type":"Feature","properties":{"id":"th-37","lat":15.86062,"lng":104.75196},"geometry":{"type":"Polygon","coordinates":[[[104.98803,16.29396],[105.10698,16.09585],[105.03476,15.99975],[105.05729,15.90456],[104.92288,15.48583],[104.81394,15.50691],[104.6723,15.63794],[104.62517,15.55828],[104.47148,15.59936],[104.43955,15.81668],[104.57174,16.09088],[104.80247,16.15702],[104.98803,16.29396]]]}},{"type":"Feature","properties":{"id":"th-38","lat":18.09055,"lng":103.7427},"geometry":{"type":"Polygon","coordinates":[[[103.38664,18.44146],[103.87395,18.28323],[104.00004,18.31844],[104.20333,18.01864],[104.12468,17.99999],[104.11099,17.86596],[104.00567,17.92327],[103.96872,17.7683],[103.90216,17.87418],[103.7861,17.84759],[103.76155,17.94456],[103.73954,17.91128],[103.63448,17.96521],[103.58637,18.04216],[103.5071,18.06365],[103.43568,17.99004],[103.35864,18.04241],[103.31529,18.11745],[103.36031,18.21915],[103.23399,18.35578],[103.38664,18.44146]]]}},{"type":"Feature","properties":{"id":"th-39","lat":17.16566,"lng":102.26536},"geometry":{"type":"Polygon","coordinates":[[[102.67583,16.9437],[102.61175,16.77004],[102.56349,16.76125],[102.33663,16.81988],[102.27549,16.88915],[102.07127,16.8854],[102.03494,16.95302],[102.151,17.02237],[101.94637,17.19825],[102.02362,17.32295],[101.98471,17.44137],[102.12527,17.48307],[102.14666,17.61358],[102.37528,17.61722],[102.47553,17.23879],[102.60276,17.22068],[102.51305,17.13306],[102.67583,16.9437]]]}},{"type":"Feature","properties":{"id":"th-40","lat":16.33787,"lng":102.6596},"geometry":{"type":"Polygon","coordinates":[[[101.79056,16.7665],[102.26335,16.89086],[102.41016,16.79265],[102.60974,16.76929],[102.71712,17.07451],[102.83189,16.97589],[102.83737,16.87388],[102.95545,16.84107],[103.11312,16.91282],[103.12769,16.82616],[103.18448,16.85318],[103.16293,16.6163],[103.08113,16.50473],[102.94062,16.44551],[102.85132,16.26893],[102.94646,15.78922],[102.86858,15.63654],[102.80662,15.62419],[102.69242,15.71948],[102.42882,15.69475],[102.37032,15.7356],[102.33167,15.84989],[102.39249,15.98381],[102.26697,16.07326],[102.40396,16.23844],[102.45316,16.4068],[102.40536,16.45863],[102.07716,16.50388],[101.95598,16.63296],[101.75144,16.67035],[101.79056,16.7665]]]}},{"type":"Feature","properties":{"id":"th-41","lat":17.40393,"lng":102.85026},"geometry":{"type":"Polygon","coordinates":[[[102.84466,16.87373],[102.83189,16.97589],[102.72038,17.07343],[102.67583,16.9437],[102.54519,17.07017],[102.51104,17.14733],[102.60276,17.22068],[102.47553,17.23879],[102.37528,17.61722],[102.2249,17.63923],[102.12124,17.58324],[102.06755,17.69078],[102.0415,17.65998],[102.0584,18.08841],[102.15416,17.99306],[102.20475,18.01862],[102.32717,17.94953],[102.66529,17.59598],[102.84776,17.70008],[102.88502,17.88532],[102.9831,17.82256],[103.05865,17.88638],[103.16898,17.80176],[103.26143,17.87857],[103.30814,17.83222],[103.39956,17.86643],[103.39734,17.59872],[103.29032,17.50046],[103.24717,17.30739],[103.59071,17.16107],[103.65717,17.04749],[103.58327,17.10027],[103.53097,17.07374],[103.43568,16.8276],[103.39972,16.903],[103.23724,16.96212],[102.95545,16.84107],[102.84466,16.87373]]]}},{"type":"Feature","properties":{"id":"th-42","lat":17.48769,"lng":101.6248},"geometry":{"type":"Polygon","coordinates":[[[100.93774,17.55549],[101.13231,17.46167],[101.388,17.72931],[101.46831,17.72037],[101.57755,17.86811],[101.72907,17.91219],[101.79041,18.07358],[101.9043,18.03712],[102.10738,18.21238],[102.02362,17.97815],[102.02471,17.73858],[102.14139,17.50875],[101.98471,17.44137],[102.02362,17.32295],[101.94637,17.19825],[102.151,17.02237],[102.03494,16.95302],[102.04584,16.86623],[101.73207,16.75885],[101.64251,17.04645],[101.56169,16.99336],[101.45988,17.07645],[101.20962,17.11598],[101.06559,16.90618],[101.02436,16.9994],[101.09298,17.22665],[100.90591,17.33644],[100.88266,17.46663],[100.93774,17.55549]]]}},{"type":"Feature","properties":{"id":"th-43","lat":17.91795,"lng":103.0764},"geometry":{"type":"Polygon","coordinates":[[[103.03793,17.99069],[103.13859,18.16672],[103.1682,18.24977],[103.2963,18.29517],[103.37198,18.18914],[103.32196,18.07743],[103.43568,17.99004],[103.38121,17.97963],[103.39956,17.86643],[103.30814,17.83222],[103.26143,17.87857],[103.16898,17.80176],[103.05865,17.88638],[102.9831,17.82256],[102.88502,17.88532],[102.84776,17.70008],[102.66529,17.59598],[102.32717,17.94953],[102.20475,18.01862],[102.15416,17.99306],[102.0584,18.08841],[102.10738,18.21238],[102.15354,18.2101],[102.30671,18.05146],[102.59961,17.95518],[102.59527,17.84082],[102.68291,17.81008],[102.67299,17.86537],[102.85272,17.97203],[103.03793,17.99069]]]}},{"type":"Feature","properties":{"id":"th-44","lat":16.00303,"lng":103.18797},"geometry":{"type":"Polygon","coordinates":[[[103.16262,16.64343],[103.19998,16.62583],[103.18226,16.37306],[103.29822,16.40226],[103.45299,16.19173],[103.5256,16.20973],[103.46891,16.10519],[103.49563,15.92469],[103.43558,15.71199],[103.35455,15.70147],[103.29714,15.60298],[103.44116,15.51073],[103.41749,15.42787],[103.34323,15.40172],[103.0833,15.50629],[102.97855,15.6668],[103.00868,15.72576],[102.85892,16.08137],[102.85132,16.26893],[102.94062,16.44551],[103.09131,16.5131],[103.16262,16.64343]]]}},{"type":"Feature","properties":{"id":"th-45","lat":15.95135,"lng":103.75512},"geometry":{"type":"Polygon","coordinates":[[[103.86801,16.46869],[104.03962,16.44099],[104.05931,16.39564],[104.30808,16.46558],[104.32782,16.26074],[104.10903,16.09597],[104.10944,15.98504],[104.02149,15.97802],[104.01068,15.91195],[104.01001,15.79836],[104.11171,15.82327],[104.12732,15.70217],[104.21124,15.60651],[103.98604,15.41025],[103.88744,15.47092],[103.41749,15.42787],[103.43661,15.52388],[103.29714,15.60298],[103.35455,15.70147],[103.43909,15.72157],[103.49563,15.92469],[103.4762,16.13044],[103.54854,16.21981],[103.72657,16.22144],[103.75101,16.30353],[103.70523,16.38166],[103.86801,16.46869]]]}},{"type":"Feature","properties":{"id":"th-46","lat":16.56646,"lng":103.6988},"geometry":{"type":"Polygon","coordinates":[[[103.1311,16.82574],[103.1356,16.94987],[103.23724,16.96212],[103.39972,16.903],[103.43568,16.8276],[103.50834,17.04692],[103.609,17.09299],[103.93756,16.78006],[104.01947,16.85375],[104.07285,16.83259],[104.18442,16.66676],[104.24431,16.43287],[104.05931,16.39564],[104.03962,16.44099],[103.8247,16.46615],[103.70523,16.38166],[103.75101,16.30353],[103.72657,16.22144],[103.45852,16.1894],[103.30163,16.40045],[103.18226,16.37306],[103.1944,16.82213],[103.16541,16.86331],[103.1311,16.82574]]]}},{"type":"Feature","properties":{"id":"th-47","lat":17.40346,"lng":103.6632},"geometry":{"type":"Polygon","coordinates":[[[103.38121,17.97963],[103.54152,18.06171],[103.63448,17.96521],[103.73954,17.91128],[103.76155,17.94456],[103.7861,17.84759],[103.89875,17.87529],[103.9386,17.78581],[104.01032,17.80119],[104.07611,17.67499],[104.00939,17.47614],[104.0589,17.38602],[104.4135,17.4209],[104.4443,17.24722],[104.36177,17.08294],[104.39376,17.02214],[104.30328,16.93481],[104.10117,16.83753],[104.01947,16.85375],[103.93756,16.78006],[103.77757,16.96139],[103.64719,17.02167],[103.65407,17.10076],[103.59071,17.16107],[103.2698,17.26693],[103.28117,17.48002],[103.39734,17.59872],[103.36773,17.78602],[103.41026,17.83801],[103.38121,17.97963]]]}},{"type":"Feature","properties":{"id":"th-48","lat":17.38189,"lng":104.61526},"geometry":{"type":"Polygon","coordinates":[[[104.20333,18.01864],[104.452,17.66595],[104.70263,17.5273],[104.81642,17.37279],[104.7401,16.7504],[104.66713,16.82732],[104.23904,16.89618],[104.39376,17.02214],[104.36177,17.08294],[104.4443,17.24722],[104.415,17.41511],[104.05125,17.39098],[104.00939,17.47614],[104.07564,17.67892],[103.98841,17.86749],[104.04009,17.93488],[104.10758,17.86356],[104.12468,17.99999],[104.20333,18.01864]]]}},{"type":"Feature","properties":{"id":"th-49","lat":16.59784,"lng":104.4787},"geometry":{"type":"Polygon","coordinates":[[[104.75791,16.8189],[104.75451,16.52892],[104.98803,16.29396],[104.83539,16.19209],[104.63127,16.21544],[104.49712,16.34187],[104.33258,16.33004],[104.30808,16.46558],[104.24431,16.43287],[104.18442,16.66676],[104.07285,16.83259],[104.23904,16.89618],[104.66713,16.82732],[104.7339,16.74942],[104.75791,16.8189]]]}},{"type":"Feature","properties":{"id":"th-cnx","lat":18.68572,"lng":98.58943},"geometry":{"type":"Polygon","coordinates":[[[99.29568,20.0625],[99.50873,20.15281],[99.56543,20.12058],[99.50734,20.05738],[99.59023,20.00782],[99.55313,19.91548],[99.50068,19.9731],[99.41985,19.95739],[99.41706,19.81388],[99.26126,19.64138],[99.32317,19.54276],[99.31061,19.17821],[99.39986,18.99843],[99.32363,18.85745],[99.34988,18.58739],[99.29537,18.53941],[99.14318,18.70377],[99.01063,18.66767],[98.92655,18.5291],[98.7,18.42265],[98.68093,18.30142],[98.79328,18.23734],[98.80382,18.00089],[98.90981,17.82656],[98.89766,17.74589],[98.65546,17.73117],[98.62445,17.59438],[98.53567,17.51451],[98.5675,17.29277],[98.41077,17.25133],[98.33563,17.30393],[98.32245,17.52283],[98.25946,17.58027],[98.30261,17.6959],[98.23352,17.72871],[98.24024,17.83958],[98.08366,18.01482],[98.12727,18.0966],[98.10009,18.34854],[98.20949,18.45159],[98.11549,18.5398],[98.09994,18.63711],[98.11844,19.08297],[98.20391,19.1648],[98.34685,19.03078],[98.6367,19.05522],[98.5889,19.20397],[98.60828,19.47899],[98.4778,19.70563],[98.53262,19.67585],[98.80785,19.80654],[98.89932,19.74862],[99.00091,19.82101],[99.03647,20.07516],[99.15842,20.12355],[99.29568,20.0625]]]}},{"type":"Feature","properties":{"id":"th-51","lat":18.11139,"lng":98.9307},"geometry":{"type":"Polygon","coordinates":[[[99.3148,18.5298],[99.10189,18.27025],[99.01533,18.2423],[99.16721,17.81436],[99.1084,17.80692],[99.04959,17.61487],[98.91508,17.63996],[98.86449,17.53257],[98.72134,17.48526],[98.71039,17.75618],[98.84681,17.71703],[98.91058,17.82268],[98.80878,17.98048],[98.79033,18.24354],[98.68093,18.30142],[98.7,18.42265],[98.92655,18.5291],[99.01063,18.66767],[99.14318,18.70377],[99.3148,18.5298]]]}},{"type":"Feature","properties":{"id":"th-52","lat":18.37312,"lng":99.56173},"geometry":{"type":"Polygon","coordinates":[[[99.63106,19.50793],[99.78138,19.06618],[100.12095,18.81175],[100.12353,18.59504],[99.72382,18.07089],[99.59659,18.02998],[99.31232,17.76667],[99.35919,17.67809],[99.47928,17.71313],[99.41443,17.46284],[99.47985,17.3283],[99.39097,17.20433],[99.26296,17.39785],[99.16969,17.33481],[99.01394,17.41341],[99.01208,17.61063],[99.17992,17.85255],[99.09259,17.95407],[99.01533,18.2423],[99.10189,18.27025],[99.23646,18.47598],[99.31108,18.50058],[99.36523,18.76493],[99.32425,18.86221],[99.37655,18.98414],[99.5615,19.12457],[99.58977,19.47181],[99.63106,19.50793]]]}},{"type":"Feature","properties":{"id":"th-53","lat":17.74401,"lng":100.44912},"geometry":{"type":"Polygon","coordinates":[[[101.07409,18.37161],[101.15541,18.32289],[101.16517,18.05342],[101.00084,17.8848],[100.95402,17.70517],[100.87196,17.70419],[100.58118,17.42085],[100.29427,17.36674],[100.20549,17.19709],[99.98282,17.16565],[100.03527,17.43824],[99.93037,17.56983],[99.97708,17.67564],[99.89657,17.80369],[99.95538,17.78284],[100.27314,17.95911],[100.33659,17.89511],[100.42212,18.01596],[100.76055,18.02606],[101.07409,18.37161]]]}},{"type":"Feature","properties":{"id":"th-54","lat":18.24898,"lng":100.16948},"geometry":{"type":"Polygon","coordinates":[[[100.35256,18.81508],[100.40982,18.49386],[100.53023,18.47518],[100.5419,18.42707],[100.34171,17.89836],[100.24632,17.95325],[100.12942,17.85723],[99.95538,17.78284],[99.80949,17.79594],[99.73658,17.72223],[99.55762,17.8094],[99.35283,17.68145],[99.31232,17.76667],[99.59659,18.02998],[99.72382,18.07089],[100.11485,18.56592],[100.12095,18.81175],[100.35256,18.81508]]]}},{"type":"Feature","properties":{"id":"th-55","lat":18.83947,"lng":100.79758},"geometry":{"type":"Polygon","coordinates":[[[100.87982,19.61358],[101.25106,19.56031],[101.17236,19.37639],[101.23571,19.12811],[101.3264,19.02055],[101.22491,18.87477],[101.2401,18.67364],[101.07381,18.50577],[101.0303,18.42779],[101.07409,18.37161],[100.91945,18.24995],[100.84261,18.08655],[100.76055,18.02606],[100.43095,18.01167],[100.40548,18.13117],[100.54129,18.44867],[100.40982,18.49386],[100.39742,18.7395],[100.34853,18.80418],[100.41964,18.93593],[100.49999,18.96933],[100.47845,19.05067],[100.57064,19.02853],[100.56314,19.09051],[100.63254,19.13527],[100.6049,19.32978],[100.51286,19.39414],[100.60702,19.54093],[100.753,19.48243],[100.87982,19.61358]]]}},{"type":"Feature","properties":{"id":"th-56","lat":19.22993,"lng":100.1785},"geometry":{"type":"Polygon","coordinates":[[[100.39005,19.72439],[100.46196,19.5371],[100.58986,19.48592],[100.51369,19.37417],[100.6049,19.32978],[100.63099,19.13007],[100.56314,19.09051],[100.57064,19.02853],[100.47845,19.05067],[100.49999,18.96933],[100.41964,18.93593],[100.35256,18.81508],[100.0762,18.82306],[99.94153,18.98003],[99.78138,19.06618],[99.68738,19.4298],[99.90928,19.48263],[99.93331,19.38587],[100.08116,19.4298],[100.18379,19.61242],[100.39005,19.72439]]]}},{"type":"Feature","properties":{"id":"th-57","lat":19.74509,"lng":99.87339},"geometry":{"type":"Polygon","coordinates":[[[99.93713,20.44501],[100.13464,20.2391],[100.24037,20.37281],[100.34435,20.38997],[100.46103,20.19071],[100.5465,20.16792],[100.48398,19.8807],[100.34512,19.67629],[100.18162,19.60999],[100.08116,19.4298],[99.94029,19.38448],[99.90928,19.48263],[99.68738,19.4298],[99.6138,19.50294],[99.5615,19.12457],[99.39986,18.99843],[99.31061,19.17821],[99.32317,19.54276],[99.26126,19.64138],[99.41706,19.81388],[99.41985,19.95739],[99.50068,19.9731],[99.55313,19.91548],[99.59023,20.00782],[99.50486,20.06216],[99.5646,20.12415],[99.42063,20.37555],[99.65193,20.30682],[99.93713,20.44501]]]}},{"type":"Feature","properties":{"id":"th-58","lat":18.74454,"lng":97.91828},"geometry":{"type":"Polygon","coordinates":[[[98.04562,19.80763],[98.23755,19.66469],[98.4778,19.70563],[98.60724,19.48258],[98.5889,19.20397],[98.65499,19.10103],[98.61623,19.04279],[98.45759,19.00726],[98.33656,19.03488],[98.20778,19.1641],[98.11968,19.08651],[98.09994,18.63711],[98.11549,18.5398],[98.20949,18.45159],[98.10009,18.34854],[98.12727,18.0966],[98.08366,18.01482],[98.24024,17.83958],[98.23352,17.72871],[98.30261,17.6959],[97.90799,17.55487],[97.67614,17.83033],[97.75406,17.96903],[97.61795,18.24168],[97.63759,18.30633],[97.48648,18.29214],[97.3514,18.55117],[97.50953,18.49128],[97.74569,18.57106],[97.72337,18.85198],[97.65784,18.92572],[97.8108,19.11222],[97.76709,19.39753],[97.84863,19.56764],[98.00831,19.63911],[98.04562,19.80763]]]}},{"type":"Feature","properties":{"id":"th-60","lat":15.72414,"lng":100.00322},"geometry":{"type":"Polygon","coordinates":[[[100.44289,15.06037],[100.36502,15.09482],[100.23123,15.33483],[99.90711,15.52133],[99.85497,15.63463],[99.69576,15.67848],[99.47231,15.56308],[99.12142,15.76981],[99.07879,15.86893],[99.20431,15.93474],[99.27769,15.88769],[99.53887,15.9167],[99.6756,15.78808],[99.8897,16.0724],[99.9946,16.33787],[100.21572,15.92678],[100.75512,15.93063],[100.83253,15.62548],[100.44289,15.06037]]]}},{"type":"Feature","properties":{"id":"th-61","lat":15.36944,"lng":99.53869},"geometry":{"type":"Polygon","coordinates":[[[99.61597,14.94423],[99.32348,15.07246],[99.2487,14.9925],[99.07305,15.01226],[98.99947,15.07903],[98.9804,15.22062],[99.12142,15.76981],[99.47851,15.56174],[99.69576,15.67848],[99.85244,15.63602],[99.90711,15.52133],[100.04643,15.44606],[100.0746,15.27113],[99.72428,15.29281],[99.80717,15.07799],[99.72599,14.96118],[99.64516,14.99219],[99.61597,14.94423]]]}},{"type":"Feature","properties":{"id":"th-62","lat":16.26857,"lng":99.48675},"geometry":{"type":"Polygon","coordinates":[[[99.85058,16.73616],[99.91734,16.58628],[100.03217,16.49618],[99.89187,16.07625],[99.72521,15.82239],[99.6647,15.78464],[99.6138,15.88107],[99.5092,15.91921],[99.27769,15.88769],[99.20431,15.93474],[99.07879,15.86893],[98.98784,16.46088],[99.24297,16.54506],[99.34601,16.88788],[99.51825,16.88109],[99.69312,16.73198],[99.85058,16.73616]]]}},{"type":"Feature","properties":{"id":"th-63","lat":16.51761,"lng":98.86514},"geometry":{"type":"Polygon","coordinates":[[[98.52456,16.85045],[98.43619,17.01157],[98.29966,17.06475],[97.92398,17.56895],[98.30261,17.6959],[98.25807,17.59363],[98.32245,17.52283],[98.33563,17.30393],[98.42798,17.24998],[98.5675,17.29277],[98.53567,17.51451],[98.71039,17.75618],[98.72134,17.48526],[98.82769,17.50392],[98.90268,17.63151],[98.96582,17.64156],[99.01208,17.61063],[99.04153,17.38395],[99.17269,17.33473],[99.26994,17.39227],[99.32332,17.12131],[99.27072,16.95165],[99.34601,16.88788],[99.25273,16.56279],[98.98784,16.46088],[99.02618,16.03008],[99.12489,15.72299],[98.9804,15.22062],[98.66367,15.61822],[98.54406,15.6751],[98.58378,15.97696],[98.54699,16.0475],[98.67959,16.12615],[98.80723,16.11054],[98.90335,16.36345],[98.83958,16.47243],[98.66326,16.28666],[98.63163,16.46313],[98.45666,16.72322],[98.52456,16.85045]]]}},{"type":"Feature","properties":{"id":"th-64","lat":17.23307,"lng":99.70023},"geometry":{"type":"Polygon","coordinates":[[[99.96855,17.16081],[99.91641,17.16272],[99.92742,17.12231],[100.12746,16.96935],[100.13066,16.90886],[99.95569,16.86507],[99.90442,16.68813],[99.85058,16.73616],[99.69312,16.73198],[99.51825,16.88109],[99.38709,16.8661],[99.27893,16.92961],[99.31738,17.26065],[99.39562,17.20549],[99.47985,17.3283],[99.42078,17.58813],[99.52905,17.79462],[99.62031,17.81266],[99.73658,17.72223],[99.81477,17.79765],[99.92241,17.78124],[99.9777,17.66926],[99.93037,17.56983],[100.03527,17.43824],[99.96855,17.16081]]]}},{"type":"Feature","properties":{"id":"th-65","lat":17.08106,"lng":100.52537},"geometry":{"type":"Polygon","coordinates":[[[100.95588,17.70753],[100.88566,17.59588],[100.93774,17.55549],[100.88312,17.46209],[100.90591,17.33644],[101.09298,17.22665],[101.02436,16.9994],[101.06559,16.90618],[100.89832,16.79404],[100.92627,16.68766],[100.8561,16.64369],[100.79471,16.45592],[100.6682,16.34701],[100.5326,16.53762],[100.28704,16.51018],[100.23433,16.59351],[100.03217,16.49618],[99.91734,16.58628],[99.93998,16.71211],[99.89233,16.76006],[99.95569,16.86507],[100.11873,16.89592],[100.1319,16.95643],[99.91641,17.16272],[100.20549,17.19709],[100.29427,17.36674],[100.58118,17.42085],[100.87196,17.70419],[100.95588,17.70753]]]}},{"type":"Feature","properties":{"id":"th-66","lat":16.15821,"lng":100.36869},"geometry":{"type":"Polygon","coordinates":[[[100.23743,16.59356],[100.28704,16.51018],[100.54857,16.52664],[100.6974,16.26226],[100.63007,16.05416],[100.76721,15.98998],[100.75512,15.93063],[100.26817,15.90939],[100.16849,15.95688],[99.97755,16.36221],[100.03217,16.49618],[100.23743,16.59356]]]}},{"type":"Feature","properties":{"id":"th-67","lat":16.19267,"lng":101.00629},"geometry":{"type":"Polygon","coordinates":[[[101.79056,16.7665],[101.7285,16.65526],[101.59895,16.70423],[101.51048,16.67529],[101.51218,16.5484],[101.37875,16.35761],[101.32398,16.06721],[101.3848,15.95851],[101.32646,15.84128],[101.33328,15.74193],[101.39581,15.69878],[101.33328,15.33568],[101.30041,15.30201],[101.23163,15.39857],[101.12812,15.39565],[100.97733,15.48195],[100.73962,15.49758],[100.83021,15.68499],[100.77031,15.98597],[100.63234,16.05111],[100.63327,16.14256],[100.69662,16.24278],[100.70267,16.412],[100.79471,16.45592],[100.8561,16.64369],[100.92627,16.68766],[100.89832,16.79404],[101.11991,16.92729],[101.12626,17.03056],[101.20962,17.11598],[101.45988,17.07645],[101.56169,16.99336],[101.64251,17.04645],[101.72168,16.76588],[101.79056,16.7665]]]}},{"type":"Feature","properties":{"id":"th-70","lat":13.5724,"lng":99.60803},"geometry":{"type":"Polygon","coordinates":[[[99.18648,13.21156],[99.14678,13.72367],[99.79704,13.81531],[99.86949,13.93871],[99.94215,13.92561],[99.94943,13.74126],[100.02969,13.73808],[100.07651,13.6379],[100.0379,13.5045],[99.9161,13.5069],[99.85869,13.32841],[99.70366,13.31167],[99.63617,13.19963],[99.45804,13.18023],[99.35066,13.22813],[99.27847,13.14315],[99.18648,13.21156]]]}},{"type":"Feature","properties":{"id":"th-71","lat":14.72811,"lng":98.87377},"geometry":{"type":"Polygon","coordinates":[[[98.53355,15.32597],[98.54406,15.6751],[98.66367,15.61822],[98.9804,15.22062],[98.99792,15.08166],[99.06902,15.01394],[99.27997,14.99978],[99.28937,14.83793],[99.43799,14.76543],[99.45897,14.69078],[99.54445,14.79597],[99.65803,14.80264],[99.86722,14.63843],[99.89063,14.5611],[99.82515,14.51836],[99.82205,14.24797],[99.76511,14.15914],[99.88008,13.94452],[99.80205,13.8181],[99.14678,13.72367],[98.93528,14.0854],[98.59319,14.32161],[98.24334,14.80512],[98.16045,15.10637],[98.17719,15.2206],[98.28302,15.28997],[98.39227,15.25824],[98.39692,15.35573],[98.47454,15.38348],[98.53355,15.32597]]]}},{"type":"Feature","properties":{"id":"th-72","lat":14.53973,"lng":100.03372},"geometry":{"type":"Polygon","coordinates":[[[100.21154,14.95508],[100.19697,14.5635],[100.28213,14.40269],[100.255,14.22699],[100.15847,14.14089],[99.98623,14.1456],[99.81151,14.06178],[99.76511,14.16611],[99.82205,14.24797],[99.82515,14.51836],[99.89063,14.5611],[99.86722,14.63843],[99.65803,14.80264],[99.54445,14.79597],[99.45897,14.69078],[99.43799,14.76543],[99.28668,14.84274],[99.29526,15.05203],[99.61597,14.94423],[99.65152,14.99296],[99.96995,14.90901],[100.04519,14.96255],[100.21154,14.95508]]]}},{"type":"Feature","properties":{"id":"th-73","lat":13.83129,"lng":100.13845},"geometry":{"type":"Polygon","coordinates":[[[99.81151,14.06178],[100.28321,14.15642],[100.33179,13.73009],[100.21727,13.65705],[100.02535,13.74079],[99.9715,13.71487],[99.94509,13.92179],[99.81151,14.06178]]]}},{"type":"Feature","properties":{"id":"th-74","lat":13.58899,"lng":100.21479},"geometry":{"type":"Polygon","coordinates":[[[100.40078,13.49064],[100.27508,13.51667],[100.08896,13.42597],[100.0379,13.5045],[100.07868,13.68369],[100.25934,13.66131],[100.33179,13.73009],[100.40078,13.49064]]]}},{"type":"Feature","properties":{"id":"th-75","lat":13.35877,"lng":99.95872},"geometry":{"type":"Polygon","coordinates":[[[100.08896,13.42597],[99.96087,13.29157],[99.87342,13.24741],[99.91843,13.50962],[100.0379,13.5045],[100.08896,13.42597]]]}},{"type":"Feature","properties":{"id":"th-76","lat":12.85508,"lng":99.61244},"geometry":{"type":"Polygon","coordinates":[[[99.40475,12.56694],[99.21413,12.73465],[99.16483,12.97551],[99.08835,13.05835],[99.11408,13.18808],[99.18648,13.21156],[99.27847,13.14315],[99.35066,13.22813],[99.45804,13.18023],[99.63617,13.19963],[99.76526,13.33299],[99.85869,13.32841],[99.89171,13.23826],[99.96087,13.29157],[100.10434,13.05732],[99.96079,12.63618],[99.62465,12.54525],[99.40475,12.56694]]]}},{"type":"Feature","properties":{"id":"th-77","lat":11.7786,"lng":99.71571},"geometry":{"type":"Polygon","coordinates":[[[99.46631,12.12603],[99.40475,12.56694],[99.62465,12.54525],[99.96079,12.63618],[100.01564,12.18032],[99.83123,11.92471],[99.81707,11.74144],[99.64186,11.52326],[99.56935,11.33397],[99.58619,11.19514],[99.49635,11.13288],[99.50343,10.99705],[99.26575,10.9584],[99.14095,11.03941],[99.3643,11.37672],[99.44977,11.61376],[99.54259,11.64048],[99.63002,11.81577],[99.5184,12.02593],[99.54166,12.14066],[99.46631,12.12603]]]}},{"type":"Feature","properties":{"id":"th-80","lat":8.5699,"lng":99.68055},"geometry":{"type":"Polygon","coordinates":[[[99.77182,9.31228],[99.886,9.2333],[99.96713,8.60566],[100.14422,8.38882],[100.18629,8.3972],[100.13111,8.51455],[100.18084,8.50121],[100.2715,8.31708],[100.34246,7.93879],[100.15521,7.87443],[100.12963,7.80172],[99.95941,7.90376],[99.74433,7.85092],[99.72769,7.99205],[99.60899,7.98127],[99.53328,7.87582],[99.40079,7.89009],[99.2873,8.09718],[99.3179,8.28174],[99.2408,8.38052],[99.28224,8.5387],[99.44729,8.6011],[99.52998,8.84711],[99.69312,8.93186],[99.78495,9.0566],[99.73141,9.15319],[99.77182,9.31228]]]}},{"type":"Feature","properties":{"id":"th-81","lat":8.192,"lng":99.01481},"geometry":{"type":"MultiPolygon","coordinates":[[[[99.02068,7.63687],[99.11744,7.47919],[99.09995,7.46723],[99.02068,7.63687]]],[[[99.1045,7.66938],[99.09986,7.59663],[99.04461,7.6634],[99.1045,7.66938]]],[[[99.24366,7.67145],[99.13054,7.76724],[99.056,7.69892],[99.01441,7.81501],[99.06959,7.92487],[99.02809,7.90375],[98.91798,8.05134],[98.77027,8.02367],[98.70314,8.29853],[98.62403,8.28116],[98.66274,8.55617],[98.75571,8.67309],[98.92826,8.56408],[98.88464,8.51444],[98.91027,8.31541],[99.26606,8.34156],[99.31604,8.29285],[99.28668,8.10284],[99.3457,7.91972],[99.29418,7.8441],[99.34105,7.74764],[99.24366,7.67145]]]]}},{"type":"Feature","properties":{"id":"th-82","lat":8.75842,"lng":98.41101},"geometry":{"type":"MultiPolygon","coordinates":[[[[98.52849,8.12348],[98.61036,8.03473],[98.60353,7.90375],[98.52849,8.12348]]],[[[98.62086,8.08999],[98.57008,8.11888],[98.63209,8.18976],[98.62086,8.08999]]],[[[98.66574,8.38138],[98.42823,8.31696],[98.4629,8.21613],[98.39129,8.13654],[98.28142,8.2259],[98.19947,8.53437],[98.20973,8.58149],[98.24733,8.51455],[98.2531,8.53465],[98.21998,8.72622],[98.26157,8.85065],[98.39129,9.0353],[98.33269,9.02607],[98.38201,9.07193],[98.32228,9.20938],[98.4241,9.35687],[98.53252,9.28455],[98.50647,8.9787],[98.45392,8.94387],[98.45872,8.88716],[98.60518,8.79063],[98.54683,8.65549],[98.71328,8.62508],[98.66274,8.55617],[98.66574,8.38138]]],[[[98.30698,8.95791],[98.27052,8.87718],[98.26157,8.87857],[98.26092,9.01293],[98.30698,8.95791]]],[[[98.32277,9.09797],[98.30934,9.04898],[98.24049,9.04898],[98.25082,9.15404],[98.32277,9.09797]]],[[[97.84002,9.40428],[97.86842,9.4204],[97.87184,9.37958],[97.84002,9.40428]]],[[[97.84962,9.44213],[97.90016,9.45307],[97.86996,9.42524],[97.84962,9.44213]]]]}},{"type":"Feature","properties":{"id":"th-83","lat":7.94876,"lng":98.35308},"geometry":{"type":"Polygon","coordinates":[[[98.43914,8.08251],[98.39812,7.81501],[98.29184,7.77749],[98.28142,8.1918],[98.43914,8.08251]]]}},{"type":"Feature","properties":{"id":"th-84","lat":9.01944,"lng":99.13202},"geometry":{"type":"MultiPolygon","coordinates":[[[[99.14796,9.7674],[99.32358,9.39155],[99.23552,9.33633],[99.25506,9.23249],[99.47478,9.201],[99.53582,9.28168],[99.75278,9.31977],[99.73193,9.14916],[99.7867,9.06017],[99.69312,8.93186],[99.52998,8.84711],[99.44729,8.6011],[99.332,8.52126],[99.28472,8.54229],[99.26606,8.34156],[98.91306,8.31381],[98.89849,8.60459],[98.76656,8.67417],[98.72424,8.62586],[98.54683,8.65549],[98.60518,8.79063],[98.45562,8.89382],[98.50647,8.9787],[98.51102,9.30644],[98.67297,9.35749],[98.6567,9.42312],[98.77416,9.54252],[98.79033,9.68701],[99.14796,9.7674]]],[[[100.08595,9.57453],[100.06088,9.46381],[99.94662,9.4182],[99.93629,9.5777],[100.08595,9.57453]]],[[[99.70346,9.52131],[99.66814,9.51919],[99.69874,9.54222],[99.70346,9.52131]]],[[[99.67677,9.61457],[99.6753,9.62446],[99.68425,9.62002],[99.67677,9.61457]]],[[[100.0901,9.66527],[99.98764,9.71992],[99.98764,9.80182],[100.06723,9.77562],[100.0901,9.66527]]]]}},{"type":"Feature","properties":{"id":"th-85","lat":10.03119,"lng":98.75487},"geometry":{"type":"MultiPolygon","coordinates":[[[[98.41163,9.77456],[98.41668,9.73347],[98.39812,9.70624],[98.41163,9.77456]]],[[[98.76641,10.4112],[98.75679,10.66607],[98.87919,10.7882],[98.97575,10.60266],[98.90345,10.45595],[98.95275,10.35283],[98.89363,10.20767],[98.92996,10.06879],[98.64104,9.78607],[98.66057,9.66179],[98.77529,9.5467],[98.6567,9.42312],[98.67297,9.35749],[98.51102,9.30644],[98.39715,9.37881],[98.45721,9.54853],[98.5311,9.56611],[98.46339,9.60444],[98.51417,9.65473],[98.49366,9.71369],[98.56577,9.74262],[98.50799,9.77456],[98.55543,9.79804],[98.58302,9.84284],[98.51271,9.83686],[98.63087,9.9527],[98.60353,9.9936],[98.76641,10.4112]]]]}},{"type":"Feature","properties":{"id":"th-86","lat":10.29364,"lng":99.06684},"geometry":{"type":"Polygon","coordinates":[[[99.05507,10.94525],[99.14095,11.03941],[99.26575,10.9584],[99.50343,10.99705],[99.51531,10.88154],[99.44321,10.87035],[99.37436,10.68138],[99.24464,10.53514],[99.285,10.36449],[99.15162,10.35737],[99.25465,10.23444],[99.15162,10.10346],[99.14495,9.79123],[98.79033,9.68701],[98.74982,9.60117],[98.66264,9.65843],[98.63546,9.76992],[98.92996,10.06879],[98.89363,10.20767],[98.95275,10.35283],[98.90345,10.45595],[98.97575,10.60266],[98.87919,10.7882],[98.9819,10.83241],[99.00153,10.95763],[99.05507,10.94525]]]}},{"type":"Feature","properties":{"id":"th-90","lat":6.79524,"lng":100.63317},"geometry":{"type":"MultiPolygon","coordinates":[[[[100.21236,6.68918],[100.2134,6.88527],[100.12002,6.93213],[100.03062,7.09174],[100.28383,7.20835],[100.37875,7.3098],[100.43656,7.16014],[100.55587,7.14469],[100.58542,7.2244],[100.78443,6.96711],[101.06804,6.85773],[101.03877,6.73274],[101.10564,6.59619],[101.02901,6.47702],[100.93124,6.44312],[100.91119,6.31843],[100.82373,6.2986],[100.72995,6.4932],[100.63068,6.44478],[100.38739,6.52208],[100.27396,6.69626],[100.21236,6.68918]]],[[[100.34246,7.93879],[100.4402,7.477],[100.57398,7.19497],[100.42555,7.26756],[100.38951,7.56618],[100.27263,7.53107],[100.327,7.65522],[100.28875,7.78832],[100.12963,7.80172],[100.15521,7.87443],[100.34246,7.93879]]]]}},{"type":"Feature","properties":{"id":"th-91","lat":6.81997,"lng":99.98868},"geometry":{"type":"MultiPolygon","coordinates":[[[[99.26027,6.56582],[99.19483,6.53311],[99.15846,6.55439],[99.20631,6.57486],[99.26027,6.56582]]],[[[99.67042,6.50145],[99.60027,6.58344],[99.65699,6.72382],[99.70444,6.5583],[99.67042,6.50145]]],[[[100.2134,6.88527],[100.12729,6.44229],[100.10353,6.53319],[100.06332,6.50658],[99.86752,6.7626],[99.6858,6.87735],[99.67921,7.02676],[99.74561,7.12966],[99.82407,7.14202],[99.88349,7.06877],[99.92804,7.13765],[100.05558,7.05551],[100.12002,6.93213],[100.2134,6.88527]]]]}},{"type":"Feature","properties":{"id":"th-92","lat":7.49116,"lng":99.58188},"geometry":{"type":"MultiPolygon","coordinates":[[[[99.38551,7.27558],[99.45387,7.239],[99.38331,7.19408],[99.38551,7.27558]]],[[[99.82407,7.14202],[99.61411,7.13666],[99.55787,7.19745],[99.60353,7.37617],[99.54957,7.30183],[99.50815,7.38495],[99.47071,7.27998],[99.3366,7.38361],[99.29273,7.62067],[99.24675,7.6341],[99.3396,7.74152],[99.29418,7.8441],[99.33805,7.94308],[99.51075,7.87179],[99.61194,7.98282],[99.7479,7.9776],[99.79756,7.59737],[100.04643,7.06342],[99.92804,7.13765],[99.88349,7.06877],[99.82407,7.14202]]]]}},{"type":"Feature","properties":{"id":"th-93","lat":7.43822,"lng":100.04851},"geometry":{"type":"Polygon","coordinates":[[[100.20086,7.77233],[100.14291,7.70002],[100.18539,7.51423],[100.27882,7.36221],[100.37875,7.3098],[100.28383,7.20835],[100.03062,7.09174],[99.82805,7.51528],[99.74433,7.85092],[99.95941,7.90376],[100.20086,7.77233]]]}},{"type":"Feature","properties":{"id":"th-94","lat":6.76676,"lng":101.32009},"geometry":{"type":"Polygon","coordinates":[[[101.06804,6.85773],[101.35133,6.87592],[101.29173,6.95457],[101.48805,6.87832],[101.72348,6.57441],[101.61522,6.62761],[101.57864,6.5457],[101.51389,6.59603],[101.33777,6.54973],[101.29793,6.67579],[101.23411,6.60249],[101.15251,6.60239],[101.0628,6.65383],[101.06804,6.85773]]]}},{"type":"Feature","properties":{"id":"th-95","lat":6.12633,"lng":101.25742},"geometry":{"type":"Polygon","coordinates":[[[100.833,6.23667],[100.82373,6.2986],[100.91119,6.31843],[100.92503,6.43372],[101.02901,6.47702],[101.10115,6.63786],[101.21783,6.59626],[101.29793,6.67579],[101.33312,6.55167],[101.51389,6.59603],[101.61367,6.54048],[101.4371,6.4155],[101.38201,6.20035],[101.4866,6.05232],[101.5002,5.89269],[101.24899,5.78699],[101.14998,5.63865],[100.96529,5.79241],[101.07877,5.93817],[101.08166,6.24647],[100.833,6.23667]]]}},{"type":"Feature","properties":{"id":"th-96","lat":6.14567,"lng":101.7416},"geometry":{"type":"Polygon","coordinates":[[[102.07309,6.25751],[102.06,6.0948],[101.78415,5.7381],[101.66592,5.76559],[101.57931,5.90633],[101.5002,5.89269],[101.4866,6.05232],[101.38232,6.19655],[101.4371,6.4155],[101.55177,6.45793],[101.61522,6.62761],[102.07309,6.25751]]]}}]}
