{"type":"FeatureCollection","features":[{"type":"Feature","properties":{"id":"tj-du","lat":38.60764,"lng":68.77116},"geometry":{"type":"Polygon","coordinates":[[[68.76454,38.65823],[68.86124,38.55705],[68.74798,38.46931],[68.68933,38.54989],[68.76454,38.65823]]]}},{"type":"Feature","properties":{"id":"tj-gb","lat":38.05276,"lng":73.06994},"geometry":{"type":"Polygon","coordinates":[[[73.51224,39.46741],[73.63264,39.44834],[73.60784,39.20732],[73.82612,38.9769],[73.6808,38.87298],[73.8164,38.58659],[74.0289,38.52724],[74.12336,38.66947],[74.3342,38.667],[74.83288,38.46365],[74.77107,38.29154],[74.79071,38.08145],[74.88042,38.02166],[74.88611,37.83056],[74.96145,37.78547],[74.89189,37.5992],[75.16412,37.40064],[75.06842,37.31214],[74.89231,37.23111],[74.66038,37.39397],[74.3156,37.42692],[74.18765,37.33839],[73.70923,37.21701],[73.5973,37.26181],[73.7391,37.33834],[73.75346,37.42839],[73.29633,37.46495],[73.06751,37.31506],[72.79073,37.22026],[72.65771,37.02883],[72.25981,36.96731],[71.83658,36.69916],[71.69994,36.67864],[71.56393,36.75068],[71.43319,37.05474],[71.52952,37.76113],[71.59773,37.89836],[71.53706,37.94445],[71.34115,37.8933],[71.25826,37.92647],[71.36451,38.20682],[71.33438,38.28066],[70.98681,38.47091],[70.76109,38.44352],[70.60001,38.34707],[70.4703,38.12052],[70.27491,38.02406],[70.34132,38.15599],[70.34194,38.41828],[70.5935,38.65811],[70.54508,38.71728],[70.66316,38.78339],[71.00639,38.8027],[71.04179,38.60658],[71.17817,38.60829],[71.2778,38.48897],[71.42694,38.47507],[71.6046,38.63746],[71.75079,38.64599],[72.06266,38.80807],[72.00742,38.88471],[72.02695,38.95674],[72.22048,39.1281],[72.31634,39.32881],[72.63374,39.3945],[73.16786,39.35538],[73.51224,39.46741]]]}},{"type":"Feature","properties":{"id":"tj-kt","lat":37.8075,"lng":69.13639},"geometry":{"type":"Polygon","coordinates":[[[67.77305,37.10998],[67.80121,37.46645],[67.87186,37.5868],[68.13995,37.9227],[68.46066,37.91017],[68.54365,38.01941],[68.51885,38.10222],[68.60928,38.32815],[68.82203,38.32676],[69.18113,38.43652],[69.37383,38.32526],[69.71319,38.61583],[69.79701,38.5947],[69.98692,38.73376],[70.1604,38.6318],[70.16397,38.54594],[70.24716,38.6032],[70.4239,38.557],[70.43568,38.50106],[70.34194,38.41828],[70.29858,37.99813],[70.1605,37.92066],[70.28308,37.70483],[70.15787,37.54143],[70.00759,37.54885],[69.91881,37.61714],[69.50866,37.57897],[69.37838,37.43741],[69.44215,37.22362],[69.26578,37.10541],[69.12362,37.1692],[68.98522,37.32036],[68.88787,37.33814],[68.91582,37.27907],[68.83583,37.32914],[68.82038,37.25091],[68.66886,37.27829],[68.6269,37.20626],[68.28832,37.10321],[68.27778,37.01007],[68.18641,37.01831],[68.02022,36.92568],[67.77305,37.10998]]]}},{"type":"Feature","properties":{"id":"tj-su","lat":39.95658,"lng":69.06989},"geometry":{"type":"MultiPolygon","coordinates":[[[[70.49872,39.88191],[70.69892,39.85845],[70.70481,39.82207],[70.58161,39.76657],[70.49872,39.88191]]],[[[70.96288,40.18969],[70.66595,40.10417],[70.61396,39.97575],[70.47723,39.90093],[70.45087,39.93741],[70.52549,40.03368],[69.96956,40.2116],[69.51801,40.1251],[69.46313,40.02541],[69.50158,39.92247],[69.40536,39.89612],[69.31032,39.9848],[69.2263,39.75101],[69.28753,39.67779],[69.30035,39.51562],[69.66942,39.57779],[70.13244,39.55004],[70.20065,39.6195],[70.22329,39.51909],[70.47723,39.6012],[70.62213,39.56353],[70.65556,39.49464],[70.12454,39.3067],[70.09446,39.34179],[69.80817,39.26357],[69.73634,39.29336],[69.66648,39.26163],[69.65159,39.115],[69.55899,39.07209],[69.50044,39.1858],[69.40287,39.1803],[69.34686,39.09911],[69.06553,39.03038],[68.76074,39.07555],[68.59006,39.04806],[68.47477,38.94005],[68.15339,38.8994],[68.07727,38.99553],[67.69052,38.98961],[67.66758,39.13177],[67.35008,39.21983],[67.42728,39.47661],[67.68045,39.61412],[68.51745,39.54844],[68.60034,39.64285],[68.62618,39.84961],[68.74162,39.81964],[68.78736,39.8817],[68.75888,39.98056],[68.83826,39.86465],[68.88079,39.87834],[68.7747,40.07988],[68.81314,40.0389],[68.98698,40.09171],[68.93066,40.1468],[68.68705,40.11032],[68.58112,40.16422],[69.01923,40.23207],[69.28526,40.19496],[69.20836,40.29832],[69.30531,40.29382],[69.3127,40.34281],[69.19844,40.56652],[69.30934,40.59582],[69.3142,40.7293],[69.38525,40.79612],[69.50922,40.77467],[69.69092,40.63003],[70.28039,40.87771],[70.36354,41.03243],[70.44571,41.02592],[70.70512,40.80743],[70.62874,40.81586],[70.63742,40.77059],[70.76713,40.73762],[70.36964,40.47552],[70.37139,40.36493],[70.52405,40.34374],[70.62213,40.19956],[70.93834,40.23992],[70.96288,40.18969]]],[[[70.5659,41.01838],[70.64507,40.93518],[70.54978,41.01522],[70.5659,41.01838]]]]}},{"type":"Feature","properties":{"id":"tj-x01~","lat":38.75572,"lng":69.33496},"geometry":{"type":"Polygon","coordinates":[[[71.45955,39.6121],[71.53137,39.55309],[71.51287,39.45883],[71.74025,39.44834],[71.7109,39.32096],[71.75121,39.27425],[72.04979,39.36886],[72.09475,39.27507],[72.20327,39.24081],[72.22048,39.1281],[72.02695,38.95674],[72.00742,38.88471],[72.06266,38.80807],[71.97424,38.73596],[71.6046,38.63746],[71.42694,38.47507],[71.2778,38.48897],[71.17817,38.60829],[71.04179,38.60658],[70.99322,38.80616],[70.64781,38.77549],[70.54508,38.71728],[70.5935,38.65811],[70.43909,38.51569],[70.35331,38.60674],[70.16397,38.54594],[70.1604,38.6318],[69.98692,38.73376],[69.79701,38.5947],[69.71319,38.61583],[69.37383,38.32526],[69.18113,38.43652],[68.82203,38.32676],[68.60928,38.32815],[68.51885,38.10222],[68.54365,38.01941],[68.46066,37.91017],[68.23802,37.94272],[68.36066,38.17405],[68.10755,38.41828],[68.05515,38.5363],[68.03763,38.69165],[68.06673,38.78797],[68.16367,38.82864],[68.15339,38.8994],[68.47477,38.94005],[68.59006,39.04806],[68.76074,39.07555],[69.06553,39.03038],[69.34686,39.09911],[69.40287,39.1803],[69.50044,39.1858],[69.55899,39.07209],[69.65159,39.115],[69.66648,39.26163],[69.73634,39.29336],[69.80817,39.26357],[70.09446,39.34179],[70.12454,39.3067],[70.65556,39.49464],[70.73974,39.38623],[70.97714,39.39491],[71.0959,39.51237],[71.24927,39.51438],[71.45955,39.6121]],[[68.86124,38.55705],[68.76454,38.65823],[68.68933,38.54989],[68.74798,38.46931],[68.86124,38.55705]]]}}]}
