{"type":"FeatureCollection","features":[{"type":"Feature","properties":{"id":"tl-al","lat":-8.6867,"lng":125.63547},"geometry":{"type":"Polygon","coordinates":[[[125.51185,-8.62025],[125.76367,-8.58283],[125.80522,-8.75316],[125.48798,-8.85563],[125.43362,-8.79404],[125.51185,-8.62025]]]}},{"type":"Feature","properties":{"id":"tl-an","lat":-9.01661,"lng":125.50649},"geometry":{"type":"Polygon","coordinates":[[[125.67009,-9.19327],[125.48797,-9.24082],[125.51113,-9.16445],[125.41062,-9.03412],[125.48798,-8.85563],[125.67443,-8.76799],[125.67195,-8.90669],[125.60043,-8.92798],[125.57893,-8.99909],[125.66471,-9.09397],[125.67009,-9.19327]]]}},{"type":"Feature","properties":{"id":"tl-ba","lat":-8.555,"lng":126.46354},"geometry":{"type":"Polygon","coordinates":[[[126.14183,-8.50282],[126.41163,-8.41912],[126.54884,-8.48675],[126.6882,-8.43119],[126.81172,-8.6202],[126.73896,-8.69647],[126.65111,-8.64872],[126.51882,-8.68324],[126.45536,-8.60717],[126.43221,-8.70639],[126.18086,-8.69482],[126.14003,-8.68107],[126.1792,-8.62371],[126.14183,-8.50282]]]}},{"type":"Feature","properties":{"id":"tl-bo","lat":-8.9721,"lng":125.12003},"geometry":{"type":"Polygon","coordinates":[[[124.94786,-9.07851],[124.91951,-8.96202],[125.10294,-8.74027],[125.23931,-8.78701],[125.32634,-8.99144],[125.4131,-8.98219],[125.34204,-9.14275],[125.29202,-9.14544],[125.31125,-9.20951],[125.15265,-9.17082],[125.16236,-9.06063],[125.08681,-8.98622],[124.94786,-9.07851]]]}},{"type":"Feature","properties":{"id":"tl-co","lat":-9.3633,"lng":125.14502},"geometry":{"type":"Polygon","coordinates":[[[124.95793,-9.21194],[125.31125,-9.20951],[125.29202,-9.14544],[125.41191,-9.03382],[125.51113,-9.16445],[125.48797,-9.24082],[125.06162,-9.48577],[124.95793,-9.21194]]]}},{"type":"Feature","properties":{"id":"tl-di","lat":-8.54087,"lng":125.71527},"geometry":{"type":"MultiPolygon","coordinates":[[[[125.48983,-8.56821],[125.82854,-8.49091],[125.84599,-8.51354],[125.78894,-8.57575],[125.52105,-8.62702],[125.48983,-8.56821]]],[[[125.50367,-8.27077],[125.65064,-8.14284],[125.57358,-8.31732],[125.50367,-8.27077]]]]}},{"type":"Feature","properties":{"id":"tl-er","lat":-8.84199,"lng":125.34759},"geometry":{"type":"Polygon","coordinates":[[[125.17921,-8.75445],[125.50948,-8.67001],[125.43362,-8.79404],[125.48963,-8.88995],[125.44271,-8.97366],[125.32634,-8.99144],[125.17921,-8.75445]]]}},{"type":"Feature","properties":{"id":"tl-la","lat":-8.52569,"lng":126.96967},"geometry":{"type":"Polygon","coordinates":[[[126.6882,-8.43119],[126.96705,-8.30902],[127.08888,-8.36273],[127.20606,-8.33262],[127.31324,-8.41522],[127.02117,-8.67571],[126.72837,-8.76099],[126.81172,-8.6202],[126.6882,-8.43119]]]}},{"type":"Feature","properties":{"id":"tl-li","lat":-8.68252,"lng":125.25118},"geometry":{"type":"Polygon","coordinates":[[[125.10294,-8.74027],[125.16432,-8.62477],[125.40113,-8.56927],[125.48983,-8.56821],[125.51185,-8.62025],[125.22691,-8.74422],[125.10294,-8.74027]]]}},{"type":"Feature","properties":{"id":"tl-mf","lat":-8.94338,"lng":125.76957},"geometry":{"type":"Polygon","coordinates":[[[126.04754,-9.05731],[125.67009,-9.19327],[125.58079,-8.98007],[125.67195,-8.90669],[125.68828,-8.79461],[125.80522,-8.75316],[125.81044,-8.85688],[126.04754,-9.05731]]]}},{"type":"Feature","properties":{"id":"tl-mt","lat":-8.71993,"lng":125.94168},"geometry":{"type":"Polygon","coordinates":[[[126.13795,-8.99993],[126.04754,-9.05731],[125.81044,-8.85688],[125.75752,-8.6171],[125.82854,-8.49091],[126.16101,-8.51788],[126.17259,-8.64583],[126.03368,-8.79404],[126.13795,-8.99993]]]}},{"type":"Feature","properties":{"id":"tl-oe","lat":-9.26108,"lng":124.32699},"geometry":{"type":"Polygon","coordinates":[[[124.45053,-9.18019],[124.31007,-9.48872],[124.25751,-9.50123],[124.21069,-9.37886],[124.09029,-9.42154],[124.03004,-9.34197],[124.45053,-9.18019]]]}},{"type":"Feature","properties":{"id":"tl-vi","lat":-8.79994,"lng":126.31951},"geometry":{"type":"Polygon","coordinates":[[[126.72837,-8.76099],[126.58326,-8.80584],[126.47242,-8.9428],[126.13795,-8.99993],[126.03368,-8.79404],[126.1114,-8.67497],[126.43221,-8.70639],[126.45536,-8.60717],[126.51882,-8.68324],[126.70672,-8.66464],[126.72837,-8.76099]]]}}]}
