{"type":"FeatureCollection","features":[{"type":"Feature","properties":{"id":"tm-a","lat":37.88621,"lng":59.32647},"geometry":{"type":"Polygon","coordinates":[[[61.41931,35.54589],[61.24539,35.6493],[61.24105,35.89388],[61.12984,35.97052],[61.22472,36.12369],[61.14669,36.35726],[61.16581,36.63632],[60.34229,36.63714],[60.01921,37.0258],[59.65324,37.14967],[59.60497,37.12389],[59.55598,37.19778],[59.46172,37.2076],[59.37036,37.31943],[59.31228,37.53035],[59.21171,37.51632],[58.80109,37.69465],[58.68172,37.64272],[58.52979,37.70039],[58.35781,37.63331],[58.20681,37.67874],[58.15669,37.78819],[57.3524,37.96753],[57.34433,38.08106],[57.21835,38.26508],[57.13791,38.26236],[56.89723,38.46499],[56.58221,38.4898],[56.58268,38.61976],[56.97712,39.56668],[57.10311,39.63169],[56.992,40.01399],[57.16522,40.09231],[57.27984,40.03198],[57.47957,40.10231],[58.3729,40.1576],[58.38593,40.21147],[58.47765,40.21377],[58.98754,40.1098],[59.18474,40.00417],[59.9943,39.99885],[60.00438,39.64991],[60.0837,39.58404],[60.27454,39.62399],[60.35661,39.4764],[61.0223,39.51397],[60.99471,39.32132],[60.77017,39.24732],[60.69116,38.93979],[60.59406,38.91951],[60.54502,38.7558],[60.45949,38.75397],[60.60305,38.30185],[60.85379,38.0962],[60.98256,37.90048],[60.88918,37.87195],[60.94923,37.71723],[60.89275,37.61822],[60.96427,37.39118],[61.16524,37.37865],[61.24296,37.28749],[61.41969,37.27096],[61.3814,37.18212],[61.27293,37.16497],[61.15547,37.35627],[61.0023,37.35989],[61.50553,36.66422],[61.51173,36.07276],[61.59648,35.95228],[61.45897,35.88479],[61.5755,35.7679],[61.49282,35.59912],[61.41931,35.54589]]]}},{"type":"Feature","properties":{"id":"tm-b","lat":39.83261,"lng":55.24173},"geometry":{"type":"MultiPolygon","coordinates":[[[[53.04029,39.081],[53.0879,39.08812],[53.05397,39.0268],[53.10206,38.75507],[53.04029,39.081]]],[[[53.4629,39.5738],[53.53972,39.53962],[53.5062,39.50861],[53.4629,39.5738]]],[[[54.19528,42.31806],[54.90707,41.93214],[54.95068,41.79556],[55.45029,41.27888],[55.91011,41.32663],[56.53372,41.29897],[56.6033,41.10403],[57.02895,40.5537],[57.12905,40.30426],[57.07892,40.17564],[57.16522,40.09231],[56.98565,40.00614],[57.10311,39.63169],[56.97712,39.56668],[56.57244,38.50349],[56.89723,38.46499],[57.13791,38.26236],[57.1028,38.22201],[57.03841,38.18728],[56.72938,38.27105],[56.43648,38.25508],[56.30336,38.17943],[56.29975,38.08024],[55.96302,38.06652],[55.73844,38.11861],[55.4474,38.08367],[55.13031,37.95231],[54.85663,37.76113],[54.78728,37.65186],[54.78831,37.52464],[54.65396,37.4389],[54.20644,37.3246],[53.91375,37.34276],[53.82488,37.74486],[53.80714,38.03197],[53.86818,38.30801],[53.827,38.52546],[53.98276,38.916],[53.85971,39.03522],[53.76726,39.03099],[53.72185,39.1114],[53.73211,39.05671],[53.70151,39.07852],[53.72462,39.24168],[53.66,39.20038],[53.68377,39.08344],[53.60857,39.23578],[53.56764,39.19331],[53.56202,39.35334],[53.38941,39.31061],[53.14991,39.34414],[53.19776,39.32368],[53.16147,39.17959],[53.08522,39.40046],[53.27589,39.66486],[53.31373,39.65884],[53.21697,39.52505],[53.42677,39.53596],[53.56788,39.46772],[53.57374,39.52729],[53.73316,39.52798],[53.53346,39.68049],[53.53972,39.63215],[53.4441,39.70108],[53.45094,39.63215],[53.41676,39.64997],[53.42986,39.76252],[53.38201,39.76927],[53.57447,39.96792],[53.40211,40.00678],[53.28272,39.94001],[52.91358,40.02167],[52.93019,39.89594],[53.05356,39.76252],[53.00807,39.76634],[52.73846,40.05362],[52.76832,40.1538],[52.69899,40.27387],[52.73658,40.48457],[52.86313,40.65811],[52.82765,40.71149],[52.92335,40.94115],[52.91651,41.08515],[53.04005,40.88593],[53.12192,40.87226],[53.06471,40.84398],[53.11891,40.76984],[53.26588,40.81704],[53.24488,40.77497],[53.33082,40.77607],[53.36997,40.83519],[53.39869,40.76276],[53.48308,40.73705],[53.62468,40.88703],[53.72104,40.62568],[54.17107,40.72968],[54.40357,40.67365],[54.36264,40.68793],[54.43043,40.72142],[54.31821,40.72163],[54.25001,40.89061],[54.36053,40.91706],[54.47495,40.80988],[54.6399,40.83877],[54.76002,40.96503],[54.67799,41.07087],[54.76743,41.03677],[54.60043,41.19233],[54.07399,41.48798],[54.00856,41.76484],[53.89877,41.90534],[53.90691,42.06293],[53.8187,42.12442],[53.16383,42.1037],[52.9603,41.98436],[52.76922,41.6756],[52.91651,41.67422],[52.81349,41.37934],[52.90968,41.12271],[52.88233,41.05044],[52.761,41.37759],[52.56218,41.51948],[52.59254,41.64574],[52.43767,41.74888],[52.97871,42.12663],[53.47842,42.26866],[54.04717,42.3454],[54.19528,42.31806]]]]}},{"type":"Feature","properties":{"id":"tm-d","lat":41.15807,"lng":58.79044},"geometry":{"type":"Polygon","coordinates":[[[58.58788,42.79119],[58.89442,42.54784],[59.14608,42.52676],[59.25843,42.34754],[59.42648,42.28677],[59.86635,42.30421],[60.0282,42.19952],[59.97446,42.09924],[59.99719,42.01062],[59.90645,41.96661],[60.08877,41.91936],[60.25268,41.78006],[60.04918,41.7535],[60.16473,41.58496],[60.07171,41.51437],[60.09424,41.38952],[60.4781,41.21211],[61.00432,41.22953],[60.9807,41.00261],[60.24752,41.00052],[60.25485,40.34214],[60.48978,40.31446],[60.51722,39.48896],[60.35661,39.4764],[60.26586,39.62766],[60.0837,39.58404],[60.01136,39.64058],[59.9943,39.99885],[59.18474,40.00417],[58.98754,40.1098],[58.47765,40.21377],[58.38593,40.21147],[58.3729,40.1576],[57.47957,40.10231],[57.27984,40.03198],[57.07892,40.17564],[57.12905,40.30426],[57.02895,40.5537],[56.6033,41.10403],[56.53372,41.29897],[57.01019,41.25412],[57.14796,41.35107],[57.0196,41.46595],[56.95015,41.86605],[57.38226,42.16363],[57.85045,42.19143],[57.8273,42.22737],[57.93748,42.35424],[57.90864,42.43043],[57.99773,42.49343],[58.32505,42.43186],[58.3976,42.28786],[58.49062,42.29757],[58.30624,42.52867],[58.12134,42.62425],[58.25828,42.68951],[58.53455,42.6545],[58.58788,42.79119]]]}},{"type":"Feature","properties":{"id":"tm-l","lat":39.08092,"lng":62.81994},"geometry":{"type":"Polygon","coordinates":[[[66.17465,37.3755],[65.76144,37.57838],[65.65871,37.51027],[65.62409,37.34514],[65.53686,37.25711],[65.06309,37.23323],[64.77876,37.11805],[64.72855,36.85057],[63.50866,36.85605],[63.48877,37.34423],[63.72012,37.57455],[63.22873,38.06],[62.7393,38.25498],[61.22203,39.50064],[60.50869,39.49588],[60.48978,40.31446],[60.25485,40.34214],[60.24752,41.00052],[60.9807,41.00261],[61.01026,41.23723],[61.28135,41.15728],[61.43318,41.30032],[61.87791,41.12498],[61.9793,40.99884],[62.03681,40.73633],[62.13417,40.57783],[62.35328,40.4304],[62.45281,40.00924],[62.59316,39.89023],[63.47755,39.40292],[63.70927,39.19089],[64.12061,38.96168],[64.33734,38.97096],[64.6349,38.74415],[64.97772,38.61227],[65.60414,38.23741],[65.87668,38.27296],[66.62434,37.99383],[66.64578,37.9459],[66.51881,37.78271],[66.51959,37.36418],[66.45106,37.32294],[66.17465,37.3755]]]}},{"type":"Feature","properties":{"id":"tm-m","lat":37.31586,"lng":62.35435},"geometry":{"type":"Polygon","coordinates":[[[64.72855,36.85057],[64.59201,36.62107],[64.59438,36.42419],[64.4777,36.27164],[64.05726,36.10524],[64.04511,35.99873],[63.88983,36.02964],[63.43022,35.87104],[63.10409,35.85647],[63.11204,35.76991],[63.21442,35.69927],[63.07665,35.6247],[63.08021,35.43706],[62.69362,35.24839],[62.53549,35.22736],[62.43188,35.28064],[62.2862,35.14065],[62.2337,35.29376],[62.00746,35.43892],[61.5387,35.45231],[61.41931,35.54589],[61.52398,35.62821],[61.5755,35.7679],[61.45974,35.89202],[61.59648,35.95228],[61.51173,36.07276],[61.50553,36.66422],[61.0023,37.35989],[61.15547,37.35627],[61.27293,37.16497],[61.3814,37.18212],[61.41969,37.27096],[61.24296,37.28749],[61.16524,37.37865],[60.96427,37.39118],[60.89275,37.61822],[60.94923,37.71723],[60.88918,37.87195],[60.98256,37.90048],[60.85379,38.0962],[60.60305,38.30185],[60.45949,38.75397],[60.54502,38.7558],[60.59406,38.91951],[60.69116,38.93979],[60.77017,39.24732],[60.99471,39.32132],[61.0223,39.51397],[61.22203,39.50064],[62.7393,38.25498],[63.22873,38.06],[63.70865,37.61838],[63.72012,37.57455],[63.48877,37.34423],[63.50866,36.85605],[64.72855,36.85057]]]}}]}
