{"type":"FeatureCollection","features":[{"type":"Feature","properties":{"id":"tn-11","lat":36.79953,"lng":10.15406},"geometry":{"type":"Polygon","coordinates":[[[10.337,36.89184],[10.29884,36.82176],[10.19361,36.81232],[10.25615,36.78675],[10.20277,36.71797],[10.05471,36.68954],[9.9973,36.76827],[10.337,36.89184]]]}},{"type":"Feature","properties":{"id":"tn-13","lat":36.55301,"lng":10.22862},"geometry":{"type":"Polygon","coordinates":[[[10.25388,36.79144],[10.41675,36.72956],[10.34121,36.47064],[10.25258,36.44331],[9.97141,36.63539],[10.21114,36.72223],[10.25388,36.79144]]]}},{"type":"Feature","properties":{"id":"tn-14","lat":36.86056,"lng":9.93212},"geometry":{"type":"Polygon","coordinates":[[[10.21819,37.12893],[10.18238,37.02705],[10.337,36.89184],[9.99792,36.77197],[10.05471,36.68954],[9.88651,36.57813],[9.75928,36.72143],[9.55304,36.82928],[9.80786,36.95643],[9.98009,36.9318],[10.0974,37.10311],[10.21819,37.12893]]]}},{"type":"Feature","properties":{"id":"tn-21","lat":36.59072,"lng":10.63937},"geometry":{"type":"Polygon","coordinates":[[[10.41675,36.72956],[10.53823,36.77203],[10.58497,36.87617],[10.73347,36.89581],[11.01271,37.08478],[11.13623,36.87053],[11.02214,36.78828],[10.79993,36.45188],[10.52938,36.35033],[10.34198,36.37959],[10.41675,36.72956]]]}},{"type":"Feature","properties":{"id":"tn-22","lat":36.29018,"lng":9.99876},"geometry":{"type":"Polygon","coordinates":[[[10.34121,36.47064],[10.35563,36.24234],[10.07337,36.08343],[10.04247,36.00948],[9.72812,36.06674],[9.74238,36.16766],[9.5734,36.24376],[9.71644,36.33659],[9.743,36.46708],[9.94036,36.64955],[10.24716,36.44522],[10.34121,36.47064]]]}},{"type":"Feature","properties":{"id":"tn-23","lat":36.99618,"lng":9.61611},"geometry":{"type":"Polygon","coordinates":[[[9.07943,37.16681],[9.74464,37.3452],[9.8589,37.3288],[9.86166,37.27119],[9.77182,37.21332],[9.81593,37.15184],[9.91432,37.17829],[9.92498,37.21312],[9.81959,37.22761],[9.8825,37.26358],[10.05983,37.26484],[10.27215,37.17853],[10.1281,37.15868],[10.21819,37.12893],[10.0974,37.10311],[9.98583,36.93477],[9.80786,36.95643],[9.4038,36.72437],[9.3529,36.76843],[9.3639,36.85222],[9.25419,36.90886],[9.18361,37.03593],[9.08149,37.05691],[9.07943,37.16681]]]}},{"type":"Feature","properties":{"id":"tn-31","lat":36.76148,"lng":9.1691},"geometry":{"type":"Polygon","coordinates":[[[8.896,37.01886],[9.07943,37.16681],[9.08149,37.05691],[9.18361,37.03593],[9.25419,36.90886],[9.3639,36.85222],[9.37259,36.73468],[9.55304,36.82928],[9.75928,36.72143],[9.85612,36.57035],[9.73076,36.44289],[9.57154,36.40499],[9.39062,36.44],[9.3099,36.35499],[9.11751,36.37305],[9.01168,36.44925],[9.0725,36.55374],[9.02082,36.74287],[8.91437,36.78008],[8.97705,36.86713],[8.896,37.01886]]]}},{"type":"Feature","properties":{"id":"tn-32","lat":36.69771,"lng":8.73962},"geometry":{"type":"Polygon","coordinates":[[[8.41311,36.78391],[8.64172,36.83636],[8.60251,36.93951],[8.89639,37.01867],[8.97705,36.86713],[8.91437,36.78008],[9.02082,36.74287],[9.0725,36.55374],[9.03896,36.46424],[8.43414,36.35313],[8.35542,36.35612],[8.34924,36.44878],[8.16785,36.49137],[8.43037,36.66262],[8.46179,36.7328],[8.41311,36.78391]]]}},{"type":"Feature","properties":{"id":"tn-33","lat":35.93649,"lng":8.68402},"geometry":{"type":"Polygon","coordinates":[[[8.32723,35.62141],[8.24144,35.82774],[8.35542,36.35612],[8.91732,36.43814],[9.0309,36.13635],[9.15022,36.04524],[9.00222,35.7034],[8.68953,35.78474],[8.60235,35.64899],[8.46127,35.67353],[8.32723,35.62141]]]}},{"type":"Feature","properties":{"id":"tn-34","lat":35.97212,"lng":9.35278},"geometry":{"type":"Polygon","coordinates":[[[9.45424,35.48786],[9.32696,35.48068],[9.00222,35.7034],[9.15022,36.04524],[9.0309,36.13635],[8.91732,36.43814],[9.3099,36.35499],[9.39062,36.44],[9.74502,36.42103],[9.71644,36.33659],[9.57216,36.24823],[9.74238,36.16766],[9.75168,36.09514],[9.48912,35.899],[9.50653,35.73991],[9.27218,35.70748],[9.45424,35.48786]]]}},{"type":"Feature","properties":{"id":"tn-41","lat":35.56118,"lng":9.83227},"geometry":{"type":"Polygon","coordinates":[[[10.20649,36.13314],[10.17393,36.06922],[10.25367,36.00633],[10.15962,35.82686],[10.30566,35.5762],[10.236,35.54615],[10.17424,35.35913],[10.22871,35.14649],[10.05161,35.01399],[9.9863,35.15362],[9.72533,35.18679],[9.48292,35.34777],[9.48896,35.44652],[9.27218,35.70748],[9.50653,35.73991],[9.48912,35.899],[9.72812,36.06674],[10.04247,36.00948],[10.07337,36.08343],[10.20649,36.13314]]]}},{"type":"Feature","properties":{"id":"tn-42","lat":35.21966,"lng":8.81756},"geometry":{"type":"Polygon","coordinates":[[[8.25871,34.7413],[8.30045,35.06768],[8.4313,35.24173],[8.29436,35.32508],[8.32723,35.62141],[8.46127,35.67353],[8.60235,35.64899],[8.69929,35.7841],[9.00222,35.7034],[9.31641,35.50556],[9.31688,35.44295],[9.14821,35.25718],[9.26288,35.19759],[9.27109,35.05197],[9.10165,34.99781],[9.02687,34.90451],[9.05095,34.86702],[8.56959,34.63742],[8.25871,34.7413]]]}},{"type":"Feature","properties":{"id":"tn-43","lat":34.81214,"lng":9.43298},"geometry":{"type":"Polygon","coordinates":[[[9.32696,35.48068],[9.48896,35.44652],[9.48292,35.34777],[9.71582,35.19124],[9.9863,35.15362],[10.05161,35.01399],[9.82398,34.62647],[10.05022,34.54652],[10.05192,34.49508],[9.73184,34.33935],[9.7537,34.23796],[9.6598,34.29266],[9.55852,34.25233],[9.56053,34.37806],[9.28928,34.53924],[9.29037,34.66127],[8.8059,34.75064],[9.05994,34.87363],[9.02687,34.90451],[9.10759,35.00226],[9.27109,35.05197],[9.26288,35.19759],[9.14898,35.261],[9.32696,35.48068]]]}},{"type":"Feature","properties":{"id":"tn-51","lat":35.91865,"lng":10.40178},"geometry":{"type":"Polygon","coordinates":[[[10.52938,36.35033],[10.47953,36.07933],[10.69134,35.78962],[10.6275,35.62093],[10.48115,35.51928],[10.60109,35.50199],[10.52724,35.41766],[10.30132,35.52923],[10.15946,35.83097],[10.25367,36.00633],[10.17362,36.084],[10.26762,36.22141],[10.35563,36.24234],[10.36555,36.36507],[10.52938,36.35033]]]}},{"type":"Feature","properties":{"id":"tn-52","lat":35.62133,"lng":10.82683},"geometry":{"type":"Polygon","coordinates":[[[10.69134,35.78962],[10.81381,35.78498],[10.84116,35.6988],[11.05502,35.61448],[10.83338,35.45892],[10.48983,35.48967],[10.52538,35.58354],[10.63246,35.62819],[10.69134,35.78962]]]}},{"type":"Feature","properties":{"id":"tn-53","lat":35.30327,"lng":10.63459},"geometry":{"type":"Polygon","coordinates":[[[11.01393,35.56291],[11.08506,35.50679],[11.04223,35.33443],[11.16078,35.23823],[11.01588,35.09284],[10.83338,35.15729],[10.77503,35.27211],[10.72553,35.22033],[10.61551,35.24048],[10.42079,35.10863],[10.22871,35.14649],[10.17424,35.35913],[10.26173,35.56434],[10.52724,35.41766],[10.60109,35.50199],[10.83338,35.45892],[11.01393,35.56291]]]}},{"type":"Feature","properties":{"id":"tn-61","lat":34.72401,"lng":10.32027},"geometry":{"type":"MultiPolygon","coordinates":[[[[10.97384,34.66301],[11.10133,34.67097],[11.11084,34.65951],[11.05571,34.62096],[10.97384,34.66301]]],[[[11.01811,35.03419],[10.91765,34.95742],[10.87142,34.79737],[10.62525,34.63325],[10.59702,34.54471],[10.12672,34.32563],[10.03278,34.18465],[9.93059,34.15823],[9.85147,34.2175],[9.76068,34.21685],[9.71365,34.24866],[9.7613,34.24331],[9.7444,34.34899],[10.04898,34.48875],[10.05456,34.5435],[9.83597,34.59716],[9.82646,34.65065],[10.17016,35.12923],[10.42079,35.10863],[10.61551,35.24048],[10.72553,35.22033],[10.77503,35.27211],[10.83338,35.15729],[10.90324,35.16907],[11.01588,35.09284],[11.01811,35.03419]]],[[[11.30417,34.80529],[11.29703,34.72869],[11.13075,34.66329],[11.25427,34.82582],[11.30417,34.80529]]]]}},{"type":"Feature","properties":{"id":"tn-71","lat":34.46523,"lng":8.76852},"geometry":{"type":"Polygon","coordinates":[[[8.10248,34.53636],[8.22883,34.63644],[8.25871,34.7413],[8.56106,34.63768],[8.8059,34.75064],[9.28556,34.66305],[9.28928,34.53924],[9.56053,34.37806],[9.55852,34.25233],[9.09266,34.19153],[9.00021,34.10479],[8.35776,34.09208],[8.02802,34.31878],[8.14393,34.3941],[8.10248,34.53636]]]}},{"type":"Feature","properties":{"id":"tn-72","lat":33.99103,"lng":8.04753},"geometry":{"type":"Polygon","coordinates":[[[7.70829,33.4107],[7.49854,33.79998],[7.50371,34.06797],[7.63145,34.1991],[7.76529,34.24471],[7.83154,34.41439],[8.10248,34.53636],[8.14393,34.3941],[8.02802,34.31878],[8.16646,34.20647],[8.29849,34.17189],[8.35776,34.09208],[8.66922,34.09094],[8.53403,33.91408],[7.70829,33.4107]]]}},{"type":"Feature","properties":{"id":"tn-73","lat":33.36914,"lng":8.68932},"geometry":{"type":"Polygon","coordinates":[[[8.04362,33.10183],[7.75072,33.20766],[7.70829,33.4107],[8.53403,33.91408],[8.66922,34.09094],[9.00021,34.10479],[9.05328,34.17908],[9.26784,34.20479],[9.3577,34.12399],[9.25931,34.00511],[9.32339,33.79695],[9.58332,33.58648],[9.55102,33.48808],[9.70032,33.32758],[9.92578,33.19973],[9.90563,33.05031],[9.98785,32.9806],[9.92175,32.78885],[9.96785,32.66431],[9.6721,32.80255],[9.52421,32.73542],[8.33263,32.52636],[8.28288,32.83637],[8.04362,33.10183]]]}},{"type":"Feature","properties":{"id":"tn-81","lat":33.77658,"lng":9.80021},"geometry":{"type":"Polygon","coordinates":[[[10.01009,34.17308],[10.04884,33.98347],[10.1631,33.83625],[10.46022,33.6527],[10.27878,33.44018],[10.05937,33.32866],[9.74068,33.29117],[9.55102,33.48808],[9.58332,33.58648],[9.37925,33.71691],[9.29688,33.84452],[9.2652,34.0457],[9.3577,34.12399],[9.26784,34.20479],[9.6598,34.29266],[9.74378,34.22184],[10.01009,34.17308]]]}},{"type":"Feature","properties":{"id":"tn-82","lat":32.9833,"lng":11.27759},"geometry":{"type":"MultiPolygon","coordinates":[[[[11.5139,32.408],[11.18234,32.26222],[11.26415,32.38226],[11.43577,32.48828],[11.10401,32.68193],[11.13382,32.91174],[11.01166,33.05486],[10.62982,33.18901],[10.64796,33.25973],[9.9095,33.0748],[9.92578,33.19973],[9.74068,33.29117],[10.05937,33.32866],[10.27878,33.44018],[10.46022,33.6527],[10.71664,33.70694],[10.73692,33.60285],[10.67408,33.5456],[10.73813,33.47801],[10.90943,33.53962],[10.93621,33.6363],[11.04282,33.61787],[11.11158,33.54002],[11.10207,33.36408],[11.29371,33.28681],[11.13364,33.31143],[11.17953,33.21109],[11.43312,33.19355],[11.3519,33.25886],[11.50511,33.18122],[11.4492,32.69302],[11.56062,32.50758],[11.5139,32.408]]],[[[10.92994,33.89631],[11.06031,33.80073],[10.88779,33.64014],[10.859,33.71106],[10.73379,33.73067],[10.73601,33.88475],[10.92994,33.89631]]]]}},{"type":"Feature","properties":{"id":"tn-83","lat":31.84764,"lng":9.82733},"geometry":{"type":"Polygon","coordinates":[[[11.18234,32.26222],[10.87322,32.1367],[10.7031,31.96219],[10.62848,31.97412],[10.48254,31.7331],[10.26395,31.6805],[10.10623,31.42919],[10.24483,31.07816],[10.25393,30.84179],[9.87131,30.35515],[9.51971,30.22891],[9.04501,32.07184],[8.33263,32.52636],[9.52421,32.73542],[9.6721,32.80255],[9.96134,32.65855],[9.92175,32.78885],[9.98785,32.9806],[9.9095,33.0748],[10.63819,33.26076],[10.62982,33.18901],[11.01166,33.05486],[11.13382,32.91174],[11.10401,32.68193],[11.43577,32.48828],[11.26415,32.38226],[11.18234,32.26222]]]}}]}
