{"type":"FeatureCollection","features":[{"type":"Feature","properties":{"id":"to-01","lat":-21.36012,"lng":-174.93679},"geometry":{"type":"Polygon","coordinates":[[[-174.91474,-21.29217],[-174.90852,-21.32936],[-174.92028,-21.4542],[-174.98363,-21.39088],[-174.91474,-21.29217]]]}},{"type":"Feature","properties":{"id":"to-02","lat":-19.76108,"lng":-175.07417},"geometry":{"type":"MultiPolygon","coordinates":[[[[-174.32018,-19.81927],[-174.32567,-19.7597],[-174.30586,-19.76719],[-174.32018,-19.81927]]],[[[-175.06929,-19.71201],[-175.06554,-19.80137],[-175.09667,-19.7208],[-175.06929,-19.71201]]],[[[-174.30582,-19.733],[-174.25744,-19.68467],[-174.3022,-19.74407],[-174.30582,-19.733]]],[[[-174.2779,-19.59588],[-174.26427,-19.65049],[-174.29304,-19.59271],[-174.2779,-19.59588]]]]}},{"type":"Feature","properties":{"id":"to-03","lat":-15.58782,"lng":-175.64873},"geometry":{"type":"MultiPolygon","coordinates":[[[[-173.76472,-15.95859],[-173.72659,-15.96299],[-173.75687,-15.97658],[-173.76472,-15.95859]]],[[[-175.61262,-15.57334],[-175.63915,-15.62428],[-175.68627,-15.60231],[-175.66377,-15.56601],[-175.61262,-15.57334]]]]}},{"type":"Feature","properties":{"id":"to-04","lat":-21.15203,"lng":-175.27046},"geometry":{"type":"MultiPolygon","coordinates":[[[[-176.21349,-22.32391],[-176.20702,-22.3388],[-176.21931,-22.32985],[-176.21349,-22.32391]]],[[[-175.05464,-21.13152],[-175.14875,-21.268],[-175.36482,-21.11395],[-175.30578,-21.0626],[-175.34081,-21.10263],[-175.24059,-21.1137],[-175.22358,-21.17254],[-175.05464,-21.13152]]]]}},{"type":"Feature","properties":{"id":"to-05","lat":-18.6465,"lng":-173.97021},"geometry":{"type":"MultiPolygon","coordinates":[[[[-174.64045,-18.81658],[-174.64961,-18.77955],[-174.62682,-18.79754],[-174.64045,-18.81658]]],[[[-174.00414,-18.57098],[-173.91515,-18.62689],[-173.99055,-18.70517],[-174.01098,-18.62949],[-174.05944,-18.66351],[-174.00414,-18.57098]]]]}}]}
