{"type":"FeatureCollection","features":[{"type":"Feature","properties":{"id":"tr-01","lat":37.47037,"lng":35.41305},"geometry":{"type":"Polygon","coordinates":[[[35.93252,36.87299],[35.80543,36.77509],[35.6067,36.74038],[35.57944,36.68513],[35.70916,36.71988],[35.62257,36.68073],[35.60865,36.64688],[35.69557,36.7062],[35.62355,36.60252],[35.49,36.61392],[35.53102,36.58271],[35.34604,36.54108],[34.93328,36.72748],[35.06673,36.79569],[35.08171,37.02596],[34.93495,37.08365],[34.90984,37.24323],[34.7916,37.38772],[34.86519,37.55303],[34.82778,37.68018],[35.0597,37.71354],[35.19065,37.81811],[35.62964,37.77024],[35.60768,37.95376],[35.97902,38.15496],[36.14594,38.39512],[36.34799,38.47471],[36.5055,38.32293],[36.33859,37.97768],[36.35967,37.73175],[36.27988,37.6691],[36.11001,37.66435],[35.93958,37.36997],[35.96974,37.21967],[36.08456,37.19176],[36.10484,37.12208],[36.0616,37.00968],[35.91701,36.93483],[35.93252,36.87299]]]}},{"type":"Feature","properties":{"id":"tr-02","lat":37.81255,"lng":38.23924},"geometry":{"type":"Polygon","coordinates":[[[37.62512,37.51882],[37.42173,37.63507],[37.46193,37.73377],[37.56528,37.82048],[38.12763,37.90497],[38.43086,38.21413],[38.61866,38.21906],[38.57142,38.12594],[38.80324,38.09034],[39.11485,38.19271],[39.25262,38.17966],[39.22492,38.06372],[39.07227,37.99952],[38.97832,37.90595],[38.97791,37.8302],[38.89781,37.80462],[38.95393,37.80136],[38.96468,37.76131],[38.88892,37.74085],[38.92313,37.71351],[38.80045,37.69698],[38.86846,37.65145],[38.64563,37.62416],[38.49484,37.50063],[38.27201,37.47642],[38.18013,37.41188],[37.84361,37.53556],[37.62512,37.51882]]]}},{"type":"Feature","properties":{"id":"tr-03","lat":38.59078,"lng":30.67026},"geometry":{"type":"Polygon","coordinates":[[[29.88813,38.70686],[30.09566,38.80419],[30.25348,39.08066],[30.44179,39.20629],[30.62121,39.08692],[30.86854,39.21086],[30.96217,39.15459],[31.25766,39.28194],[31.45279,39.09121],[31.69784,39.09263],[31.67469,39.00049],[31.72357,38.96747],[31.5948,38.66637],[31.43077,38.51411],[31.25435,38.42298],[31.09963,38.51519],[30.7811,38.27774],[30.53016,38.19302],[30.23219,37.99318],[30.16532,37.81041],[29.84555,37.75935],[29.66406,37.85368],[29.66478,37.95577],[30.04088,38.19152],[29.89154,38.42484],[29.75325,38.45016],[29.88813,38.70686]]]}},{"type":"Feature","properties":{"id":"tr-04","lat":39.56695,"lng":43.44445},"geometry":{"type":"Polygon","coordinates":[[[44.45825,39.64252],[44.40481,39.43439],[44.31696,39.3853],[44.06137,39.40028],[44.01486,39.37408],[44.04706,39.33744],[43.57866,39.30008],[43.2437,39.40987],[43.04526,39.32122],[43.11461,39.26158],[43.08846,39.14087],[42.62761,39.00243],[42.64125,39.23544],[42.43134,39.49139],[42.49491,39.74814],[42.27156,39.86935],[42.56374,39.95185],[42.75732,39.92214],[43.2653,39.98658],[43.40038,39.7831],[43.53164,39.8385],[43.88087,39.65489],[44.45825,39.64252]]]}},{"type":"Feature","properties":{"id":"tr-05","lat":40.65641,"lng":35.83945},"geometry":{"type":"Polygon","coordinates":[[[35.08926,41.08692],[35.46112,41.02938],[35.673,40.88598],[36.03142,40.84738],[36.24288,41.00695],[36.44308,40.87037],[36.4098,40.83141],[36.49382,40.74558],[36.39729,40.58804],[36.1972,40.46606],[35.84229,40.50518],[35.5098,40.18863],[35.36314,40.20065],[35.33906,40.3287],[35.4575,40.56223],[35.08161,40.72478],[35.03149,40.81821],[35.08926,41.08692]]]}},{"type":"Feature","properties":{"id":"tr-06","lat":39.64603,"lng":32.6101},"geometry":{"type":"Polygon","coordinates":[[[32.31537,40.41518],[32.47671,40.53897],[32.4427,40.67302],[32.58616,40.70759],[32.95864,40.59401],[33.27139,40.33108],[33.37794,40.39725],[33.59519,40.33955],[33.56207,40.01647],[33.37274,39.9816],[33.27309,39.7275],[33.54496,39.21091],[33.93739,39.03467],[33.89667,38.93499],[33.93326,38.79226],[33.81161,38.71542],[33.46662,38.64359],[33.36616,38.79869],[33.37443,39.02255],[33.32058,39.11989],[33.10478,39.2221],[33.00908,39.10508],[32.86004,39.1572],[32.67607,39.03382],[32.60145,39.05839],[32.47867,38.99715],[32.2823,39.06353],[32.09058,39.04348],[31.86145,39.17143],[32.04273,39.27512],[31.9833,39.34824],[31.96118,39.56616],[31.84729,39.7259],[31.87953,39.83829],[31.75696,39.92025],[31.72698,40.02353],[31.24691,40.05771],[30.94574,40.01464],[30.86357,40.1428],[31.00723,40.2416],[31.06925,40.41133],[31.56792,40.3085],[32.17677,40.43128],[32.31537,40.41518]]]}},{"type":"Feature","properties":{"id":"tr-07","lat":36.74869,"lng":30.08398},"geometry":{"type":"Polygon","coordinates":[[[32.57179,36.09398],[32.36549,36.17797],[32.01881,36.54654],[31.34083,36.80858],[30.68653,36.89118],[30.56984,36.78132],[30.56984,36.52802],[30.47462,36.4016],[30.51987,36.34186],[30.39861,36.20596],[30.38429,36.27424],[30.23373,36.30891],[29.67237,36.12336],[29.58351,36.18545],[29.62387,36.19912],[29.41163,36.2674],[29.34962,36.23261],[29.26121,36.29358],[29.36196,36.46312],[29.4773,36.4824],[29.57549,36.59895],[29.58024,36.71605],[29.68886,36.91431],[29.79646,36.97878],[29.90601,37.17215],[30.29493,37.30493],[30.44086,37.23083],[30.78554,37.23525],[30.93499,37.38025],[31.02346,37.35139],[31.27771,37.42784],[31.45899,37.34129],[31.81535,37.2985],[32.32354,36.95821],[32.30535,36.85419],[32.44746,36.80827],[32.49056,36.60157],[32.65168,36.43803],[32.57179,36.09398]]]}},{"type":"Feature","properties":{"id":"tr-08","lat":41.00013,"lng":41.83959},"geometry":{"type":"Polygon","coordinates":[[[42.43785,41.43086],[42.53873,41.19118],[42.51206,41.12351],[42.27921,40.92492],[41.95892,40.87748],[41.82084,40.58763],[41.65661,40.64124],[41.40133,40.55556],[41.33343,40.60104],[41.36526,40.7547],[41.12744,40.81291],[41.38583,41.07535],[41.25529,41.17273],[41.19975,41.30126],[41.40895,41.39033],[41.52076,41.51423],[41.81298,41.42181],[41.94796,41.50558],[42.43785,41.43086]]]}},{"type":"Feature","properties":{"id":"tr-09","lat":37.72931,"lng":28.06043},"geometry":{"type":"Polygon","coordinates":[[[27.51246,37.55306],[27.33033,37.35163],[27.19077,37.35733],[27.20851,37.59687],[27.01149,37.66572],[27.22641,37.72093],[27.2618,37.88844],[27.5323,37.97776],[27.82934,37.96905],[28.69802,38.10382],[28.79052,37.99939],[28.77058,37.84524],[28.90307,37.7377],[28.73027,37.59835],[28.5832,37.58975],[28.60893,37.47748],[28.26993,37.57745],[28.14136,37.46676],[28.01982,37.45978],[27.51246,37.55306]]]}},{"type":"Feature","properties":{"id":"tr-10","lat":39.81869,"lng":27.89826},"geometry":{"type":"MultiPolygon","coordinates":[[[[27.59702,40.32832],[27.78981,40.32046],[27.88356,40.3863],[27.79176,40.39289],[27.68426,40.49616],[27.76002,40.53706],[28.03443,40.47443],[27.90846,40.37421],[28.20807,40.39931],[28.09888,40.29715],[28.14901,40.22584],[28.11284,40.15326],[28.28141,39.89576],[28.54589,39.74522],[28.67384,39.76409],[28.78029,39.61885],[28.96715,39.58906],[28.8114,39.29057],[28.66671,39.23804],[28.65947,39.15663],[28.17103,39.05018],[27.98458,39.23642],[27.85425,39.23642],[27.8712,39.34478],[27.49665,39.41134],[27.42006,39.38028],[27.29097,39.46449],[26.77871,39.17004],[26.71876,39.26288],[26.60922,39.27521],[26.94508,39.53962],[26.8934,39.58438],[26.66724,39.55085],[26.6967,39.71019],[27.02205,39.79292],[27.27423,39.77266],[27.43877,39.84447],[27.50089,40.1213],[27.42079,40.173],[27.59702,40.32832]]],[[[27.65699,40.45751],[27.59636,40.45799],[27.57993,40.47655],[27.60727,40.50544],[27.65699,40.45751]]],[[[27.52638,40.63911],[27.73268,40.62519],[27.60475,40.57681],[27.52638,40.63911]]]]}},{"type":"Feature","properties":{"id":"tr-11","lat":40.02536,"lng":30.11949},"geometry":{"type":"Polygon","coordinates":[[[30.62597,40.33149],[30.73862,40.16781],[30.55538,40.11458],[30.49068,39.96526],[30.24521,39.84966],[30.23498,39.7477],[30.13607,39.63882],[29.90198,39.61657],[29.66582,39.77884],[29.6777,39.90632],[29.78416,39.91147],[29.68959,40.08546],[29.83191,40.2909],[29.79997,40.3719],[29.88792,40.51091],[29.94084,40.53355],[30.08099,40.39144],[30.42629,40.39405],[30.62597,40.33149]]]}},{"type":"Feature","properties":{"id":"tr-12","lat":39.03276,"lng":40.77789},"geometry":{"type":"Polygon","coordinates":[[[40.05629,39.35788],[40.855,39.581],[41.16289,39.42299],[41.27689,39.0726],[41.16434,38.88791],[41.25963,38.73919],[40.90027,38.6008],[40.54753,38.60852],[40.45854,38.49527],[40.30124,38.47799],[40.23323,38.63036],[40.38217,38.82515],[40.27954,38.99292],[40.39157,39.18174],[40.36118,39.22944],[40.01506,39.09736],[40.01888,39.23696],[40.05629,39.35788]]]}},{"type":"Feature","properties":{"id":"tr-13","lat":38.48796,"lng":42.19539},"geometry":{"type":"Polygon","coordinates":[[[42.47341,38.93158],[42.97198,39.10407],[43.00361,38.97726],[43.16122,38.87228],[42.87535,38.54421],[42.68766,38.44716],[42.73355,38.19591],[42.78688,38.18113],[42.70657,37.94606],[42.0602,38.22715],[41.88822,38.18325],[41.67728,38.22136],[41.6161,38.52876],[41.54178,38.56757],[41.9368,38.63377],[42.03767,38.71343],[42.01803,38.83158],[42.1063,38.82998],[42.15963,38.9021],[42.47341,38.93158]]]}},{"type":"Feature","properties":{"id":"tr-14","lat":40.58508,"lng":31.6115},"geometry":{"type":"Polygon","coordinates":[[[32.50709,40.70516],[32.4427,40.67302],[32.47671,40.53897],[32.31537,40.41518],[32.17677,40.43128],[31.56792,40.3085],[31.06925,40.41133],[31.00723,40.2416],[30.86357,40.1428],[30.7011,40.20396],[30.59496,40.44888],[30.69077,40.57437],[30.82523,40.59579],[30.82781,40.68896],[30.89117,40.72679],[31.3455,40.68018],[31.42228,40.72463],[31.46269,40.84989],[31.73343,40.91051],[31.79911,41.0418],[32.28395,41.00385],[32.27827,40.94856],[32.49221,40.86779],[32.50709,40.70516]]]}},{"type":"Feature","properties":{"id":"tr-15","lat":37.34259,"lng":30.19857},"geometry":{"type":"Polygon","coordinates":[[[29.56567,37.4449],[29.53807,37.57626],[29.84555,37.75935],[30.01525,37.77651],[30.08615,37.70315],[30.33658,37.84614],[30.5129,37.70927],[30.70648,37.67065],[30.93499,37.38025],[30.74813,37.2284],[30.44086,37.23083],[30.29493,37.30493],[30.08564,37.24662],[29.90601,37.17215],[29.79646,36.97878],[29.68886,36.91431],[29.60401,37.00857],[29.39669,36.95966],[29.41467,37.17468],[29.56567,37.4449]]]}},{"type":"Feature","properties":{"id":"tr-16","lat":39.99846,"lng":28.97552},"geometry":{"type":"Polygon","coordinates":[[[28.20807,40.39931],[29.03395,40.36445],[29.15154,40.43407],[28.98032,40.46455],[28.97797,40.57323],[29.23051,40.51158],[29.35814,40.5729],[29.53528,40.55236],[29.78891,40.61468],[29.94084,40.53355],[29.82829,40.45484],[29.83191,40.2909],[29.68959,40.08546],[29.78416,39.91147],[29.39948,39.89591],[29.19081,39.55211],[28.78029,39.61885],[28.67384,39.76409],[28.54589,39.74522],[28.28141,39.89576],[28.11284,40.15326],[28.14901,40.22584],[28.09888,40.29715],[28.20807,40.39931]]]}},{"type":"Feature","properties":{"id":"tr-17","lat":39.97574,"lng":26.8217},"geometry":{"type":"MultiPolygon","coordinates":[[[[26.08302,39.83495],[26.07496,39.7849],[25.97804,39.83417],[26.00424,39.8452],[26.08302,39.83495]]],[[[26.66724,39.55085],[26.15284,39.45922],[26.07,39.49628],[26.15675,39.64924],[26.1526,39.94261],[26.19777,40.00886],[26.3532,40.05215],[26.40797,40.19367],[26.73561,40.40355],[26.99147,40.38862],[27.09636,40.4523],[27.28696,40.46821],[27.33758,40.37031],[27.57218,40.31567],[27.42079,40.173],[27.50089,40.1213],[27.43877,39.84447],[27.27423,39.77266],[27.02205,39.79292],[26.6967,39.71019],[26.66724,39.55085]]],[[[25.99025,40.13691],[25.76596,40.09715],[25.66326,40.12617],[25.92595,40.24283],[25.99025,40.13691]]],[[[26.96354,40.56102],[26.68336,40.45547],[26.60157,40.34614],[26.34555,40.19977],[26.37582,40.15351],[26.15748,40.05533],[26.27198,40.23041],[26.20997,40.32193],[26.81666,40.58096],[26.78641,40.72583],[26.93244,40.71488],[26.96354,40.56102]]]]}},{"type":"Feature","properties":{"id":"tr-18","lat":40.69075,"lng":33.30961},"geometry":{"type":"Polygon","coordinates":[[[32.52457,40.7762],[32.79619,40.96304],[33.02652,41.01153],[33.06923,41.09302],[33.40895,40.95985],[33.82587,41.10372],[33.85119,41.05731],[33.78329,40.97383],[33.82091,40.92536],[34.07661,40.79823],[34.05046,40.67633],[34.14771,40.39689],[33.96416,40.2655],[33.3982,40.39624],[33.27139,40.33108],[32.95864,40.59401],[32.50709,40.70516],[32.52457,40.7762]]]}},{"type":"Feature","properties":{"id":"tr-19","lat":40.64838,"lng":34.67873},"geometry":{"type":"Polygon","coordinates":[[[34.47193,41.31081],[34.83729,41.20162],[34.88803,41.26981],[34.97485,41.08742],[35.08926,41.08692],[35.03149,40.81821],[35.10879,40.68912],[35.43239,40.60765],[35.45792,40.52538],[35.32728,40.23403],[35.19137,40.21737],[35.17794,40.10254],[35.07262,40.039],[34.4585,40.00071],[34.05253,39.90762],[34.10131,40.05688],[33.96416,40.2655],[34.08178,40.31018],[34.15019,40.42296],[34.02721,40.86076],[34.25644,40.91939],[34.28021,40.9691],[34.21768,41.05941],[34.47193,41.31081]]]}},{"type":"Feature","properties":{"id":"tr-20","lat":37.66802,"lng":29.25442},"geometry":{"type":"Polygon","coordinates":[[[28.69802,38.10382],[28.78442,38.11995],[28.83806,38.2388],[29.2522,38.21216],[29.59585,38.28712],[29.62861,38.42882],[29.75325,38.45016],[29.89154,38.42484],[30.04088,38.19152],[29.67987,37.98435],[29.66406,37.85368],[29.84555,37.75935],[29.53807,37.57626],[29.58448,37.40999],[29.27039,36.9116],[29.11505,36.95806],[29.06182,37.1029],[28.8115,37.23354],[28.73533,37.35986],[28.62733,37.3825],[28.5832,37.58975],[28.73027,37.59835],[28.90307,37.7377],[28.77058,37.84524],[28.79052,37.99939],[28.69802,38.10382]]]}},{"type":"Feature","properties":{"id":"tr-21","lat":38.07907,"lng":40.19741},"geometry":{"type":"Polygon","coordinates":[[[41.25963,38.73919],[41.37838,38.64875],[41.42634,38.50091],[41.24919,38.42815],[41.21457,38.11509],[41.03546,37.86208],[41.07525,37.76493],[40.55156,37.72987],[39.99997,37.3757],[39.88432,37.55011],[39.84855,37.80188],[39.18896,38.04305],[39.25262,38.17966],[39.11485,38.19271],[39.11485,38.34352],[39.71998,38.37771],[39.893,38.50401],[40.41762,38.48096],[40.54753,38.60852],[40.90027,38.6008],[41.25963,38.73919]]]}},{"type":"Feature","properties":{"id":"tr-22","lat":41.31089,"lng":26.63549},"geometry":{"type":"Polygon","coordinates":[[[26.81943,41.96566],[26.90619,41.66694],[26.78021,41.37556],[26.8293,41.17284],[26.71633,40.93505],[26.78052,40.65937],[26.50563,40.59858],[26.07691,40.6118],[26.03321,40.73505],[26.11229,40.74697],[26.22618,40.89931],[26.35909,40.96468],[26.32054,41.24622],[26.6366,41.37846],[26.59546,41.61245],[26.33336,41.71304],[26.32003,41.76546],[26.52611,41.82424],[26.60569,41.96741],[26.81943,41.96566]]]}},{"type":"Feature","properties":{"id":"tr-23","lat":38.79421,"lng":39.96118},"geometry":{"type":"Polygon","coordinates":[[[39.47555,38.76327],[39.85362,38.89577],[39.91108,39.08591],[40.36118,39.22944],[40.39157,39.18174],[40.27954,38.99292],[40.38217,38.82515],[40.23323,38.63036],[40.30124,38.47799],[39.893,38.50401],[39.71998,38.37771],[38.99217,38.32603],[38.81048,38.44029],[38.46869,38.4792],[38.34891,38.59563],[38.48357,38.75303],[38.63168,38.75226],[38.6168,39.02031],[38.74568,39.03777],[38.81306,38.87716],[39.08085,38.88716],[39.47555,38.76327]]]}},{"type":"Feature","properties":{"id":"tr-24","lat":39.54862,"lng":39.08343},"geometry":{"type":"Polygon","coordinates":[[[38.7372,39.96549],[38.76159,40.05495],[38.93326,40.07133],[39.38543,39.89333],[39.56475,39.88919],[40.11789,40.0727],[40.2814,40.04717],[40.24223,39.93658],[40.46692,39.91346],[40.54929,39.76959],[40.68003,39.68765],[40.61884,39.53245],[39.85641,39.57154],[39.70376,39.5009],[39.03331,39.4462],[38.83683,39.33874],[38.84769,39.25776],[38.72035,39.15787],[38.74568,39.03777],[38.6879,39.02297],[38.36172,39.15027],[38.36141,39.3993],[38.44668,39.45994],[38.34415,39.56479],[38.37857,39.70347],[38.54021,39.83276],[38.37722,39.83633],[38.40668,39.95074],[38.7372,39.96549]]]}},{"type":"Feature","properties":{"id":"tr-25","lat":40.05301,"lng":41.49987},"geometry":{"type":"Polygon","coordinates":[[[42.43134,39.49139],[42.1987,39.42615],[42.1557,39.29907],[42.03726,39.22706],[41.74766,39.17146],[41.44556,39.37183],[41.20506,39.36566],[41.11835,39.46374],[40.855,39.581],[40.61884,39.53245],[40.68003,39.68765],[40.54929,39.76959],[40.46692,39.91346],[40.29535,39.91583],[40.24223,39.93658],[40.25039,39.99392],[40.2814,40.04717],[40.48097,40.0366],[40.79982,40.21171],[40.57471,40.28382],[40.48945,40.54212],[40.79175,40.62915],[40.82193,40.68659],[41.12744,40.81291],[41.36526,40.7547],[41.33343,40.60104],[41.40133,40.55556],[41.65661,40.64124],[41.82084,40.58763],[41.95892,40.87748],[42.27921,40.92492],[42.53697,40.59918],[42.53821,40.43071],[42.15043,40.24054],[42.48457,40.05885],[42.56374,39.95185],[42.27156,39.86935],[42.49491,39.74814],[42.43134,39.49139]]]}},{"type":"Feature","properties":{"id":"tr-26","lat":39.60249,"lng":31.05655},"geometry":{"type":"Polygon","coordinates":[[[30.73862,40.16781],[30.86357,40.1428],[30.94574,40.01464],[31.24691,40.05771],[31.72698,40.02353],[31.75696,39.92025],[31.87953,39.83829],[31.84729,39.7259],[31.96118,39.56616],[31.9833,39.34824],[32.04273,39.27512],[31.75706,39.08635],[31.45279,39.09121],[31.25766,39.28194],[30.96217,39.15459],[30.86854,39.21086],[30.66803,39.09299],[30.5437,39.12412],[30.32376,39.37196],[30.28449,39.50971],[30.13607,39.63882],[30.23498,39.7477],[30.24521,39.84966],[30.49068,39.96526],[30.55538,40.11458],[30.73862,40.16781]]]}},{"type":"Feature","properties":{"id":"tr-27","lat":37.14737,"lng":37.23262},"geometry":{"type":"Polygon","coordinates":[[[38.026,36.83501],[37.52214,36.6736],[37.24101,36.79156],[36.90533,37.02396],[36.86401,36.93617],[36.65956,36.82724],[36.45186,36.96069],[36.67614,37.22961],[36.88956,37.36674],[36.96635,37.25323],[37.04325,37.23328],[37.19022,37.33147],[37.57479,37.39185],[37.62512,37.51882],[37.84361,37.53556],[38.03988,37.44598],[37.97435,37.43544],[37.84062,37.26785],[37.86935,37.06513],[37.9788,37.05004],[38.026,36.83501]]]}},{"type":"Feature","properties":{"id":"tr-28","lat":40.58303,"lng":38.47324},"geometry":{"type":"Polygon","coordinates":[[[38.1142,40.95816],[38.45232,40.91673],[39.14832,41.07245],[39.14441,40.77136],[38.90773,40.68672],[38.84655,40.56083],[38.8698,40.45422],[39.06545,40.38839],[38.90711,40.26987],[38.93326,40.07133],[38.45422,40.09988],[38.2748,40.18608],[38.15832,40.52355],[38.06334,40.60522],[38.1142,40.95816]]]}},{"type":"Feature","properties":{"id":"tr-29","lat":40.32913,"lng":39.4204},"geometry":{"type":"Polygon","coordinates":[[[39.83398,40.56101],[39.86003,40.26695],[39.81145,40.14396],[39.86912,40.01482],[39.78789,39.9348],[39.38543,39.89333],[38.93326,40.07133],[38.90711,40.26987],[39.06545,40.38839],[38.8698,40.45422],[38.83973,40.51603],[38.90773,40.68672],[39.02442,40.76054],[39.22131,40.78981],[39.34523,40.65964],[39.63854,40.58189],[39.7173,40.65742],[39.83398,40.56101]]]}},{"type":"Feature","properties":{"id":"tr-30","lat":37.44779,"lng":43.98908},"geometry":{"type":"Polygon","coordinates":[[[43.8094,37.19969],[43.3625,37.30391],[43.40927,37.46479],[43.35966,37.58463],[43.38684,37.73364],[43.92303,37.76444],[44.11693,37.91298],[44.33123,37.87397],[44.43644,37.7678],[44.55938,37.75201],[44.59839,37.70703],[44.54088,37.63272],[44.58744,37.58401],[44.57214,37.43079],[44.80159,37.29269],[44.76613,37.14192],[44.61028,37.17835],[44.28482,36.96917],[44.18002,37.08761],[44.24963,37.17944],[44.18447,37.27917],[43.99037,37.3125],[43.8094,37.19969]]]}},{"type":"Feature","properties":{"id":"tr-31","lat":36.39964,"lng":36.23137},"geometry":{"type":"Polygon","coordinates":[[[36.65956,36.82724],[36.53124,36.47901],[36.66425,36.229],[36.373,36.22761],[36.35802,35.99398],[36.19689,35.95171],[36.15762,35.82257],[35.9113,35.91775],[35.97543,36.0185],[35.78875,36.32026],[36.21616,36.65778],[36.12989,36.86929],[36.02027,36.92634],[35.93252,36.87299],[35.91701,36.93483],[36.01757,37.02002],[36.23534,37.01536],[36.45186,36.96069],[36.65956,36.82724]]]}},{"type":"Feature","properties":{"id":"tr-32","lat":37.91966,"lng":30.82688},"geometry":{"type":"Polygon","coordinates":[[[31.09963,38.51519],[31.28329,38.35006],[31.62074,38.10465],[31.4471,38.00277],[31.45072,37.78074],[31.32918,37.63887],[31.36773,37.53755],[31.33187,37.42224],[31.02346,37.35139],[30.93499,37.38025],[30.70648,37.67065],[30.5129,37.70927],[30.33658,37.84614],[30.08615,37.70315],[30.0291,37.74328],[30.01525,37.77651],[30.16532,37.81041],[30.23219,37.99318],[30.53016,38.19302],[30.7811,38.27774],[31.09963,38.51519]]]}},{"type":"Feature","properties":{"id":"tr-33","lat":36.70009,"lng":33.74683},"geometry":{"type":"Polygon","coordinates":[[[34.93328,36.72748],[34.73585,36.82168],[34.5547,36.76765],[34.07732,36.41389],[34.07789,36.32884],[33.99977,36.30292],[33.959,36.21357],[33.8711,36.31489],[33.68824,36.13703],[33.64723,36.19257],[33.55226,36.12751],[33.15691,36.13703],[32.80372,36.02717],[32.57179,36.09398],[32.65168,36.43803],[33.05238,36.46661],[33.1022,36.55353],[33.23098,36.56066],[33.04349,36.6727],[32.97952,36.8038],[33.10788,36.84638],[33.16731,36.81339],[33.23273,36.91801],[33.37195,36.988],[33.76118,37.03144],[34.14896,37.15502],[34.51224,37.35198],[34.7916,37.38772],[34.90984,37.24323],[34.93495,37.08365],[35.08171,37.02596],[35.06673,36.79569],[34.93328,36.72748]]]}},{"type":"Feature","properties":{"id":"tr-34","lat":41.20535,"lng":28.61817},"geometry":{"type":"MultiPolygon","coordinates":[[[[29.24098,40.88255],[29.00758,41.0305],[29.06235,41.07632],[29.09059,41.14094],[29.0691,41.15278],[29.16969,41.2331],[29.88461,41.14899],[29.84937,41.02938],[29.64659,40.90993],[29.45095,41.00861],[29.24098,40.88255]]],[[[28.23276,41.51899],[28.90846,41.26655],[29.09392,41.24641],[29.04078,41.16429],[29.05152,41.08177],[28.98951,41.03107],[28.9865,41.00263],[28.82203,40.96162],[28.59522,40.97797],[28.57244,41.06647],[28.52784,41.08515],[28.54135,40.98957],[28.17473,41.08084],[28.15573,41.4922],[28.23276,41.51899]]]]}},{"type":"Feature","properties":{"id":"tr-35","lat":38.66602,"lng":27.00435},"geometry":{"type":"Polygon","coordinates":[[[27.2618,37.88844],[27.23911,37.98794],[26.97543,38.06525],[26.86492,38.04035],[26.76027,38.21674],[26.63592,38.2036],[26.59498,38.10395],[26.39015,38.26166],[26.35402,38.22826],[26.23308,38.28026],[26.30763,38.32306],[26.29412,38.36986],[26.38502,38.31843],[26.47592,38.36689],[26.45151,38.42609],[26.51303,38.43293],[26.38787,38.45425],[26.34897,38.63548],[26.41407,38.67939],[26.63038,38.51923],[26.58815,38.41869],[26.67311,38.3072],[26.7024,38.43016],[26.79509,38.35863],[27.16424,38.4466],[26.93539,38.43488],[26.81471,38.54279],[26.88982,38.50804],[26.84889,38.5974],[26.71909,38.65266],[26.71909,38.72093],[26.90349,38.73457],[26.89723,38.81656],[27.06267,38.88687],[27.04127,38.94009],[26.80649,38.95014],[26.79363,39.02196],[26.88315,39.0716],[26.77871,39.17004],[27.29097,39.46449],[27.39071,39.42473],[27.54533,39.09394],[27.51008,39.01679],[27.32715,38.92494],[27.2332,38.75577],[27.32126,38.61568],[27.58326,38.56989],[27.84825,38.33285],[27.98644,38.40512],[28.09537,38.39461],[28.16286,38.30877],[28.4478,38.28994],[28.56232,38.1062],[28.25412,38.02006],[27.5323,37.97776],[27.2618,37.88844]]]}},{"type":"Feature","properties":{"id":"tr-36","lat":40.53853,"lng":43.08186},"geometry":{"type":"Polygon","coordinates":[[[43.44043,41.10659],[43.46048,41.02287],[43.63618,40.93352],[43.72062,40.76289],[43.70718,40.61194],[43.55949,40.47789],[43.72139,40.16938],[43.66543,40.11016],[43.35629,40.04091],[43.31842,39.96932],[43.06448,39.98934],[42.75732,39.92214],[42.56374,39.95185],[42.48457,40.05885],[42.15043,40.24054],[42.53821,40.43071],[42.53697,40.59918],[42.7719,40.6253],[42.82938,40.89354],[43.44043,41.10659]]]}},{"type":"Feature","properties":{"id":"tr-37","lat":41.45696,"lng":33.78104},"geometry":{"type":"Polygon","coordinates":[[[32.79851,41.85969],[33.32447,42.01903],[34.21613,41.96014],[34.14038,41.76706],[34.5325,41.71316],[34.58789,41.65748],[34.47204,41.5185],[34.47193,41.31081],[34.20766,41.0393],[34.28021,40.9691],[34.25644,40.91939],[33.98555,40.86218],[33.78329,40.97383],[33.85119,41.05731],[33.82587,41.10372],[33.40895,40.95985],[32.9297,41.1533],[32.91937,41.29443],[33.11543,41.39542],[33.05885,41.53281],[32.81798,41.57635],[32.80847,41.64785],[32.87297,41.68232],[32.79851,41.85969]]]}},{"type":"Feature","properties":{"id":"tr-38","lat":38.5118,"lng":35.84827},"geometry":{"type":"Polygon","coordinates":[[[35.19065,37.81811],[35.25886,37.95396],[35.20563,38.17661],[35.04399,38.17813],[34.91501,38.37939],[35.07097,38.56584],[35.06911,38.70487],[34.95273,38.84812],[35.02776,39.04113],[35.25483,39.0133],[35.73573,39.24391],[35.81986,39.33445],[36.11152,39.20569],[36.89979,39.13345],[36.93628,39.04421],[36.74745,38.5994],[36.5055,38.32293],[36.40008,38.45657],[36.26686,38.45776],[36.14594,38.39512],[35.97902,38.15496],[35.60768,37.95376],[35.62964,37.77024],[35.19065,37.81811]]]}},{"type":"Feature","properties":{"id":"tr-39","lat":41.7446,"lng":27.4623},"geometry":{"type":"Polygon","coordinates":[[[27.23821,42.09792],[27.54641,41.90116],[27.68707,41.9686],[27.81534,41.9468],[27.81192,41.9947],[28.01677,41.97256],[28.04493,41.8902],[27.97755,41.88736],[27.97202,41.82225],[28.20302,41.54017],[28.15749,41.49209],[27.60145,41.41969],[27.51794,41.31112],[27.39598,41.26456],[27.23982,41.36476],[26.80976,41.33027],[26.78021,41.37556],[26.90619,41.66694],[26.8379,41.97522],[27.04654,42.08294],[27.17382,42.05707],[27.23821,42.09792]]]}},{"type":"Feature","properties":{"id":"tr-40","lat":39.33061,"lng":34.09981},"geometry":{"type":"Polygon","coordinates":[[[34.09965,38.89995],[33.54496,39.21091],[33.5245,39.26678],[34.0733,39.82574],[34.39504,39.70073],[34.73714,39.40026],[34.59523,39.39444],[34.67171,39.11087],[34.39256,38.98232],[34.38636,38.86161],[34.23567,38.92685],[34.09965,38.89995]]]}},{"type":"Feature","properties":{"id":"tr-41","lat":40.8927,"lng":29.79949},"geometry":{"type":"Polygon","coordinates":[[[29.88461,41.14899],[30.16521,41.14663],[30.28248,41.21552],[30.42929,41.17057],[30.39208,41.09408],[30.48799,41.00029],[30.45915,40.93569],[30.29493,40.94114],[30.32893,40.91027],[30.22392,40.70863],[30.12501,40.61698],[29.42066,40.56316],[29.42842,40.69088],[29.47926,40.72407],[29.9393,40.73505],[29.66619,40.78352],[29.37778,40.75654],[29.31544,40.82445],[29.25457,40.81078],[29.29493,40.83877],[29.25367,40.87547],[29.45095,41.00861],[29.64659,40.90993],[29.84937,41.02938],[29.88461,41.14899]]]}},{"type":"Feature","properties":{"id":"tr-42","lat":37.96775,"lng":32.43253},"geometry":{"type":"Polygon","coordinates":[[[33.10478,39.2221],[33.32058,39.11989],[33.37443,39.02255],[33.36616,38.79869],[33.46662,38.64359],[33.27211,38.28603],[33.34849,38.0292],[33.45608,37.93324],[34.15981,38.00225],[34.44547,37.71713],[34.38915,37.48647],[34.51224,37.35198],[34.14896,37.15502],[33.80469,37.50381],[33.73689,37.64326],[33.63891,37.64703],[33.41267,37.51133],[33.01321,37.45857],[32.62874,37.07787],[32.60982,36.97609],[32.73044,36.94971],[32.7418,36.89317],[32.45624,36.67339],[32.44746,36.80827],[32.29026,36.88139],[32.32354,36.95821],[32.03312,37.16864],[31.81535,37.2985],[31.45899,37.34129],[31.33187,37.42224],[31.36773,37.53755],[31.32918,37.63887],[31.45072,37.78074],[31.4471,38.00277],[31.62074,38.10465],[31.28329,38.35006],[31.25435,38.42298],[31.5948,38.66637],[31.60803,38.78208],[31.71489,38.92765],[31.69784,39.09263],[31.8354,39.09787],[31.86145,39.17143],[32.09058,39.04348],[32.2823,39.06353],[32.47867,38.99715],[32.60145,39.05839],[32.67607,39.03382],[32.86004,39.1572],[33.00908,39.10508],[33.10478,39.2221]]]}},{"type":"Feature","properties":{"id":"tr-43","lat":39.40014,"lng":29.60493},"geometry":{"type":"Polygon","coordinates":[[[29.6777,39.90632],[29.66582,39.77884],[29.71625,39.70926],[29.94549,39.60761],[30.13607,39.63882],[30.28449,39.50971],[30.44179,39.20629],[30.25348,39.08066],[30.09566,38.80419],[29.88813,38.70686],[29.88875,38.81029],[29.68814,38.88509],[29.57135,38.86523],[29.52929,38.76296],[29.03226,38.73014],[28.97428,38.9816],[28.88096,39.07526],[28.70898,39.11322],[28.66671,39.23804],[28.8114,39.29057],[28.96715,39.58906],[29.2461,39.57934],[29.39948,39.89591],[29.6777,39.90632]]]}},{"type":"Feature","properties":{"id":"tr-44","lat":38.49675,"lng":37.85667},"geometry":{"type":"Polygon","coordinates":[[[37.70223,38.98431],[38.36172,39.15027],[38.62362,39.08216],[38.6879,39.02297],[38.5893,38.99219],[38.63168,38.75226],[38.48357,38.75303],[38.34891,38.59563],[38.3735,38.53651],[38.68894,38.42073],[38.81048,38.44029],[38.95724,38.33048],[39.11485,38.34352],[39.11485,38.19271],[38.80324,38.09034],[38.57142,38.12594],[38.61866,38.21906],[38.43086,38.21413],[38.12763,37.90497],[37.56528,37.82048],[37.78233,38.27836],[37.73365,38.34621],[37.45966,38.44957],[37.23714,38.46716],[37.22587,38.52633],[37.58048,38.79683],[37.57355,39.00821],[37.70223,38.98431]]]}},{"type":"Feature","properties":{"id":"tr-45","lat":38.76406,"lng":28.13903},"geometry":{"type":"Polygon","coordinates":[[[28.65947,39.15663],[28.90989,39.05958],[29.03629,38.79332],[29.03226,38.73014],[28.8484,38.60012],[28.91548,38.44073],[28.83848,38.3034],[28.93098,38.25513],[28.83806,38.2388],[28.74298,38.10429],[28.56232,38.1062],[28.4478,38.28994],[28.16286,38.30877],[28.09537,38.39461],[27.93889,38.40675],[27.84825,38.33285],[27.58326,38.56989],[27.38027,38.57594],[27.22845,38.73479],[27.32715,38.92494],[27.53768,39.04129],[27.42006,39.38028],[27.49665,39.41134],[27.8712,39.34478],[27.85425,39.23642],[27.98458,39.23642],[28.17103,39.05018],[28.65947,39.15663]]]}},{"type":"Feature","properties":{"id":"tr-46","lat":37.89908,"lng":36.97696},"geometry":{"type":"Polygon","coordinates":[[[36.5055,38.32293],[36.71366,38.58297],[36.87892,38.62503],[37.28437,38.60359],[37.23714,38.46716],[37.45966,38.44957],[37.73365,38.34621],[37.78233,38.27836],[37.71525,38.09269],[37.56528,37.82048],[37.42224,37.69413],[37.45707,37.58964],[37.62512,37.51882],[37.61727,37.41441],[37.19022,37.33147],[37.04325,37.23328],[36.96635,37.25323],[36.88956,37.36674],[36.7212,37.27119],[36.55056,37.38971],[36.30355,37.34906],[36.22025,37.50644],[36.35967,37.73175],[36.33859,37.97768],[36.5055,38.32293]]]}},{"type":"Feature","properties":{"id":"tr-47","lat":37.35206,"lng":40.86547},"geometry":{"type":"Polygon","coordinates":[[[41.89637,37.15428],[41.47977,37.07557],[40.70897,37.10048],[40.26141,36.92278],[40.1275,37.06895],[40.12492,37.16967],[40.01382,37.25752],[39.99997,37.3757],[40.55156,37.72987],[41.10068,37.76573],[41.36774,37.51851],[41.5206,37.54332],[41.81691,37.71382],[41.89256,37.43585],[41.68183,37.32842],[41.87603,37.21682],[41.89637,37.15428]]]}},{"type":"Feature","properties":{"id":"tr-48","lat":36.92661,"lng":28.69672},"geometry":{"type":"Polygon","coordinates":[[[29.26121,36.29358],[29.09636,36.39094],[29.11492,36.55268],[29.01441,36.54792],[29.09636,36.66523],[28.93897,36.75129],[28.82887,36.60252],[28.74635,36.6977],[28.62338,36.69937],[28.61036,36.81607],[28.48683,36.80174],[28.452,36.88361],[28.37672,36.85444],[28.42481,36.82909],[28.39601,36.7895],[28.27817,36.79645],[28.31495,36.82909],[28.25717,36.84618],[28.29509,36.71988],[28.0359,36.56477],[27.95924,36.60252],[28.08961,36.64411],[27.96608,36.68879],[28.11638,36.71882],[28.11842,36.8006],[27.91765,36.74038],[27.71941,36.75625],[27.67115,36.65778],[27.37029,36.6789],[27.35581,36.71239],[27.64536,36.80646],[28.02752,36.78132],[28.04184,36.93891],[28.16529,36.91161],[28.21241,37.00043],[28.32936,37.03677],[27.56202,36.97309],[27.37647,37.02774],[27.28696,36.95942],[27.22877,37.06184],[27.29444,37.1103],[27.26043,37.1103],[27.25294,37.12397],[27.38331,37.15184],[27.45981,37.0895],[27.57553,37.13011],[27.52784,37.19282],[27.60987,37.19965],[27.61598,37.27473],[27.50001,37.23383],[27.45883,37.258],[27.48015,37.34369],[27.44614,37.30561],[27.38868,37.34528],[27.51246,37.55306],[28.01982,37.45978],[28.14136,37.46676],[28.26993,37.57745],[28.60893,37.47748],[28.62733,37.3825],[28.73533,37.35986],[28.8115,37.23354],[29.06182,37.1029],[29.11505,36.95806],[29.27039,36.9116],[29.39038,37.06864],[29.39669,36.95966],[29.60401,37.00857],[29.68886,36.91431],[29.58024,36.71605],[29.57549,36.59895],[29.4773,36.4824],[29.36196,36.46312],[29.26121,36.29358]]]}},{"type":"Feature","properties":{"id":"tr-49","lat":39.03751,"lng":41.94259},"geometry":{"type":"Polygon","coordinates":[[[41.83448,39.1688],[42.1557,39.29907],[42.1987,39.42615],[42.43134,39.49139],[42.64125,39.23544],[42.62761,39.00243],[42.01803,38.83158],[42.03767,38.71343],[41.86662,38.60279],[41.39006,38.54158],[41.37838,38.64875],[41.16434,38.88791],[41.27689,39.0726],[41.17726,39.32734],[41.44556,39.37183],[41.6626,39.1988],[41.83448,39.1688]]]}},{"type":"Feature","properties":{"id":"tr-50","lat":38.89423,"lng":34.67934},"geometry":{"type":"Polygon","coordinates":[[[34.81031,38.34841],[34.6897,38.40422],[34.45188,38.40778],[34.3601,38.47321],[34.38077,38.61744],[34.26647,38.62741],[34.20621,38.70136],[34.25747,38.79701],[34.23567,38.92685],[34.38636,38.86161],[34.39256,38.98232],[34.67171,39.11087],[34.61942,39.18993],[34.61559,39.40444],[34.78334,39.3871],[34.99614,39.15761],[35.02776,39.04113],[34.95273,38.84812],[35.06911,38.70487],[35.07097,38.56584],[34.91501,38.37939],[34.81031,38.34841]]]}},{"type":"Feature","properties":{"id":"tr-51","lat":37.83555,"lng":34.7438},"geometry":{"type":"Polygon","coordinates":[[[34.51224,37.35198],[34.38915,37.48647],[34.44547,37.71713],[34.15981,38.00225],[34.48981,38.38851],[34.91501,38.37939],[35.04399,38.17813],[35.20563,38.17661],[35.25886,37.95396],[35.0597,37.71354],[34.82778,37.68018],[34.86519,37.55303],[34.7916,37.38772],[34.51224,37.35198]]]}},{"type":"Feature","properties":{"id":"tr-52","lat":40.70602,"lng":37.57627},"geometry":{"type":"Polygon","coordinates":[[[37.15174,41.14679],[37.29933,41.14037],[37.52475,41.03718],[37.68979,41.14037],[37.78386,41.12263],[37.78517,41.06],[37.89576,40.98212],[38.1142,40.95816],[38.06334,40.60522],[38.15832,40.52355],[37.76693,40.33188],[37.58409,40.56938],[36.69888,40.80681],[36.70518,40.86249],[36.99912,40.97967],[37.15174,41.14679]]]}},{"type":"Feature","properties":{"id":"tr-53","lat":40.90351,"lng":40.80346},"geometry":{"type":"Polygon","coordinates":[[[40.35229,40.9941],[41.19975,41.30126],[41.25529,41.17273],[41.38583,41.07535],[41.12744,40.81291],[40.82193,40.68659],[40.79175,40.62915],[40.48945,40.54212],[40.48686,40.67328],[40.35229,40.9941]]]}},{"type":"Feature","properties":{"id":"tr-54","lat":40.72326,"lng":30.54783},"geometry":{"type":"Polygon","coordinates":[[[30.42929,41.17057],[30.95587,41.0824],[30.86936,40.92226],[30.91246,40.75756],[30.82781,40.68896],[30.82523,40.59579],[30.69077,40.57437],[30.59496,40.44888],[30.62597,40.33149],[30.42629,40.39405],[30.08099,40.39144],[29.93102,40.5545],[30.18299,40.64633],[30.32893,40.91027],[30.29493,40.94114],[30.45915,40.93569],[30.48293,41.03295],[30.39208,41.09408],[30.42929,41.17057]]]}},{"type":"Feature","properties":{"id":"tr-55","lat":41.29677,"lng":35.9231},"geometry":{"type":"Polygon","coordinates":[[[35.50012,41.6416],[35.9568,41.73627],[35.92897,41.70893],[35.91529,41.64623],[35.97291,41.72858],[36.04493,41.70148],[36.13445,41.59907],[36.13445,41.4619],[36.39503,41.25641],[36.51791,41.26264],[36.61988,41.37507],[36.75807,41.36628],[36.98487,41.2945],[37.03972,41.18154],[37.15136,41.14085],[36.99912,40.97967],[36.70518,40.86249],[36.59366,40.91006],[36.44308,40.87037],[36.24288,41.00695],[36.07349,40.85484],[35.70607,40.87882],[35.46112,41.02938],[34.97485,41.08742],[34.88803,41.26981],[35.11334,41.3998],[35.18486,41.29903],[35.29628,41.25826],[35.50484,41.28453],[35.45596,41.52362],[35.50012,41.6416]]]}},{"type":"Feature","properties":{"id":"tr-56","lat":37.82429,"lng":42.33027},"geometry":{"type":"Polygon","coordinates":[[[42.0602,38.22715],[42.66854,37.9442],[42.73706,37.98239],[42.78688,38.18113],[43.01632,38.15178],[43.01188,37.67538],[42.95049,37.62597],[42.36757,37.70442],[41.95871,37.65902],[41.42138,37.94417],[41.44618,38.05577],[41.56194,38.08057],[41.67728,38.22136],[41.88822,38.18325],[42.0602,38.22715]]]}},{"type":"Feature","properties":{"id":"tr-57","lat":41.64954,"lng":35.03161},"geometry":{"type":"Polygon","coordinates":[[[34.21613,41.96014],[34.74635,41.95038],[34.88901,42.0078],[34.94809,42.09878],[35.1045,42.02188],[35.19581,42.03807],[35.11671,42.0069],[35.09213,41.92805],[35.22478,41.76187],[35.50012,41.6416],[35.45596,41.52362],[35.50484,41.28453],[35.29628,41.25826],[35.18486,41.29903],[35.11334,41.3998],[34.94384,41.32601],[34.83729,41.20162],[34.49849,41.28585],[34.47204,41.5185],[34.58789,41.65748],[34.5325,41.71316],[34.14038,41.76706],[34.21613,41.96014]]]}},{"type":"Feature","properties":{"id":"tr-58","lat":39.51237,"lng":37.21261},"geometry":{"type":"Polygon","coordinates":[[[37.98024,40.40131],[38.00836,40.48099],[38.15832,40.52355],[38.2748,40.18608],[38.45422,40.09988],[38.66103,40.09347],[38.76159,40.05495],[38.75849,40.00376],[38.40668,39.95074],[38.37722,39.83633],[38.54021,39.83276],[38.37857,39.70347],[38.34415,39.56479],[38.44668,39.45994],[38.36141,39.3993],[38.36172,39.15027],[37.78584,38.99834],[37.57355,39.00821],[37.58048,38.79683],[37.34287,38.62493],[36.74745,38.5994],[36.93628,39.04421],[36.89979,39.13345],[36.11152,39.20569],[35.81986,39.33445],[36.18346,39.64259],[36.21053,39.74822],[36.08868,39.92371],[36.6349,40.0097],[36.76926,40.20734],[37.52415,40.317],[37.63494,40.4612],[37.76693,40.33188],[37.98024,40.40131]]]}},{"type":"Feature","properties":{"id":"tr-59","lat":41.0432,"lng":27.42509},"geometry":{"type":"Polygon","coordinates":[[[28.17473,41.08084],[27.94125,40.9711],[27.52418,40.9892],[27.28793,40.70356],[26.98976,40.56379],[26.93244,40.71488],[26.78641,40.72583],[26.72305,40.85373],[26.73411,41.00556],[26.8293,41.17284],[26.80976,41.33027],[26.96035,41.35531],[27.23982,41.36476],[27.39598,41.26456],[27.51794,41.31112],[27.60145,41.41969],[28.15573,41.4922],[28.17473,41.08084]]]}},{"type":"Feature","properties":{"id":"tr-60","lat":40.38034,"lng":36.64199},"geometry":{"type":"Polygon","coordinates":[[[36.70518,40.86249],[36.69888,40.80681],[36.94682,40.72025],[37.21967,40.6977],[37.44881,40.57595],[37.58409,40.56938],[37.63494,40.4612],[37.52415,40.317],[37.35083,40.25904],[36.76926,40.20734],[36.66694,40.03446],[36.48752,39.96593],[36.08868,39.92371],[36.00641,40.11466],[35.65739,40.08675],[35.5098,40.18863],[35.84229,40.50518],[36.13581,40.44368],[36.39729,40.58804],[36.49382,40.74558],[36.41486,40.85854],[36.59366,40.91006],[36.70518,40.86249]]]}},{"type":"Feature","properties":{"id":"tr-61","lat":40.8651,"lng":39.76856},"geometry":{"type":"Polygon","coordinates":[[[39.14832,41.07245],[39.2732,41.05044],[39.43019,41.11249],[39.63006,41.00849],[39.99936,40.98212],[40.12599,40.92064],[40.35229,40.9941],[40.48686,40.67328],[40.48945,40.54212],[40.18456,40.51042],[39.88359,40.61181],[39.83398,40.56101],[39.7173,40.65742],[39.63854,40.58189],[39.34523,40.65964],[39.26347,40.77113],[39.16271,40.75963],[39.12602,40.80955],[39.14832,41.07245]]]}},{"type":"Feature","properties":{"id":"tr-62","lat":39.20781,"lng":39.41219},"geometry":{"type":"Polygon","coordinates":[[[40.17546,39.58435],[40.55477,39.54896],[40.05629,39.35788],[40.0319,39.12808],[39.87915,39.05927],[39.88018,38.93861],[39.79285,38.84326],[39.47555,38.76327],[39.22544,38.85796],[38.76976,38.90962],[38.72035,39.15787],[38.84769,39.25776],[38.83683,39.33874],[39.03331,39.4462],[40.17546,39.58435]]]}},{"type":"Feature","properties":{"id":"tr-63","lat":37.33975,"lng":38.94572},"geometry":{"type":"Polygon","coordinates":[[[39.76525,36.74215],[38.72501,36.69394],[38.47996,36.85574],[38.22426,36.90839],[38.026,36.83501],[37.9788,37.05004],[37.86935,37.06513],[37.85219,37.3038],[37.98965,37.44474],[38.18571,37.41286],[38.27201,37.47642],[38.49484,37.50063],[38.64563,37.62416],[38.86846,37.65145],[38.80045,37.69698],[38.92313,37.71351],[38.88892,37.74085],[38.96468,37.76131],[38.95393,37.80136],[38.89781,37.80462],[38.97088,37.82276],[38.97832,37.90595],[39.08964,38.00696],[39.18896,38.04305],[39.46264,37.9767],[39.69125,37.83392],[39.84855,37.80188],[39.88432,37.55011],[39.99997,37.3757],[40.01382,37.25752],[40.12492,37.16967],[40.1275,37.06895],[40.26141,36.92278],[39.76525,36.74215]]]}},{"type":"Feature","properties":{"id":"tr-64","lat":38.52514,"lng":29.33923},"geometry":{"type":"Polygon","coordinates":[[[29.68814,38.88509],[29.88875,38.81029],[29.88317,38.66544],[29.75325,38.45016],[29.62861,38.42882],[29.59585,38.28712],[29.2522,38.21216],[29.04487,38.21932],[28.83848,38.3034],[28.91548,38.44073],[28.8484,38.60012],[28.91785,38.65369],[29.08684,38.76725],[29.27349,38.72913],[29.52929,38.76296],[29.57135,38.86523],[29.68814,38.88509]]]}},{"type":"Feature","properties":{"id":"tr-65","lat":38.58327,"lng":43.60259},"geometry":{"type":"Polygon","coordinates":[[[44.0474,39.33751],[44.0777,39.20006],[44.1948,39.12053],[44.15196,38.96462],[44.275,38.84357],[44.24431,38.65896],[44.29702,38.62232],[44.28952,38.38226],[44.45876,38.33833],[44.2255,37.92931],[44.04427,37.9012],[43.92303,37.76444],[43.02335,37.73165],[42.98345,37.8064],[43.01632,38.15178],[42.73355,38.19591],[42.67805,38.40489],[42.87535,38.54421],[43.16122,38.87228],[42.97322,39.02808],[42.97198,39.10407],[43.11285,39.1619],[43.11461,39.26158],[43.04526,39.32122],[43.2437,39.40987],[43.57866,39.30008],[44.0474,39.33751]]]}},{"type":"Feature","properties":{"id":"tr-66","lat":39.57388,"lng":35.30862},"geometry":{"type":"Polygon","coordinates":[[[35.5098,40.18863],[35.65739,40.08675],[36.00641,40.11466],[36.21301,39.7244],[36.18346,39.64259],[35.73573,39.24391],[35.25483,39.0133],[35.02776,39.04113],[34.99614,39.15761],[34.78334,39.3871],[34.57373,39.50516],[34.39504,39.70073],[34.2705,39.71355],[34.06317,39.84571],[34.05253,39.90762],[34.4585,40.00071],[35.07262,40.039],[35.17794,40.10254],[35.19137,40.21737],[35.5098,40.18863]]]}},{"type":"Feature","properties":{"id":"tr-67","lat":41.27917,"lng":31.80614},"geometry":{"type":"Polygon","coordinates":[[[31.34642,41.15073],[31.40358,41.31647],[32.0394,41.57559],[32.13412,41.59943],[32.25067,41.53685],[32.30724,41.41562],[32.19814,41.24186],[32.14936,41.01923],[31.55604,41.05946],[31.34642,41.15073]]]}},{"type":"Feature","properties":{"id":"tr-68","lat":38.43086,"lng":33.88041},"geometry":{"type":"Polygon","coordinates":[[[33.81161,38.71542],[33.93326,38.79226],[33.93005,39.00108],[34.09965,38.89995],[34.23567,38.92685],[34.22037,38.65079],[34.38077,38.61744],[34.3601,38.47321],[34.48981,38.38851],[34.15981,38.00225],[33.45608,37.93324],[33.26467,38.20446],[33.3675,38.53152],[33.46662,38.64359],[33.81161,38.71542]]]}},{"type":"Feature","properties":{"id":"tr-69","lat":40.39712,"lng":40.1888},"geometry":{"type":"Polygon","coordinates":[[[40.48097,40.0366],[40.11789,40.0727],[39.86912,40.01482],[39.81145,40.14396],[39.86333,40.59938],[40.18456,40.51042],[40.48945,40.54212],[40.57471,40.28382],[40.79733,40.23225],[40.74783,40.14918],[40.48097,40.0366]]]}},{"type":"Feature","properties":{"id":"tr-70","lat":37.09323,"lng":33.31231},"geometry":{"type":"Polygon","coordinates":[[[33.63891,37.64703],[33.77833,37.63197],[33.80469,37.50381],[34.14896,37.15502],[33.76118,37.03144],[33.37195,36.988],[33.23273,36.91801],[33.16731,36.81339],[33.10788,36.84638],[32.97952,36.8038],[33.04349,36.6727],[33.23098,36.56066],[33.1022,36.55353],[33.05238,36.46661],[32.65168,36.43803],[32.55866,36.5062],[32.45624,36.67339],[32.7418,36.89317],[32.73044,36.94971],[32.6029,37.01105],[32.84361,37.3078],[33.01321,37.45857],[33.51447,37.54148],[33.63891,37.64703]]]}},{"type":"Feature","properties":{"id":"tr-71","lat":39.73427,"lng":33.64613},"geometry":{"type":"Polygon","coordinates":[[[33.5245,39.26678],[33.298,39.6428],[33.3279,39.8969],[33.37274,39.9816],[33.56207,40.01647],[33.59519,40.33955],[33.96416,40.2655],[34.10131,40.05688],[34.05087,39.95862],[34.0733,39.82574],[33.5245,39.26678]]]}},{"type":"Feature","properties":{"id":"tr-72","lat":37.99997,"lng":41.28343},"geometry":{"type":"Polygon","coordinates":[[[41.42055,38.5346],[41.6161,38.52876],[41.67914,38.26624],[41.56194,38.08057],[41.44618,38.05577],[41.42138,37.94417],[41.81691,37.71382],[41.5206,37.54332],[41.36774,37.51851],[41.26025,37.57223],[41.03546,37.86208],[41.21457,38.11509],[41.24919,38.42815],[41.42055,38.5346]]]}},{"type":"Feature","properties":{"id":"tr-73","lat":37.45032,"lng":42.64684},"geometry":{"type":"Polygon","coordinates":[[[42.93705,37.32015],[42.72218,37.35891],[42.56126,37.14662],[42.35724,37.10998],[42.3467,37.23977],[42.2112,37.32491],[42.05297,37.19664],[41.89637,37.15428],[41.87603,37.21682],[41.68183,37.32842],[41.89256,37.43585],[41.81691,37.71382],[41.95871,37.65902],[42.36757,37.70442],[42.95049,37.62597],[43.10293,37.76609],[43.38684,37.73364],[43.35966,37.58463],[43.40927,37.46479],[43.3625,37.30391],[43.11482,37.37113],[42.93705,37.32015]]]}},{"type":"Feature","properties":{"id":"tr-74","lat":41.56814,"lng":32.47738},"geometry":{"type":"Polygon","coordinates":[[[32.13412,41.59943],[32.26336,41.72016],[32.75538,41.85912],[32.79851,41.85969],[32.87297,41.68232],[32.62243,41.4237],[32.39614,41.32672],[32.28704,41.33076],[32.25067,41.53685],[32.13412,41.59943]]]}},{"type":"Feature","properties":{"id":"tr-75","lat":41.02875,"lng":42.78093},"geometry":{"type":"Polygon","coordinates":[[[42.56518,41.56713],[42.81995,41.57235],[42.76652,41.50434],[42.86801,41.50021],[43.18401,41.29898],[43.10314,41.2488],[43.2162,41.18054],[43.38327,41.1872],[43.4518,41.13258],[42.82938,40.89354],[42.7719,40.6253],[42.53697,40.59918],[42.27921,40.92492],[42.53873,41.19118],[42.45103,41.43137],[42.56518,41.56713]]]}},{"type":"Feature","properties":{"id":"tr-76","lat":39.88335,"lng":43.95619},"geometry":{"type":"Polygon","coordinates":[[[44.80699,39.6399],[44.59043,39.77153],[44.45949,39.69846],[44.45825,39.64252],[43.88087,39.65489],[43.56337,39.83318],[43.36576,39.79323],[43.31842,39.96932],[43.35629,40.04091],[43.66543,40.11016],[44.03243,40.00862],[44.28906,40.0434],[44.52217,39.93353],[44.80699,39.6399]]]}},{"type":"Feature","properties":{"id":"tr-77","lat":40.609,"lng":29.17379},"geometry":{"type":"Polygon","coordinates":[[[28.98032,40.46455],[28.77418,40.52277],[28.98634,40.64476],[29.42842,40.69088],[29.42066,40.56316],[29.23051,40.51158],[28.97797,40.57323],[28.98032,40.46455]]]}},{"type":"Feature","properties":{"id":"tr-78","lat":41.19758,"lng":32.55506},"geometry":{"type":"Polygon","coordinates":[[[32.52616,40.78875],[32.49221,40.86779],[32.27827,40.94856],[32.28395,41.00385],[32.14936,41.01923],[32.19814,41.24186],[32.28704,41.33076],[32.5012,41.34693],[32.81798,41.57635],[33.05885,41.53281],[33.11543,41.39542],[33.01703,41.38037],[32.91027,41.26056],[32.9297,41.1533],[33.06923,41.09302],[33.02652,41.01153],[32.79619,40.96304],[32.52616,40.78875]]]}},{"type":"Feature","properties":{"id":"tr-79","lat":36.8094,"lng":36.97448},"geometry":{"type":"Polygon","coordinates":[[[37.52214,36.6736],[37.05307,36.61994],[36.9647,36.75383],[36.65956,36.82724],[36.86401,36.93617],[36.90533,37.02396],[37.24101,36.79156],[37.52214,36.6736]]]}},{"type":"Feature","properties":{"id":"tr-80","lat":37.32079,"lng":36.30117},"geometry":{"type":"Polygon","coordinates":[[[36.27988,37.6691],[36.22025,37.50644],[36.30355,37.34906],[36.55056,37.38971],[36.7212,37.27119],[36.45186,36.96069],[36.0616,37.00968],[36.0927,37.17853],[35.96974,37.21967],[35.93958,37.29251],[36.11001,37.66435],[36.27988,37.6691]]]}},{"type":"Feature","properties":{"id":"tr-81","lat":40.91638,"lng":31.30319},"geometry":{"type":"Polygon","coordinates":[[[30.95587,41.0824],[31.23121,41.09199],[31.34642,41.15073],[31.55604,41.05946],[31.79911,41.0418],[31.73343,40.91051],[31.51118,40.87818],[31.42228,40.72463],[31.24852,40.67209],[30.89117,40.72679],[30.86936,40.92226],[30.95587,41.0824]]]}}]}
