{"type":"FeatureCollection","features":[{"type":"Feature","properties":{"id":"tt-ari","lat":10.62638,"lng":-61.27687},"geometry":{"type":"Polygon","coordinates":[[[-61.29499,10.61212],[-61.27127,10.64064],[-61.2698,10.6085],[-61.29499,10.61212]]]}},{"type":"Feature","properties":{"id":"tt-cha","lat":10.5438,"lng":-61.4122},"geometry":{"type":"Polygon","coordinates":[[[-61.46229,10.52261],[-61.44103,10.56499],[-61.36896,10.5655],[-61.3795,10.50494],[-61.46229,10.52261]]]}},{"type":"Feature","properties":{"id":"tt-ctt","lat":10.38303,"lng":-61.34026},"geometry":{"type":"Polygon","coordinates":[[[-61.45965,10.3097],[-61.46229,10.52261],[-61.3795,10.50494],[-61.3646,10.57336],[-61.23915,10.59145],[-61.19714,10.45636],[-61.24357,10.30712],[-61.45965,10.3097]]]}},{"type":"Feature","properties":{"id":"tt-dmn","lat":10.7307,"lng":-61.54253},"geometry":{"type":"Polygon","coordinates":[[[-61.54908,10.66706],[-61.65636,10.68976],[-61.66759,10.70677],[-61.4901,10.75463],[-61.54908,10.66706]]]}},{"type":"Feature","properties":{"id":"tt-eto","lat":11.29385,"lng":-60.56939},"geometry":{"type":"Polygon","coordinates":[[[-60.70424,11.24075],[-60.56037,11.32119],[-60.52306,11.34366],[-60.53303,11.26651],[-60.64713,11.20417],[-60.70424,11.24075]]]}},{"type":"Feature","properties":{"id":"tt-ped","lat":10.12928,"lng":-61.43282},"geometry":{"type":"Polygon","coordinates":[[[-61.52079,10.24015],[-61.38067,10.22775],[-61.37909,10.07283],[-61.50415,10.06952],[-61.4688,10.18573],[-61.52079,10.24015]]]}},{"type":"Feature","properties":{"id":"tt-pos","lat":10.66248,"lng":-61.52697},"geometry":{"type":"Polygon","coordinates":[[[-61.49717,10.66839],[-61.5288,10.6579],[-61.54908,10.66706],[-61.49717,10.66839]]]}},{"type":"Feature","properties":{"id":"tt-prt","lat":10.1463,"lng":-61.28689},"geometry":{"type":"Polygon","coordinates":[[[-61.17766,10.07518],[-61.37909,10.07283],[-61.37284,10.21741],[-61.44149,10.25906],[-61.42785,10.31002],[-61.24357,10.30712],[-61.17766,10.07518]]]}},{"type":"Feature","properties":{"id":"tt-ptf","lat":10.18172,"lng":-61.66278},"geometry":{"type":"Polygon","coordinates":[[[-61.70739,10.16588],[-61.63931,10.21007],[-61.62957,10.19757],[-61.67111,10.14703],[-61.70739,10.16588]]]}},{"type":"Feature","properties":{"id":"tt-rcm","lat":10.22269,"lng":-61.10015},"geometry":{"type":"Polygon","coordinates":[[[-61.03844,10.46365],[-60.96129,10.33002],[-60.996,10.13825],[-61.17766,10.07518],[-61.24357,10.30712],[-61.21052,10.43208],[-61.03844,10.46365]]]}},{"type":"Feature","properties":{"id":"tt-sfo","lat":10.28438,"lng":-61.45352},"geometry":{"type":"Polygon","coordinates":[[[-61.48991,10.2493],[-61.45965,10.3097],[-61.42785,10.31002],[-61.44149,10.25906],[-61.48991,10.2493]]]}},{"type":"Feature","properties":{"id":"tt-sge","lat":10.57359,"lng":-61.13098},"geometry":{"type":"Polygon","coordinates":[[[-61.17158,10.80394],[-60.9073,10.83714],[-61.0327,10.68354],[-61.03844,10.46365],[-61.21657,10.46179],[-61.23954,10.72322],[-61.17158,10.80394]]]}},{"type":"Feature","properties":{"id":"tt-sip","lat":10.17457,"lng":-61.56862},"geometry":{"type":"Polygon","coordinates":[[[-61.67111,10.14703],[-61.61181,10.2475],[-61.47668,10.20212],[-61.50415,10.06952],[-61.9287,10.05646],[-61.67111,10.14703]]]}},{"type":"Feature","properties":{"id":"tt-sjl","lat":10.65253,"lng":-61.44576},"geometry":{"type":"Polygon","coordinates":[[[-61.4901,10.75463],[-61.35261,10.80411],[-61.33374,10.75619],[-61.42087,10.73878],[-61.40976,10.56628],[-61.46061,10.53812],[-61.4901,10.75463]]]}},{"type":"Feature","properties":{"id":"tt-tup","lat":10.6886,"lng":-61.32715},"geometry":{"type":"Polygon","coordinates":[[[-61.35261,10.80411],[-61.15719,10.76921],[-61.23954,10.72322],[-61.21339,10.60354],[-61.40976,10.56628],[-61.42645,10.7288],[-61.34119,10.73754],[-61.35261,10.80411]],[[-61.29556,10.61387],[-61.26548,10.61966],[-61.28543,10.65398],[-61.29556,10.61387]]]}},{"type":"Feature","properties":{"id":"tt-wto","lat":11.22246,"lng":-60.72245},"geometry":{"type":"Polygon","coordinates":[[[-60.64713,11.20417],[-60.80333,11.14326],[-60.84752,11.16397],[-60.65471,11.30798],[-60.70424,11.24075],[-60.64713,11.20417]]]}}]}
