{"type":"FeatureCollection","source":"geoBoundaries / OpenStreetMap contributors","license":"https://opendatacommons.org/licenses/odbl/1-0/","features":[{"type":"Feature","properties":{"id":"tv-nmg","lat":-6.28718,"lng":176.31995},"geometry":{"type":"Polygon","coordinates":[[[176.32055,-6.27402],[176.31396,-6.28472],[176.31276,-6.28965],[176.31618,-6.29694],[176.32038,-6.30141],[176.32218,-6.30057],[176.32628,-6.29271],[176.32668,-6.28409],[176.32417,-6.27618],[176.32055,-6.27402]]]}},{"type":"Feature","properties":{"id":"tv-nma","lat":-5.64853,"lng":176.07006},"geometry":{"type":"MultiPolygon","coordinates":[[[[176.12166,-5.68258],[176.13627,-5.70137],[176.12673,-5.67276],[176.12054,-5.6621],[176.11908,-5.66335],[176.12105,-5.66841],[176.12061,-5.67143],[176.12439,-5.67528],[176.12597,-5.67921],[176.12444,-5.68159],[176.1221,-5.68101],[176.1146,-5.67072],[176.1099,-5.66911],[176.12166,-5.68258]]],[[[176.0687,-5.64428],[176.0605,-5.64249],[176.05892,-5.64333],[176.06145,-5.64762],[176.07825,-5.6531],[176.07742,-5.64944],[176.0687,-5.64428]]]]}},{"type":"Feature","properties":{"id":"tv-nit","lat":-6.10873,"lng":177.34293},"geometry":{"type":"Polygon","coordinates":[[[177.33775,-6.10287],[177.33205,-6.10384],[177.33057,-6.1063],[177.33814,-6.11414],[177.35084,-6.11315],[177.3534,-6.11116],[177.35236,-6.1055],[177.35067,-6.10411],[177.33775,-6.10287]]]}},{"type":"Feature","properties":{"id":"tv-nui","lat":-7.24559,"lng":177.14783},"geometry":{"type":"Polygon","coordinates":[[[177.14548,-7.24813],[177.15329,-7.25216],[177.15986,-7.25279],[177.16418,-7.24968],[177.16589,-7.24412],[177.16372,-7.24116],[177.16223,-7.24974],[177.15769,-7.24962],[177.15093,-7.24674],[177.15081,-7.2429],[177.14871,-7.23931],[177.14444,-7.24445],[177.14548,-7.24813]]]}},{"type":"Feature","properties":{"id":"tv-vai","lat":-7.4781,"lng":178.67603},"geometry":{"type":"Polygon","coordinates":[[[178.66319,-7.46028],[178.66298,-7.46417],[178.67786,-7.48823],[178.68138,-7.49814],[178.68819,-7.49865],[178.69726,-7.48877],[178.69546,-7.48382],[178.6883,-7.47779],[178.68608,-7.47958],[178.68279,-7.47842],[178.68194,-7.48046],[178.6854,-7.4822],[178.68737,-7.48642],[178.68491,-7.49021],[178.68238,-7.49051],[178.67721,-7.48092],[178.68093,-7.4777],[178.68133,-7.4761],[178.67925,-7.47515],[178.68065,-7.47129],[178.67107,-7.46226],[178.6704,-7.45965],[178.66645,-7.46169],[178.66743,-7.46322],[178.66604,-7.46516],[178.6648,-7.46442],[178.66399,-7.4601],[178.66591,-7.4586],[178.66648,-7.46038],[178.668,-7.46008],[178.66883,-7.45866],[178.66587,-7.45806],[178.66319,-7.46028]]]}},{"type":"Feature","properties":{"id":"tv-nkf","lat":-8.04228,"lng":178.38553},"geometry":{"type":"Polygon","coordinates":[[[178.3957,-8.02422],[178.399,-8.01568],[178.39524,-8.02429],[178.38568,-8.03815],[178.38505,-8.04529],[178.38137,-8.05111],[178.37888,-8.0595],[178.37151,-8.06399],[178.37436,-8.06618],[178.37383,-8.07034],[178.37683,-8.07408],[178.37995,-8.07247],[178.38001,-8.05764],[178.38121,-8.05356],[178.38547,-8.04795],[178.3859,-8.03927],[178.3957,-8.02422]]]}},{"type":"Feature","properties":{"id":"tv-fun","lat":-8.49612,"lng":179.19442},"geometry":{"type":"Polygon","coordinates":[[[179.18264,-8.53654],[179.17212,-8.54037],[179.1819,-8.5381],[179.20164,-8.52267],[179.20288,-8.51954],[179.19563,-8.5006],[179.19144,-8.47463],[179.18032,-8.45067],[179.17774,-8.44758],[179.19068,-8.47474],[179.19263,-8.49165],[179.19911,-8.51374],[179.19092,-8.5293],[179.18264,-8.53654]]]}},{"type":"Feature","properties":{"id":"tv-nkl","lat":-9.40864,"lng":179.87},"geometry":{"type":"MultiPolygon","coordinates":[[[[179.8615,-9.42963],[179.86414,-9.43252],[179.86373,-9.43516],[179.86659,-9.43335],[179.87025,-9.42151],[179.87113,-9.41083],[179.86699,-9.39613],[179.85733,-9.38389],[179.85539,-9.38581],[179.85872,-9.38667],[179.86348,-9.39259],[179.86948,-9.40646],[179.86952,-9.41649],[179.8667,-9.42653],[179.8615,-9.42963]]],[[[179.81148,-9.36822],[179.80782,-9.36955],[179.80823,-9.37569],[179.80724,-9.37565],[179.80413,-9.37165],[179.80427,-9.36641],[179.80318,-9.37406],[179.80585,-9.37789],[179.80684,-9.37677],[179.81028,-9.3823],[179.8192,-9.38674],[179.82557,-9.39244],[179.83831,-9.41168],[179.83417,-9.40223],[179.82784,-9.39352],[179.81752,-9.38439],[179.81895,-9.38197],[179.81694,-9.38385],[179.81038,-9.38118],[179.81189,-9.37782],[179.80932,-9.37475],[179.81148,-9.36822]]]]}}]}
