{"type":"FeatureCollection","features":[{"type":"Feature","properties":{"id":"tz-01","lat":-2.90135,"lng":36.09704},"geometry":{"type":"Polygon","coordinates":[[[35.24637,-1.70682],[37.42421,-2.92275],[37.14061,-2.85729],[36.9092,-2.99723],[36.8969,-3.15774],[37.0603,-3.30962],[37.06237,-3.491],[36.82838,-3.63497],[36.66942,-3.59497],[36.57713,-3.66536],[36.50096,-3.78421],[36.53072,-4.08213],[36.24659,-4.10856],[35.94016,-3.64484],[35.74844,-3.82871],[35.74514,-3.56784],[35.56231,-3.76607],[35.48686,-3.72871],[35.53192,-3.66598],[35.37937,-3.62427],[34.89216,-3.90948],[34.76049,-3.80184],[34.75326,-3.72313],[34.89247,-3.59689],[34.90116,-2.88313],[35.03562,-2.96752],[35.12275,-2.91956],[35.2076,-2.48703],[35.34144,-2.23697],[35.23282,-2.14592],[35.24637,-1.70682]]]}},{"type":"Feature","properties":{"id":"tz-02","lat":-6.88504,"lng":39.28503},"geometry":{"type":"Polygon","coordinates":[[[39.12916,-6.56194],[39.28004,-6.72715],[39.28028,-6.8305],[39.46453,-6.85768],[39.55055,-6.99383],[39.49789,-7.17718],[39.4092,-7.16969],[39.35784,-6.96019],[39.02721,-7.03264],[39.10483,-6.91239],[39.02008,-6.77251],[39.12916,-6.56194]]]}},{"type":"Feature","properties":{"id":"tz-03","lat":-5.83039,"lng":35.94762},"geometry":{"type":"Polygon","coordinates":[[[36.86166,-6.00211],[36.85752,-6.34349],[36.67077,-6.62595],[36.6409,-7.0035],[36.51615,-7.14313],[36.4778,-7.3704],[36.44907,-7.3209],[36.32608,-7.32053],[36.24299,-7.17227],[36.10987,-7.12571],[35.70669,-7.06753],[35.44304,-6.93322],[35.17794,-6.9789],[35.08089,-6.92046],[35.06001,-6.72104],[35.186,-6.71525],[35.2137,-6.64853],[35.2109,-5.95188],[35.33855,-5.70027],[35.1397,-5.40473],[35.07551,-5.11576],[35.31943,-4.94895],[35.34092,-4.85448],[35.51032,-4.86156],[35.65181,-4.60654],[35.64085,-4.48267],[35.82038,-4.36242],[35.95288,-4.35147],[36.0491,-4.25535],[36.29921,-4.18481],[36.36071,-4.67589],[36.24423,-5.45775],[36.5701,-5.74885],[36.67531,-5.91194],[36.86166,-6.00211]]]}},{"type":"Feature","properties":{"id":"tz-04","lat":-7.98207,"lng":35.6935},"geometry":{"type":"Polygon","coordinates":[[[36.44907,-7.3209],[36.51729,-7.50078],[36.78414,-7.58114],[36.81753,-7.65204],[36.96832,-7.65385],[36.76585,-7.95626],[36.50778,-7.94282],[36.34696,-8.03052],[36.30934,-8.18033],[36.09447,-8.24244],[35.91071,-8.50289],[35.71744,-8.63689],[35.66969,-8.85703],[35.62731,-8.73084],[35.34123,-8.6881],[35.36542,-9.00865],[35.29237,-9.03268],[35.10274,-8.96017],[35.1139,-8.7817],[34.73248,-8.60516],[34.7115,-8.39246],[35.03934,-8.06824],[35.03603,-8.00788],[34.41126,-7.81776],[33.84179,-7.80273],[33.98039,-7.53463],[33.93853,-7.49902],[34.17397,-7.31382],[34.35804,-7.32581],[34.42646,-7.21811],[34.7207,-7.15708],[34.76949,-6.99006],[34.91945,-6.88966],[35.17794,-6.9789],[35.44304,-6.93322],[35.70669,-7.06753],[36.10987,-7.12571],[36.24299,-7.17227],[36.32608,-7.32053],[36.44907,-7.3209]]]}},{"type":"Feature","properties":{"id":"tz-05","lat":-2.00592,"lng":31.44625},"geometry":{"type":"Polygon","coordinates":[[[30.55532,-1.31842],[30.48101,-1.05911],[30.63863,-1.07337],[30.77712,-0.98583],[32.72227,-1.00257],[32.70387,-1.4688],[31.87715,-2.14803],[31.74652,-2.18044],[31.72781,-2.28332],[31.6337,-2.35627],[31.36385,-2.26558],[31.16687,-2.27965],[31.01914,-2.53291],[30.9101,-2.58567],[30.87492,-2.68416],[30.98212,-2.83869],[30.81882,-2.9905],[30.63759,-2.97444],[30.53889,-2.899],[30.48845,-2.94354],[30.4158,-2.85166],[30.52256,-2.6494],[30.41213,-2.67017],[30.50809,-2.46347],[30.6748,-2.35174],[30.83438,-2.34533],[30.88781,-2.08251],[30.79696,-1.92934],[30.83102,-1.59417],[30.73888,-1.48947],[30.73753,-1.40668],[30.55532,-1.31842]]]}},{"type":"Feature","properties":{"id":"tz-06","lat":-5.0191,"lng":39.77384},"geometry":{"type":"Polygon","coordinates":[[[39.8559,-5.18232],[39.69077,-5.13746],[39.72543,-5.0805],[39.67726,-5.04437],[39.71599,-4.97682],[39.68409,-4.89031],[39.82154,-4.99383],[39.85597,-4.89723],[39.8559,-5.18232]]]}},{"type":"Feature","properties":{"id":"tz-07","lat":-5.87302,"lng":39.29621},"geometry":{"type":"MultiPolygon","coordinates":[[[[39.20157,-6.03379],[39.19321,-5.90407],[39.28004,-5.84197],[39.31349,-5.71844],[39.39068,-6.00041],[39.20157,-6.03379]]],[[[39.2261,-5.76917],[39.23786,-5.85605],[39.21447,-5.85811],[39.2261,-5.76917]]]]}},{"type":"Feature","properties":{"id":"tz-08","lat":-4.77296,"lng":30.36275},"geometry":{"type":"Polygon","coordinates":[[[29.61244,-5.70435],[29.32103,-4.83634],[29.40418,-4.4498],[29.73284,-4.46334],[29.7841,-4.37384],[30.00301,-4.27194],[30.31172,-3.7899],[30.38159,-3.78835],[30.43228,-3.55187],[30.63914,-3.41948],[30.60328,-3.37256],[30.64054,-3.33287],[30.79975,-3.27458],[30.83396,-3.16027],[30.78487,-3.03149],[30.98212,-2.83869],[31.02418,-2.85543],[31.07111,-3.01418],[31.00341,-3.1997],[31.11028,-3.22011],[31.21787,-3.63642],[31.35863,-3.88509],[31.33476,-4.15716],[31.49093,-4.62054],[31.39191,-4.70958],[31.38964,-4.84415],[31.22758,-4.95918],[31.21167,-5.46178],[31.06222,-5.49863],[30.95732,-5.2604],[30.8858,-5.31508],[30.72994,-5.19141],[30.40872,-5.19017],[30.27022,-5.32076],[29.98962,-5.35714],[30.11881,-5.52034],[30.18424,-5.90109],[30.30402,-6.18102],[30.38247,-6.2453],[30.39322,-6.39361],[29.96911,-6.80304],[29.707,-6.61934],[29.53771,-6.31238],[29.47611,-6.00211],[29.61244,-5.70435]]]}},{"type":"Feature","properties":{"id":"tz-09","lat":-3.71398,"lng":37.63397},"geometry":{"type":"Polygon","coordinates":[[[37.42421,-2.92275],[37.66016,-3.07056],[37.70005,-3.31437],[37.58523,-3.41297],[37.59908,-3.51343],[37.70832,-3.52717],[37.77096,-3.65544],[38.41618,-4.11998],[38.02985,-4.63858],[37.92743,-4.56799],[37.76103,-4.58685],[37.52994,-4.44014],[37.44973,-3.77253],[37.28799,-3.49457],[37.20593,-3.45069],[37.06237,-3.491],[37.0603,-3.30962],[36.8969,-3.15774],[36.9092,-2.99723],[37.14061,-2.85729],[37.42421,-2.92275]]]}},{"type":"Feature","properties":{"id":"tz-10","lat":-5.31284,"lng":39.75366},"geometry":{"type":"MultiPolygon","coordinates":[[[[39.58424,-5.3992],[39.65218,-5.45094],[39.65981,-5.47597],[39.61533,-5.4638],[39.58424,-5.3992]]],[[[39.85564,-5.22942],[39.79607,-5.40683],[39.72901,-5.4542],[39.64894,-5.4275],[39.65056,-5.33847],[39.69825,-5.34238],[39.66358,-5.28721],[39.78093,-5.23935],[39.73634,-5.24],[39.64991,-5.19085],[39.7461,-5.20517],[39.78065,-5.15782],[39.85564,-5.22942]]]]}},{"type":"Feature","properties":{"id":"tz-11","lat":-6.24879,"lng":39.42857},"geometry":{"type":"Polygon","coordinates":[[[39.39068,-6.00041],[39.41651,-6.19207],[39.50099,-6.19622],[39.49855,-6.12379],[39.52491,-6.17506],[39.57407,-6.37762],[39.50847,-6.46282],[39.4437,-6.42156],[39.41651,-6.30136],[39.37566,-6.36338],[39.27639,-6.17792],[39.27412,-6.03395],[39.39068,-6.00041]]]}},{"type":"Feature","properties":{"id":"tz-12","lat":-9.40667,"lng":38.39909},"geometry":{"type":"Polygon","coordinates":[[[39.28467,-8.31861],[39.35434,-8.71396],[39.55372,-8.9223],[39.44939,-8.85866],[39.38868,-8.89886],[39.49187,-8.93841],[39.49855,-9.1242],[39.56918,-9.09303],[39.64381,-9.18906],[39.64283,-9.36858],[39.56739,-9.44752],[39.65073,-9.44476],[39.7409,-9.66676],[39.69695,-9.74489],[39.80063,-9.82383],[39.75229,-9.879],[39.79021,-9.92303],[39.7142,-9.95208],[39.69077,-10.04339],[39.82691,-9.99033],[39.97495,-10.1334],[39.9764,-10.17829],[39.6804,-10.36345],[39.68836,-10.52928],[39.63182,-10.59486],[39.4984,-10.38324],[39.39721,-10.33565],[39.28332,-10.38076],[39.26203,-10.44593],[39.16591,-10.38955],[38.8728,-10.5423],[38.58,-10.53786],[38.31418,-10.64627],[38.16793,-10.80466],[37.99296,-10.81701],[37.8217,-10.49848],[37.71752,-10.42686],[37.16231,-10.29286],[36.87117,-10.15948],[36.90269,-9.89914],[37.10557,-9.6791],[37.25781,-9.19784],[37.35951,-9.14234],[37.30556,-8.80923],[37.3686,-8.49943],[37.80124,-7.94339],[37.99172,-8.07992],[38.28917,-8.17588],[38.50383,-8.3597],[38.53639,-8.49504],[38.63984,-8.46879],[38.68697,-8.37179],[39.18327,-8.2857],[39.28467,-8.31861]]]}},{"type":"Feature","properties":{"id":"tz-13","lat":-1.81002,"lng":34.28144},"geometry":{"type":"Polygon","coordinates":[[[33.98452,-1.00206],[35.24637,-1.70682],[35.23282,-2.14592],[35.34144,-2.23697],[35.2076,-2.48703],[34.65776,-2.49132],[34.03558,-2.13238],[34.00426,-2.18204],[33.87062,-2.19403],[33.74939,-2.08597],[33.60563,-2.18307],[33.3581,-2.16788],[33.28255,-2.11119],[33.22147,-2.14214],[33.21899,-2.04282],[33.28585,-2.05646],[33.28162,-2.0006],[33.3797,-2.05336],[33.39985,-1.97228],[33.49638,-2.02546],[33.56894,-2.00163],[33.46166,-1.9497],[33.46166,-1.88143],[33.28286,-1.92241],[33.34311,-1.7386],[33.45546,-1.73447],[33.45608,-1.52125],[33.33443,-1.47361],[32.70387,-1.4688],[32.72227,-1.00257],[33.98452,-1.00206]]]}},{"type":"Feature","properties":{"id":"tz-14","lat":-8.25787,"lng":33.71962},"geometry":{"type":"Polygon","coordinates":[[[34.07849,-9.51019],[34.01273,-9.47746],[33.96075,-9.5249],[33.91186,-9.71796],[33.73461,-9.58412],[33.43897,-9.62153],[33.30027,-9.49224],[33.113,-9.49151],[32.97471,-9.38124],[32.92086,-9.4079],[32.71323,-9.28584],[32.51805,-9.25825],[32.42343,-9.14383],[32.23145,-9.13381],[32.14557,-9.07026],[32.14949,-8.94989],[32.00903,-8.78262],[32.28736,-8.56909],[32.31486,-8.30115],[32.50182,-8.21459],[32.63215,-8.46491],[32.75007,-8.47034],[32.46441,-8.05181],[31.9926,-7.75405],[32.0943,-7.53442],[32.19703,-7.49551],[32.27382,-7.21005],[32.69054,-7.09378],[32.79234,-6.94686],[33.03615,-6.86692],[33.26767,-6.9556],[33.48491,-6.94283],[33.58403,-7.14773],[33.77781,-7.30173],[33.81544,-7.43474],[33.98039,-7.53463],[33.85626,-7.83187],[34.41126,-7.81776],[34.90963,-7.93512],[34.91594,-7.99114],[35.06352,-8.03563],[34.73993,-8.34921],[34.69063,-8.43401],[34.74416,-8.53989],[34.70737,-8.67032],[34.58262,-8.71792],[34.52134,-8.80716],[34.11164,-8.83321],[33.85326,-8.91356],[33.7959,-9.00632],[33.8483,-9.21143],[34.07849,-9.51019]]]}},{"type":"Feature","properties":{"id":"tz-15","lat":-6.12737,"lng":39.23759},"geometry":{"type":"Polygon","coordinates":[[[39.27412,-6.03395],[39.28248,-6.31219],[39.19858,-6.2208],[39.19794,-6.03359],[39.27412,-6.03395]]]}},{"type":"Feature","properties":{"id":"tz-16","lat":-7.79862,"lng":37.35703},"geometry":{"type":"Polygon","coordinates":[[[37.80124,-7.94339],[37.3686,-8.49943],[37.30556,-8.80923],[37.35951,-9.14234],[37.25781,-9.19784],[37.14309,-9.56123],[36.57165,-9.95918],[36.47843,-9.91356],[36.56421,-9.7622],[36.4808,-9.5527],[36.36443,-9.72726],[36.13343,-9.75103],[36.08775,-9.70912],[35.97262,-9.8086],[35.71837,-9.77749],[35.91815,-9.43436],[35.90327,-9.1982],[35.69697,-9.3399],[35.68023,-9.24693],[35.42247,-8.99588],[35.36542,-9.00865],[35.34123,-8.6881],[35.62731,-8.73084],[35.66969,-8.85703],[35.71744,-8.63689],[35.91071,-8.50289],[36.01706,-8.31386],[36.18201,-8.18937],[36.30934,-8.18033],[36.31554,-8.06039],[36.41982,-7.97502],[36.76585,-7.95626],[36.96832,-7.65385],[36.81753,-7.65204],[36.78414,-7.58114],[36.51729,-7.50078],[36.4778,-7.3704],[36.51615,-7.14313],[36.6409,-7.0035],[36.67077,-6.62595],[36.85752,-6.34349],[36.83179,-6.05053],[37.06072,-5.86791],[37.16851,-6.11095],[37.35754,-5.9308],[37.39082,-5.78936],[37.52725,-5.83939],[37.62792,-5.98015],[37.76145,-5.90217],[37.84888,-5.93054],[38.05704,-6.25192],[37.9911,-6.58549],[38.02324,-6.64073],[38.30374,-6.69189],[38.28596,-6.88537],[38.4967,-6.98314],[38.4906,-7.09362],[38.30271,-7.31909],[38.36038,-7.52192],[37.90149,-7.59302],[37.80124,-7.94339]]]}},{"type":"Feature","properties":{"id":"tz-17","lat":-10.72547,"lng":39.1607},"geometry":{"type":"Polygon","coordinates":[[[40.43686,-10.47479],[39.78582,-10.93256],[39.4985,-10.99065],[39.23815,-11.1742],[38.89626,-11.16769],[38.49226,-11.41346],[38.25661,-11.27714],[38.09336,-11.25631],[38.02427,-11.02015],[37.99296,-10.81701],[38.16793,-10.80466],[38.31418,-10.64627],[38.58,-10.53786],[38.8728,-10.5423],[39.16591,-10.38955],[39.26203,-10.44593],[39.28332,-10.38076],[39.42171,-10.33487],[39.63182,-10.59486],[39.68836,-10.52928],[39.65673,-10.44489],[39.70603,-10.33007],[39.9764,-10.17829],[39.98512,-10.22096],[39.98878,-10.13128],[40.13266,-10.16969],[40.12062,-10.27117],[40.23211,-10.29664],[40.23211,-10.20045],[40.34881,-10.35809],[40.42213,-10.35565],[40.42701,-10.30006],[40.43686,-10.47479]]]}},{"type":"Feature","properties":{"id":"tz-18","lat":-2.51455,"lng":32.86439},"geometry":{"type":"Polygon","coordinates":[[[32.70387,-1.4688],[33.33443,-1.47361],[33.45608,-1.52125],[33.45546,-1.73447],[33.34311,-1.7386],[33.28286,-1.92241],[33.46166,-1.88143],[33.46166,-1.9497],[33.56894,-2.00163],[33.49638,-2.02546],[33.39985,-1.97228],[33.3797,-2.05336],[33.28162,-2.0006],[33.20999,-2.12318],[33.34745,-2.14622],[33.51527,-2.4487],[33.78732,-2.70748],[33.51282,-2.83533],[33.52946,-2.97284],[33.4229,-3.27396],[33.21392,-3.32755],[33.10995,-3.43261],[32.86211,-3.25505],[32.68083,-3.31969],[32.68662,-3.4479],[32.53376,-3.37111],[32.5104,-3.19779],[32.59673,-2.96028],[32.5095,-2.88712],[32.53483,-2.81114],[32.36036,-2.70984],[32.41382,-2.60853],[32.24498,-2.58039],[31.95233,-2.38904],[31.87715,-2.14803],[32.70387,-1.4688]]]}},{"type":"Feature","properties":{"id":"tz-19","lat":-7.12656,"lng":38.92557},"geometry":{"type":"MultiPolygon","coordinates":[[[[39.71469,-8.02781],[39.80149,-8.00659],[39.7028,-8.09139],[39.71469,-8.02781]]],[[[39.89568,-7.63763],[39.82325,-7.91399],[39.66651,-7.99342],[39.58717,-7.94549],[39.70387,-7.81943],[39.8143,-7.78851],[39.77345,-7.77549],[39.89568,-7.63763]]],[[[39.42115,-7.21014],[39.32781,-7.30926],[39.35434,-7.37078],[39.27475,-7.59645],[39.30201,-7.75408],[39.25261,-7.82334],[39.32781,-7.72633],[39.34083,-7.78167],[39.4131,-7.79217],[39.45436,-8.01043],[39.28467,-8.31861],[39.18327,-8.2857],[38.68697,-8.37179],[38.63984,-8.46879],[38.53639,-8.49504],[38.50383,-8.3597],[38.28917,-8.17588],[37.99172,-8.07992],[37.80124,-7.94339],[37.90149,-7.59302],[38.36038,-7.52192],[38.30271,-7.31909],[38.51561,-7.04298],[38.47799,-6.96846],[38.32493,-6.94092],[38.28596,-6.88537],[38.30374,-6.69189],[38.02324,-6.64073],[37.9911,-6.58549],[38.05704,-6.25192],[37.80155,-5.89463],[38.14695,-5.85814],[38.4689,-6.02346],[38.8003,-5.96309],[38.77906,-6.05486],[38.85857,-6.16985],[38.86476,-6.37363],[39.12916,-6.56194],[39.02008,-6.77251],[39.10483,-6.91239],[39.02721,-7.03264],[39.35784,-6.96019],[39.42115,-7.21014]]]]}},{"type":"Feature","properties":{"id":"tz-20","lat":-8.0137,"lng":31.54124},"geometry":{"type":"Polygon","coordinates":[[[30.82828,-8.38812],[30.65496,-7.92737],[30.44164,-7.59633],[30.29446,-7.14943],[30.57779,-6.94569],[30.90459,-6.90212],[30.99173,-6.9348],[31.07888,-7.21802],[31.38388,-7.2398],[31.43835,-7.30516],[31.49282,-7.70821],[32.01017,-7.78909],[32.27878,-7.92872],[32.51133,-8.09868],[32.75007,-8.47034],[32.63215,-8.46491],[32.50182,-8.21459],[32.31486,-8.30115],[32.28736,-8.56909],[32.00903,-8.78262],[32.14949,-8.94989],[32.14557,-9.07026],[31.98056,-9.0719],[31.91772,-9.0225],[31.93663,-8.93258],[31.67267,-8.91305],[31.55335,-8.80907],[31.53904,-8.70355],[31.35331,-8.58718],[31.26091,-8.62397],[30.99235,-8.57591],[30.82828,-8.38812]]]}},{"type":"Feature","properties":{"id":"tz-21","lat":-10.38495,"lng":36.19216},"geometry":{"type":"Polygon","coordinates":[[[34.67502,-10.75242],[34.58009,-10.53185],[34.77806,-10.46768],[34.98384,-10.30221],[35.01288,-10.21059],[35.11923,-10.19132],[35.21597,-10.04202],[35.12378,-9.75992],[35.89975,-9.18874],[35.93355,-9.38413],[35.86068,-9.57544],[35.72488,-9.71687],[35.76188,-9.81077],[35.97262,-9.8086],[36.08775,-9.70912],[36.13343,-9.75103],[36.36443,-9.72726],[36.4808,-9.5527],[36.56421,-9.7622],[36.47843,-9.91356],[36.57165,-9.95918],[37.14309,-9.56123],[37.10557,-9.6791],[36.87726,-9.95386],[36.87117,-10.15948],[37.8217,-10.49848],[37.99296,-10.81701],[38.09336,-11.25631],[37.87524,-11.3191],[37.81695,-11.53356],[37.45067,-11.72259],[37.14164,-11.67474],[37.0324,-11.56487],[36.82011,-11.57356],[36.6257,-11.72135],[36.19968,-11.70151],[36.16806,-11.57872],[35.82637,-11.41346],[35.57626,-11.60518],[34.96462,-11.57356],[34.88658,-11.37543],[34.76556,-11.34515],[34.61353,-11.10216],[34.59296,-11.01617],[34.67502,-10.75242]]]}},{"type":"Feature","properties":{"id":"tz-22","lat":-3.779,"lng":33.03098},"geometry":{"type":"Polygon","coordinates":[[[34.1965,-4.06967],[33.5955,-3.87961],[33.12876,-3.96183],[32.86366,-3.91061],[32.71297,-3.97971],[32.70925,-4.09169],[32.64961,-4.14626],[32.73178,-4.19959],[32.71338,-4.25271],[32.59236,-4.28206],[32.52911,-4.18305],[32.46761,-4.20868],[32.40705,-4.37735],[32.2114,-4.317],[31.97172,-4.43017],[31.95922,-4.14404],[31.6906,-4.03794],[31.67691,-3.96804],[31.8352,-3.74292],[32.13418,-3.67257],[32.1166,-3.39469],[32.18091,-3.27215],[32.25016,-3.23639],[32.34638,-3.31907],[32.5104,-3.19779],[32.53376,-3.37111],[32.6493,-3.44656],[32.68662,-3.4479],[32.68083,-3.31969],[32.77436,-3.26414],[32.86211,-3.25505],[33.10995,-3.43261],[33.21392,-3.32755],[33.4229,-3.27396],[33.68146,-3.43095],[33.80332,-3.41771],[33.90928,-3.51573],[34.1583,-3.55016],[34.26691,-3.81507],[34.41292,-3.96089],[34.1965,-4.06967]]]}},{"type":"Feature","properties":{"id":"tz-23","lat":-5.64007,"lng":34.69122},"geometry":{"type":"Polygon","coordinates":[[[35.34092,-4.85448],[35.31943,-4.94895],[35.07024,-5.14914],[35.1397,-5.40473],[35.33855,-5.70027],[35.2109,-5.95188],[35.2137,-6.64853],[35.186,-6.71525],[35.06001,-6.72104],[35.08089,-6.92046],[34.91945,-6.88966],[34.76949,-6.99006],[34.7207,-7.15708],[34.42646,-7.21811],[34.35804,-7.32581],[34.17397,-7.31382],[33.93853,-7.49902],[33.81544,-7.43474],[33.77781,-7.30173],[33.58403,-7.14773],[33.48491,-6.94283],[33.51861,-6.62058],[34.01532,-6.21895],[34.00292,-6.06888],[34.11195,-5.68668],[34.05687,-5.59346],[34.23133,-5.38995],[33.92943,-5.15049],[33.96013,-4.49254],[34.17355,-4.15794],[34.26027,-4.146],[34.28879,-4.0365],[34.76049,-3.80184],[35.01443,-4.07779],[34.86922,-4.38113],[35.13567,-4.64189],[35.14476,-4.72354],[35.34092,-4.85448]]]}},{"type":"Feature","properties":{"id":"tz-24","lat":-5.46284,"lng":32.65754},"geometry":{"type":"Polygon","coordinates":[[[34.28879,-4.0365],[34.26027,-4.146],[34.17355,-4.15794],[33.93853,-4.58375],[33.92943,-5.15049],[34.23133,-5.38995],[34.05687,-5.59346],[34.11195,-5.68668],[34.00292,-6.06888],[34.01532,-6.21895],[33.51861,-6.62058],[33.48491,-6.94283],[33.26767,-6.9556],[33.03615,-6.86692],[32.79234,-6.94686],[32.69054,-7.09378],[32.55277,-7.10365],[32.58543,-6.69298],[32.73116,-6.46622],[32.71586,-6.39868],[32.51226,-6.36085],[32.20385,-6.10505],[32.04707,-5.76694],[31.82734,-5.71231],[31.62849,-5.82528],[31.27523,-5.80145],[31.14893,-5.75717],[31.13901,-5.63723],[31.0401,-5.57904],[31.06222,-5.49863],[31.23027,-5.42706],[31.19296,-5.26836],[31.22758,-4.95918],[31.38964,-4.84415],[31.39191,-4.70958],[31.49093,-4.62054],[31.41662,-4.35632],[31.47553,-4.24708],[31.68182,-4.2123],[31.63707,-4.12786],[31.6906,-4.03794],[31.95922,-4.14404],[31.97172,-4.43017],[32.2114,-4.317],[32.40705,-4.37735],[32.46761,-4.20868],[32.52911,-4.18305],[32.59236,-4.28206],[32.71338,-4.25271],[32.73178,-4.19959],[32.64961,-4.14626],[32.70925,-4.09169],[32.71297,-3.97971],[32.86366,-3.91061],[33.12876,-3.96183],[33.5955,-3.87961],[34.01677,-4.03097],[34.1965,-4.06967],[34.28879,-4.0365]]]}},{"type":"Feature","properties":{"id":"tz-25","lat":-5.1507,"lng":38.27087},"geometry":{"type":"Polygon","coordinates":[[[38.41618,-4.11998],[39.22153,-4.71673],[39.17018,-4.77996],[39.21599,-4.79567],[39.20704,-4.87233],[39.16228,-4.93865],[39.16334,-4.84832],[39.10865,-4.9166],[39.13217,-5.01019],[39.08277,-5.06146],[39.12916,-5.04754],[39.14275,-5.09588],[39.04037,-5.23935],[39.08058,-5.23113],[38.8003,-5.96309],[38.4689,-6.02346],[38.14695,-5.85814],[37.95306,-5.85411],[37.62792,-5.98015],[37.52725,-5.83939],[37.39082,-5.78936],[37.35754,-5.9308],[37.16851,-6.11095],[37.06072,-5.86791],[37.2112,-5.73567],[37.38927,-5.20552],[37.59174,-4.97825],[38.04908,-4.99887],[37.97993,-4.69124],[38.41618,-4.11998]]]}},{"type":"Feature","properties":{"id":"tz-26","lat":-4.76457,"lng":37.16278},"geometry":{"type":"Polygon","coordinates":[[[37.2112,-5.73567],[36.86166,-6.00211],[36.72513,-5.95581],[36.24423,-5.45775],[36.36071,-4.67589],[36.29921,-4.18481],[36.0491,-4.25535],[35.95288,-4.35147],[35.82038,-4.36242],[35.64085,-4.48267],[35.65181,-4.60654],[35.51032,-4.86156],[35.36655,-4.86193],[35.14476,-4.72354],[35.13567,-4.64189],[34.86922,-4.38113],[35.01702,-4.10755],[34.89216,-3.90948],[35.37937,-3.62427],[35.53192,-3.66598],[35.48686,-3.72871],[35.56231,-3.76607],[35.74514,-3.56784],[35.74844,-3.82871],[35.94016,-3.64484],[36.24659,-4.10856],[36.34272,-4.12352],[36.53072,-4.08213],[36.50096,-3.78421],[36.66942,-3.59497],[36.82838,-3.63497],[37.18619,-3.45255],[37.30256,-3.50718],[37.46741,-3.81703],[37.49676,-4.38345],[37.76103,-4.58685],[38.0034,-4.60742],[37.97146,-4.8056],[38.04908,-4.99887],[37.59174,-4.97825],[37.38927,-5.20552],[37.2112,-5.73567]]]}},{"type":"Feature","properties":{"id":"tz-27","lat":-3.25427,"lng":31.66732},"geometry":{"type":"Polygon","coordinates":[[[31.41662,-4.35632],[31.33476,-4.15716],[31.35863,-3.88509],[31.21787,-3.63642],[31.11028,-3.22011],[31.00341,-3.1997],[31.06894,-2.93858],[30.87492,-2.68416],[31.16687,-2.27965],[31.36385,-2.26558],[31.6337,-2.35627],[31.72781,-2.28332],[31.74652,-2.18044],[31.87715,-2.14803],[31.95233,-2.38904],[32.24498,-2.58039],[32.41382,-2.60853],[32.36036,-2.70984],[32.53483,-2.81114],[32.5095,-2.88712],[32.59673,-2.96028],[32.5104,-3.19779],[32.34638,-3.31907],[32.25016,-3.23639],[32.18091,-3.27215],[32.1166,-3.39469],[32.13418,-3.67257],[31.94072,-3.69368],[31.74726,-3.82031],[31.63707,-4.12786],[31.68182,-4.2123],[31.47553,-4.24708],[31.41662,-4.35632]]]}},{"type":"Feature","properties":{"id":"tz-28","lat":-6.57009,"lng":31.43583},"geometry":{"type":"Polygon","coordinates":[[[30.29446,-7.14943],[29.96911,-6.80304],[30.39322,-6.39361],[30.38247,-6.2453],[30.30402,-6.18102],[30.18424,-5.90109],[30.11881,-5.52034],[29.98962,-5.35714],[30.27022,-5.32076],[30.40872,-5.19017],[30.72994,-5.19141],[30.8858,-5.31508],[30.95732,-5.2604],[31.06222,-5.49863],[31.03318,-5.56292],[31.13901,-5.63723],[31.14893,-5.75717],[31.61815,-5.82683],[31.82734,-5.71231],[32.04707,-5.76694],[32.20385,-6.10505],[32.51226,-6.36085],[32.6986,-6.38896],[32.73705,-6.4472],[32.58543,-6.69298],[32.55277,-7.10365],[32.27382,-7.21005],[32.23341,-7.42446],[32.05937,-7.5876],[32.01017,-7.78909],[31.49282,-7.70821],[31.43835,-7.30516],[31.38388,-7.2398],[31.07888,-7.21802],[30.99173,-6.9348],[30.90459,-6.90212],[30.57779,-6.94569],[30.29446,-7.14943]]]}},{"type":"Feature","properties":{"id":"tz-29","lat":-9.55252,"lng":34.77615},"geometry":{"type":"Polygon","coordinates":[[[34.58009,-10.53185],[34.52475,-10.00879],[34.31794,-9.7192],[33.97305,-9.38584],[33.8483,-9.21143],[33.7959,-9.00632],[33.8945,-8.87703],[34.52134,-8.80716],[34.73248,-8.60516],[35.1139,-8.7817],[35.10274,-8.96017],[35.19756,-9.0271],[35.42247,-8.99588],[35.68023,-9.24693],[35.69697,-9.3399],[35.12378,-9.75992],[35.21597,-10.04202],[35.11923,-10.19132],[35.01288,-10.21059],[34.98384,-10.30221],[34.69156,-10.52266],[34.58009,-10.53185]]]}},{"type":"Feature","properties":{"id":"tz-30","lat":-3.1234,"lng":34.18721},"geometry":{"type":"Polygon","coordinates":[[[33.74939,-2.08597],[33.87062,-2.19403],[34.00426,-2.18204],[34.03558,-2.13238],[34.65776,-2.49132],[35.2076,-2.48703],[35.12275,-2.91956],[35.03562,-2.96752],[34.90116,-2.88313],[34.89247,-3.59689],[34.82209,-3.62459],[34.76049,-3.80184],[34.68505,-3.85165],[34.41292,-3.96089],[34.26691,-3.81507],[34.1583,-3.55016],[33.90928,-3.51573],[33.80332,-3.41771],[33.68146,-3.43095],[33.4229,-3.27396],[33.52946,-2.97284],[33.51282,-2.83533],[33.78732,-2.70748],[33.51527,-2.4487],[33.3581,-2.16788],[33.60563,-2.18307],[33.74939,-2.08597]]]}}]}
