{"type":"FeatureCollection","features":[{"type":"Feature","properties":{"id":"ua-05","lat":48.94103,"lng":28.51335},"geometry":{"type":"Polygon","coordinates":[[[27.75177,48.45198],[27.50383,48.47237],[27.3704,48.62972],[27.42611,48.77366],[27.37195,48.93502],[27.50047,49.12615],[27.88773,49.15876],[27.80335,49.37898],[27.83947,49.41634],[27.74314,49.43652],[27.72433,49.4999],[27.81559,49.63092],[27.76221,49.69981],[27.86805,49.76006],[28.72024,49.79396],[28.83538,49.8814],[28.90958,49.87238],[29.00451,49.7342],[28.94741,49.67847],[28.99289,49.59325],[29.51068,49.64028],[29.5698,49.43063],[29.49983,49.36567],[29.71212,49.17793],[29.59481,49.02698],[29.67083,49.0014],[29.63595,48.94704],[29.71615,48.91438],[29.77248,48.7693],[29.88405,48.74328],[29.85909,48.69832],[29.9582,48.65532],[30.02166,48.53363],[29.95789,48.45932],[30.07613,48.45508],[29.94006,48.3756],[29.88343,48.4326],[29.78302,48.35689],[29.73816,48.27008],[29.78674,48.2283],[29.66664,48.17308],[29.67502,48.09027],[29.24631,48.08451],[29.08616,48.14569],[28.86209,48.0005],[28.77125,48.12445],[28.5416,48.15595],[28.47958,48.06492],[28.41158,48.1707],[28.31742,48.13536],[28.35773,48.23861],[28.09325,48.23744],[28.07641,48.31493],[27.92644,48.33943],[27.75177,48.45198]]]}},{"type":"Feature","properties":{"id":"ua-07","lat":51.12818,"lng":24.92768},"geometry":{"type":"Polygon","coordinates":[[[25.1833,51.94975],[25.6626,51.89058],[25.5099,51.69865],[25.5116,51.61812],[25.60286,51.58192],[25.55149,51.52543],[25.55568,51.34935],[25.82026,51.38425],[25.81339,51.3226],[26.05937,51.18114],[25.9509,51.10809],[26.09224,51.00469],[25.97493,50.94511],[26.0032,50.83465],[25.87545,50.79256],[25.82724,50.63117],[25.65562,50.70703],[25.36339,50.67887],[25.38375,50.61492],[25.28986,50.61397],[25.2866,50.54304],[25.1325,50.5488],[25.16837,50.50043],[25.09183,50.4618],[25.20356,50.38075],[25.06346,50.29481],[25.04377,50.34887],[24.72379,50.34372],[24.56411,50.43671],[24.50856,50.40793],[24.45037,50.46984],[24.53543,50.50012],[24.50081,50.54555],[24.10816,50.63029],[23.95764,50.80801],[24.14316,50.85643],[23.97934,50.93751],[23.86359,51.14827],[23.63518,51.3047],[23.6976,51.40443],[23.59435,51.60496],[23.74969,51.64447],[23.98131,51.586],[24.24413,51.71821],[24.3696,51.8751],[25.1833,51.94975]]]}},{"type":"Feature","properties":{"id":"ua-09","lat":48.93911,"lng":38.92081},"geometry":{"type":"Polygon","coordinates":[[[38.18984,50.06278],[38.29991,50.06051],[38.35604,49.98057],[38.49753,49.94817],[38.66465,49.96517],[38.9374,49.80347],[39.15578,49.8736],[39.26089,49.74451],[39.55751,49.72399],[39.62293,49.61346],[39.80153,49.5422],[39.99811,49.60824],[40.13071,49.57982],[40.0349,49.48706],[40.15954,49.33358],[40.14166,49.24578],[39.95211,49.12455],[39.91873,49.04781],[39.68112,49.02032],[39.75874,48.89541],[40.05381,48.86921],[39.97527,48.78968],[39.77941,48.80772],[39.63172,48.58691],[39.83532,48.57347],[39.9241,48.37612],[39.81589,48.30816],[39.99325,48.27323],[39.84308,48.11975],[39.84297,48.0364],[39.75988,48.01495],[39.79615,47.96136],[39.75905,47.83295],[39.09294,47.83209],[39.03618,47.857],[39.02711,48.00663],[38.84014,48.02797],[38.81405,48.11143],[38.60367,48.17913],[38.56626,48.27762],[38.42363,48.28563],[38.48058,48.35762],[38.39914,48.44232],[38.3102,48.44996],[38.31392,48.52055],[38.26007,48.54427],[38.2795,48.83916],[38.2101,48.92394],[38.00996,48.95427],[38.07729,48.99825],[38.07047,49.14806],[37.89529,49.1563],[37.93363,49.19958],[37.84733,49.23175],[37.92909,49.29095],[37.86067,49.42272],[37.96324,49.52013],[37.94449,49.59679],[38.00112,49.66059],[37.99833,49.71554],[37.93999,49.72694],[38.04515,49.78482],[38.00004,49.82264],[38.08008,49.84311],[38.02292,49.90914],[38.16618,49.94057],[38.18984,50.06278]]]}},{"type":"Feature","properties":{"id":"ua-12","lat":48.36608,"lng":35.14737},"geometry":{"type":"Polygon","coordinates":[[[34.78406,49.17457],[35.16982,49.14723],[35.46247,48.97489],[35.79438,48.93422],[35.95251,48.96869],[36.02202,48.90012],[35.96197,48.8549],[36.16372,48.76726],[36.13281,48.72369],[36.28567,48.63411],[36.28428,48.52825],[36.37476,48.54164],[36.47718,48.64688],[36.78719,48.6037],[36.75117,48.52923],[36.8831,48.57931],[36.80895,48.41314],[36.81422,48.31902],[36.9138,48.26382],[36.89256,48.06756],[36.82941,48.03211],[36.58906,48.07893],[36.57661,47.97072],[36.63402,47.92426],[36.53444,47.90503],[36.57614,47.84421],[36.28598,47.81331],[36.20345,47.86276],[36.07866,47.84517],[36.11762,47.93868],[35.95918,48.09071],[35.11815,48.12905],[34.88602,48.08089],[34.85144,48.12275],[34.81341,48.01552],[34.9163,47.94715],[34.80814,47.87754],[34.94529,47.74277],[34.89826,47.52325],[34.59461,47.56862],[34.15748,47.4739],[33.65441,47.48682],[33.56289,47.57536],[33.33944,47.49509],[32.99419,47.59544],[32.98376,47.71001],[33.08695,47.73171],[33.08277,47.89594],[33.03171,47.91974],[33.0575,48.0258],[33.22229,48.09045],[33.24198,48.17391],[33.2688,48.10272],[33.51339,48.2385],[33.44543,48.52531],[33.82107,48.6684],[33.59855,48.72183],[33.57219,48.78707],[33.7604,48.8071],[33.82572,48.75945],[33.91946,48.8658],[34.23748,48.74628],[34.31592,48.8396],[34.27773,48.92229],[34.40827,49.07654],[34.78406,49.17457]]]}},{"type":"Feature","properties":{"id":"ua-14","lat":48.05545,"lng":37.84082},"geometry":{"type":"Polygon","coordinates":[[[39.03618,47.857],[38.83094,47.84824],[38.73451,47.67714],[38.31903,47.59131],[38.18871,47.30099],[38.29816,47.25603],[38.20349,47.19231],[38.21664,47.10326],[38.14226,47.03766],[38.07154,47.0998],[37.58074,47.0904],[37.33522,46.88247],[37.22706,46.937],[37.03776,46.87666],[37.00955,46.9268],[37.11446,46.96571],[37.11849,47.02819],[36.85654,47.19371],[36.93865,47.209],[36.91943,47.3013],[37.18241,47.35308],[37.22091,47.45527],[36.7521,47.60169],[36.7473,47.67492],[36.53134,47.88739],[36.63387,47.92173],[36.57661,47.97072],[36.58467,48.07642],[36.83902,48.03448],[36.92718,48.2015],[36.90403,48.2977],[36.81184,48.32571],[36.88744,48.57362],[36.74854,48.53091],[36.78998,48.60122],[36.7321,48.60608],[36.69004,48.77754],[37.02382,48.75891],[37.01855,48.81371],[37.17714,48.82831],[37.31434,48.92652],[37.29181,48.97985],[37.36943,49.04936],[37.60962,49.15018],[37.50487,49.18397],[37.54694,49.22723],[37.85881,49.23095],[37.93363,49.19958],[37.89529,49.1563],[38.06675,49.15008],[38.07729,48.99825],[38.0081,48.9573],[38.2101,48.92394],[38.2795,48.83916],[38.26007,48.54427],[38.31392,48.52055],[38.3102,48.44996],[38.39914,48.44232],[38.48058,48.35762],[38.42363,48.28563],[38.56626,48.27762],[38.60367,48.17913],[38.81405,48.11143],[38.84014,48.02797],[39.02711,48.00663],[39.03618,47.857]]]}},{"type":"Feature","properties":{"id":"ua-18","lat":50.65639,"lng":28.38773},"geometry":{"type":"Polygon","coordinates":[[[28.21004,51.65196],[28.33386,51.52838],[28.60392,51.55355],[28.6373,51.44963],[28.72877,51.40126],[28.79988,51.53262],[29.12389,51.62504],[29.297,51.37371],[29.39012,51.36508],[29.37478,51.2848],[29.27049,51.23687],[29.31085,51.11874],[29.36284,51.14163],[29.48758,51.06655],[29.46201,50.96971],[29.39307,50.97012],[29.5051,50.87025],[29.48991,50.78083],[29.56748,50.7721],[29.59233,50.71109],[29.48076,50.60169],[29.4989,50.4917],[29.42614,50.42199],[29.56732,50.4069],[29.69491,50.26685],[29.73444,50.12149],[29.66913,50.08291],[29.7332,49.9353],[29.44196,49.79836],[29.41839,49.71012],[29.48309,49.69743],[29.44723,49.65087],[29.26429,49.58454],[28.99289,49.59325],[28.94741,49.67847],[29.00451,49.7342],[28.90958,49.87238],[28.83538,49.8814],[28.72024,49.79396],[27.86805,49.76006],[27.66072,49.79895],[27.54093,49.91509],[27.58083,49.95145],[27.54388,50.00708],[27.66367,50.03255],[27.60749,50.24934],[27.48848,50.22376],[27.22829,50.38685],[27.30462,50.47798],[27.19227,50.5412],[27.2717,50.73737],[27.19879,50.99404],[27.4491,51.22793],[27.41665,51.30214],[27.50946,51.34209],[27.50212,51.44022],[27.60021,51.39185],[27.58594,51.47228],[27.73012,51.46515],[27.83125,51.61292],[28.07082,51.55763],[28.21004,51.65196]]]}},{"type":"Feature","properties":{"id":"ua-21","lat":48.50389,"lng":23.01417},"geometry":{"type":"Polygon","coordinates":[[[22.13284,48.4048],[22.13873,48.56959],[22.3103,48.68168],[22.3689,48.85645],[22.56072,49.08553],[22.88313,49.00595],[22.98214,48.85898],[23.11232,48.87009],[23.20156,48.7771],[23.7715,48.64471],[23.91723,48.47435],[24.12931,48.53342],[24.15106,48.36888],[24.33167,48.37483],[24.49941,48.26295],[24.52846,48.14613],[24.64111,48.05278],[24.56981,47.93729],[24.2093,47.89759],[24.0088,47.96121],[23.85522,47.93423],[23.78008,47.98751],[23.46082,47.97134],[23.13908,48.09813],[23.06312,48.00746],[22.92411,48.00482],[22.8776,47.94674],[22.80143,48.09097],[22.60547,48.09704],[22.48145,48.24259],[22.35712,48.2431],[22.25676,48.35728],[22.27185,48.40346],[22.13284,48.4048]]]}},{"type":"Feature","properties":{"id":"ua-23","lat":47.11095,"lng":35.75757},"geometry":{"type":"Polygon","coordinates":[[[35.82716,46.62336],[35.49147,46.44798],[35.27954,46.25514],[35.34604,46.36103],[35.26759,46.35106],[35.28452,46.4374],[35.18832,46.51244],[35.20948,46.39643],[35.06931,46.29991],[35.02942,46.46481],[34.7622,46.54724],[34.73269,46.66229],[34.63125,46.68904],[34.79651,46.83954],[34.55968,47.0116],[34.47514,47.27368],[34.50645,47.31391],[34.2984,47.2721],[34.20373,47.47839],[34.59461,47.56862],[34.91056,47.52625],[34.94436,47.74621],[34.80814,47.87754],[34.91692,47.95116],[34.81496,48.01201],[34.84054,48.1175],[34.94312,48.08099],[35.24511,48.13019],[35.51476,48.07939],[35.67413,48.12698],[35.80885,48.06683],[35.96399,48.08911],[35.97458,48.02864],[36.04471,48.0433],[36.0213,48.00423],[36.11762,47.93868],[36.07866,47.84517],[36.57614,47.84421],[36.7473,47.67492],[36.7521,47.60169],[37.21921,47.45814],[37.18241,47.35308],[36.91943,47.3013],[36.93865,47.209],[36.85654,47.19371],[37.11849,47.02819],[37.1157,46.9699],[37.00955,46.9268],[37.03776,46.87666],[36.85369,46.80048],[36.86248,46.77692],[36.7693,46.6374],[36.8025,46.72476],[36.63396,46.77998],[36.40016,46.72394],[36.27833,46.60741],[36.18946,46.66901],[35.82716,46.62336]]]}},{"type":"Feature","properties":{"id":"ua-26","lat":48.5782,"lng":24.69982},"geometry":{"type":"Polygon","coordinates":[[[24.92886,47.71394],[24.56981,47.93729],[24.64111,48.05278],[24.52846,48.14613],[24.54148,48.21277],[24.3095,48.38738],[24.15106,48.36888],[24.13365,48.5311],[23.91723,48.47435],[23.77662,48.64215],[23.53286,48.72369],[23.57647,48.96864],[23.71099,49.10429],[24.44123,49.1941],[24.35694,49.24103],[24.36288,49.29735],[24.28186,49.30102],[24.42324,49.36644],[24.38335,49.39378],[24.43875,49.51569],[24.70705,49.49179],[24.87913,49.2294],[24.86001,49.11938],[24.98156,49.0992],[24.98559,49.05174],[24.89758,49.03985],[25.11963,48.95138],[25.16558,48.86549],[25.24578,48.93138],[25.22531,48.84201],[25.32774,48.84201],[25.251,48.77516],[25.44039,48.86994],[25.64007,48.74504],[25.56545,48.6253],[25.58514,48.39286],[25.36965,48.3802],[24.98915,48.10016],[24.92817,47.99697],[24.98481,47.84039],[24.92886,47.71394]]]}},{"type":"Feature","properties":{"id":"ua-30","lat":50.31047,"lng":30.59744},"geometry":{"type":"Polygon","coordinates":[[[30.73858,50.66815],[30.83485,50.6388],[30.84234,50.58398],[30.75057,50.5063],[30.84605,50.35349],[30.71811,50.26248],[30.6059,50.26745],[30.6482,50.03369],[30.58556,50.01416],[30.52081,50.19007],[30.31876,50.40827],[30.1966,50.37435],[30.20028,50.47814],[30.33401,50.66301],[30.43265,50.66245],[30.54808,50.54898],[30.73858,50.66815]]]}},{"type":"Feature","properties":{"id":"ua-32","lat":50.30878,"lng":31.41728},"geometry":{"type":"Polygon","coordinates":[[[29.6608,51.49314],[29.82865,51.42996],[30.17731,51.4795],[30.32019,51.40208],[30.35513,51.30527],[30.55466,51.24251],[30.51481,51.22034],[30.51357,51.01317],[30.64907,50.98557],[30.65511,50.89198],[30.78017,50.84356],[30.74089,50.75737],[31.0894,50.76729],[31.21296,50.65877],[31.17988,50.58766],[31.32825,50.50844],[31.61345,50.51764],[31.84744,50.62394],[32.02836,50.54508],[31.97358,50.47534],[32.13916,50.3501],[32.0695,50.23869],[31.99937,50.24655],[31.98754,50.16929],[31.85349,50.09999],[31.87199,50.02346],[31.71665,49.84853],[31.59655,49.89763],[31.49692,49.84003],[31.43021,49.9061],[31.21203,49.85396],[31.12821,49.61444],[31.15586,49.55638],[30.90802,49.34614],[30.43771,49.34851],[30.382,49.23296],[30.16925,49.28412],[30.15189,49.32955],[30.11153,49.27498],[29.92007,49.24625],[29.86901,49.17591],[29.76147,49.17462],[29.49983,49.36567],[29.56887,49.42164],[29.56717,49.52809],[29.49627,49.57279],[29.51068,49.64028],[29.44723,49.65087],[29.48278,49.70265],[29.41932,49.70808],[29.43746,49.79084],[29.72747,49.92879],[29.66928,50.08978],[29.73413,50.12583],[29.69491,50.26685],[29.56732,50.4069],[29.42614,50.42199],[29.4989,50.4917],[29.48076,50.60169],[29.59233,50.71109],[29.56748,50.7721],[29.48991,50.78083],[29.5051,50.87025],[29.39307,50.97012],[29.46201,50.96971],[29.48758,51.06655],[29.36284,51.14163],[29.31085,51.11874],[29.27049,51.23687],[29.3847,51.29816],[29.35326,51.37705],[29.6608,51.49314]],[[30.6059,50.26745],[30.84605,50.35349],[30.75057,50.5063],[30.84234,50.58398],[30.83485,50.6388],[30.73858,50.66815],[30.54808,50.54898],[30.43265,50.66245],[30.27016,50.63339],[30.18599,50.38725],[30.31876,50.40827],[30.52081,50.19007],[30.58556,50.01416],[30.6482,50.03369],[30.6059,50.26745]]]}},{"type":"Feature","properties":{"id":"ua-35","lat":48.47895,"lng":31.82271},"geometry":{"type":"Polygon","coordinates":[[[32.78873,49.2618],[33.34161,49.04404],[33.29939,48.99546],[33.37882,48.93996],[33.66888,48.86906],[33.77849,48.92254],[33.91946,48.8658],[33.82572,48.75945],[33.75404,48.80756],[33.55757,48.77199],[33.82107,48.6684],[33.44543,48.52531],[33.51339,48.2385],[33.2688,48.10272],[33.24198,48.17391],[33.22229,48.09045],[33.11129,48.0642],[33.03528,47.96653],[32.97569,48.04451],[32.82935,47.96668],[32.69607,47.9703],[32.64455,47.80065],[32.23445,47.82044],[32.13869,47.74753],[32.02185,47.80985],[31.86232,47.79584],[31.86341,47.89439],[31.70807,48.01976],[31.76926,48.04704],[31.75804,48.09541],[31.61655,48.11874],[31.5118,48.05505],[31.50374,48.1181],[31.25032,48.12094],[31.16857,48.21168],[30.90615,48.15711],[30.08347,48.14373],[29.99675,48.22098],[29.7748,48.20311],[29.73894,48.26708],[29.88343,48.4326],[29.94006,48.3756],[30.40882,48.57021],[30.57408,48.56515],[30.54091,48.61926],[30.70229,48.76519],[31.3329,48.72385],[31.4623,48.76111],[31.5441,48.9242],[31.73231,48.94265],[31.88672,48.85976],[32.02619,48.92805],[32.12923,48.91252],[32.14257,48.97562],[32.33191,49.08977],[32.45293,49.05613],[32.5198,48.92911],[32.68941,48.98745],[32.78237,48.96373],[32.85544,49.0184],[32.75255,49.18129],[32.78873,49.2618]]]}},{"type":"Feature","properties":{"id":"ua-46","lat":49.69978,"lng":23.92219},"geometry":{"type":"Polygon","coordinates":[[[22.68784,49.15592],[22.73776,49.27539],[22.64092,49.52876],[22.76619,49.67423],[23.69574,50.37677],[23.98131,50.40478],[24.01066,50.49278],[24.10647,50.53862],[24.1259,50.64182],[24.50081,50.54555],[24.53543,50.50012],[24.45037,50.46984],[24.50856,50.40793],[24.55822,50.43847],[24.7131,50.34551],[24.9319,50.37016],[25.0537,50.34483],[25.06997,50.28463],[25.19565,50.28799],[25.19317,50.1027],[25.43357,49.94537],[25.376,49.87254],[25.09307,49.81572],[25.10134,49.72534],[24.73341,49.56028],[24.70705,49.49179],[24.43316,49.51212],[24.38335,49.39378],[24.42324,49.36644],[24.28186,49.30102],[24.36288,49.29735],[24.35694,49.24103],[24.43487,49.19018],[23.69362,49.09463],[23.57647,48.96864],[23.53286,48.72369],[23.20156,48.7771],[23.11232,48.87009],[22.98214,48.85898],[22.89538,48.92931],[22.85342,49.08476],[22.68784,49.15592]]]}},{"type":"Feature","properties":{"id":"ua-48","lat":47.37907,"lng":31.96706},"geometry":{"type":"MultiPolygon","coordinates":[[[[31.85174,46.52196],[31.69597,46.48412],[31.68653,46.42988],[31.50831,46.58759],[31.85174,46.52196]]],[[[31.96144,46.72761],[31.93621,46.80036],[32.00668,46.93049],[31.93588,46.95482],[31.9769,47.00935],[31.86525,47.02635],[31.89682,47.09272],[31.83058,47.18675],[31.75766,47.21621],[31.74171,47.2591],[31.72682,47.22053],[31.87428,47.09382],[31.83741,47.00845],[31.94711,46.99909],[31.89943,46.94383],[31.96827,46.937],[31.86476,46.80659],[31.89943,46.6496],[31.48504,46.63227],[31.60613,46.8264],[31.50831,46.74518],[31.44068,46.80048],[31.50587,46.7204],[31.41619,46.62914],[31.33766,46.60126],[31.18686,46.62914],[31.16221,46.82538],[31.03152,46.94781],[31.22396,46.97742],[31.30417,47.10183],[31.11643,47.18234],[31.15368,47.27166],[30.9153,47.2767],[30.83386,47.42951],[30.86817,47.54346],[30.77986,47.63373],[30.6948,47.58795],[30.42035,47.64836],[30.39456,47.79217],[30.32738,47.82587],[30.21054,48.06782],[30.31188,48.09024],[30.29307,48.13572],[30.34753,48.16357],[30.90615,48.15711],[31.16857,48.21168],[31.25032,48.12094],[31.50374,48.1181],[31.5118,48.05505],[31.61655,48.11874],[31.75804,48.09541],[31.76926,48.04704],[31.70807,48.01976],[31.86341,47.89439],[31.8569,47.79773],[32.02185,47.80985],[32.13869,47.74753],[32.23445,47.82044],[32.64455,47.80065],[32.66274,47.90026],[32.71576,47.91522],[32.69266,47.96795],[32.82935,47.96668],[32.97926,48.04275],[33.08277,47.89594],[33.08773,47.73719],[32.98376,47.71001],[32.99213,47.5987],[33.08928,47.58286],[33.12995,47.4262],[33.05889,47.45219],[33.02613,47.40873],[33.12065,47.34941],[33.13661,47.22689],[32.97616,47.18678],[32.91642,47.10705],[33.06137,47.01863],[33.02504,46.96992],[32.9512,46.98566],[33.01512,46.94006],[32.81198,46.88698],[32.94076,46.86195],[32.82831,46.82794],[32.54259,46.87422],[31.96144,46.72761]]]]}},{"type":"Feature","properties":{"id":"ua-51","lat":46.71942,"lng":30.55635},"geometry":{"type":"MultiPolygon","coordinates":[[[[29.73097,45.59138],[30.12599,45.81147],[29.90805,45.66645],[29.80747,45.61433],[29.73097,45.59138]]],[[[28.1995,45.46177],[28.2705,45.52151],[28.50201,45.50875],[28.53689,45.5798],[28.474,45.65794],[28.73828,45.83756],[28.74024,45.95322],[28.95687,46.00138],[28.93878,46.08928],[29.01536,46.18261],[28.93351,46.25899],[28.94581,46.45479],[29.18424,46.53804],[29.20068,46.35712],[29.30672,46.472],[29.37472,46.41619],[29.45761,46.48471],[29.61564,46.36182],[29.71413,46.47117],[29.82813,46.3394],[30.13158,46.42283],[29.90193,46.53083],[29.94967,46.57886],[29.92818,46.80975],[29.55869,46.94574],[29.6021,47.06101],[29.47787,47.11154],[29.54484,47.13557],[29.55657,47.32404],[29.48087,47.33827],[29.40955,47.27975],[29.23261,47.44633],[29.15562,47.45],[29.11743,47.53333],[29.23861,47.756],[29.17784,47.78972],[29.23602,47.87072],[29.12399,47.97599],[28.98085,47.92638],[28.86209,48.0005],[29.04611,48.08311],[29.04503,48.13443],[29.24631,48.08451],[29.67502,48.09027],[29.67114,48.1774],[29.92906,48.22223],[30.08347,48.14373],[30.29307,48.13572],[30.31529,48.09298],[30.21054,48.06782],[30.21597,47.99878],[30.39456,47.79217],[30.42035,47.64836],[30.6948,47.58795],[30.77986,47.63373],[30.86817,47.54346],[30.83386,47.42951],[30.9153,47.2767],[31.15368,47.27166],[31.11643,47.18234],[31.30417,47.10183],[31.22396,46.97742],[31.03152,46.94781],[31.16221,46.82538],[31.18795,46.62909],[30.7907,46.55292],[30.77247,46.39643],[30.65187,46.34455],[30.65349,46.25959],[30.2614,45.89549],[30.13844,45.81977],[30.12745,45.89134],[30.09457,45.81485],[29.96852,45.83893],[29.95289,45.77196],[29.91871,45.79987],[29.93238,45.72419],[29.88771,45.76512],[29.80242,45.73749],[29.865,45.67235],[29.73373,45.61433],[29.69386,45.78132],[29.63356,45.82136],[29.58969,45.55907],[29.70704,45.57331],[29.60572,45.47818],[29.75465,45.44725],[29.70875,45.22333],[29.65903,45.21589],[29.65026,45.34612],[29.43064,45.43041],[29.22817,45.42374],[28.92989,45.2791],[28.78975,45.32142],[28.75967,45.27419],[28.80267,45.24417],[28.71006,45.22696],[28.33024,45.32292],[28.28642,45.42173],[28.1995,45.46177]]]]}},{"type":"Feature","properties":{"id":"ua-53","lat":49.6374,"lng":34.06692},"geometry":{"type":"Polygon","coordinates":[[[32.72728,50.35791],[32.87839,50.39744],[33.06153,50.53841],[33.73063,50.46167],[33.89822,50.5326],[34.0549,50.47067],[34.2458,50.53459],[34.25851,50.43573],[34.37736,50.34605],[34.36915,50.273],[34.50583,50.19745],[34.47405,50.10813],[34.90824,50.14596],[34.9132,50.05568],[34.84147,50.00005],[34.86896,49.93636],[35.16626,49.85117],[35.2862,49.68097],[35.42371,49.68384],[35.47507,49.56039],[35.39203,49.54406],[35.46872,49.49822],[35.32268,49.48349],[35.36056,49.39202],[35.26325,49.31167],[35.02461,49.3172],[34.95381,49.25281],[34.98394,49.16372],[34.78406,49.17457],[34.40827,49.07654],[34.27773,48.92229],[34.31592,48.8396],[34.23748,48.74628],[33.77849,48.92254],[33.66888,48.86906],[33.37882,48.93996],[33.29939,48.99546],[33.34161,49.04404],[32.78873,49.2618],[32.67592,49.47713],[32.75209,49.59382],[32.37268,49.86362],[32.41568,49.96749],[32.25507,50.06284],[32.26969,50.15684],[32.0695,50.23869],[32.13916,50.3501],[32.3502,50.40788],[32.72728,50.35791]]]}},{"type":"Feature","properties":{"id":"ua-56","lat":50.96883,"lng":26.62167},"geometry":{"type":"Polygon","coordinates":[[[25.5474,51.91944],[26.05059,51.90482],[26.92082,51.74253],[27.15109,51.75676],[27.18902,51.66377],[27.27749,51.65114],[27.26746,51.5875],[27.51231,51.62313],[27.70516,51.56835],[27.66615,51.49019],[27.58594,51.47228],[27.60021,51.39185],[27.50212,51.44022],[27.50946,51.34209],[27.41665,51.30214],[27.4491,51.22793],[27.19879,50.99404],[27.2717,50.73737],[27.19227,50.5412],[27.0976,50.5866],[26.80713,50.5009],[26.47986,50.25357],[26.23316,50.15229],[26.22184,50.26169],[26.06526,50.26525],[25.94718,50.26453],[25.80905,50.17916],[25.45341,50.16273],[25.46706,50.10521],[25.36758,50.01312],[25.19317,50.1027],[25.19565,50.28799],[25.06346,50.29481],[25.20356,50.38075],[25.09183,50.4618],[25.16837,50.50043],[25.12243,50.54009],[25.29745,50.54927],[25.28986,50.61397],[25.38375,50.61492],[25.36339,50.67887],[25.65562,50.70703],[25.83282,50.63319],[25.87545,50.79256],[26.0032,50.83465],[25.97896,50.9525],[26.0958,50.98516],[26.04134,51.06634],[25.94672,51.07518],[26.05937,51.18114],[25.81339,51.3226],[25.82026,51.38425],[25.55568,51.34935],[25.55149,51.52543],[25.60286,51.58192],[25.5116,51.61812],[25.5099,51.69865],[25.6626,51.89058],[25.5474,51.91944]]]}},{"type":"Feature","properties":{"id":"ua-59","lat":51.24146,"lng":33.73048},"geometry":{"type":"Polygon","coordinates":[[[33.73358,52.36099],[34.05573,52.17033],[34.09624,51.95182],[34.41271,51.77769],[34.37633,51.7086],[34.08911,51.66662],[34.22368,51.51476],[34.18585,51.39415],[34.30874,51.33462],[34.18595,51.24891],[34.60836,51.23401],[34.67492,51.16768],[35.07872,51.20763],[35.14362,51.05849],[35.35508,51.0256],[35.28222,50.95426],[35.46887,50.66854],[35.37617,50.63459],[35.42526,50.50048],[35.68426,50.32695],[35.40288,50.33367],[35.03035,50.17182],[34.47793,50.10723],[34.50583,50.19745],[34.36915,50.273],[34.37736,50.34605],[34.25851,50.43573],[34.2458,50.53459],[34.0549,50.47067],[33.89822,50.5326],[33.73063,50.46167],[33.06153,50.53841],[33.167,50.743],[33.12251,50.81346],[33.20689,51.04836],[33.08385,51.03242],[32.93952,51.09735],[33.07021,51.24891],[33.00164,51.38115],[33.11522,51.37454],[33.12266,51.51035],[33.18689,51.51593],[33.1532,51.6931],[33.06204,51.79291],[33.16069,51.90422],[33.36626,51.9467],[33.37929,52.0569],[33.4831,52.06664],[33.3259,52.15294],[33.40058,52.34434],[33.48052,52.35776],[33.51008,52.28753],[33.73358,52.36099]]]}},{"type":"Feature","properties":{"id":"ua-61","lat":49.39085,"lng":25.49069},"geometry":{"type":"Polygon","coordinates":[[[25.94718,50.26453],[26.22184,50.26169],[26.2066,50.14141],[26.27321,50.11338],[26.2052,50.08632],[26.23099,49.99408],[26.15058,49.9646],[26.25378,49.65764],[26.14856,49.51155],[26.25796,49.28991],[26.20474,49.21834],[26.23145,49.07452],[26.18877,48.95691],[26.26416,48.80824],[26.23548,48.68496],[26.37155,48.57357],[26.35501,48.51011],[26.1495,48.53957],[26.13306,48.60923],[26.07978,48.54729],[26.04914,48.64765],[25.92785,48.58685],[25.79355,48.67005],[25.74234,48.62972],[25.4469,48.86875],[25.251,48.77516],[25.32774,48.84201],[25.22531,48.84201],[25.24578,48.93138],[25.16558,48.86549],[25.11963,48.95138],[24.89758,49.03985],[24.98559,49.05174],[24.98156,49.0992],[24.86001,49.11938],[24.87913,49.2294],[24.70705,49.49179],[24.73341,49.56028],[25.10134,49.72534],[25.09307,49.81572],[25.3898,49.88006],[25.43357,49.94537],[25.36996,50.02821],[25.46706,50.10521],[25.45341,50.16273],[25.80905,50.17916],[25.94718,50.26453]]]}},{"type":"Feature","properties":{"id":"ua-63","lat":49.45163,"lng":36.61209},"geometry":{"type":"Polygon","coordinates":[[[37.41521,50.43186],[37.59918,50.29089],[37.59029,50.20381],[37.72765,50.0787],[37.91586,50.00331],[38.08086,49.84626],[37.93999,49.72694],[37.99833,49.71554],[38.00035,49.6565],[37.94449,49.59679],[37.96324,49.52013],[37.86067,49.42272],[37.92614,49.28386],[37.83385,49.20754],[37.541,49.22516],[37.50487,49.18397],[37.60962,49.15018],[37.36943,49.04936],[37.29181,48.97985],[37.31434,48.92652],[37.17714,48.82831],[37.01855,48.81371],[37.02382,48.75891],[36.70172,48.78816],[36.72544,48.62592],[36.47098,48.64587],[36.28877,48.52704],[36.28567,48.63411],[36.13281,48.72369],[36.16372,48.76726],[35.96197,48.8549],[36.02202,48.90012],[35.95251,48.96869],[35.79438,48.93422],[35.46247,48.97489],[35.16982,49.14723],[34.98394,49.16372],[34.97293,49.28061],[35.27907,49.31978],[35.36056,49.39202],[35.31974,49.48055],[35.46453,49.49439],[35.39064,49.55057],[35.47507,49.56039],[35.42371,49.68384],[35.23902,49.70451],[35.16626,49.85117],[34.864,49.94233],[34.84147,50.00005],[34.97015,50.18937],[35.24977,50.23848],[35.40288,50.33367],[35.67103,50.31993],[35.83743,50.42323],[36.10584,50.42111],[36.26903,50.28138],[36.41,50.30458],[36.59439,50.20443],[36.84863,50.3237],[37.41521,50.43186]]]}},{"type":"Feature","properties":{"id":"ua-65","lat":46.65595,"lng":33.3677},"geometry":{"type":"MultiPolygon","coordinates":[[[[32.97869,46.05329],[33.04005,46.01215],[32.61939,46.06],[32.97869,46.05329]]],[[[35.27954,46.25514],[35.16179,46.12824],[34.98211,46.07783],[35.27954,46.25514]]],[[[32.15309,46.15599],[31.58033,46.26276],[31.52198,46.31322],[31.5044,46.37336],[31.61818,46.25922],[32.15309,46.15599]]],[[[35.00189,45.729],[34.78898,45.80366],[34.78431,45.89934],[34.68864,45.97402],[34.46461,45.95535],[34.33393,46.06969],[33.84622,46.1957],[33.67028,46.21811],[33.66045,46.14818],[33.54982,46.13642],[33.51629,46.04633],[33.21461,46.12824],[33.23512,46.22382],[33.12289,46.13589],[33.02345,46.16987],[33.01824,46.12767],[32.50343,46.07612],[32.26246,46.12824],[32.2693,46.20458],[31.76734,46.31818],[32.06186,46.39379],[31.81629,46.48301],[31.85174,46.52196],[32.36101,46.46686],[32.64552,46.6496],[32.40903,46.56891],[32.24822,46.60741],[32.14633,46.56025],[32.00896,46.6398],[31.96645,46.72702],[32.54259,46.87422],[32.70863,46.82376],[32.94076,46.86195],[32.80702,46.88226],[33.01016,46.93618],[32.9512,46.98566],[33.06168,47.01532],[32.91502,47.10353],[32.97616,47.18678],[33.13615,47.22433],[33.12065,47.34941],[33.02613,47.40873],[33.05889,47.45219],[33.1301,47.42258],[33.08928,47.58286],[33.33944,47.49509],[33.56289,47.57536],[33.64278,47.48852],[34.20373,47.47839],[34.2984,47.2721],[34.50645,47.31391],[34.47514,47.27368],[34.55968,47.0116],[34.79651,46.83954],[34.63125,46.68904],[34.73269,46.66229],[34.7622,46.54724],[35.02942,46.46481],[35.05965,46.30601],[35.10506,46.29506],[34.89357,46.25178],[34.81227,46.17666],[34.87436,45.92609],[35.00189,45.729]]]]}},{"type":"Feature","properties":{"id":"ua-68","lat":49.57372,"lng":26.98344},"geometry":{"type":"Polygon","coordinates":[[[27.0976,50.5866],[27.30462,50.47798],[27.23496,50.37972],[27.48848,50.22376],[27.60749,50.24934],[27.66367,50.03255],[27.54388,50.00708],[27.58083,49.95145],[27.5445,49.91083],[27.66072,49.79895],[27.86805,49.76006],[27.7526,49.68684],[27.81559,49.63092],[27.72433,49.4999],[27.74314,49.43652],[27.83947,49.41634],[27.80335,49.37898],[27.88773,49.15876],[27.48926,49.11773],[27.38063,48.99182],[27.42611,48.77366],[27.335,48.60179],[26.85927,48.54035],[26.81876,48.60665],[26.77276,48.55099],[26.71721,48.59476],[26.72181,48.53518],[26.61257,48.55089],[26.709,48.49688],[26.61567,48.50683],[26.60575,48.45159],[26.47056,48.53807],[26.38054,48.51709],[26.23735,48.67992],[26.26416,48.80824],[26.19249,48.90596],[26.23161,49.07946],[26.19838,49.18493],[26.25796,49.28991],[26.14841,49.51651],[26.25378,49.65764],[26.15058,49.9646],[26.23099,49.99408],[26.2052,50.08632],[26.27321,50.11338],[26.2066,50.14141],[26.47986,50.25357],[26.80713,50.5009],[27.0976,50.5866]]]}},{"type":"Feature","properties":{"id":"ua-71","lat":49.41282,"lng":31.85674},"geometry":{"type":"Polygon","coordinates":[[[32.01921,50.25145],[32.26969,50.15684],[32.25507,50.06284],[32.41568,49.96749],[32.37268,49.86362],[32.75209,49.59382],[32.67592,49.47713],[32.78935,49.33389],[32.75255,49.18129],[32.85079,49.00582],[32.52694,48.92771],[32.45293,49.05613],[32.33191,49.08977],[32.14257,48.97562],[32.12133,48.91027],[32.02619,48.92805],[31.88672,48.85976],[31.73231,48.94265],[31.5441,48.9242],[31.4623,48.76111],[31.3329,48.72385],[30.70229,48.76519],[30.54091,48.61926],[30.56757,48.56192],[30.41471,48.57192],[30.24728,48.47756],[29.95789,48.45932],[30.02166,48.53363],[29.9582,48.65532],[29.85909,48.69832],[29.88405,48.74328],[29.77248,48.7693],[29.71615,48.91438],[29.63595,48.94704],[29.67083,49.0014],[29.59311,49.03148],[29.70716,49.13168],[29.67455,49.20971],[29.86234,49.17385],[29.92007,49.24625],[30.11153,49.27498],[30.15189,49.32955],[30.16925,49.28412],[30.382,49.23296],[30.43771,49.34851],[30.90802,49.34614],[31.15586,49.55638],[31.12821,49.61444],[31.21203,49.85396],[31.43021,49.9061],[31.49692,49.84003],[31.59655,49.89763],[31.71665,49.84853],[31.87199,50.02346],[31.84961,50.09498],[31.98754,50.16929],[32.01921,50.25145]]]}},{"type":"Feature","properties":{"id":"ua-74","lat":51.30819,"lng":31.81558},"geometry":{"type":"Polygon","coordinates":[[[31.47485,52.11778],[32.09559,52.04073],[32.2777,52.10266],[32.367,52.2472],[32.35356,52.32159],[32.90898,52.2411],[33.18286,52.3673],[33.40058,52.34434],[33.3259,52.15294],[33.4831,52.06664],[33.37929,52.0569],[33.36626,51.9467],[33.16069,51.90422],[33.06204,51.79291],[33.1532,51.6931],[33.18689,51.51593],[33.12266,51.51035],[33.11522,51.37454],[33.00164,51.38115],[33.07021,51.24891],[32.93952,51.09735],[33.08385,51.03242],[33.20689,51.04836],[33.12251,50.81346],[33.167,50.743],[33.0238,50.49159],[32.72728,50.35791],[32.37594,50.40891],[32.13916,50.3501],[31.97358,50.47534],[32.02836,50.54508],[31.85628,50.62136],[31.61345,50.51764],[31.32825,50.50844],[31.17988,50.58766],[31.21296,50.65877],[31.0894,50.76729],[30.73764,50.76021],[30.78017,50.84356],[30.65511,50.89198],[30.64907,50.98557],[30.51233,51.01668],[30.5159,51.22476],[30.64555,51.36746],[30.51512,51.60367],[30.74167,51.89792],[30.94124,51.9938],[30.93442,52.06972],[31.22898,52.03822],[31.47485,52.11778]]]}},{"type":"Feature","properties":{"id":"ua-77","lat":48.1561,"lng":25.66766},"geometry":{"type":"Polygon","coordinates":[[[26.61789,48.25897],[26.30349,48.21205],[26.17306,47.99314],[25.26174,47.89858],[25.07995,47.74293],[24.92886,47.71394],[24.98481,47.84039],[24.92817,47.99697],[24.98915,48.10016],[25.36965,48.3802],[25.58514,48.39286],[25.56545,48.6253],[25.63619,48.67811],[25.74234,48.62972],[25.79355,48.67005],[25.92785,48.58685],[26.04914,48.64765],[26.07978,48.54729],[26.13306,48.60923],[26.18086,48.5267],[26.47056,48.53807],[26.60575,48.45159],[26.61567,48.50683],[26.709,48.49688],[26.61257,48.55089],[26.72181,48.53518],[26.71721,48.59476],[26.77276,48.55099],[26.81876,48.60665],[26.85927,48.54035],[27.24757,48.57042],[27.23439,48.61848],[27.3704,48.62972],[27.50383,48.47237],[27.20855,48.36062],[26.83193,48.39136],[26.77752,48.36617],[26.78573,48.29411],[26.6798,48.33018],[26.61789,48.25897]]]}}]}
