{"type":"FeatureCollection","features":[{"type":"Feature","properties":{"id":"ug-101","lat":-0.70789,"lng":32.41671},"geometry":{"type":"Polygon","coordinates":[[[32.84723,-1.00257],[31.98619,-1.00257],[31.98619,-0.4132],[32.06784,-0.35],[31.91984,-0.1342],[32.84723,-0.16309],[32.84723,-1.00257]]]}},{"type":"Feature","properties":{"id":"ug-102","lat":0.39269,"lng":32.6022},"geometry":{"type":"Polygon","coordinates":[[[32.54905,0.48343],[32.67163,0.48204],[32.66419,0.28763],[32.52352,0.30334],[32.54905,0.48343]]]}},{"type":"Feature","properties":{"id":"ug-103","lat":0.88781,"lng":31.88771},"geometry":{"type":"Polygon","coordinates":[[[32.1837,0.70244],[32.07187,0.63577],[31.95343,0.64849],[31.83549,0.8033],[31.67467,0.86606],[31.87472,1.08573],[31.95299,1.10393],[32.04324,0.90956],[32.2192,0.80805],[32.1837,0.70244]]]}},{"type":"Feature","properties":{"id":"ug-104","lat":0.83313,"lng":32.61387},"geometry":{"type":"Polygon","coordinates":[[[32.67493,1.14457],[32.78025,1.08123],[32.75339,0.58756],[32.33036,0.54612],[32.36901,0.63691],[32.48983,0.6982],[32.40601,1.09042],[32.62394,0.96805],[32.67493,1.14457]]]}},{"type":"Feature","properties":{"id":"ug-105","lat":-0.55844,"lng":31.82957},"geometry":{"type":"Polygon","coordinates":[[[31.98619,-0.77391],[31.72853,-0.70368],[31.61293,-0.40165],[31.72109,-0.26218],[31.97451,-0.23042],[32.06784,-0.35],[31.98619,-0.4132],[31.98619,-0.77391]]]}},{"type":"Feature","properties":{"id":"ug-106","lat":0.11716,"lng":32.19403},"geometry":{"type":"Polygon","coordinates":[[[32.2192,0.1847],[32.26306,0.43457],[32.36897,0.43457],[32.43958,0.36004],[32.40994,0.22681],[32.2269,0.04961],[32.24819,-0.15839],[31.96304,-0.14935],[31.85579,-0.00735],[32.2192,0.1847]]]}},{"type":"Feature","properties":{"id":"ug-107","lat":0.50452,"lng":31.56454},"geometry":{"type":"Polygon","coordinates":[[[31.36432,0.69882],[31.43811,0.8615],[31.67467,0.86606],[31.83549,0.8033],[31.95343,0.64849],[31.90227,0.59614],[31.96904,0.42556],[31.9488,0.29571],[31.77281,0.25806],[31.57495,0.33755],[31.33683,0.25301],[31.25921,0.16914],[31.15741,0.22769],[31.00878,0.20671],[31.1264,0.34484],[31.13777,0.48509],[31.24412,0.52395],[31.21435,0.62239],[31.27482,0.70771],[31.36432,0.69882]]]}},{"type":"Feature","properties":{"id":"ug-108","lat":0.34729,"lng":32.84783},"geometry":{"type":"Polygon","coordinates":[[[32.79266,0.84527],[33.03164,0.587],[32.98502,0.51015],[33.02054,0.35997],[32.60502,-0.16309],[32.49314,-0.16309],[32.62171,0.00238],[32.6861,0.3346],[32.67018,0.55645],[32.75339,0.58756],[32.79266,0.84527]]]}},{"type":"Feature","properties":{"id":"ug-109","lat":1.26556,"lng":32.51652},"geometry":{"type":"Polygon","coordinates":[[[32.1776,1.67752],[32.601,1.46272],[32.68796,1.47053],[32.69075,1.38793],[32.77622,1.33093],[32.78025,1.08123],[32.67493,1.14457],[32.62394,0.96805],[32.46875,1.01684],[32.34782,1.20019],[31.95953,1.47593],[32.1776,1.67752]]]}},{"type":"Feature","properties":{"id":"ug-110","lat":-0.73719,"lng":31.47802},"geometry":{"type":"Polygon","coordinates":[[[31.98619,-1.00257],[31.28049,-1.00257],[31.18283,-0.86351],[31.18107,-0.74243],[31.07493,-0.65272],[31.13478,-0.52841],[31.22867,-0.52404],[31.23699,-0.46411],[31.45922,-0.60374],[31.52663,-0.51455],[31.66022,-0.47702],[31.75189,-0.73194],[31.98619,-0.77391],[31.98619,-1.00257]]]}},{"type":"Feature","properties":{"id":"ug-111","lat":-0.06565,"lng":31.3636},"geometry":{"type":"Polygon","coordinates":[[[31.00072,0.20231],[31.37993,0.1972],[31.5918,0.04935],[31.55035,0.01829],[31.60439,-0.29634],[31.27823,-0.26086],[31.30902,-0.10041],[31.01581,-0.0309],[31.00072,0.20231]]]}},{"type":"Feature","properties":{"id":"ug-112","lat":1.06588,"lng":32.87821},"geometry":{"type":"Polygon","coordinates":[[[32.82242,0.78243],[32.77622,1.33093],[32.69075,1.38793],[32.68796,1.47053],[32.81136,1.47521],[32.96133,1.18169],[32.9544,0.95007],[33.09858,0.54421],[32.82242,0.78243]]]}},{"type":"Feature","properties":{"id":"ug-113","lat":0.13821,"lng":32.48018},"geometry":{"type":"Polygon","coordinates":[[[32.26306,0.43457],[32.22266,0.57412],[32.67018,0.55645],[32.53582,0.44256],[32.54729,0.27373],[32.66419,0.28763],[32.62171,0.00238],[32.49314,-0.16309],[32.24819,-0.15839],[32.2269,0.04961],[32.40994,0.22681],[32.43958,0.36004],[32.36897,0.43457],[32.26306,0.43457]]]}},{"type":"Feature","properties":{"id":"ug-114","lat":0.51085,"lng":32.07752},"geometry":{"type":"Polygon","coordinates":[[[31.95343,0.64849],[32.1837,0.70244],[32.26474,0.26724],[31.91147,0.22097],[31.82145,0.28303],[31.9488,0.29571],[31.96904,0.42556],[31.90227,0.59614],[31.95343,0.64849]]]}},{"type":"Feature","properties":{"id":"ug-115","lat":1.03098,"lng":32.21083},"geometry":{"type":"Polygon","coordinates":[[[32.1837,0.70244],[32.2192,0.80805],[32.04324,0.90956],[31.93285,1.22138],[31.82228,1.35708],[31.95953,1.47593],[32.39643,1.15241],[32.48983,0.6982],[32.30245,0.53924],[32.22266,0.57412],[32.1837,0.70244]]]}},{"type":"Feature","properties":{"id":"ug-116","lat":-0.40015,"lng":31.17586},"geometry":{"type":"Polygon","coordinates":[[[31.11327,-0.02744],[31.30902,-0.10041],[31.22867,-0.52404],[31.18597,-0.53258],[31.13478,-0.52841],[31.06553,-0.27626],[31.11327,-0.02744]]]}},{"type":"Feature","properties":{"id":"ug-117","lat":-0.03604,"lng":32.86559},"geometry":{"type":"Polygon","coordinates":[[[33.03164,0.587],[33.27285,0.35025],[33.0783,0.09101],[32.84723,-0.4621],[32.84723,-0.16309],[32.60502,-0.16309],[33.02054,0.35997],[32.98502,0.51015],[33.03164,0.587]]]}},{"type":"Feature","properties":{"id":"ug-118","lat":-0.09348,"lng":31.64057},"geometry":{"type":"Polygon","coordinates":[[[31.60723,-0.26218],[31.55035,0.01829],[31.64885,0.04713],[31.75525,-0.20525],[31.72109,-0.26218],[31.60723,-0.26218]]]}},{"type":"Feature","properties":{"id":"ug-119","lat":0.1174,"lng":31.99957},"geometry":{"type":"Polygon","coordinates":[[[32.14128,0.25577],[32.26759,0.2274],[32.2192,0.1847],[31.85579,-0.00735],[31.79348,0.05011],[32.14128,0.25577]]]}},{"type":"Feature","properties":{"id":"ug-120","lat":-0.18555,"lng":33.19452},"geometry":{"type":"Polygon","coordinates":[[[33.42641,-1.00257],[32.84723,-1.00257],[32.84723,-0.4621],[33.0783,0.09101],[33.27285,0.35025],[33.38704,0.30262],[33.42621,0.21373],[33.42641,-1.00257]]]}},{"type":"Feature","properties":{"id":"ug-121","lat":0.12533,"lng":31.69167},"geometry":{"type":"Polygon","coordinates":[[[31.57495,0.33755],[31.91147,0.22097],[32.14128,0.25577],[31.79348,0.05011],[31.5918,0.04935],[31.33476,0.20056],[31.33683,0.25301],[31.57495,0.33755]]]}},{"type":"Feature","properties":{"id":"ug-122","lat":-0.1063,"lng":31.81099},"geometry":{"type":"Polygon","coordinates":[[[31.85579,-0.00735],[31.97451,-0.23042],[31.72109,-0.26218],[31.75525,-0.20525],[31.64885,0.04713],[31.75644,0.06646],[31.85579,-0.00735]]]}},{"type":"Feature","properties":{"id":"ug-123","lat":1.15872,"lng":31.65103},"geometry":{"type":"Polygon","coordinates":[[[31.82228,1.35708],[31.93285,1.22138],[31.95299,1.10393],[31.87472,1.08573],[31.67467,0.86606],[31.43811,0.8615],[31.42726,0.9262],[31.52131,1.02738],[31.29052,1.21352],[31.51377,1.36131],[31.82228,1.35708]]]}},{"type":"Feature","properties":{"id":"ug-124","lat":-0.42149,"lng":31.43279},"geometry":{"type":"Polygon","coordinates":[[[31.27823,-0.26086],[31.46054,-0.31492],[31.72109,-0.26218],[31.61862,-0.37888],[31.62147,-0.46996],[31.45922,-0.60374],[31.23699,-0.46411],[31.27823,-0.26086]]]}},{"type":"Feature","properties":{"id":"ug-201","lat":0.51428,"lng":33.77407},"geometry":{"type":"Polygon","coordinates":[[[33.60956,0.46442],[33.66857,0.63991],[33.63054,0.73293],[33.86515,0.68456],[33.95713,0.56415],[33.829,0.3832],[33.68469,0.32169],[33.60956,0.46442]]]}},{"type":"Feature","properties":{"id":"ug-202","lat":0.42152,"lng":33.99501},"geometry":{"type":"Polygon","coordinates":[[[34.13159,0.56943],[34.08519,0.34701],[33.96027,0.19868],[33.88148,0.31424],[33.89471,0.49604],[33.95713,0.56415],[34.13159,0.56943]]]}},{"type":"Feature","properties":{"id":"ug-203","lat":0.55892,"lng":33.58814},"geometry":{"type":"Polygon","coordinates":[[[33.56573,0.45067],[33.51304,0.66718],[33.42043,0.72796],[33.42735,0.87142],[33.53184,0.88093],[33.66599,0.67996],[33.60883,0.44225],[33.56573,0.45067]]]}},{"type":"Feature","properties":{"id":"ug-204","lat":0.48733,"lng":33.3453},"geometry":{"type":"Polygon","coordinates":[[[33.18188,0.68492],[33.54269,0.524],[33.56573,0.45067],[33.50425,0.34686],[33.38704,0.30262],[33.18364,0.39227],[33.04897,0.66316],[33.18188,0.68492]]]}},{"type":"Feature","properties":{"id":"ug-205","lat":0.80778,"lng":33.13027},"geometry":{"type":"Polygon","coordinates":[[[33.29722,0.94371],[33.22126,0.67185],[33.04897,0.66316],[32.9544,0.95007],[32.96133,1.18169],[33.11363,1.13895],[33.13389,1.05501],[33.29722,0.94371]]]}},{"type":"Feature","properties":{"id":"ug-206","lat":1.2715,"lng":34.48399},"geometry":{"type":"Polygon","coordinates":[[[34.56007,1.09315],[34.50749,1.10252],[34.49849,1.22174],[34.30905,1.32126],[34.43317,1.44562],[34.56658,1.37339],[34.56007,1.09315]]]}},{"type":"Feature","properties":{"id":"ug-207","lat":2.00402,"lng":34.05207},"geometry":{"type":"Polygon","coordinates":[[[33.80903,1.70832],[33.89698,1.89668],[33.90566,2.3043],[34.20291,2.11137],[34.21169,1.63127],[33.94483,1.62329],[33.80903,1.70832]]]}},{"type":"Feature","properties":{"id":"ug-208","lat":1.40426,"lng":33.9171},"geometry":{"type":"Polygon","coordinates":[[[34.23453,1.62652],[34.22967,1.55572],[34.0427,1.49495],[34.00218,1.29524],[33.92664,1.24618],[33.78918,1.31356],[33.86036,1.62519],[34.23453,1.62652]]]}},{"type":"Feature","properties":{"id":"ug-209","lat":0.96211,"lng":34.18229},"geometry":{"type":"Polygon","coordinates":[[[34.06917,1.03405],[34.1165,1.17786],[34.35711,1.08645],[34.16373,0.82806],[34.08498,0.90232],[34.11609,1.0219],[34.06917,1.03405]]]}},{"type":"Feature","properties":{"id":"ug-210","lat":1.25669,"lng":33.70345},"geometry":{"type":"Polygon","coordinates":[[[33.63291,1.08763],[33.40502,1.33553],[33.73048,1.34051],[34.1165,1.17786],[34.12983,1.11451],[33.90378,1.16789],[33.63291,1.08763]]]}},{"type":"Feature","properties":{"id":"ug-211","lat":1.79051,"lng":33.60059},"geometry":{"type":"Polygon","coordinates":[[[33.3542,1.71675],[33.43789,1.77387],[33.49225,2.02143],[33.7527,1.80715],[33.81058,1.66827],[33.5793,1.56766],[33.3542,1.71675]]]}},{"type":"Feature","properties":{"id":"ug-212","lat":0.71565,"lng":34.07401},"geometry":{"type":"Polygon","coordinates":[[[34.29625,0.74675],[34.13159,0.56943],[33.95713,0.56415],[33.86515,0.68456],[33.94669,0.84827],[34.06462,0.90077],[34.29625,0.74675]]]}},{"type":"Feature","properties":{"id":"ug-213","lat":1.70733,"lng":33.12935},"geometry":{"type":"Polygon","coordinates":[[[32.97921,1.46244],[32.94334,1.64559],[32.98934,1.71545],[33.09455,1.71705],[33.12907,1.83322],[33.27697,1.94882],[33.29123,2.03946],[33.37122,2.01931],[33.45659,1.84438],[33.43789,1.77387],[33.25481,1.69921],[33.20803,1.36887],[32.97921,1.46244]]]}},{"type":"Feature","properties":{"id":"ug-214","lat":-0.55302,"lng":33.52906},"geometry":{"type":"Polygon","coordinates":[[[33.63178,-1.00257],[33.42641,-1.00257],[33.42621,0.21373],[33.38704,0.30262],[33.50425,0.34686],[33.56573,0.45067],[33.69338,0.3684],[33.65435,0.07315],[33.74069,-0.04067],[33.63178,-0.10346],[33.63178,-1.00257]]]}},{"type":"Feature","properties":{"id":"ug-215","lat":1.19593,"lng":34.29649},"geometry":{"type":"Polygon","coordinates":[[[34.4708,1.09802],[34.26285,1.10427],[34.15691,1.16318],[34.21417,1.24163],[34.30319,1.22867],[34.52423,1.16226],[34.4708,1.09802]]]}},{"type":"Feature","properties":{"id":"ug-216","lat":2.05239,"lng":33.6318},"geometry":{"type":"Polygon","coordinates":[[[33.44378,1.88743],[33.36978,2.09186],[33.47075,2.12835],[33.44398,2.23599],[33.54848,2.28984],[33.5461,2.35593],[33.61007,2.33211],[33.72366,2.41288],[33.90566,2.3043],[33.84665,1.73514],[33.80903,1.70832],[33.5309,2.01293],[33.46838,2.00375],[33.44378,1.88743]]]}},{"type":"Feature","properties":{"id":"ug-217","lat":1.03136,"lng":33.95508},"geometry":{"type":"Polygon","coordinates":[[[34.12983,1.11451],[33.95465,0.94821],[33.84365,0.93896],[33.90378,1.16789],[34.12983,1.11451]]]}},{"type":"Feature","properties":{"id":"ug-218","lat":1.334,"lng":34.71195},"geometry":{"type":"Polygon","coordinates":[[[34.56688,1.10302],[34.57043,1.24856],[34.7422,1.41945],[34.79791,1.23192],[34.58045,1.15254],[34.56688,1.10302]]]}},{"type":"Feature","properties":{"id":"ug-219","lat":0.8753,"lng":33.89103},"geometry":{"type":"Polygon","coordinates":[[[33.9007,0.92723],[34.11609,1.0219],[34.08498,0.90232],[33.94669,0.84827],[33.83745,0.68962],[33.74288,0.93612],[33.9007,0.92723]]]}},{"type":"Feature","properties":{"id":"ug-220","lat":1.08345,"lng":33.48586},"geometry":{"type":"Polygon","coordinates":[[[33.53184,0.88093],[33.39841,0.88444],[33.40915,0.98516],[33.33877,1.07926],[33.44254,1.28757],[33.63291,1.08763],[33.53184,0.88093]]]}},{"type":"Feature","properties":{"id":"ug-221","lat":0.91361,"lng":34.32083},"geometry":{"type":"Polygon","coordinates":[[[34.46335,0.99999],[34.38801,0.81582],[34.29625,0.74675],[34.16373,0.82806],[34.26357,0.99916],[34.46335,0.99999]]]}},{"type":"Feature","properties":{"id":"ug-222","lat":0.89659,"lng":33.65551},"geometry":{"type":"Polygon","coordinates":[[[33.63054,0.73293],[33.53184,0.88093],[33.63291,1.08763],[33.76655,0.91224],[33.83745,0.68962],[33.63054,0.73293]]]}},{"type":"Feature","properties":{"id":"ug-223","lat":1.05126,"lng":34.40515},"geometry":{"type":"Polygon","coordinates":[[[34.50749,1.10252],[34.46335,0.99999],[34.26357,0.99916],[34.38873,1.10551],[34.50749,1.10252]]]}},{"type":"Feature","properties":{"id":"ug-224","lat":1.3951,"lng":34.13006},"geometry":{"type":"Polygon","coordinates":[[[34.19185,1.193],[33.92664,1.24618],[34.00218,1.29524],[34.0427,1.49495],[34.22967,1.55572],[34.2428,1.29238],[34.19185,1.193]]]}},{"type":"Feature","properties":{"id":"ug-225","lat":1.40419,"lng":34.30937},"geometry":{"type":"Polygon","coordinates":[[[34.26089,1.5628],[34.37768,1.55722],[34.45281,1.48712],[34.30905,1.32126],[34.52423,1.16226],[34.21417,1.24163],[34.26089,1.5628]]]}},{"type":"Feature","properties":{"id":"ug-226","lat":1.22065,"lng":33.18184},"geometry":{"type":"Polygon","coordinates":[[[33.43985,1.25961],[33.29722,0.94371],[33.13389,1.05501],[33.11363,1.13895],[32.96133,1.18169],[32.81136,1.47521],[32.9974,1.46591],[33.13331,1.37852],[33.37825,1.37061],[33.43985,1.25961]]]}},{"type":"Feature","properties":{"id":"ug-227","lat":1.0133,"lng":33.77502},"geometry":{"type":"Polygon","coordinates":[[[33.84365,0.93896],[33.74288,0.93612],[33.63291,1.08763],[33.90378,1.16789],[33.84365,0.93896]]]}},{"type":"Feature","properties":{"id":"ug-228","lat":1.39642,"lng":34.62294},"geometry":{"type":"Polygon","coordinates":[[[34.50283,1.59184],[34.68122,1.51399],[34.7422,1.41945],[34.54841,1.20039],[34.56658,1.37339],[34.43317,1.44562],[34.45281,1.48712],[34.37768,1.55722],[34.50283,1.59184]]]}},{"type":"Feature","properties":{"id":"ug-229","lat":0.78584,"lng":33.34274},"geometry":{"type":"Polygon","coordinates":[[[33.22126,0.67185],[33.29113,0.84372],[33.33877,1.07926],[33.40915,0.98516],[33.42043,0.72796],[33.51304,0.66718],[33.51705,0.54751],[33.22126,0.67185]]]}},{"type":"Feature","properties":{"id":"ug-230","lat":-0.57846,"lng":33.78032},"geometry":{"type":"Polygon","coordinates":[[[33.90421,-1.00257],[33.63178,-1.00257],[33.63178,-0.10346],[33.74069,-0.04067],[33.65435,0.07315],[33.6606,0.24746],[33.68469,0.32169],[33.829,0.3832],[33.89254,0.47392],[33.88148,0.31424],[33.96027,0.19868],[33.89047,0.09007],[33.95351,-0.15436],[33.90421,-1.00257]]]}},{"type":"Feature","properties":{"id":"ug-231","lat":1.5018,"lng":33.75809},"geometry":{"type":"Polygon","coordinates":[[[33.73379,1.6459],[33.89584,1.63845],[33.8401,1.59046],[33.78918,1.31356],[33.55933,1.3301],[33.66692,1.41314],[33.73379,1.6459]]]}},{"type":"Feature","properties":{"id":"ug-232","lat":1.4904,"lng":33.45657},"geometry":{"type":"Polygon","coordinates":[[[33.55933,1.3301],[33.20803,1.36887],[33.25481,1.69921],[33.3542,1.71675],[33.5793,1.56766],[33.71539,1.59166],[33.66692,1.41314],[33.55933,1.3301]]]}},{"type":"Feature","properties":{"id":"ug-301","lat":3.17867,"lng":31.75542},"geometry":{"type":"Polygon","coordinates":[[[32.02224,3.58642],[32.04159,3.32114],[31.9309,3.0362],[31.62505,2.95739],[31.55501,2.86913],[31.40225,2.95551],[31.69329,3.48635],[31.8152,3.53522],[31.90838,3.49946],[32.02224,3.58642]]]}},{"type":"Feature","properties":{"id":"ug-302","lat":1.90889,"lng":32.6296},"geometry":{"type":"Polygon","coordinates":[[[32.59473,1.65189],[32.10422,1.64781],[32.10422,1.71545],[32.34152,1.8679],[32.34679,2.07266],[32.4707,2.05062],[32.54973,2.18034],[32.67305,2.17865],[32.88805,2.07471],[32.86821,1.94988],[33.02472,1.81739],[32.98934,1.71545],[32.88826,1.80816],[32.77333,1.80154],[32.59473,1.65189]]]}},{"type":"Feature","properties":{"id":"ug-303","lat":2.96991,"lng":31.10731},"geometry":{"type":"Polygon","coordinates":[[[30.77078,2.67585],[30.85484,2.89321],[30.74508,3.0363],[30.76342,3.12344],[30.91577,3.11723],[31.05374,3.31298],[31.20547,3.33489],[31.39853,3.21934],[31.42416,3.13069],[31.51242,3.1186],[31.37672,2.90352],[31.39284,2.78552],[31.25197,2.63558],[31.0483,2.58889],[30.98884,2.61478],[30.96605,2.73726],[30.77078,2.67585]]]}},{"type":"Feature","properties":{"id":"ug-304","lat":2.91989,"lng":32.40168},"geometry":{"type":"Polygon","coordinates":[[[32.51515,3.1358],[32.47402,3.11583],[32.7324,2.73208],[32.66367,2.60382],[32.48601,2.60796],[32.44005,2.47843],[32.3624,2.46962],[32.16233,2.6439],[32.21612,2.78657],[32.1787,3.05321],[32.35744,3.28669],[32.51515,3.1358]]]}},{"type":"Feature","properties":{"id":"ug-305","lat":3.39916,"lng":33.27821},"geometry":{"type":"Polygon","coordinates":[[[33.26369,3.75367],[33.52772,3.77143],[33.7434,3.35313],[33.71136,3.27264],[33.38931,3.29949],[33.4167,3.26006],[33.35148,3.26236],[33.36005,3.19598],[33.21431,3.18802],[33.15541,3.01766],[32.989,3.17332],[32.93147,3.17964],[32.92813,3.10859],[32.78284,3.17993],[32.76953,3.39185],[32.904,3.40647],[32.93908,3.46786],[33.10864,3.46786],[33.15541,3.53509],[33.28112,3.42985],[33.26369,3.75367]]]}},{"type":"Feature","properties":{"id":"ug-306","lat":2.9934,"lng":34.05156},"geometry":{"type":"Polygon","coordinates":[[[33.55504,3.19572],[33.55002,3.26874],[33.68139,3.25143],[33.7434,3.35313],[33.90349,3.29652],[33.90618,3.24368],[34.0362,3.23936],[34.38625,3.08167],[34.22606,2.72454],[34.01132,2.75613],[33.95062,2.61689],[33.84737,2.66854],[33.84241,2.93288],[33.67053,3.05392],[33.6787,3.17844],[33.55504,3.19572]]]}},{"type":"Feature","properties":{"id":"ug-307","lat":2.28469,"lng":32.90799},"geometry":{"type":"Polygon","coordinates":[[[32.81105,2.47486],[32.77529,2.5786],[32.82221,2.63772],[33.01466,2.53323],[32.88938,2.35405],[32.96832,2.34236],[33.0794,2.2225],[33.06365,2.03368],[32.81281,2.10675],[32.82769,2.22702],[32.76076,2.34236],[32.81105,2.47486]]]}},{"type":"Feature","properties":{"id":"ug-308","lat":2.6229,"lng":34.73297},"geometry":{"type":"Polygon","coordinates":[[[34.54556,3.0975],[34.58469,2.92871],[34.73693,2.84437],[34.81868,2.59798],[34.8656,2.60486],[34.92358,2.47732],[34.85909,2.38678],[34.92234,2.21072],[34.84161,2.11301],[34.78402,2.40578],[34.64484,2.64095],[34.25169,2.83277],[34.38625,3.08167],[34.54556,3.0975]]]}},{"type":"Feature","properties":{"id":"ug-309","lat":3.47215,"lng":31.57947},"geometry":{"type":"Polygon","coordinates":[[[31.80111,3.80647],[31.93002,3.59836],[32.02224,3.58642],[31.90838,3.49946],[31.8152,3.53522],[31.69329,3.48635],[31.52452,3.14467],[31.46065,3.21927],[31.46374,3.45796],[31.61395,3.69701],[31.80111,3.80647]]]}},{"type":"Feature","properties":{"id":"ug-310","lat":2.44622,"lng":31.25847},"geometry":{"type":"Polygon","coordinates":[[[31.1126,2.28208],[30.96801,2.40544],[31.05476,2.487],[31.0483,2.58889],[31.25197,2.63558],[31.39284,2.78552],[31.44928,2.69389],[31.42354,2.61731],[31.52886,2.50093],[31.46695,2.35552],[31.33962,2.26281],[31.30902,2.15548],[31.19012,2.22152],[31.17756,2.30291],[31.1126,2.28208]]]}},{"type":"Feature","properties":{"id":"ug-311","lat":2.03382,"lng":34.63062},"geometry":{"type":"Polygon","coordinates":[[[34.63728,1.54086],[34.22967,1.55572],[34.21184,1.95464],[34.34727,1.97863],[34.44806,2.06982],[34.60164,2.07942],[34.63524,2.47777],[34.75463,2.48414],[34.86081,1.99782],[34.80802,1.99303],[34.75042,1.61387],[34.63728,1.54086]]]}},{"type":"Feature","properties":{"id":"ug-312","lat":2.83202,"lng":32.95046},"geometry":{"type":"Polygon","coordinates":[[[32.77529,2.5786],[32.66367,2.60382],[32.7324,2.73208],[32.47402,3.11583],[32.78284,3.17993],[32.92813,3.10859],[32.93147,3.17964],[32.989,3.17332],[33.12762,3.06477],[33.15541,2.97673],[33.11156,2.89487],[33.2285,2.88318],[33.24311,2.78086],[33.08233,2.73994],[33.12866,2.61183],[33.01466,2.53323],[32.83524,2.63806],[32.77529,2.5786]]]}},{"type":"Feature","properties":{"id":"ug-313","lat":3.39642,"lng":31.25811},"geometry":{"type":"Polygon","coordinates":[[[31.52374,3.65608],[31.61395,3.69701],[31.46374,3.45796],[31.46065,3.21927],[31.51242,3.1186],[31.42416,3.13069],[31.39853,3.21934],[31.20547,3.33489],[31.05374,3.31298],[31.05173,3.66437],[31.14149,3.78512],[31.29502,3.77419],[31.52374,3.65608]]]}},{"type":"Feature","properties":{"id":"ug-314","lat":1.55957,"lng":32.69971},"geometry":{"type":"Polygon","coordinates":[[[32.88826,1.80816],[32.98934,1.71545],[32.94334,1.64559],[32.96422,1.47355],[32.601,1.46272],[32.30287,1.64858],[32.59473,1.65189],[32.77333,1.80154],[32.88826,1.80816]]]}},{"type":"Feature","properties":{"id":"ug-315","lat":3.52804,"lng":34.04112},"geometry":{"type":"Polygon","coordinates":[[[33.52772,3.77143],[34.00602,4.20571],[34.1071,3.9595],[34.08477,3.87734],[34.20497,3.87454],[34.15247,3.77564],[34.24094,3.78362],[34.27887,3.70972],[34.33706,3.73458],[34.43969,3.66774],[34.38398,3.38835],[34.44485,3.15914],[34.54556,3.0975],[34.32848,3.08291],[34.15764,3.19707],[33.79507,3.31541],[33.52772,3.77143]]]}},{"type":"Feature","properties":{"id":"ug-316","lat":3.62585,"lng":31.01656},"geometry":{"type":"Polygon","coordinates":[[[30.83954,3.4902],[31.06868,3.73174],[31.05374,3.31298],[30.90493,3.38604],[30.89639,3.51997],[30.83954,3.4902]]]}},{"type":"Feature","properties":{"id":"ug-317","lat":2.85811,"lng":33.71937},"geometry":{"type":"Polygon","coordinates":[[[33.60377,2.78335],[33.55504,3.19572],[33.6787,3.17844],[33.67053,3.05392],[33.84241,2.93288],[33.84737,2.66854],[34.01997,2.51047],[33.65121,2.45644],[33.53421,2.59643],[33.60377,2.78335]]]}},{"type":"Feature","properties":{"id":"ug-318","lat":1.89746,"lng":33.07815},"geometry":{"type":"Polygon","coordinates":[[[32.94334,1.86717],[32.94675,1.92774],[32.86821,1.94988],[32.88805,2.07471],[33.03347,2.02523],[33.17341,2.1115],[33.29123,2.03946],[33.27697,1.94882],[33.12907,1.83322],[33.07936,1.70871],[32.98934,1.71545],[33.02472,1.81739],[32.94334,1.86717]]]}},{"type":"Feature","properties":{"id":"ug-319","lat":3.14803,"lng":32.11643},"geometry":{"type":"Polygon","coordinates":[[[32.05423,3.55957],[32.35744,3.28669],[32.1787,3.05321],[32.20108,2.72945],[31.98488,2.80034],[31.74741,2.79679],[31.70488,2.733],[31.58792,2.733],[31.42354,2.61731],[31.43718,2.75247],[31.36763,2.8628],[31.40225,2.95551],[31.55501,2.86913],[31.62505,2.95739],[31.9309,3.0362],[32.02454,3.24285],[32.05423,3.55957]]]}},{"type":"Feature","properties":{"id":"ug-320","lat":3.21821,"lng":30.90072},"geometry":{"type":"Polygon","coordinates":[[[30.76342,3.12344],[30.90493,3.38604],[31.05374,3.31298],[30.91577,3.11723],[30.76342,3.12344]]]}},{"type":"Feature","properties":{"id":"ug-321","lat":2.31025,"lng":32.42335},"geometry":{"type":"Polygon","coordinates":[[[32.82294,2.51597],[32.58171,2.36365],[32.603,2.24578],[32.4707,2.05062],[32.34679,2.07266],[32.26008,2.25684],[32.24199,2.4605],[32.44005,2.47843],[32.48601,2.60796],[32.5721,2.62196],[32.77529,2.5786],[32.82294,2.51597]]]}},{"type":"Feature","properties":{"id":"ug-322","lat":3.05899,"lng":33.36663},"geometry":{"type":"Polygon","coordinates":[[[33.55002,3.26874],[33.60377,2.78335],[33.53421,2.59643],[33.12866,2.61183],[33.05602,2.7107],[33.24311,2.78086],[33.2285,2.88318],[33.10571,2.92996],[33.21431,3.18802],[33.36005,3.19598],[33.35148,3.26236],[33.4167,3.26006],[33.38931,3.29949],[33.55002,3.26874]]]}},{"type":"Feature","properties":{"id":"ug-323","lat":2.24678,"lng":33.2627},"geometry":{"type":"Polygon","coordinates":[[[33.37122,2.01931],[33.17341,2.1115],[33.08587,2.06628],[33.05894,2.25758],[32.89523,2.37744],[32.96539,2.45344],[33.12618,2.45929],[33.25188,2.37159],[33.5461,2.35593],[33.54848,2.28984],[33.44398,2.23599],[33.47075,2.12835],[33.36978,2.09186],[33.37122,2.01931]]]}},{"type":"Feature","properties":{"id":"ug-324","lat":1.79896,"lng":34.89447},"geometry":{"type":"Polygon","coordinates":[[[34.92234,2.21072],[35.00647,1.91686],[34.97867,1.67595],[34.78075,1.37179],[34.63728,1.54086],[34.78882,1.68106],[34.80802,1.99303],[34.86081,1.99782],[34.84161,2.11301],[34.92234,2.21072]]]}},{"type":"Feature","properties":{"id":"ug-325","lat":-0.36249,"lng":30.31325},"geometry":{"type":"Polygon","coordinates":[[[30.32337,-0.21165],[30.42587,-0.29027],[30.5036,-0.2559],[30.47001,-0.44597],[30.32619,-0.49201],[30.13781,-0.41744],[30.14566,-0.30755],[30.32337,-0.21165]]]}},{"type":"Feature","properties":{"id":"ug-326","lat":2.29407,"lng":32.69153},"geometry":{"type":"Polygon","coordinates":[[[32.69044,2.46342],[32.81105,2.47486],[32.76076,2.34236],[32.82769,2.22702],[32.81281,2.10675],[32.54973,2.18034],[32.603,2.24578],[32.58171,2.36365],[32.69044,2.46342]]]}},{"type":"Feature","properties":{"id":"ug-327","lat":3.49755,"lng":32.66547},"geometry":{"type":"Polygon","coordinates":[[[32.99724,3.88553],[33.16447,3.76305],[33.26369,3.75367],[33.28112,3.42985],[33.15541,3.53509],[33.10864,3.46786],[32.93908,3.46786],[32.904,3.40647],[32.76953,3.39185],[32.78284,3.17993],[32.51515,3.1358],[32.17593,3.52723],[32.18778,3.61916],[32.3718,3.73107],[32.75643,3.76902],[32.99724,3.88553]]]}},{"type":"Feature","properties":{"id":"ug-328","lat":2.38662,"lng":34.19703},"geometry":{"type":"Polygon","coordinates":[[[34.22606,2.72454],[34.25169,2.83277],[34.43846,2.77533],[34.64484,2.64095],[34.64484,2.57855],[34.75463,2.48414],[34.63524,2.47777],[34.60164,2.07942],[34.44806,2.06982],[34.25129,1.95463],[34.21184,1.95464],[34.16528,2.14238],[33.72366,2.41288],[33.63777,2.36037],[33.65121,2.45644],[34.01997,2.51047],[33.95062,2.61689],[34.01132,2.75613],[34.22606,2.72454]]]}},{"type":"Feature","properties":{"id":"ug-329","lat":2.54118,"lng":31.89639},"geometry":{"type":"Polygon","coordinates":[[[32.3624,2.46962],[32.24199,2.4605],[32.26008,2.25684],[32.17988,2.23061],[31.87891,2.36717],[31.34567,2.17956],[31.33962,2.26281],[31.46695,2.35552],[31.52751,2.48969],[31.42354,2.61731],[31.58792,2.733],[31.70488,2.733],[31.74741,2.79679],[31.98488,2.80034],[32.20108,2.72945],[32.17636,2.61349],[32.26752,2.59266],[32.3624,2.46962]]]}},{"type":"Feature","properties":{"id":"ug-330","lat":2.52786,"lng":33.31027},"geometry":{"type":"Polygon","coordinates":[[[32.96539,2.45344],[33.12866,2.61183],[33.4321,2.62935],[33.53421,2.59643],[33.65679,2.40637],[33.61007,2.33211],[33.3922,2.33943],[33.20511,2.38328],[33.12618,2.45929],[32.96539,2.45344]]]}},{"type":"Feature","properties":{"id":"ug-331","lat":2.55891,"lng":30.89112},"geometry":{"type":"Polygon","coordinates":[[[30.87179,2.33205],[30.80492,2.43437],[30.71056,2.44512],[30.73526,2.59307],[30.77078,2.67585],[30.96605,2.73726],[31.06927,2.52474],[30.87179,2.33205]]]}},{"type":"Feature","properties":{"id":"ug-401","lat":0.6464,"lng":30.02829},"geometry":{"type":"Polygon","coordinates":[[[29.92683,0.77489],[30.18348,0.9546],[30.25203,0.85297],[30.06786,0.5179],[29.94673,0.40576],[29.90391,0.43823],[29.92683,0.77489]]]}},{"type":"Feature","properties":{"id":"ug-402","lat":-0.44688,"lng":30.08058},"geometry":{"type":"Polygon","coordinates":[[[29.9426,-0.50503],[29.9141,-0.40174],[30.05539,-0.35857],[30.32619,-0.49201],[30.31442,-0.6176],[30.12604,-0.62152],[30.08286,-0.53911],[29.9426,-0.50503]]]}},{"type":"Feature","properties":{"id":"ug-403","lat":1.59916,"lng":31.11474},"geometry":{"type":"Polygon","coordinates":[[[30.5537,1.33563],[31.07554,1.84065],[31.36058,1.79019],[31.44638,1.40813],[31.51377,1.36131],[31.29052,1.21352],[30.59307,1.04255],[30.54814,1.0742],[30.5537,1.33563]]]}},{"type":"Feature","properties":{"id":"ug-404","lat":-1.32356,"lng":29.96296},"geometry":{"type":"Polygon","coordinates":[[[30.29095,-1.15262],[29.93846,-1.47293],[29.88074,-1.45361],[29.72742,-1.10784],[29.77186,-1.025],[30.06838,-1.0867],[30.17741,-1.19352],[30.29095,-1.15262]]]}},{"type":"Feature","properties":{"id":"ug-405","lat":0.60418,"lng":30.27512},"geometry":{"type":"Polygon","coordinates":[[[29.83263,0.33698],[29.90391,0.43823],[29.9981,0.43357],[30.3105,0.85809],[30.35759,0.81884],[30.52716,0.98594],[30.54535,0.9295],[30.39694,0.64027],[30.45626,0.56808],[30.37627,0.48535],[30.3618,0.22764],[30.05932,0.3675],[29.83263,0.33698]]]}},{"type":"Feature","properties":{"id":"ug-406","lat":0.01016,"lng":29.96154},"geometry":{"type":"Polygon","coordinates":[[[29.78721,0.15849],[29.83263,0.33698],[30.05932,0.3675],[30.26871,0.26349],[30.20656,-0.07927],[30.00437,-0.17411],[29.68126,-0.1379],[29.71181,0.09958],[29.78721,0.15849]]]}},{"type":"Feature","properties":{"id":"ug-407","lat":0.88093,"lng":31.05084},"geometry":{"type":"Polygon","coordinates":[[[31.42726,0.9262],[31.36432,0.69882],[31.27482,0.70771],[31.21435,0.62239],[30.93726,0.69784],[30.81893,0.83566],[30.54535,0.9295],[30.52716,0.98594],[30.54814,1.0742],[30.67549,1.05432],[31.24763,1.22013],[31.40742,1.15554],[31.52131,1.02738],[31.42726,0.9262]]]}},{"type":"Feature","properties":{"id":"ug-408","lat":-1.22134,"lng":29.67228},"geometry":{"type":"Polygon","coordinates":[[[29.82502,-1.32388],[29.57792,-1.38839],[29.55152,-0.9903],[29.7546,-1.07564],[29.73041,-1.11879],[29.82502,-1.32388]]]}},{"type":"Feature","properties":{"id":"ug-409","lat":1.83944,"lng":31.74296},"geometry":{"type":"Polygon","coordinates":[[[32.10422,1.64781],[31.76088,1.32359],[31.44638,1.40813],[31.36143,1.73819],[31.54922,1.75785],[31.6452,1.92103],[31.53962,2.06502],[31.54591,2.27779],[31.75541,2.29828],[31.75079,2.06022],[31.87558,1.96423],[31.90437,1.69066],[32.10422,1.64781]]]}},{"type":"Feature","properties":{"id":"ug-410","lat":-0.38447,"lng":30.79168},"geometry":{"type":"Polygon","coordinates":[[[30.5036,-0.2559],[30.6701,-0.16629],[30.58523,-0.13879],[30.73437,0.12025],[30.6441,0.16342],[31.00072,0.20231],[31.01581,-0.0309],[31.07762,-0.04444],[31.06553,-0.27626],[31.1479,-0.49268],[31.07493,-0.65272],[30.86533,-0.6951],[30.76518,-0.60503],[30.64746,-0.61206],[30.64017,-0.81384],[30.26258,-0.80062],[30.42515,-0.6303],[30.5036,-0.2559]]]}},{"type":"Feature","properties":{"id":"ug-411","lat":-0.92767,"lng":30.28906},"geometry":{"type":"Polygon","coordinates":[[[30.46083,-1.06343],[30.33745,-1.06624],[30.31131,-1.1421],[30.17741,-1.19352],[30.08874,-1.14019],[30.04305,-1.0434],[30.05825,-0.76001],[30.15695,-0.71634],[30.2971,-0.81194],[30.59,-0.80569],[30.46083,-1.06343]]]}},{"type":"Feature","properties":{"id":"ug-412","lat":-0.68627,"lng":29.89924},"geometry":{"type":"Polygon","coordinates":[[[29.62938,-0.4424],[29.64386,-0.35799],[29.84596,-0.37021],[29.94301,-0.44312],[29.89743,-0.58415],[30.05825,-0.76001],[30.06838,-1.0867],[29.90012,-1.04412],[29.83025,-0.92397],[29.83953,-0.75889],[29.77578,-0.61366],[29.70881,-0.58291],[29.71005,-0.43233],[29.62938,-0.4424]]]}},{"type":"Feature","properties":{"id":"ug-413","lat":0.14307,"lng":30.45448},"geometry":{"type":"Polygon","coordinates":[[[30.42815,0.54121],[30.52375,0.43083],[30.55039,0.29746],[30.78063,0.41945],[30.90777,0.41257],[30.9198,0.28371],[30.85279,0.18578],[30.47486,0.10036],[30.40069,-0.02834],[30.46411,-0.15591],[30.41647,-0.17275],[30.19798,-0.09767],[30.26871,0.26349],[30.3618,0.22764],[30.37627,0.48535],[30.42815,0.54121]]]}},{"type":"Feature","properties":{"id":"ug-414","lat":-0.68627,"lng":29.71314},"geometry":{"type":"Polygon","coordinates":[[[29.55152,-0.9903],[29.61078,-0.86398],[29.62938,-0.4424],[29.71005,-0.43233],[29.70881,-0.58291],[29.77578,-0.61366],[29.83953,-0.75889],[29.83025,-0.92397],[29.90012,-1.04412],[29.77186,-1.025],[29.7546,-1.07564],[29.55152,-0.9903]]]}},{"type":"Feature","properties":{"id":"ug-415","lat":0.58685,"lng":30.67592},"geometry":{"type":"Polygon","coordinates":[[[30.42815,0.54121],[30.39694,0.64027],[30.54535,0.9295],[30.81893,0.83566],[30.95244,0.6325],[30.88371,0.41429],[30.78063,0.41945],[30.55039,0.29746],[30.52375,0.43083],[30.42815,0.54121]]]}},{"type":"Feature","properties":{"id":"ug-416","lat":-0.0502,"lng":30.51557},"geometry":{"type":"Polygon","coordinates":[[[30.6701,-0.16629],[30.42587,-0.29027],[30.24966,-0.11989],[30.46411,-0.15591],[30.40069,-0.02834],[30.47486,0.10036],[30.6441,0.16342],[30.73437,0.12025],[30.60485,-0.07207],[30.58523,-0.13879],[30.6701,-0.16629]]]}},{"type":"Feature","properties":{"id":"ug-417","lat":-0.89983,"lng":30.88865},"geometry":{"type":"Polygon","coordinates":[[[30.47179,-1.06684],[30.59,-0.80569],[30.64017,-0.81384],[30.64746,-0.61206],[30.7287,-0.60456],[30.86533,-0.6951],[31.12227,-0.6811],[31.28049,-1.00257],[30.77712,-0.98583],[30.63863,-1.07337],[30.47179,-1.06684]]]}},{"type":"Feature","properties":{"id":"ug-419","lat":1.99303,"lng":31.38412},"geometry":{"type":"Polygon","coordinates":[[[31.07554,1.84065],[31.2801,2.15144],[31.54591,2.27779],[31.53962,2.06502],[31.6452,1.92103],[31.54922,1.75785],[31.36143,1.73819],[31.32697,1.821],[31.07554,1.84065]]]}},{"type":"Feature","properties":{"id":"ug-420","lat":2.01222,"lng":32.07921},"geometry":{"type":"Polygon","coordinates":[[[32.34679,2.07266],[32.34152,1.8679],[32.16282,1.77821],[32.10153,1.66563],[31.99076,1.63787],[31.90437,1.69066],[31.87558,1.96423],[31.75079,2.06022],[31.75541,2.29828],[31.87891,2.36717],[32.15673,2.23154],[32.25904,2.2573],[32.34679,2.07266]]]}},{"type":"Feature","properties":{"id":"ug-421","lat":0.40362,"lng":31.01395},"geometry":{"type":"Polygon","coordinates":[[[31.00878,0.20671],[30.85279,0.18578],[30.9198,0.28371],[30.88543,0.4624],[30.95244,0.6325],[30.89059,0.67888],[30.93726,0.69784],[31.19782,0.63304],[31.25352,0.56663],[31.13777,0.48509],[31.1264,0.34484],[31.00878,0.20671]]]}},{"type":"Feature","properties":{"id":"ug-422","lat":-0.65048,"lng":30.04682},"geometry":{"type":"Polygon","coordinates":[[[30.18734,-0.72481],[30.05825,-0.76001],[29.99882,-0.7168],[29.89743,-0.58415],[29.9426,-0.50503],[30.08286,-0.53911],[30.18734,-0.72481]]]}},{"type":"Feature","properties":{"id":"ug-423","lat":1.06097,"lng":30.3744},"geometry":{"type":"Polygon","coordinates":[[[30.23886,1.136],[30.5537,1.33563],[30.52716,0.98594],[30.17039,0.71469],[30.25203,0.85297],[30.18348,0.9546],[30.23886,1.136]]]}},{"type":"Feature","properties":{"id":"ug-424","lat":-0.2596,"lng":29.94755},"geometry":{"type":"Polygon","coordinates":[[[29.64386,-0.35799],[29.68126,-0.1379],[30.00437,-0.17411],[30.18413,-0.07555],[30.32337,-0.21165],[30.14566,-0.30755],[30.13781,-0.41744],[30.02399,-0.35072],[29.9141,-0.40174],[29.64386,-0.35799]]]}},{"type":"Feature","properties":{"id":"ug-425","lat":-0.53714,"lng":30.38701},"geometry":{"type":"Polygon","coordinates":[[[30.47001,-0.44597],[30.42515,-0.6303],[30.27271,-0.75494],[30.20914,-0.74962],[30.16528,-0.6333],[30.31442,-0.6176],[30.33797,-0.45669],[30.47001,-0.44597]]]}}]}
