{"type":"FeatureCollection","features":[{"type":"Feature","properties":{"id":"uy-ar","lat":-30.65438,"lng":-57.01582},"geometry":{"type":"Polygon","coordinates":[[[-57.64247,-30.19309],[-57.53599,-30.27443],[-57.24505,-30.29334],[-57.07711,-30.10607],[-56.83128,-30.10204],[-56.01136,-30.79822],[-56.01702,-31.0743],[-56.1767,-30.93966],[-56.41552,-30.88706],[-56.69863,-31.04994],[-57.07137,-31.07795],[-57.715,-30.75797],[-57.7994,-30.79146],[-57.88977,-30.5508],[-57.65273,-30.3291],[-57.64247,-30.19309]]]}},{"type":"Feature","properties":{"id":"uy-ca","lat":-34.55848,"lng":-55.97282},"geometry":{"type":"Polygon","coordinates":[[[-55.37376,-34.80287],[-55.79205,-34.77413],[-56.03839,-34.8858],[-56.03887,-34.77478],[-56.13796,-34.72486],[-56.21853,-34.76418],[-56.36415,-34.73411],[-56.45952,-34.66445],[-56.47076,-34.58988],[-56.39802,-34.52709],[-56.36361,-34.36178],[-56.14584,-34.3685],[-55.99864,-34.24437],[-55.88235,-34.27248],[-55.61911,-34.20773],[-55.54423,-34.49986],[-55.37376,-34.80287]]]}},{"type":"Feature","properties":{"id":"uy-cl","lat":-32.38001,"lng":-54.26177},"geometry":{"type":"Polygon","coordinates":[[[-54.46722,-31.66424],[-54.14628,-31.90989],[-54.06881,-31.87991],[-53.75731,-32.05504],[-53.5613,-32.44954],[-53.18613,-32.64674],[-53.11404,-32.74058],[-53.18284,-32.7999],[-53.84402,-32.76513],[-53.95704,-32.70539],[-54.04535,-32.79893],[-54.32611,-32.71552],[-54.87845,-32.86347],[-55.01865,-32.94972],[-55.00997,-33.02496],[-55.15947,-33.01767],[-55.28603,-32.93618],[-55.34481,-32.7766],[-55.30677,-32.74834],[-55.32843,-32.49388],[-55.03997,-32.46866],[-54.83962,-32.31048],[-54.7557,-32.10192],[-54.5894,-32.10962],[-54.46722,-31.66424]]]}},{"type":"Feature","properties":{"id":"uy-co","lat":-34.05531,"lng":-57.64439},"geometry":{"type":"Polygon","coordinates":[[[-57.16748,-34.44825],[-57.595,-34.42547],[-57.85535,-34.47097],[-58.07697,-34.19199],[-58.20873,-34.14764],[-58.41562,-33.87562],[-58.16962,-33.77799],[-57.65418,-33.93814],[-57.39318,-33.89607],[-57.07773,-33.96299],[-56.94194,-34.14763],[-57.09555,-34.23233],[-57.09927,-34.39356],[-57.16748,-34.44825]]]}},{"type":"Feature","properties":{"id":"uy-du","lat":-32.97297,"lng":-56.04147},"geometry":{"type":"Polygon","coordinates":[[[-55.47134,-32.42732],[-55.30807,-32.52654],[-55.34481,-32.7766],[-55.30484,-32.91778],[-55.15947,-33.01767],[-55.00997,-33.02496],[-55.24729,-33.20366],[-55.62236,-33.36112],[-56.02172,-33.43367],[-56.09564,-33.49263],[-56.41125,-33.40147],[-56.42363,-33.48312],[-56.53298,-33.49553],[-56.67044,-33.30474],[-56.82666,-33.26603],[-56.88332,-33.1927],[-57.03912,-33.18206],[-57.17904,-33.06522],[-57.08307,-33.00641],[-56.96913,-33.02548],[-56.92541,-32.95861],[-56.86823,-32.98734],[-56.79573,-32.8812],[-56.68586,-32.83805],[-56.22486,-32.82301],[-56.16946,-32.72596],[-56.01381,-32.69997],[-55.90333,-32.60359],[-55.83041,-32.63377],[-55.76804,-32.52049],[-55.521,-32.50313],[-55.47134,-32.42732]]]}},{"type":"Feature","properties":{"id":"uy-fd","lat":-33.81442,"lng":-55.87951},"geometry":{"type":"Polygon","coordinates":[[[-56.08802,-33.49201],[-55.11107,-33.11824],[-55.0926,-33.26221],[-55.14838,-33.34375],[-55.10989,-33.43997],[-55.32155,-33.61004],[-55.29174,-33.71944],[-55.33863,-33.86589],[-55.56203,-34.14856],[-55.85974,-34.27],[-55.99864,-34.24437],[-56.14584,-34.3685],[-56.35066,-34.35733],[-56.40133,-34.43299],[-56.4712,-34.35992],[-56.42453,-34.307],[-56.4627,-33.90243],[-56.42177,-33.76295],[-56.53298,-33.49553],[-56.42363,-33.48312],[-56.41125,-33.40147],[-56.08802,-33.49201]]]}},{"type":"Feature","properties":{"id":"uy-fs","lat":-33.50888,"lng":-56.88665},"geometry":{"type":"Polygon","coordinates":[[[-57.12713,-33.12309],[-56.87174,-33.19673],[-56.57422,-33.40768],[-56.42402,-33.75401],[-56.44213,-33.88672],[-56.60292,-33.84972],[-56.86526,-33.98459],[-57.07773,-33.96299],[-57.1864,-33.75225],[-57.16046,-33.61009],[-57.34799,-33.38008],[-57.12713,-33.12309]]]}},{"type":"Feature","properties":{"id":"uy-la","lat":-33.95643,"lng":-54.95788},"geometry":{"type":"Polygon","coordinates":[[[-55.61911,-34.20773],[-55.34184,-33.87302],[-55.29174,-33.71944],[-55.32155,-33.61004],[-55.12983,-33.46896],[-55.07575,-33.3575],[-54.82574,-33.33698],[-54.49261,-33.44917],[-54.29699,-33.34882],[-54.12571,-33.46535],[-54.36918,-33.6364],[-54.42326,-33.85829],[-54.57416,-34.03983],[-54.70513,-34.08562],[-54.89235,-34.41919],[-55.3122,-34.61029],[-55.47328,-34.62192],[-55.61911,-34.20773]]]}},{"type":"Feature","properties":{"id":"uy-ma","lat":-34.50159,"lng":-54.79612},"geometry":{"type":"Polygon","coordinates":[[[-54.53079,-34.8069],[-54.95861,-34.9734],[-55.06037,-34.88779],[-55.26024,-34.89764],[-55.47328,-34.62192],[-55.3122,-34.61029],[-54.8444,-34.39289],[-54.70513,-34.08562],[-54.57416,-34.03983],[-54.48215,-33.92604],[-54.53079,-34.8069]]]}},{"type":"Feature","properties":{"id":"uy-mo","lat":-34.85701,"lng":-56.19551},"geometry":{"type":"Polygon","coordinates":[[[-56.03839,-34.8858],[-56.15609,-34.94119],[-56.42077,-34.82822],[-56.33105,-34.71788],[-56.21853,-34.76418],[-56.13796,-34.72486],[-56.03588,-34.77958],[-56.03839,-34.8858]]]}},{"type":"Feature","properties":{"id":"uy-pa","lat":-32.08541,"lng":-57.23666},"geometry":{"type":"Polygon","coordinates":[[[-58.20012,-32.4472],[-58.09653,-32.28097],[-58.18655,-32.15292],[-58.14531,-32.01789],[-58.20262,-31.89314],[-58.04888,-31.79713],[-57.97958,-31.59879],[-58.03898,-31.50864],[-57.94362,-31.47859],[-57.16555,-31.79708],[-56.82932,-31.79336],[-56.49205,-31.87108],[-56.3216,-31.75129],[-56.24486,-31.9071],[-56.35875,-32.23188],[-56.48918,-32.33461],[-56.55936,-32.49249],[-56.67046,-32.42577],[-57.03966,-32.3634],[-57.26839,-32.44288],[-57.47026,-32.4451],[-57.80866,-32.61429],[-57.9956,-32.58209],[-58.20012,-32.4472]]]}},{"type":"Feature","properties":{"id":"uy-rn","lat":-32.91117,"lng":-57.43999},"geometry":{"type":"Polygon","coordinates":[[[-58.39152,-33.42445],[-58.35139,-33.12168],[-58.13777,-33.09515],[-58.05582,-32.95184],[-58.19146,-32.49189],[-57.79959,-32.61351],[-57.47026,-32.4451],[-57.26839,-32.44288],[-57.03966,-32.3634],[-56.67046,-32.42577],[-56.55936,-32.49249],[-56.66679,-32.84327],[-56.78224,-32.8705],[-56.86823,-32.98734],[-56.92541,-32.95861],[-56.96913,-33.02548],[-57.17351,-33.04977],[-57.12713,-33.12309],[-57.28185,-33.14692],[-57.3049,-33.0955],[-57.42879,-33.09519],[-57.5254,-33.02139],[-57.65046,-33.08501],[-57.85024,-33.03995],[-58.05984,-33.1372],[-58.03922,-33.2466],[-58.11725,-33.23389],[-58.13601,-33.30768],[-58.2236,-33.30804],[-58.39152,-33.42445]]]}},{"type":"Feature","properties":{"id":"uy-ro","lat":-33.98708,"lng":-53.9996},"geometry":{"type":"Polygon","coordinates":[[[-53.52066,-33.12498],[-53.53965,-33.64926],[-53.37909,-33.74068],[-53.47305,-33.83457],[-53.52994,-34.04811],[-53.71101,-34.19883],[-53.76488,-34.39039],[-53.97224,-34.48724],[-54.1459,-34.66758],[-54.25967,-34.68597],[-54.2386,-34.58978],[-54.3286,-34.56178],[-54.28014,-34.58229],[-54.34463,-34.63063],[-54.28807,-34.695],[-54.53079,-34.8069],[-54.48215,-33.92604],[-54.37856,-33.65195],[-53.76855,-33.18934],[-53.52066,-33.12498]]]}},{"type":"Feature","properties":{"id":"uy-rv","lat":-31.48523,"lng":-55.19359},"geometry":{"type":"Polygon","coordinates":[[[-55.81652,-31.04255],[-55.59187,-30.84835],[-55.36858,-31.03738],[-55.24435,-31.2446],[-55.08725,-31.32677],[-55.02938,-31.26879],[-54.8499,-31.42506],[-54.60454,-31.45978],[-54.46722,-31.66424],[-54.58852,-31.98539],[-54.5401,-32.01949],[-54.57498,-32.09479],[-54.65451,-32.12284],[-54.95318,-31.85139],[-55.62515,-31.79568],[-55.66556,-31.58381],[-55.79103,-31.51069],[-55.8348,-31.38268],[-56.06414,-31.25938],[-56.15801,-31.30465],[-56.18822,-31.26879],[-56.05572,-31.19587],[-56.00987,-31.08195],[-55.81652,-31.04255]]]}},{"type":"Feature","properties":{"id":"uy-sa","lat":-31.31922,"lng":-57.07676},"geometry":{"type":"Polygon","coordinates":[[[-57.81964,-30.9116],[-57.75326,-30.75223],[-57.07137,-31.07795],[-56.69863,-31.04994],[-56.41552,-30.88706],[-56.1767,-30.93966],[-56.00987,-31.08195],[-56.05572,-31.19587],[-56.18277,-31.25003],[-56.18341,-31.38842],[-56.32149,-31.51932],[-56.3216,-31.75129],[-56.50293,-31.87134],[-56.82932,-31.79336],[-57.17718,-31.79444],[-57.7497,-31.58076],[-57.86207,-31.48061],[-58.05079,-31.50081],[-57.85525,-31.05898],[-57.91173,-30.94736],[-57.81964,-30.9116]]]}},{"type":"Feature","properties":{"id":"uy-sj","lat":-34.29612,"lng":-56.77725},"geometry":{"type":"Polygon","coordinates":[[[-56.36459,-34.79353],[-56.87389,-34.67018],[-57.16748,-34.44825],[-57.09927,-34.39356],[-57.09555,-34.23233],[-56.94194,-34.14763],[-57.07773,-33.96299],[-56.86526,-33.98459],[-56.60292,-33.84972],[-56.4627,-33.90243],[-56.41456,-34.09673],[-56.4712,-34.35992],[-56.39578,-34.52084],[-56.47192,-34.5967],[-56.36459,-34.79353]]]}},{"type":"Feature","properties":{"id":"uy-so","lat":-33.48795,"lng":-57.83749},"geometry":{"type":"Polygon","coordinates":[[[-58.41562,-33.87562],[-58.43834,-33.55145],[-58.39152,-33.42445],[-58.2236,-33.30804],[-58.13601,-33.30768],[-58.11725,-33.23389],[-58.03922,-33.2466],[-58.0495,-33.12991],[-57.96506,-33.131],[-57.85024,-33.03995],[-57.65046,-33.08501],[-57.5254,-33.02139],[-57.42879,-33.09519],[-57.3049,-33.0955],[-57.28185,-33.14692],[-57.12713,-33.12309],[-57.34799,-33.38008],[-57.16046,-33.61009],[-57.1864,-33.75225],[-57.07773,-33.96299],[-57.39318,-33.89607],[-57.65418,-33.93814],[-58.16962,-33.77799],[-58.41562,-33.87562]]]}},{"type":"Feature","properties":{"id":"uy-ta","lat":-32.00807,"lng":-55.5236},"geometry":{"type":"Polygon","coordinates":[[[-56.66679,-32.84327],[-56.48918,-32.33461],[-56.35875,-32.23188],[-56.24558,-31.91423],[-56.35113,-31.58944],[-56.10461,-31.25732],[-55.8348,-31.38268],[-55.79103,-31.51069],[-55.66556,-31.58381],[-55.61748,-31.80183],[-54.90974,-31.86513],[-54.65451,-32.12284],[-54.7557,-32.10192],[-54.83962,-32.31048],[-55.03997,-32.46866],[-55.35943,-32.49869],[-55.47134,-32.42732],[-55.521,-32.50313],[-55.76804,-32.52049],[-55.83041,-32.63377],[-55.90333,-32.60359],[-56.01381,-32.69997],[-56.16946,-32.72596],[-56.22486,-32.82301],[-56.36157,-32.81479],[-56.40671,-32.86109],[-56.66679,-32.84327]]]}},{"type":"Feature","properties":{"id":"uy-tt","lat":-33.0716,"lng":-54.26286},"geometry":{"type":"Polygon","coordinates":[[[-53.18284,-32.7999],[-53.52066,-33.12498],[-53.76855,-33.18934],[-54.12571,-33.46535],[-54.29699,-33.34882],[-54.49261,-33.44917],[-54.82574,-33.33698],[-55.14691,-33.35398],[-55.09108,-33.25244],[-55.11107,-33.11824],[-55.00997,-33.02496],[-55.02385,-32.95685],[-54.81965,-32.83815],[-54.59671,-32.82104],[-54.31611,-32.71475],[-54.03145,-32.7981],[-53.94794,-32.70508],[-53.84402,-32.76513],[-53.18284,-32.7999]]]}}]}
