{"type":"FeatureCollection","features":[{"type":"Feature","properties":{"id":"uz-an","lat":40.7348,"lng":72.28179},"geometry":{"type":"Polygon","coordinates":[[[72.33236,41.07284],[72.65823,40.86717],[72.86866,40.86412],[72.87031,40.81818],[73.00343,40.87017],[73.14864,40.81369],[72.78391,40.66966],[72.74836,40.5751],[72.66423,40.57778],[72.62547,40.5105],[72.35189,40.60197],[72.4262,40.45934],[72.3705,40.38565],[72.21164,40.4256],[72.26363,40.45252],[72.20761,40.56998],[71.6476,40.69535],[71.58181,40.77426],[71.64424,40.88996],[72.15377,40.89955],[72.19549,41.00636],[72.33236,41.07284]]]}},{"type":"Feature","properties":{"id":"uz-bu","lat":40.20416,"lng":63.64059},"geometry":{"type":"Polygon","coordinates":[[[64.18014,38.94512],[63.70927,39.19089],[63.47755,39.40292],[62.45281,40.00924],[62.35328,40.4304],[62.18706,40.50552],[62.44728,40.78831],[62.23949,40.99897],[62.46464,41.09468],[62.18037,41.39231],[62.61905,41.49178],[62.97856,41.0746],[63.37642,40.94468],[63.67733,40.80431],[63.73506,40.72625],[63.85422,40.75795],[64.04289,40.9698],[64.16469,40.79748],[64.43548,40.77302],[64.48839,40.87823],[64.78119,40.95197],[64.84651,40.77041],[64.91576,40.73348],[65.36545,40.70966],[65.34028,40.5275],[65.24752,40.52952],[65.13404,40.33614],[64.84961,40.35113],[64.84419,40.23713],[64.9047,40.17119],[64.59004,39.9078],[64.76305,39.7477],[64.98325,39.69988],[65.13781,39.46426],[64.84543,39.2666],[64.8847,39.16379],[64.52131,39.05607],[64.36757,38.94037],[64.31357,38.98248],[64.18014,38.94512]]]}},{"type":"Feature","properties":{"id":"uz-fa","lat":40.45787,"lng":71.29101},"geometry":{"type":"MultiPolygon","coordinates":[[[[71.76061,39.98371],[71.7573,39.9031],[71.66553,39.9402],[71.76061,39.98371]]],[[[71.00856,40.15776],[71.244,40.04676],[71.1747,39.99399],[71.20845,39.88878],[71.00929,39.88573],[71.04582,39.99203],[70.95405,40.0958],[71.00856,40.15776]]],[[[72.0254,40.25088],[71.83647,40.24917],[71.69333,40.14112],[71.62832,40.25889],[71.59297,40.19843],[71.52125,40.20375],[71.25382,40.32441],[71.20101,40.26385],[70.62213,40.19956],[70.52405,40.34374],[70.37139,40.36493],[70.35382,40.45614],[70.93146,40.77475],[71.12696,40.76229],[71.06334,40.69633],[71.27098,40.6169],[71.58181,40.77426],[71.6476,40.69535],[72.22172,40.56042],[72.22833,40.45961],[71.95667,40.31568],[72.0254,40.25088]]]]}},{"type":"Feature","properties":{"id":"uz-ji","lat":40.37556,"lng":67.52787},"geometry":{"type":"Polygon","coordinates":[[[68.64273,40.18369],[68.58112,40.16422],[68.69655,40.11174],[68.63414,40.0357],[68.60034,39.64285],[68.51745,39.54844],[68.33756,39.52792],[67.7176,39.62337],[67.43648,39.48571],[67.30507,39.57903],[67.29701,39.66487],[67.37163,39.6936],[67.3816,39.78041],[67.49984,39.81638],[67.45995,39.93818],[67.1009,39.98955],[67.02018,40.07252],[66.94788,40.06489],[66.97594,40.17504],[66.90659,40.25891],[66.89357,40.46882],[66.62015,40.4951],[66.80123,40.77521],[66.76526,40.88725],[66.6355,40.93466],[66.61426,41.08416],[66.75789,41.15314],[67.83491,41.15687],[67.93743,41.20038],[68.03438,41.04272],[68.13132,41.02964],[68.08058,40.87296],[67.99092,40.8111],[68.2665,40.6627],[68.17019,40.59222],[68.1646,40.52608],[68.21675,40.51616],[68.10006,40.24437],[68.36444,40.22566],[68.66845,40.2823],[68.64273,40.18369]]]}},{"type":"Feature","properties":{"id":"uz-ng","lat":41.06194,"lng":71.31624},"geometry":{"type":"Polygon","coordinates":[[[70.47078,41.40488],[70.66781,41.47137],[70.7692,41.3521],[70.77044,41.23852],[71.18013,41.10814],[71.20638,41.18875],[71.27614,41.11315],[71.32524,41.15733],[71.39366,41.11274],[71.41877,41.3474],[71.52383,41.29665],[71.58553,41.32352],[71.63742,41.43127],[71.59545,41.49375],[71.67142,41.54739],[71.67194,41.42548],[71.74521,41.45282],[71.84701,41.34182],[71.87161,41.19449],[72.15842,41.18787],[72.19549,41.00636],[72.14772,40.8975],[71.64424,40.88996],[71.58191,40.83978],[71.61065,40.79578],[71.29392,40.62036],[71.06334,40.69633],[71.12696,40.76229],[70.93146,40.77475],[70.75629,40.69558],[70.76713,40.73762],[70.62177,40.78599],[70.70512,40.80743],[70.45801,41.01574],[70.39718,41.30644],[70.47078,41.40488]],[[70.64507,40.93518],[70.61665,40.99352],[70.54978,41.01522],[70.60838,40.95094],[70.64507,40.93518]]]}},{"type":"Feature","properties":{"id":"uz-nw","lat":41.66978,"lng":64.24675},"geometry":{"type":"Polygon","coordinates":[[[64.89101,43.72279],[65.27145,43.41701],[65.51691,43.29723],[65.79524,42.8772],[66.10127,42.99032],[66.00866,42.00266],[66.50414,41.99348],[66.68821,41.19919],[66.75789,41.15314],[66.61426,41.08416],[66.63131,40.94474],[66.76526,40.88725],[66.80123,40.77521],[66.62015,40.4951],[66.51168,40.62563],[66.23904,40.58915],[66.19827,40.28457],[66.1177,40.14734],[66.18411,40.11843],[66.10545,40.05575],[65.87859,40.01575],[65.51252,40.14685],[65.43526,39.90573],[65.28628,39.9263],[65.12774,39.8617],[65.22499,39.70099],[65.18995,39.60373],[65.25558,39.4918],[65.13781,39.46426],[64.98325,39.69988],[64.76305,39.7477],[64.59004,39.9078],[64.9047,40.17119],[64.84419,40.23713],[64.84961,40.35113],[65.13404,40.33614],[65.24752,40.52952],[65.34028,40.5275],[65.36545,40.70966],[64.91576,40.73348],[64.84651,40.77041],[64.78119,40.95197],[64.48839,40.87823],[64.43548,40.77302],[64.16469,40.79748],[64.04289,40.9698],[63.85422,40.75795],[63.73506,40.72625],[63.67733,40.80431],[63.37642,40.94468],[62.97856,41.0746],[62.61905,41.49178],[62.18037,41.39231],[61.7437,41.84778],[61.99589,41.98002],[61.85915,42.17701],[61.88163,42.3969],[62.47084,43.24276],[62.18533,43.31395],[62.02832,43.48092],[63.20801,43.62747],[64.42674,43.54703],[64.89101,43.72279]]]}},{"type":"Feature","properties":{"id":"uz-qa","lat":38.84226,"lng":66.01209},"geometry":{"type":"Polygon","coordinates":[[[67.3587,39.29043],[67.37819,39.19949],[67.67673,39.11963],[67.67325,39.00298],[67.51565,38.95246],[67.53208,38.70456],[67.39432,38.71319],[67.15707,38.4975],[67.12369,38.38722],[66.88706,38.26919],[66.63652,37.96659],[65.87668,38.27296],[65.60414,38.23741],[64.97772,38.61227],[64.6349,38.74415],[64.36757,38.94037],[64.52131,39.05607],[64.8847,39.16379],[64.84543,39.2666],[65.13781,39.46426],[65.68259,39.48338],[65.7678,39.55676],[66.05285,39.31954],[66.3888,39.39785],[66.5106,39.34013],[66.68857,39.43057],[66.87373,39.40509],[66.91403,39.29605],[67.06643,39.3391],[67.3587,39.29043]]]}},{"type":"Feature","properties":{"id":"uz-qr","lat":43.30025,"lng":59.14015},"geometry":{"type":"Polygon","coordinates":[[[58.53144,45.55872],[61.0363,44.38282],[61.16167,44.16811],[62.1352,43.34774],[62.471,43.25276],[61.88163,42.3969],[61.85915,42.17701],[61.99589,41.98002],[61.74308,41.86101],[62.46542,41.08096],[62.18673,40.98587],[61.75967,41.33934],[61.4661,41.38967],[61.33965,41.28807],[61.26875,41.30187],[60.7385,41.63953],[60.65199,41.75688],[60.54998,41.77732],[60.44477,41.97532],[60.29687,42.00343],[60.15057,41.94793],[60.14114,41.87422],[59.91751,41.95243],[59.99719,42.01062],[59.98366,42.14559],[60.0404,42.18647],[59.86635,42.30421],[59.42648,42.28677],[59.28716,42.33594],[59.14608,42.52676],[58.89442,42.54784],[58.58788,42.79119],[58.53455,42.6545],[58.25828,42.68951],[58.12134,42.62425],[58.30624,42.52867],[58.49062,42.29757],[58.3976,42.28786],[58.32505,42.43186],[58.01602,42.49971],[57.90864,42.43043],[57.93748,42.35424],[57.8273,42.22737],[57.85045,42.19143],[57.38226,42.16363],[56.97836,41.89512],[56.96048,41.6472],[57.0196,41.46595],[57.1614,41.36797],[57.02952,41.2626],[55.97842,41.32172],[55.97615,44.99508],[58.53144,45.55872]]]}},{"type":"Feature","properties":{"id":"uz-sa","lat":39.96387,"lng":66.36715},"geometry":{"type":"Polygon","coordinates":[[[67.43648,39.48571],[67.38026,39.29233],[67.06643,39.3391],[66.91403,39.29605],[66.87373,39.40509],[66.68857,39.43057],[66.5106,39.34013],[66.3888,39.39785],[66.05285,39.31954],[65.97947,39.33724],[65.9667,39.4109],[65.80878,39.55469],[65.68259,39.48338],[65.25558,39.4918],[65.18995,39.60373],[65.19476,39.78507],[65.12148,39.85318],[65.28628,39.9263],[65.43526,39.90573],[65.51252,40.14685],[65.87859,40.01575],[66.10545,40.05575],[66.18411,40.11843],[66.1177,40.14734],[66.19827,40.28457],[66.22989,40.57778],[66.51168,40.62563],[66.62806,40.49065],[66.89357,40.46882],[66.90659,40.25891],[66.97594,40.17504],[66.94788,40.06489],[67.02018,40.07252],[67.1009,39.98955],[67.45995,39.93818],[67.49984,39.81638],[67.3816,39.78041],[67.37163,39.6936],[67.29701,39.66487],[67.30507,39.57903],[67.43648,39.48571]]]}},{"type":"Feature","properties":{"id":"uz-si","lat":40.55521,"lng":68.63268},"geometry":{"type":"MultiPolygon","coordinates":[[[[68.97727,40.12101],[68.97727,40.06489],[68.76172,40.06148],[68.88079,39.87834],[68.83826,39.86465],[68.75888,39.98056],[68.78736,39.8817],[68.74834,39.82615],[68.64028,39.84814],[68.63414,40.0357],[68.69655,40.11174],[68.97727,40.12101]]],[[[69.09328,40.27005],[68.64273,40.18369],[68.66845,40.2823],[68.36444,40.22566],[68.10967,40.23289],[68.09179,40.27976],[68.21675,40.51616],[68.1646,40.52608],[68.17019,40.59222],[68.2665,40.6627],[68.46174,40.58466],[68.61424,40.6091],[68.5497,40.83503],[68.64952,40.95169],[68.94476,40.68057],[69.0538,40.65829],[69.06832,40.58434],[69.12144,40.58838],[69.07576,40.5229],[69.12403,40.45955],[69.09328,40.27005]]]]}},{"type":"Feature","properties":{"id":"uz-su","lat":38.12475,"lng":67.54131},"geometry":{"type":"Polygon","coordinates":[[[67.67325,39.00298],[68.10094,38.97928],[68.17256,38.84528],[68.06673,38.78797],[68.05515,38.5363],[68.10755,38.41828],[68.36066,38.17405],[68.24873,37.94895],[68.12223,37.90833],[67.82922,37.52794],[67.78054,37.18887],[67.63316,37.25406],[67.56139,37.2199],[67.50315,37.28196],[67.25913,37.18515],[67.00592,37.38439],[66.6941,37.34341],[66.49483,37.37942],[66.54662,37.45079],[66.49349,37.52221],[66.51881,37.78271],[66.69849,38.07545],[66.88706,38.26919],[67.12369,38.38722],[67.15707,38.4975],[67.40067,38.71805],[67.52852,38.7011],[67.51829,38.9599],[67.67325,39.00298]]]}},{"type":"Feature","properties":{"id":"uz-tk","lat":41.33433,"lng":69.27181},"geometry":{"type":"Polygon","coordinates":[[[69.25693,41.40355],[69.34819,41.37017],[69.36377,41.2985],[69.24345,41.21917],[69.13607,41.28283],[69.25693,41.40355]]]}},{"type":"Feature","properties":{"id":"uz-to","lat":41.251,"lng":69.85025},"geometry":{"type":"Polygon","coordinates":[[[71.24987,42.19839],[70.97714,42.04423],[70.84547,42.03036],[70.814,41.91954],[70.64895,41.88739],[70.45366,41.71208],[70.14826,41.55245],[70.47078,41.40488],[70.39718,41.30644],[70.45801,41.01574],[70.36354,41.03243],[70.28039,40.87771],[69.69092,40.63003],[69.50922,40.77467],[69.36929,40.7894],[69.30934,40.59582],[69.19844,40.56652],[69.3127,40.34281],[69.30531,40.29382],[69.20836,40.29832],[69.28526,40.19496],[69.07364,40.21694],[69.12403,40.45955],[69.07576,40.5229],[69.12144,40.58838],[69.06832,40.58434],[69.0538,40.65829],[68.94476,40.68057],[68.64952,40.95169],[68.77377,41.08726],[69.03122,41.20875],[69.03618,41.37401],[69.40236,41.47483],[69.39378,41.54496],[69.62457,41.66831],[69.9124,41.71286],[70.35791,42.06224],[70.4702,42.09162],[70.57903,42.01625],[70.73427,42.1973],[70.84237,42.19254],[71.01404,42.2877],[71.24987,42.19839]],[[69.24345,41.21917],[69.36377,41.2985],[69.34819,41.37017],[69.22317,41.40328],[69.13607,41.28283],[69.24345,41.21917]]]}},{"type":"Feature","properties":{"id":"uz-xo","lat":41.27053,"lng":60.86831},"geometry":{"type":"Polygon","coordinates":[[[60.2254,41.76546],[60.24111,41.80807],[60.14114,41.87422],[60.15057,41.94793],[60.31309,42.00558],[60.44477,41.97532],[60.54998,41.77732],[60.65199,41.75688],[60.7385,41.63953],[61.26875,41.30187],[61.33965,41.28807],[61.4661,41.38967],[61.75967,41.33934],[62.44728,40.78831],[62.18706,40.50552],[62.04477,40.71498],[61.97082,41.01543],[61.65436,41.24942],[61.43318,41.30032],[61.24322,41.1563],[60.8603,41.25299],[60.44327,41.21966],[60.06613,41.4105],[60.07957,41.53147],[60.16473,41.58496],[60.04918,41.7535],[60.10241,41.79528],[60.2254,41.76546]]]}}]}
