{"type":"FeatureCollection","features":[{"type":"Feature","properties":{"id":"vc-01","lat":13.26558,"lng":-61.16036},"geometry":{"type":"Polygon","coordinates":[[[-61.17126,13.37995],[-61.12393,13.30825],[-61.13554,13.19785],[-61.20016,13.22291],[-61.17126,13.37995]]]}},{"type":"Feature","properties":{"id":"vc-02","lat":13.22193,"lng":-61.21078},"geometry":{"type":"Polygon","coordinates":[[[-61.19885,13.20455],[-61.27135,13.18651],[-61.19885,13.2393],[-61.19885,13.20455]]]}},{"type":"Feature","properties":{"id":"vc-03","lat":13.3174,"lng":-61.2066},"geometry":{"type":"Polygon","coordinates":[[[-61.26839,13.26591],[-61.21203,13.36888],[-61.17126,13.37995],[-61.17459,13.26028],[-61.26839,13.26591]]]}},{"type":"Feature","properties":{"id":"vc-04","lat":13.18061,"lng":-61.18598},"geometry":{"type":"Polygon","coordinates":[[[-61.13554,13.19785],[-61.18521,13.13251],[-61.2379,13.16337],[-61.19277,13.21669],[-61.13554,13.19785]]]}},{"type":"Feature","properties":{"id":"vc-05","lat":13.2129,"lng":-61.25273},"geometry":{"type":"Polygon","coordinates":[[[-61.27135,13.18651],[-61.26839,13.26591],[-61.20082,13.27601],[-61.19885,13.2393],[-61.27135,13.18651]]]}},{"type":"Feature","properties":{"id":"vc-06","lat":13.01266,"lng":-61.2418},"geometry":{"type":"MultiPolygon","coordinates":[[[[-61.44831,12.60993],[-61.44323,12.58515],[-61.45983,12.59146],[-61.44831,12.60993]]],[[[-61.32632,12.73314],[-61.33389,12.69359],[-61.3531,12.69648],[-61.32632,12.73314]]],[[[-61.18318,12.88349],[-61.18358,12.86201],[-61.19083,12.85586],[-61.18318,12.88349]]],[[[-61.194,13.03685],[-61.27721,12.98847],[-61.20149,13.05117],[-61.194,13.03685]]]]}}]}
