{"type":"FeatureCollection","features":[{"type":"Feature","properties":{"id":"ve-a","lat":10.48877,"lng":-66.98837},"geometry":{"type":"Polygon","coordinates":[[[-67.00536,10.5752],[-66.87377,10.54703],[-66.89744,10.41621],[-67.15112,10.4305],[-67.00536,10.5752]]]}},{"type":"Feature","properties":{"id":"ve-b","lat":8.94093,"lng":-64.12373},"geometry":{"type":"Polygon","coordinates":[[[-65.42577,10.14342],[-65.07335,10.0489],[-64.7766,10.0904],[-64.71703,10.22761],[-64.66763,10.18732],[-64.57242,10.2617],[-64.34731,10.09463],[-63.97916,10.11512],[-63.94883,10.08262],[-64.05575,10.05381],[-64.06167,9.96864],[-63.92255,9.86979],[-63.96446,9.76217],[-63.84664,9.55061],[-63.96909,9.41103],[-63.9063,9.20548],[-63.77189,9.23628],[-63.63363,9.16748],[-63.41806,9.00826],[-63.30094,8.77791],[-62.94928,8.79391],[-63.0554,8.70911],[-63.04072,8.59591],[-62.74275,8.47339],[-62.68583,8.38572],[-62.90693,8.26689],[-63.17464,8.31345],[-63.47356,8.1502],[-63.81199,8.13098],[-63.98113,7.96745],[-64.12556,7.96587],[-64.28325,8.08142],[-64.3524,8.00897],[-64.53712,7.98393],[-64.49546,7.79079],[-64.83847,7.66021],[-65.1037,7.83438],[-65.4845,7.93099],[-65.48047,8.02393],[-65.20663,8.36936],[-65.1455,8.73112],[-64.86407,8.74099],[-64.78994,8.87809],[-64.93735,9.00377],[-64.9776,9.11154],[-65.16488,9.17864],[-65.25829,9.27719],[-65.28459,9.37656],[-65.20674,9.43431],[-65.21821,9.50684],[-65.36957,9.55479],[-65.4306,9.65052],[-65.48884,9.56921],[-65.70038,9.68582],[-65.69661,9.95342],[-65.44894,10.07964],[-65.42577,10.14342]]]}},{"type":"Feature","properties":{"id":"ve-c","lat":7.07621,"lng":-68.81703},"geometry":{"type":"Polygon","coordinates":[[[-72.16631,7.33408],[-72.39581,7.40749],[-72.18853,7.4498],[-71.99028,7.36547],[-71.82987,7.4998],[-71.66035,7.43216],[-71.24885,7.45453],[-70.87417,7.28749],[-70.63085,7.29431],[-70.36834,7.45045],[-70.28888,7.60377],[-70.15718,7.61501],[-70.01389,7.75426],[-69.7337,7.84443],[-69.44095,8.07165],[-69.18869,8.07067],[-68.82347,7.90252],[-68.63387,7.96936],[-68.25658,7.95652],[-67.95443,8.05465],[-67.6053,7.99941],[-67.53812,7.91701],[-67.39583,7.91127],[-67.1397,7.77224],[-66.76478,7.75511],[-66.52751,7.81635],[-66.3246,7.68759],[-66.61453,7.32294],[-67.0742,7.09383],[-67.04179,6.78256],[-67.12851,6.63825],[-67.13114,6.47555],[-67.35586,6.24326],[-67.49048,6.20164],[-67.8272,6.31341],[-67.97799,6.21784],[-68.44902,6.195],[-68.63532,6.13588],[-69.06113,6.21784],[-69.2461,6.08066],[-69.3314,6.15637],[-69.44364,6.12224],[-70.1292,6.97255],[-70.31906,6.93829],[-70.57861,7.08582],[-70.7033,7.09993],[-71.18405,6.96257],[-71.29252,7.02577],[-71.6543,7.05337],[-71.88101,6.9866],[-72.081,7.0666],[-72.16631,7.33408]]]}},{"type":"Feature","properties":{"id":"ve-d","lat":9.97692,"lng":-67.03432},"geometry":{"type":"Polygon","coordinates":[[[-67.86921,10.46128],[-67.39175,10.54308],[-67.33961,10.3959],[-67.23865,10.43058],[-67.10874,10.26485],[-67.13416,10.15452],[-67.08828,10.08285],[-66.61275,9.96645],[-66.62107,9.72098],[-66.54306,9.62275],[-66.58056,9.40193],[-66.99733,9.45229],[-66.87638,9.56177],[-66.85873,9.67225],[-67.10161,9.79951],[-67.18135,9.91983],[-67.34061,9.92642],[-67.42813,9.9874],[-67.53411,9.95149],[-67.68731,10.02138],[-67.65628,10.30614],[-67.81875,10.32242],[-67.86921,10.46128]]]}},{"type":"Feature","properties":{"id":"ve-e","lat":8.16091,"lng":-69.97356},"geometry":{"type":"Polygon","coordinates":[[[-68.03649,8.5385],[-67.76787,8.23908],[-67.67741,8.20952],[-67.519,7.97161],[-67.95443,8.05465],[-68.25658,7.95652],[-68.63387,7.96936],[-68.82347,7.90252],[-69.18869,8.07067],[-69.44095,8.07165],[-69.7337,7.84443],[-70.01389,7.75426],[-70.15718,7.61501],[-70.28888,7.60377],[-70.36834,7.45045],[-70.6669,7.28741],[-70.94678,7.30798],[-71.24885,7.45453],[-71.66035,7.43216],[-71.84711,7.50931],[-71.692,7.54933],[-71.31978,7.49642],[-71.4909,7.62979],[-71.46214,7.76953],[-71.05995,8.11005],[-71.01184,8.21976],[-71.07754,8.37634],[-70.96238,8.60141],[-70.76857,8.78148],[-70.57747,8.85667],[-70.44373,9.01961],[-70.18246,9.00787],[-69.81961,8.7513],[-69.70538,8.72383],[-69.62311,8.77791],[-69.46686,8.67037],[-69.29184,8.64322],[-69.11441,8.43189],[-69.12763,8.35104],[-68.8537,8.1123],[-68.7922,8.31714],[-68.65423,8.42287],[-68.57354,8.63539],[-68.16539,8.60893],[-68.03649,8.5385]]]}},{"type":"Feature","properties":{"id":"ve-f","lat":6.02268,"lng":-63.47432},"geometry":{"type":"Polygon","coordinates":[[[-60.268,7.92126],[-60.37476,7.82361],[-60.52576,7.81337],[-60.60126,7.63385],[-60.73058,7.52543],[-60.60177,7.33015],[-60.62841,7.19114],[-60.54801,7.12551],[-60.47532,7.1885],[-60.37202,7.17228],[-60.29993,7.12101],[-60.30358,7.05414],[-60.37734,6.93854],[-60.70035,6.76708],[-60.90757,6.81524],[-60.93382,6.73173],[-61.12983,6.71584],[-61.21197,6.56144],[-61.13975,6.44126],[-61.12156,6.18665],[-61.26938,6.10722],[-61.39671,5.94558],[-60.6643,5.17025],[-60.61263,4.90058],[-60.71815,4.78428],[-60.89581,4.70852],[-60.97728,4.53497],[-61.16859,4.49024],[-61.31558,4.52079],[-61.29305,4.44805],[-61.50187,4.40185],[-61.56727,4.24853],[-61.7378,4.25207],[-61.86689,4.15703],[-62.03505,4.15988],[-62.15359,4.09029],[-62.4281,4.18318],[-62.53698,4.12541],[-62.56096,4.03779],[-62.74436,4.03402],[-62.7888,3.8994],[-62.74958,3.66037],[-62.88941,3.56082],[-62.99705,3.59913],[-63.35171,3.95873],[-63.4254,3.96836],[-63.51067,3.85455],[-63.67159,3.94625],[-63.87514,3.94981],[-64.03766,3.8825],[-64.17269,4.12339],[-64.60822,4.12649],[-64.6677,4.55833],[-64.942,4.6252],[-65.08507,4.79922],[-65.28229,5.22601],[-65.27443,5.27676],[-65.15904,5.29368],[-65.11747,5.35544],[-65.18361,5.43404],[-65.13558,5.52597],[-65.26454,5.66175],[-65.22464,5.75856],[-65.4375,5.77518],[-65.55176,5.69053],[-65.60886,5.7149],[-65.61413,6.14061],[-65.82711,6.1102],[-66.02746,5.78223],[-66.24383,5.73334],[-66.34078,5.92421],[-66.55288,5.74275],[-67.00001,5.61906],[-67.0767,5.71397],[-67.20403,5.7228],[-67.14453,5.93431],[-67.17796,6.09978],[-67.38454,6.11996],[-67.4563,6.19322],[-67.13781,6.45862],[-67.12851,6.63825],[-67.04179,6.78256],[-67.0742,7.09383],[-66.61453,7.32294],[-66.37072,7.63979],[-65.95966,7.6715],[-65.64816,7.89991],[-65.1037,7.83438],[-64.83847,7.66021],[-64.49546,7.79079],[-64.53712,7.98393],[-64.3524,8.00897],[-64.28325,8.08142],[-64.12556,7.96587],[-63.97079,7.96946],[-63.81199,8.13098],[-63.47356,8.1502],[-63.17464,8.31345],[-62.8791,8.27412],[-62.59765,8.44799],[-62.24718,8.31381],[-61.6352,8.28704],[-61.60921,8.11852],[-61.3192,7.82058],[-60.97098,7.94603],[-60.78463,7.75178],[-60.54441,7.91554],[-60.268,7.92126]]]}},{"type":"Feature","properties":{"id":"ve-g","lat":10.22555,"lng":-68.03403},"geometry":{"type":"Polygon","coordinates":[[[-68.25174,10.59512],[-68.12955,10.48774],[-67.87328,10.47647],[-67.81875,10.32242],[-67.67196,10.32436],[-67.69018,10.02435],[-67.55324,9.99399],[-67.52903,9.90679],[-67.69907,9.84232],[-67.79919,9.93045],[-67.78883,9.82705],[-67.86725,9.81966],[-67.98789,9.83519],[-67.99533,9.88935],[-68.07209,9.85676],[-68.24167,9.98701],[-68.20521,10.0629],[-68.24167,10.12868],[-68.33892,10.00316],[-68.39055,10.00681],[-68.38954,10.49349],[-68.25174,10.59512]]]}},{"type":"Feature","properties":{"id":"ve-h","lat":9.33235,"lng":-68.32562},"geometry":{"type":"Polygon","coordinates":[[[-67.78883,9.82705],[-67.7563,9.68272],[-67.96331,9.54639],[-67.85397,9.08516],[-67.99272,8.83114],[-67.99788,8.55074],[-68.63172,8.66921],[-68.75032,8.79218],[-68.5824,8.85279],[-68.65211,8.94545],[-68.60524,9.22517],[-68.87212,9.43953],[-68.9924,9.72835],[-68.97772,9.85728],[-68.85889,9.85317],[-68.80432,9.96087],[-68.62301,10.01138],[-68.50395,9.90051],[-68.24167,10.12868],[-68.20521,10.0629],[-68.24167,9.98701],[-68.08119,9.8625],[-67.99533,9.88935],[-67.97758,9.83193],[-67.78883,9.82705]]]}},{"type":"Feature","properties":{"id":"ve-i","lat":11.27593,"lng":-69.54026},"geometry":{"type":"Polygon","coordinates":[[[-71.28201,10.99144],[-70.8697,11.19627],[-70.23107,11.35159],[-70.15447,11.46997],[-70.03653,11.4409],[-70.1616,11.56855],[-69.9259,11.51306],[-69.81408,11.4256],[-69.76,11.46809],[-69.81603,11.69367],[-70.22989,11.62787],[-70.20592,11.76252],[-70.30199,11.85814],[-70.28356,11.93964],[-70.2058,12.11201],[-70.01773,12.19892],[-69.92536,12.15961],[-69.83532,12.0152],[-69.80858,11.80362],[-69.66584,11.49775],[-69.58869,11.46304],[-69.27042,11.53604],[-69.06188,11.45352],[-68.84439,11.44741],[-68.40331,11.20026],[-68.27843,10.92548],[-68.37662,10.91909],[-68.23884,10.88495],[-68.33194,10.82958],[-68.27375,10.63422],[-68.51938,10.63858],[-68.63358,10.73294],[-68.76921,10.73247],[-68.88551,10.65953],[-68.92411,10.69733],[-69.49859,10.69514],[-69.66393,10.76467],[-70.15749,10.6517],[-70.65808,10.30477],[-70.72904,10.33198],[-70.7787,10.45363],[-70.90313,10.4429],[-71.01483,10.51887],[-71.08046,10.75676],[-71.28201,10.99144]]]}},{"type":"Feature","properties":{"id":"ve-j","lat":8.80954,"lng":-66.40104},"geometry":{"type":"Polygon","coordinates":[[[-65.69661,9.95342],[-65.70038,9.68582],[-65.48884,9.56921],[-65.4306,9.65052],[-65.36957,9.55479],[-65.21821,9.50684],[-65.20674,9.43431],[-65.28459,9.37656],[-65.25829,9.27719],[-65.16488,9.17864],[-64.9776,9.11154],[-64.93735,9.00377],[-64.78994,8.87809],[-64.86407,8.74099],[-65.14938,8.72469],[-65.20663,8.36936],[-65.49434,7.99166],[-65.4845,7.93099],[-65.35665,7.86942],[-65.64816,7.89991],[-65.93946,7.67917],[-66.23629,7.63612],[-66.33052,7.64842],[-66.35261,7.73578],[-66.52751,7.81635],[-66.76478,7.75511],[-67.1397,7.77224],[-67.39583,7.91127],[-67.53812,7.91701],[-67.57458,8.08258],[-68.03649,8.5385],[-67.99603,8.55547],[-67.96698,8.9078],[-67.855,9.07257],[-67.96406,9.54182],[-67.89916,9.63011],[-67.7563,9.68272],[-67.80748,9.92541],[-67.69907,9.84232],[-67.44283,9.98585],[-67.18135,9.91983],[-67.10161,9.79951],[-66.85873,9.67225],[-66.87638,9.56177],[-66.99733,9.45229],[-66.62319,9.39162],[-66.57549,9.40948],[-66.54306,9.62275],[-66.62107,9.72098],[-66.61275,9.96645],[-66.39248,10.01944],[-66.19048,9.9487],[-65.69661,9.95342]]]}},{"type":"Feature","properties":{"id":"ve-k","lat":10.09905,"lng":-70.02299},"geometry":{"type":"Polygon","coordinates":[[[-68.92488,9.93076],[-69.01379,9.74953],[-69.17399,9.6867],[-69.26398,9.72912],[-69.27856,9.84426],[-69.37842,9.65789],[-69.60435,9.60577],[-69.64375,9.41475],[-69.86733,9.41506],[-69.78868,9.5589],[-69.92653,9.57401],[-70.03298,9.43033],[-70.13398,9.59815],[-70.01306,9.69049],[-70.08988,9.77305],[-70.35164,9.92604],[-70.51675,9.92852],[-70.58008,10.03652],[-70.681,9.90779],[-70.85815,10.07003],[-70.63798,10.32658],[-70.15749,10.6517],[-69.66393,10.76467],[-69.49859,10.69514],[-68.92411,10.69733],[-68.89246,10.60615],[-69.0201,10.55478],[-69.07022,10.46146],[-69.01498,10.24842],[-69.16208,10.12806],[-69.23755,10.14708],[-69.09782,9.87668],[-69.07195,9.95815],[-68.95881,10.00022],[-68.92488,9.93076]]]}},{"type":"Feature","properties":{"id":"ve-l","lat":8.53399,"lng":-71.39638},"geometry":{"type":"Polygon","coordinates":[[[-71.21854,9.187],[-71.15172,9.28852],[-70.9736,9.35126],[-70.86306,9.139],[-70.70248,8.9916],[-70.58003,9.04022],[-70.53468,8.95534],[-70.57747,8.85667],[-70.76857,8.78148],[-70.96967,8.59193],[-71.07754,8.37634],[-71.01184,8.21976],[-71.05995,8.11005],[-71.42966,7.80226],[-71.48356,7.68449],[-71.53279,7.75829],[-71.50772,8.0054],[-71.71135,8.04907],[-71.82132,8.17048],[-71.8971,8.17547],[-71.77107,8.48093],[-71.81713,8.58705],[-71.94493,8.61141],[-71.83331,8.67317],[-71.80807,8.61963],[-71.72603,8.61723],[-71.67353,8.7188],[-71.29634,9.01361],[-71.22559,9.04839],[-71.1573,9.01113],[-71.14738,9.12782],[-71.21854,9.187]]]}},{"type":"Feature","properties":{"id":"ve-m","lat":10.27353,"lng":-66.50469},"geometry":{"type":"Polygon","coordinates":[[[-66.31361,10.62949],[-66.04654,10.57648],[-66.12222,10.50703],[-65.88207,10.30956],[-65.92992,10.32319],[-65.923,10.28221],[-65.71764,10.22016],[-65.86848,10.30956],[-65.42577,10.14342],[-65.43856,10.09533],[-65.6333,9.97221],[-65.97103,9.9289],[-66.39248,10.01944],[-66.52782,9.96838],[-66.87852,9.99983],[-67.1191,10.11148],[-67.10874,10.26485],[-67.22016,10.41668],[-66.89744,10.41621],[-66.8632,10.55284],[-66.32507,10.53068],[-66.31361,10.62949]]]}},{"type":"Feature","properties":{"id":"ve-n","lat":9.34061,"lng":-63.14631},"geometry":{"type":"MultiPolygon","coordinates":[[[[-63.11276,10.21868],[-62.95299,10.08808],[-62.93603,10.00825],[-62.91462,10.08365],[-62.8011,9.996],[-62.78498,10.06977],[-62.61852,10.09162],[-62.61954,10.22443],[-62.51757,10.18415],[-62.44164,9.93281],[-62.31871,9.7683],[-62.44613,9.52541],[-62.32053,9.35734],[-62.32133,9.14055],[-62.05517,9.06371],[-62.08419,8.94483],[-62.00864,8.89545],[-62.0752,8.7344],[-62.23953,8.598],[-62.5153,8.51943],[-62.68583,8.38572],[-62.74275,8.47339],[-63.04072,8.59591],[-63.0554,8.70911],[-62.94928,8.79391],[-63.30094,8.77791],[-63.41806,9.00826],[-63.76013,9.23179],[-63.90258,9.20293],[-63.97322,9.32388],[-63.96663,9.41669],[-63.84664,9.55061],[-63.96446,9.76217],[-63.92255,9.86979],[-64.05453,9.95218],[-64.05575,10.05381],[-63.80078,10.12775],[-63.73024,10.20535],[-63.55503,10.22963],[-63.46338,10.31467],[-63.19198,10.16765],[-63.11276,10.21868]]],[[[-62.32274,9.91006],[-62.33861,9.84569],[-62.34337,9.92422],[-62.32274,9.91006]]],[[[-62.42687,10.04922],[-62.42052,9.98265],[-62.43619,10.04658],[-62.42687,10.04922]]]]}},{"type":"Feature","properties":{"id":"ve-o","lat":11.02924,"lng":-64.24065},"geometry":{"type":"MultiPolygon","coordinates":[[[[-64.00451,10.7757],[-63.90364,10.77729],[-63.90917,10.73554],[-64.00451,10.7757]]],[[[-64.20344,10.8273],[-64.17479,10.79922],[-64.22094,10.80646],[-64.20344,10.8273]]],[[[-63.88097,11.17915],[-63.78767,10.97378],[-63.89806,10.88495],[-64.05972,10.85761],[-64.17585,10.96748],[-64.40856,10.96748],[-64.37059,11.06249],[-64.22008,11.09154],[-64.03197,10.996],[-63.98583,11.10928],[-63.88097,11.17915]]]]}},{"type":"Feature","properties":{"id":"ve-p","lat":8.97666,"lng":-69.3926},"geometry":{"type":"Polygon","coordinates":[[[-68.9808,9.78227],[-68.87212,9.43953],[-68.60524,9.22517],[-68.65211,8.94545],[-68.5824,8.85279],[-68.75032,8.79218],[-68.57467,8.60351],[-68.65423,8.42287],[-68.7922,8.31714],[-68.84145,8.11245],[-69.12763,8.35104],[-69.11441,8.43189],[-69.29184,8.64322],[-69.46686,8.67037],[-69.62311,8.77791],[-69.70538,8.72383],[-69.81961,8.7513],[-70.18246,9.00787],[-70.11827,9.0241],[-70.06272,9.14365],[-70.06536,9.25228],[-70.13584,9.26564],[-69.93405,9.57161],[-69.78868,9.5589],[-69.86733,9.41506],[-69.70688,9.39565],[-69.62794,9.42653],[-69.60435,9.60577],[-69.37842,9.65789],[-69.27856,9.84426],[-69.21218,9.68923],[-69.06679,9.70995],[-68.9808,9.78227]]]}},{"type":"Feature","properties":{"id":"ve-r","lat":10.40025,"lng":-63.63594},"geometry":{"type":"MultiPolygon","coordinates":[[[[-62.78112,10.49291],[-62.6656,10.31],[-62.78759,10.43012],[-62.78112,10.49291]]],[[[-64.53148,10.25434],[-64.3767,10.30077],[-64.47004,10.32319],[-64.38061,10.3437],[-64.38126,10.38622],[-64.35741,10.33869],[-64.18855,10.47761],[-63.86364,10.44611],[-63.65502,10.49453],[-64.03185,10.59007],[-64.23388,10.51504],[-64.29768,10.61986],[-64.27074,10.67267],[-64.14477,10.61742],[-63.91511,10.63105],[-63.81212,10.71361],[-63.55333,10.62914],[-63.16161,10.73469],[-62.92821,10.69937],[-62.70568,10.76203],[-62.1542,10.68635],[-61.84577,10.74095],[-61.96247,10.65217],[-62.25268,10.63239],[-62.33495,10.53022],[-62.66234,10.56704],[-62.92333,10.53083],[-63.01081,10.45356],[-62.857,10.53156],[-62.83113,10.40681],[-62.99519,10.40786],[-62.95617,10.35737],[-63.00398,10.27538],[-62.93163,10.28563],[-62.94249,10.40518],[-62.76447,10.39533],[-62.62658,10.13081],[-62.82274,10.04206],[-62.90152,10.10346],[-63.03049,10.10587],[-63.11276,10.21868],[-63.19198,10.16765],[-63.46338,10.31467],[-63.55503,10.22963],[-63.73024,10.20535],[-63.94883,10.08262],[-64.03735,10.12915],[-64.15383,10.07928],[-64.34731,10.09463],[-64.53148,10.25434]]]]}},{"type":"Feature","properties":{"id":"ve-s","lat":7.97145,"lng":-71.97839},"geometry":{"type":"Polygon","coordinates":[[[-72.35008,8.04259],[-72.41561,8.38269],[-72.34196,8.4955],[-72.25737,8.537],[-72.23533,8.39944],[-72.04219,8.48682],[-71.94493,8.61141],[-71.82313,8.5903],[-71.77225,8.46897],[-71.8971,8.17547],[-71.82132,8.17048],[-71.71135,8.04907],[-71.50772,8.0054],[-71.53279,7.75829],[-71.4909,7.62979],[-71.31761,7.49959],[-71.82672,7.53592],[-71.87501,7.42148],[-72.01087,7.36337],[-72.18853,7.4498],[-72.41462,7.41381],[-72.4787,7.48445],[-72.45177,7.8328],[-72.4912,7.9375],[-72.35008,8.04259]]]}},{"type":"Feature","properties":{"id":"ve-t","lat":9.51627,"lng":-70.57128},"geometry":{"type":"Polygon","coordinates":[[[-71.05867,9.33793],[-71.06245,9.6174],[-70.85135,9.6022],[-70.73769,9.7617],[-70.65617,9.77708],[-70.66201,9.95583],[-70.60863,10.03156],[-70.51675,9.92852],[-70.35164,9.92604],[-70.01585,9.69894],[-70.13481,9.61073],[-70.03298,9.43033],[-70.13783,9.25801],[-70.05936,9.23683],[-70.12411,9.02007],[-70.42673,9.02247],[-70.53468,8.95534],[-70.58003,9.04022],[-70.69516,8.98506],[-70.86306,9.139],[-70.92766,9.31279],[-71.05867,9.33793]]]}},{"type":"Feature","properties":{"id":"ve-u","lat":10.34198,"lng":-68.69643},"geometry":{"type":"Polygon","coordinates":[[[-68.27375,10.63422],[-68.28169,10.55858],[-68.38954,10.49349],[-68.36161,10.2609],[-68.42318,10.17292],[-68.3705,9.99004],[-68.52256,9.89586],[-68.62994,10.01037],[-68.80432,9.96087],[-68.88501,9.85108],[-68.97772,9.85728],[-68.92447,9.93503],[-68.97912,10.00983],[-69.10531,9.88203],[-69.23755,10.14708],[-69.16208,10.12806],[-69.01498,10.24842],[-69.02718,10.42306],[-69.07208,10.43794],[-69.0201,10.55478],[-68.76921,10.73247],[-68.61371,10.72798],[-68.51938,10.63858],[-68.27375,10.63422]]]}},{"type":"Feature","properties":{"id":"ve-v","lat":10.2693,"lng":-72.37155},"geometry":{"type":"MultiPolygon","coordinates":[[[[-71.32751,11.85],[-71.33605,11.78925],[-71.46711,11.72162],[-71.96052,11.59125],[-71.93932,11.38076],[-71.85692,11.21699],[-71.62645,11.01496],[-71.76867,11.01529],[-71.67406,10.8024],[-71.57628,10.7211],[-71.62955,10.45401],[-71.96907,10.1057],[-72.12438,9.82608],[-71.99893,9.65473],[-71.94685,9.54116],[-71.98786,9.61005],[-71.99523,9.45922],[-71.91894,9.50019],[-71.84439,9.43936],[-71.90075,9.43456],[-71.90526,9.38471],[-71.89159,9.42573],[-71.73453,9.38471],[-71.73998,9.28937],[-71.81652,9.2333],[-71.7447,9.23762],[-71.76187,9.13085],[-71.70857,9.07673],[-71.5148,9.04898],[-71.21854,9.187],[-71.14738,9.12782],[-71.14862,9.03348],[-71.1871,8.99253],[-71.22559,9.04839],[-71.29634,9.01361],[-71.67353,8.7188],[-71.72603,8.61723],[-71.8568,8.66813],[-72.04219,8.48682],[-72.23533,8.39944],[-72.28119,8.54167],[-72.41561,8.38269],[-72.67543,8.65151],[-72.79103,9.11394],[-72.95531,9.10399],[-73.00973,9.29538],[-73.21224,9.17345],[-73.39084,9.1945],[-72.98554,9.81217],[-72.9149,10.4329],[-72.49932,11.12079],[-72.26708,11.1549],[-71.97108,11.66193],[-71.32751,11.85]]],[[[-71.06245,9.6174],[-71.07242,9.85786],[-71.20694,9.98062],[-71.54157,10.56489],[-71.50011,10.628],[-71.58312,10.80923],[-71.44591,10.79621],[-71.41246,10.91909],[-71.50113,10.96003],[-71.45832,10.97492],[-71.28201,10.99144],[-71.08046,10.75676],[-71.01483,10.51887],[-70.90313,10.4429],[-70.7787,10.45363],[-70.72904,10.33198],[-70.65808,10.30477],[-70.85815,10.07003],[-70.66116,9.90451],[-70.64129,9.79196],[-70.73769,9.7617],[-70.85962,9.59947],[-71.06245,9.6174]]]]}},{"type":"Feature","properties":{"id":"ve-w","lat":10.93732,"lng":-65.30379},"geometry":{"type":"MultiPolygon","coordinates":[[[[-67.6376,11.98005],[-67.66588,11.982],[-67.67488,11.98965],[-67.6376,11.98005]]],[[[-67.68155,12.02578],[-67.67907,12.02814],[-67.68041,12.02505],[-67.68155,12.02578]]],[[[-67.6776,12.02782],[-67.67723,12.03002],[-67.67667,12.02692],[-67.6776,12.02782]]],[[[-67.67699,12.04633],[-67.67723,12.05024],[-67.67467,12.04841],[-67.67699,12.04633]]],[[[-67.68102,12.06184],[-67.68444,12.06346],[-67.68139,12.06371],[-67.68102,12.06184]]],[[[-67.68883,12.069],[-67.68708,12.06753],[-67.68733,12.06558],[-67.68883,12.069]]],[[[-65.20824,10.9499],[-65.24462,10.88495],[-65.41177,10.92475],[-65.3299,10.97761],[-65.20824,10.9499]]],[[[-66.7285,11.7836],[-66.82779,11.74624],[-66.8546,11.75137],[-66.7285,11.7836]]],[[[-66.5878,11.78311],[-66.7045,11.78311],[-66.6151,11.82404],[-66.5878,11.78311]]],[[[-66.10851,11.82583],[-66.14314,11.78181],[-66.19433,11.81769],[-66.10851,11.82583]]],[[[-64.55215,11.83991],[-64.60558,11.81802],[-64.64879,11.8513],[-64.60717,11.89912],[-64.55215,11.83991]]],[[[-66.71178,11.86791],[-66.75381,11.86237],[-66.81786,11.87108],[-66.71178,11.86791]]]]}},{"type":"Feature","properties":{"id":"ve-x","lat":10.50472,"lng":-67.20949},"geometry":{"type":"Polygon","coordinates":[[[-67.39175,10.54308],[-67.01236,10.61123],[-66.31361,10.62949],[-66.30799,10.59282],[-66.32507,10.53068],[-67.00683,10.57512],[-67.05334,10.47877],[-67.33961,10.3959],[-67.39175,10.54308]]]}},{"type":"Feature","properties":{"id":"ve-y","lat":8.90884,"lng":-61.5802},"geometry":{"type":"MultiPolygon","coordinates":[[[[-61.3146,8.57131],[-61.27644,8.4502],[-61.33844,8.50995],[-61.54012,8.56541],[-61.3146,8.57131]]],[[[-61.00373,8.60399],[-61.04158,8.51854],[-61.27038,8.51455],[-61.22761,8.5716],[-61.12637,8.53437],[-61.09846,8.60269],[-61.00373,8.60399]]],[[[-60.69735,8.74447],[-60.61768,8.63672],[-60.80813,8.63289],[-60.76033,8.71771],[-60.69735,8.74447]]],[[[-61.12644,8.75648],[-60.73237,8.89215],[-60.68604,8.78901],[-60.84658,8.63772],[-61.16992,8.59531],[-61.12644,8.75648]]],[[[-59.81665,8.2672],[-59.99331,8.16852],[-60.04648,8.03292],[-60.268,7.92126],[-60.54441,7.91554],[-60.7899,7.75198],[-60.97098,7.94603],[-61.34243,7.83198],[-61.60921,8.11852],[-61.6352,8.28704],[-62.24718,8.31381],[-62.59765,8.44799],[-62.23953,8.598],[-62.0752,8.7344],[-62.00507,8.87284],[-62.08419,8.94483],[-62.05517,9.06371],[-62.32133,9.14055],[-62.32053,9.35734],[-62.4436,9.50929],[-62.2705,9.76667],[-62.25723,9.97435],[-62.1787,9.84614],[-62.21569,9.63793],[-62.15429,9.72614],[-62.19518,9.93281],[-62.02733,9.87442],[-62.22143,9.95181],[-62.19648,10.01968],[-62.02538,9.95736],[-61.83145,9.79194],[-61.84577,9.65103],[-61.7801,9.75922],[-61.74332,9.59638],[-61.73103,9.69404],[-61.82817,9.82716],[-61.59252,9.78197],[-61.63674,9.89877],[-61.42227,9.73626],[-61.5031,9.83957],[-61.43917,9.81841],[-61.20604,9.57738],[-60.97704,9.54963],[-60.96866,9.49396],[-60.79743,9.38471],[-60.79743,9.29475],[-61.08544,9.10244],[-61.11205,9.04149],[-60.95914,9.18252],[-61.09968,8.96035],[-61.20946,8.60904],[-61.62536,8.63019],[-61.65197,8.58584],[-61.35912,8.48656],[-61.28405,8.3972],[-61.18102,8.49339],[-61.0266,8.50092],[-61.07799,8.46646],[-61.07189,8.40331],[-60.97557,8.576],[-60.69245,8.60468],[-60.47891,8.53238],[-60.3719,8.6354],[-60.19783,8.62385],[-60.02099,8.55801],[-59.81665,8.2672]]],[[[-60.85534,9.01581],[-60.89167,8.91437],[-61.09162,8.82241],[-60.93326,9.01874],[-60.85534,9.01581]]],[[[-61.08544,8.89069],[-60.94689,9.06611],[-60.85204,9.09614],[-61.08544,8.89069]]],[[[-60.96129,9.0694],[-60.93676,9.16462],[-60.85334,9.19404],[-60.87316,9.11042],[-60.96129,9.0694]]],[[[-60.81786,9.206],[-60.7285,9.19294],[-60.8452,9.1166],[-60.81786,9.206]]],[[[-62.24938,10.05207],[-62.25792,9.99429],[-62.298,9.98371],[-62.24938,10.05207]]]]}},{"type":"Feature","properties":{"id":"ve-z","lat":3.34276,"lng":-65.79596},"geometry":{"type":"Polygon","coordinates":[[[-64.64802,4.20791],[-64.74594,4.28762],[-64.81291,4.25279],[-64.6429,3.97296],[-64.20298,3.59472],[-64.24561,3.41894],[-64.22292,3.124],[-63.99756,2.71493],[-64.04797,2.47132],[-63.36489,2.41308],[-63.41176,2.14938],[-63.61753,2.10116],[-63.78321,1.975],[-63.99503,1.95802],[-64.05361,1.89371],[-64.09296,1.62261],[-64.35294,1.36583],[-64.39477,1.39219],[-64.36459,1.49709],[-64.40901,1.50751],[-64.73088,1.24757],[-64.83929,1.27083],[-65.02249,1.13998],[-65.13677,1.12691],[-65.20304,0.92382],[-65.3272,0.91028],[-65.49783,0.65872],[-65.58522,0.69148],[-65.5185,0.88651],[-65.60811,0.98526],[-65.74544,0.97415],[-66.13438,0.73112],[-66.3462,0.75939],[-66.87506,1.22251],[-66.98089,1.66595],[-67.13262,1.99081],[-67.11463,2.103],[-67.21726,2.26606],[-67.18972,2.39438],[-67.57559,2.6911],[-67.62659,2.81342],[-67.75103,2.8421],[-67.85593,2.78975],[-67.83862,2.88613],[-67.3958,3.26657],[-67.30465,3.42571],[-67.40392,3.50446],[-67.49983,3.71791],[-67.63176,3.76186],[-67.78622,4.17298],[-67.79309,4.42898],[-67.87505,4.53264],[-67.79309,5.06334],[-67.83459,5.33931],[-67.647,5.48336],[-67.62514,5.78451],[-67.42247,5.97824],[-67.48696,6.16678],[-67.1839,6.1071],[-67.14453,5.93431],[-67.20403,5.7228],[-67.0767,5.71397],[-67.00001,5.61906],[-66.55288,5.74275],[-66.34078,5.92421],[-66.24383,5.73334],[-66.02746,5.78223],[-65.82711,6.1102],[-65.61413,6.14061],[-65.60886,5.7149],[-65.55176,5.69053],[-65.4375,5.77518],[-65.22464,5.75856],[-65.26454,5.66175],[-65.13558,5.52597],[-65.18361,5.43404],[-65.11747,5.35544],[-65.15904,5.29368],[-65.27443,5.27676],[-65.28229,5.22601],[-65.08507,4.79922],[-64.942,4.6252],[-64.6677,4.55833],[-64.64802,4.20791]]]}}]}
