{"type":"FeatureCollection","features":[{"type":"Feature","properties":{"id":"vn-01","lat":22.25517,"lng":103.27708},"geometry":{"type":"Polygon","coordinates":[[[103.50364,22.58141],[103.54992,22.64866],[103.60962,22.55586],[103.58792,22.45194],[103.80176,22.36318],[103.59257,22.13464],[103.5504,21.88691],[103.38323,22.14997],[103.32398,22.14948],[103.26441,22.04804],[103.04029,22.14773],[102.93466,22.1374],[102.77679,22.36038],[102.5232,22.56196],[102.32465,22.56512],[102.46778,22.76859],[102.53579,22.69582],[102.83184,22.59971],[102.90259,22.47723],[103.02904,22.43016],[103.32158,22.79039],[103.50364,22.58141]]]}},{"type":"Feature","properties":{"id":"vn-02","lat":22.25204,"lng":104.15839},"geometry":{"type":"Polygon","coordinates":[[[104.23682,22.74208],[104.47252,22.59338],[104.47086,22.41874],[104.59468,22.33166],[104.64543,22.17242],[104.55448,22.09565],[104.39888,22.13482],[104.44389,21.97075],[104.39418,21.89861],[104.23222,21.96018],[104.19698,21.88714],[103.98386,21.97424],[103.91147,21.86115],[103.93756,21.7388],[103.85653,21.71586],[103.63495,22.02416],[103.56942,22.03359],[103.60115,22.1509],[103.80176,22.36318],[103.58792,22.45194],[103.6134,22.53372],[103.54715,22.70068],[103.64693,22.79905],[103.95952,22.5071],[104.08686,22.79156],[104.24116,22.8244],[104.23682,22.74208]]]}},{"type":"Feature","properties":{"id":"vn-03","lat":22.73367,"lng":104.94741},"geometry":{"type":"Polygon","coordinates":[[[105.29366,23.36628],[105.43086,23.26781],[105.53519,23.099],[105.29593,22.86566],[105.45189,22.77481],[105.56764,22.59224],[105.17955,22.64531],[105.04887,22.35703],[104.94567,22.34466],[104.84826,22.17022],[104.68951,22.26443],[104.59856,22.23386],[104.59468,22.33166],[104.47086,22.41874],[104.44017,22.55348],[104.47872,22.58289],[104.36191,22.69254],[104.55354,22.83605],[104.71534,22.82708],[104.82361,22.92413],[104.79792,23.08557],[104.87006,23.16355],[105.2009,23.25401],[105.29366,23.36628]]]}},{"type":"Feature","properties":{"id":"vn-04","lat":22.74426,"lng":106.12339},"geometry":{"type":"Polygon","coordinates":[[[105.53519,23.099],[105.85388,22.90465],[106.1321,22.97501],[106.2554,22.85465],[106.48779,22.92542],[106.79873,22.78437],[106.68019,22.57945],[106.57714,22.59531],[106.49658,22.38404],[106.2721,22.4454],[106.16208,22.40884],[106.08234,22.54232],[105.86148,22.47501],[105.76525,22.6173],[105.77383,22.7137],[105.69301,22.7111],[105.56764,22.59224],[105.45189,22.77481],[105.29593,22.86566],[105.53519,23.099]]]}},{"type":"Feature","properties":{"id":"vn-05","lat":21.30955,"lng":104.13435},"geometry":{"type":"Polygon","coordinates":[[[104.75979,20.57415],[104.05668,20.95883],[103.78532,20.84596],[103.67634,20.65652],[103.44043,20.81573],[103.22583,20.82641],[103.28768,21.07796],[103.43775,21.07282],[103.44643,21.2895],[103.37625,21.39536],[103.56157,21.61054],[103.56942,22.03359],[103.63495,22.02416],[103.85653,21.71586],[104.1698,21.6593],[104.32669,21.69989],[104.31098,21.49554],[104.35712,21.41639],[104.46973,21.36226],[104.58228,21.41322],[104.7356,21.39105],[104.82852,21.3296],[104.90861,21.1014],[104.88014,21.02252],[105.0931,20.79431],[104.8574,20.72788],[104.84293,20.62572],[104.75979,20.57415]]]}},{"type":"Feature","properties":{"id":"vn-06","lat":21.76716,"lng":104.51095},"geometry":{"type":"Polygon","coordinates":[[[104.84826,22.17022],[105.09341,21.81453],[105.11176,21.70395],[104.90303,21.59599],[104.91931,21.39792],[104.82852,21.3296],[104.7356,21.39105],[104.58228,21.41322],[104.46973,21.36226],[104.35712,21.41639],[104.31098,21.49554],[104.34984,21.67103],[104.30715,21.70971],[104.1698,21.6593],[103.92526,21.71979],[103.91147,21.86115],[103.98386,21.97424],[104.19698,21.88714],[104.23222,21.96018],[104.39418,21.89861],[104.44389,21.97075],[104.39888,22.13482],[104.56538,22.10005],[104.64543,22.17242],[104.65085,22.26864],[104.84826,22.17022]]]}},{"type":"Feature","properties":{"id":"vn-07","lat":22.05262,"lng":105.22619},"geometry":{"type":"Polygon","coordinates":[[[105.11176,21.70395],[105.09341,21.81453],[104.84826,22.17022],[104.94567,22.34466],[105.04887,22.35703],[105.17955,22.64531],[105.56764,22.59224],[105.6093,22.46997],[105.49979,22.2952],[105.48863,22.15436],[105.55752,21.95088],[105.52232,21.60757],[105.57772,21.54383],[105.31743,21.51414],[105.11176,21.70395]]]}},{"type":"Feature","properties":{"id":"vn-09","lat":21.90754,"lng":106.55619},"geometry":{"type":"Polygon","coordinates":[[[106.53303,22.40345],[106.66293,22.2233],[106.65895,21.96279],[106.72876,22.00832],[106.92038,21.91696],[106.9919,21.93536],[107.0029,21.81056],[107.3032,21.6887],[107.33358,21.61251],[107.23307,21.54432],[107.21478,21.40673],[107.02409,21.37616],[106.82793,21.59716],[106.74773,21.54925],[106.5804,21.59909],[106.39871,21.41107],[106.16549,21.51714],[106.2567,21.68488],[106.11769,21.89812],[106.12348,22.05431],[106.26001,22.2621],[106.19298,22.40669],[106.25799,22.44618],[106.39855,22.37807],[106.53303,22.40345]]]}},{"type":"Feature","properties":{"id":"vn-13","lat":21.26345,"lng":107.19485},"geometry":{"type":"MultiPolygon","coordinates":[[[[107.094,20.78742],[107.03191,20.78742],[107.0735,20.73216],[107.04615,20.70425],[106.91285,20.8369],[107.02272,20.86225],[107.094,20.78742]]],[[[107.3812,20.81892],[107.35027,20.81094],[107.34108,20.8426],[107.3812,20.81892]]],[[[106.87355,20.78954],[106.81959,20.87678],[106.77068,20.85859],[106.78541,20.93081],[106.83595,20.90241],[106.87355,20.78954]]],[[[107.38217,20.88789],[107.36769,20.85838],[107.33253,20.88329],[107.38217,20.88789]]],[[[107.55454,21.02155],[107.51173,20.92398],[107.39503,20.89728],[107.50473,21.02017],[107.55454,21.02155]]],[[[107.59034,21.19306],[107.47071,21.09589],[107.37289,21.05956],[107.45533,21.2757],[107.59034,21.19306]]],[[[107.40996,21.6454],[107.50132,21.58153],[107.81164,21.64783],[107.99122,21.48566],[107.9297,21.44261],[107.90968,21.52652],[107.76686,21.52021],[107.78639,21.4584],[107.63502,21.38325],[107.59059,21.29389],[107.52231,21.34854],[107.52662,21.29877],[107.41529,21.32868],[107.44313,21.28767],[107.36061,21.23924],[107.37428,21.02757],[107.21119,20.99226],[107.19703,20.93765],[107.06609,20.95873],[107.14918,21.04059],[107.04615,20.9997],[107.04461,21.02509],[107.02564,21.03384],[107.00099,20.95108],[106.85377,20.99226],[106.94313,20.91031],[106.87428,20.93765],[106.86793,20.88272],[106.77247,20.95742],[106.82065,20.97602],[106.79811,21.02481],[106.44449,21.06437],[106.54583,21.19372],[106.96353,21.19829],[107.01458,21.33516],[107.21478,21.40673],[107.2416,21.55597],[107.40996,21.6454]]],[[[107.55795,20.96605],[107.54518,20.91914],[107.46388,20.81411],[107.47071,20.883],[107.55795,20.96605]]],[[[107.74513,21.02017],[107.77076,20.95722],[107.73829,20.93765],[107.74513,21.02017]]],[[[107.85629,21.03327],[107.8274,20.98908],[107.81772,20.98827],[107.85629,21.03327]]],[[[107.63209,21.11884],[107.5796,20.98314],[107.55942,20.98603],[107.63209,21.11884]]],[[[107.78395,21.35635],[107.80934,21.34715],[107.71144,21.30756],[107.78395,21.35635]]],[[[107.9983,21.40375],[107.84116,21.34854],[107.87281,21.37421],[107.82691,21.37641],[107.9983,21.40375]]]]}},{"type":"Feature","properties":{"id":"vn-14","lat":20.6768,"lng":105.26176},"geometry":{"type":"Polygon","coordinates":[[[105.84132,20.41948],[105.71348,20.41963],[105.67451,20.32429],[105.3088,20.45632],[105.15206,20.58652],[104.84293,20.62572],[104.8574,20.72788],[105.0931,20.79431],[104.91352,20.96379],[104.90861,21.1014],[105.13811,20.94048],[105.33267,20.91883],[105.30792,21.01192],[105.37598,21.02257],[105.5045,20.98725],[105.51597,20.82863],[105.78582,20.56831],[105.84132,20.41948]]]}},{"type":"Feature","properties":{"id":"vn-18","lat":20.18662,"lng":105.96041},"geometry":{"type":"Polygon","coordinates":[[[106.1551,20.2176],[106.05275,19.97728],[106.05997,20.06025],[105.81946,20.15564],[105.54263,20.3671],[105.69503,20.32098],[105.71348,20.41963],[105.84132,20.41948],[105.97713,20.2714],[106.1551,20.2176]]]}},{"type":"Feature","properties":{"id":"vn-20","lat":20.49457,"lng":106.36518},"geometry":{"type":"Polygon","coordinates":[[[106.5936,20.64672],[106.62477,20.59463],[106.51856,20.54096],[106.57993,20.54719],[106.51856,20.43732],[106.59425,20.44819],[106.58166,20.26418],[106.34941,20.36454],[106.2676,20.33158],[106.27954,20.39261],[106.21965,20.41366],[106.11237,20.63161],[106.4172,20.71928],[106.46899,20.60065],[106.5936,20.64672]]]}},{"type":"Feature","properties":{"id":"vn-21","lat":19.94846,"lng":105.52576},"geometry":{"type":"Polygon","coordinates":[[[104.49582,20.51193],[104.61407,20.64262],[104.75979,20.57415],[104.84293,20.62572],[105.13796,20.59084],[105.81946,20.15564],[106.05997,20.06025],[105.79086,19.60346],[105.80624,19.27432],[105.34244,19.54816],[105.27697,19.51421],[105.13821,19.7868],[105.16912,19.90455],[104.94569,19.99237],[104.96443,20.07609],[104.90799,20.17533],[104.65705,20.2127],[104.68465,20.33305],[104.58936,20.40682],[104.35981,20.43973],[104.44497,20.53461],[104.49582,20.51193]]]}},{"type":"Feature","properties":{"id":"vn-22","lat":19.28711,"lng":104.83286},"geometry":{"type":"Polygon","coordinates":[[[104.92246,19.98224],[105.17955,19.89096],[105.13821,19.7868],[105.27697,19.51421],[105.34244,19.54816],[105.80624,19.27432],[105.74342,19.23192],[105.73707,19.10847],[105.61427,18.9986],[105.75758,18.77204],[105.68092,18.57732],[105.16948,18.61833],[105.11268,18.69834],[104.71028,18.79609],[104.14773,19.18289],[103.84842,19.29991],[104.08996,19.48367],[104.00097,19.68074],[104.08872,19.6519],[104.22897,19.70601],[104.61427,19.60743],[104.67597,19.72469],[104.805,19.79089],[104.7618,19.88551],[104.92246,19.98224]]]}},{"type":"Feature","properties":{"id":"vn-23","lat":18.3871,"lng":105.55137},"geometry":{"type":"Polygon","coordinates":[[[105.15206,18.5968],[105.27433,18.62581],[105.6618,18.57021],[105.77003,18.67158],[105.76441,18.75898],[105.87924,18.51093],[106.09343,18.25873],[106.27084,18.20409],[106.34669,18.05947],[106.43483,18.12352],[106.51856,17.95702],[106.13867,17.92888],[105.92716,18.07078],[105.60343,17.96918],[105.46672,18.18096],[105.32187,18.17008],[105.29252,18.25274],[105.15666,18.31984],[105.07997,18.45435],[105.15206,18.5968]]]}},{"type":"Feature","properties":{"id":"vn-24","lat":17.50451,"lng":106.27424},"geometry":{"type":"Polygon","coordinates":[[[106.18543,17.2574],[105.72309,17.6735],[105.60521,17.85426],[105.60343,17.96918],[105.92716,18.07078],[106.13867,17.92888],[106.51856,17.95702],[106.43605,17.88199],[106.48951,17.70258],[106.37452,17.76529],[106.28517,17.77212],[106.42921,17.73115],[106.38307,17.71918],[106.4087,17.68277],[106.50441,17.68277],[106.76393,17.33552],[107.0075,17.16222],[106.78602,16.96625],[106.45653,16.97359],[106.28455,17.28479],[106.18543,17.2574]]]}},{"type":"Feature","properties":{"id":"vn-25","lat":16.70458,"lng":106.95774},"geometry":{"type":"Polygon","coordinates":[[[106.6929,16.42789],[106.64019,16.58664],[106.54066,16.65914],[106.53355,16.95064],[106.81692,16.97876],[107.0075,17.16222],[107.20069,16.92626],[107.14177,16.86774],[107.21648,16.90795],[107.41163,16.75003],[107.30914,16.61955],[107.11463,16.56431],[107.16698,16.46406],[107.06798,16.29081],[106.9673,16.29988],[106.85589,16.41466],[106.84669,16.53005],[106.6929,16.42789]]]}},{"type":"Feature","properties":{"id":"vn-26","lat":16.42192,"lng":107.46414},"geometry":{"type":"Polygon","coordinates":[[[107.13599,16.18478],[107.06264,16.34391],[107.16698,16.46406],[107.10833,16.55336],[107.30914,16.61955],[107.41163,16.75003],[107.63527,16.57978],[107.44337,16.64802],[107.6631,16.55183],[107.6631,16.49722],[107.69711,16.52009],[107.84116,16.37979],[107.79444,16.37922],[107.82407,16.30484],[107.8965,16.27806],[107.92994,16.35322],[108.04298,16.34638],[108.09449,16.23652],[108.05397,16.23599],[108.20436,16.2167],[107.95308,16.21591],[107.72994,16.01406],[107.6623,16.09142],[107.32686,16.05607],[107.13599,16.18478]]]}},{"type":"Feature","properties":{"id":"vn-27","lat":15.52351,"lng":107.99929},"geometry":{"type":"Polygon","coordinates":[[[107.14879,15.77346],[107.37554,15.91908],[107.43329,16.05546],[107.6623,16.09142],[107.72994,16.01406],[107.82167,16.09251],[108.00088,16.08997],[108.03375,15.98634],[108.28232,15.99006],[108.40992,15.88085],[108.61866,15.52924],[108.68344,15.51777],[108.62892,15.45571],[108.69711,15.49042],[108.76157,15.39655],[108.35807,15.30581],[108.2788,15.19675],[108.32655,15.08644],[108.20294,15.06391],[108.1385,14.95648],[108.00615,15.19445],[107.8505,15.22773],[107.64974,15.39893],[107.51264,15.40942],[107.44789,15.50812],[107.36934,15.49606],[107.14879,15.77346]]]}},{"type":"Feature","properties":{"id":"vn-28","lat":14.72242,"lng":108.04285},"geometry":{"type":"Polygon","coordinates":[[[107.35177,14.34197],[107.50525,14.54103],[107.49089,14.80424],[107.55817,14.88672],[107.44557,15.02539],[107.57801,15.04725],[107.65682,15.20569],[107.60256,15.41012],[107.8505,15.22773],[108.00615,15.19445],[108.1385,14.95648],[108.20294,15.06391],[108.29657,15.04813],[108.56023,14.81101],[108.61816,14.64061],[108.41641,14.62453],[108.41098,14.51614],[108.33636,14.4307],[107.72002,14.18559],[107.44599,13.92164],[107.31994,14.11984],[107.35177,14.34197]]]}},{"type":"Feature","properties":{"id":"vn-29","lat":14.94237,"lng":108.68806},"geometry":{"type":"Polygon","coordinates":[[[108.76157,15.39655],[108.7798,15.32534],[108.82748,15.42902],[108.95167,15.25023],[108.86248,15.15249],[108.91,15.14663],[108.98552,14.83662],[109.09506,14.66743],[108.81417,14.67334],[108.66689,14.59596],[108.54865,14.82555],[108.29657,15.04813],[108.32598,15.0965],[108.27616,15.17814],[108.3714,15.31273],[108.76157,15.39655]]]}},{"type":"Feature","properties":{"id":"vn-30","lat":13.85256,"lng":108.10368},"geometry":{"type":"Polygon","coordinates":[[[107.5616,13.26201],[107.60431,13.49853],[107.44324,13.78347],[107.44599,13.92164],[107.72002,14.18559],[108.33636,14.4307],[108.41098,14.51614],[108.41641,14.62453],[108.61816,14.64061],[108.68714,14.45718],[108.63552,14.1525],[108.8076,13.74681],[108.86501,13.19444],[108.68782,13.07129],[108.66084,12.99624],[108.47212,13.07385],[108.38742,13.27893],[108.10749,13.3842],[107.6809,13.33288],[107.5616,13.26201]]]}},{"type":"Feature","properties":{"id":"vn-31","lat":14.00019,"lng":108.97297},"geometry":{"type":"Polygon","coordinates":[[[109.07732,14.67247],[109.06105,14.56371],[109.23902,14.133],[109.17449,14.17206],[109.30738,13.87637],[109.30397,13.75926],[109.25147,13.89094],[109.23707,13.69859],[108.90971,13.53783],[108.82564,13.55752],[108.79861,13.77482],[108.64358,14.10945],[108.66689,14.59596],[108.81417,14.67334],[109.07732,14.67247]]]}},{"type":"Feature","properties":{"id":"vn-32","lat":13.22341,"lng":109.09336},"geometry":{"type":"Polygon","coordinates":[[[109.23707,13.69859],[109.2942,13.53034],[109.21852,13.64696],[109.21013,13.63081],[109.33969,13.46548],[109.30738,13.40681],[109.24513,13.48517],[109.23219,13.39313],[109.30738,13.35277],[109.25896,13.29755],[109.2942,13.2355],[109.31813,13.28889],[109.30738,13.13304],[109.4629,12.86213],[109.19569,12.84681],[109.07389,12.75408],[108.8616,12.807],[108.66084,12.99624],[108.87483,13.21131],[108.82564,13.55752],[108.97782,13.54256],[109.23707,13.69859]]]}},{"type":"Feature","properties":{"id":"vn-33","lat":12.79051,"lng":108.22414},"geometry":{"type":"Polygon","coordinates":[[[107.54008,12.71669],[107.4604,13.02161],[107.5616,13.26201],[107.6809,13.33288],[108.0693,13.38854],[108.36448,13.2949],[108.51465,13.03275],[108.66084,12.99624],[108.81768,12.82836],[109.0373,12.75266],[108.89824,12.66987],[108.84796,12.47544],[108.6766,12.47877],[108.68146,12.303],[108.49945,12.29855],[108.24247,12.15704],[108.11757,12.15187],[108.07659,12.26423],[107.94117,12.35383],[107.93531,12.42499],[108.00587,12.48684],[107.91017,12.53787],[107.84221,12.72074],[107.54008,12.71669]]]}},{"type":"Feature","properties":{"id":"vn-34","lat":12.32821,"lng":108.96055},"geometry":{"type":"MultiPolygon","coordinates":[[[[109.33627,12.21796],[109.28761,12.18895],[109.24529,12.22809],[109.2732,12.23554],[109.33627,12.21796]]],[[[109.36883,12.82461],[109.47242,12.6564],[109.45135,12.57075],[109.40349,12.68745],[109.34205,12.6601],[109.3899,12.71162],[109.3589,12.79731],[109.20045,12.59125],[109.21119,12.5434],[109.24903,12.58552],[109.23715,12.52228],[109.34205,12.37889],[109.29737,12.35102],[109.14967,12.44037],[109.24204,12.30541],[109.17693,12.27652],[109.22478,12.20083],[109.1985,12.20795],[109.18824,12.20576],[109.18434,12.194],[109.2942,11.87124],[109.22478,11.87865],[109.21852,12.01581],[109.17677,12.12946],[109.20818,11.97663],[109.12582,11.86359],[109.16334,11.82404],[109.20493,11.86811],[109.20387,11.78868],[109.13394,11.79251],[109.05043,11.89803],[108.87793,11.95418],[108.80977,12.12433],[108.71918,12.18114],[108.67123,12.46895],[108.84796,12.47544],[108.90677,12.68142],[109.17523,12.83924],[109.36883,12.82461]]],[[[109.38315,12.62373],[109.38396,12.56306],[109.31202,12.61432],[109.38315,12.62373]]]]}},{"type":"Feature","properties":{"id":"vn-35","lat":11.75037,"lng":108.05626},"geometry":{"type":"Polygon","coordinates":[[[108.71918,12.18114],[108.63738,11.8392],[108.68332,11.72711],[108.61009,11.64014],[108.5995,11.52077],[108.34117,11.50793],[108.33574,11.36866],[108.07829,11.2073],[108.01018,11.30148],[107.72684,11.31949],[107.45668,11.41042],[107.45879,11.48253],[107.28165,11.6279],[107.32759,11.71781],[107.56344,11.7869],[107.70198,11.90692],[108.00848,11.77362],[108.09281,11.9224],[107.98553,12.06469],[107.99861,12.12575],[108.24247,12.15704],[108.51573,12.30028],[108.69433,12.29834],[108.71918,12.18114]]]}},{"type":"Feature","properties":{"id":"vn-36","lat":11.73139,"lng":108.96087},"geometry":{"type":"Polygon","coordinates":[[[108.89096,11.94312],[109.24293,11.73566],[109.136,11.57022],[109.02027,11.6328],[109.00563,11.34366],[108.93336,11.31118],[108.77861,11.40197],[108.60699,11.61438],[108.68332,11.72711],[108.63738,11.8392],[108.69479,12.15533],[108.79225,12.14554],[108.89096,11.94312]]]}},{"type":"Feature","properties":{"id":"vn-37","lat":11.44001,"lng":106.12856},"geometry":{"type":"Polygon","coordinates":[[[106.01542,11.7705],[106.4603,11.66952],[106.48996,11.57351],[106.34331,11.3444],[106.4186,11.06501],[106.36367,10.98215],[106.30279,11.02457],[106.17836,10.96391],[106.14875,11.07072],[106.08663,11.05633],[105.84442,11.28988],[105.85781,11.53563],[105.79342,11.6073],[105.84086,11.65815],[105.93408,11.64286],[106.01542,11.7705]]]}},{"type":"Feature","properties":{"id":"vn-39","lat":11.05104,"lng":107.15946},"geometry":{"type":"Polygon","coordinates":[[[106.98414,10.69937],[106.98414,10.56688],[106.8925,10.67007],[106.75703,10.70539],[106.75114,10.77249],[106.88534,10.78818],[106.78752,11.03468],[106.95469,11.064],[106.93387,11.21474],[107.10429,11.47542],[107.38252,11.5595],[107.45668,11.41042],[107.60953,11.36168],[107.43094,11.03809],[107.55739,10.97967],[107.59078,10.85086],[107.51657,10.75606],[107.45786,10.80151],[107.34247,10.68374],[107.26656,10.77443],[107.04053,10.63679],[106.98414,10.69937]]]}},{"type":"Feature","properties":{"id":"vn-40","lat":11.09568,"lng":107.96841},"geometry":{"type":"MultiPolygon","coordinates":[[[[108.92945,10.54483],[108.96079,10.50287],[108.9402,10.50422],[108.92945,10.54483]]],[[[108.88966,11.33063],[108.78785,11.30069],[108.72934,11.18154],[108.53126,11.15327],[108.30006,10.91283],[108.25864,10.95181],[108.10646,10.91816],[107.9983,10.69937],[107.88233,10.71699],[107.58652,10.57351],[107.51657,10.75606],[107.5884,10.91176],[107.54499,10.99215],[107.43094,11.03809],[107.59729,11.35758],[108.01018,11.30148],[108.06605,11.2034],[108.32489,11.35626],[108.34117,11.50793],[108.58043,11.50521],[108.62017,11.56402],[108.69696,11.54777],[108.77189,11.40778],[108.86791,11.38799],[108.88966,11.33063]]]]}},{"type":"Feature","properties":{"id":"vn-41","lat":10.67753,"lng":106.2122},"geometry":{"type":"Polygon","coordinates":[[[105.72613,11.01837],[105.87868,10.82807],[105.93134,10.89636],[106.17732,10.76686],[106.12249,10.95551],[106.31602,11.01992],[106.51167,10.88561],[106.50454,10.72322],[106.73729,10.63183],[106.73341,10.52245],[106.65577,10.52188],[106.59425,10.43928],[106.57993,10.48774],[106.58474,10.41443],[106.46619,10.41389],[106.28832,10.58302],[105.92297,10.56706],[105.52729,10.93287],[105.72613,11.01837]]]}},{"type":"Feature","properties":{"id":"vn-43","lat":10.5905,"lng":107.30442},"geometry":{"type":"MultiPolygon","coordinates":[[[[107.17205,10.46459],[107.21119,10.4256],[107.1902,10.43305],[107.08717,10.32319],[107.07936,10.39102],[107.17205,10.46459]]],[[[106.99147,10.57026],[107.02508,10.60391],[107.01905,10.53388],[106.99147,10.57026]]],[[[107.03191,10.47407],[107.03191,10.60749],[107.0114,10.63789],[107.25447,10.77381],[107.34247,10.68374],[107.45786,10.80151],[107.58652,10.57351],[107.27198,10.37848],[107.1902,10.40518],[107.21754,10.4256],[107.21697,10.43448],[107.17596,10.47744],[107.03191,10.47407]]]]}},{"type":"Feature","properties":{"id":"vn-44","lat":10.56529,"lng":105.16233},"geometry":{"type":"Polygon","coordinates":[[[105.07791,10.9469],[105.20915,10.89165],[105.29376,10.70756],[105.36931,10.70268],[105.38724,10.59925],[105.58299,10.44652],[105.47344,10.27534],[105.37753,10.23312],[105.32027,10.27694],[105.24146,10.19961],[104.72442,10.52134],[104.85441,10.53132],[105.06674,10.71395],[105.0114,10.88383],[105.07791,10.9469]]]}},{"type":"Feature","properties":{"id":"vn-45","lat":10.65096,"lng":105.61667},"geometry":{"type":"Polygon","coordinates":[[[105.4105,10.963],[105.5236,10.95129],[105.96266,10.55346],[105.84902,10.30144],[105.38724,10.59925],[105.36931,10.70268],[105.29376,10.70756],[105.21981,10.83027],[105.20915,10.89165],[105.31789,10.83885],[105.4105,10.963]]]}},{"type":"Feature","properties":{"id":"vn-46","lat":10.44219,"lng":106.16876},"geometry":{"type":"MultiPolygon","coordinates":[[[[106.74684,10.26317],[106.72413,10.22651],[106.51173,10.29589],[106.5879,10.27692],[106.74684,10.26317]]],[[[106.45224,10.41637],[106.74106,10.468],[106.79078,10.28486],[106.35434,10.33897],[105.84504,10.3065],[105.96266,10.55346],[106.1458,10.58995],[106.30124,10.57628],[106.45224,10.41637]]]]}},{"type":"Feature","properties":{"id":"vn-47","lat":10.02241,"lng":105.24957},"geometry":{"type":"MultiPolygon","coordinates":[[[[104.70063,10.52423],[105.32415,10.14189],[105.52573,9.94084],[105.50398,9.83426],[105.3676,9.70189],[105.39226,9.58683],[105.29603,9.60032],[105.29484,9.41351],[105.0239,9.52826],[104.83414,9.53443],[104.89279,9.8511],[105.07667,9.94343],[105.11329,9.85708],[105.10711,9.9527],[105.00327,10.09211],[104.90105,10.09732],[104.77198,10.22663],[104.61305,10.14448],[104.49903,10.37059],[104.52491,10.41942],[104.46957,10.37848],[104.45135,10.41966],[104.56683,10.52807],[104.70063,10.52423]]],[[[104.08546,10.35395],[104.03346,10.09601],[104.05128,10.00796],[103.84604,10.37128],[103.93377,10.36636],[104.00473,10.451],[104.08546,10.35395]]]]}},{"type":"Feature","properties":{"id":"vn-49","lat":10.10032,"lng":105.97446},"geometry":{"type":"Polygon","coordinates":[[[105.99657,9.88856],[105.69224,10.12318],[105.72753,10.18563],[105.90096,10.1601],[105.84902,10.30144],[106.10074,10.24909],[106.24643,10.07746],[106.13257,9.94583],[105.99657,9.88856]]]}},{"type":"Feature","properties":{"id":"vn-50","lat":10.1081,"lng":106.5911},"geometry":{"type":"MultiPolygon","coordinates":[[[[106.48601,9.90265],[106.53566,9.82917],[106.42237,9.93903],[106.48601,9.90265]]],[[[106.35434,10.33897],[106.79762,10.15721],[106.60743,9.97484],[106.46892,10.05899],[106.35987,10.22069],[106.292,10.2617],[106.46168,10.03571],[106.6963,9.89655],[106.61134,9.81704],[106.14487,10.22858],[105.95491,10.28852],[106.35434,10.33897]]]]}},{"type":"Feature","properties":{"id":"vn-51","lat":9.81382,"lng":106.28633},"geometry":{"type":"Polygon","coordinates":[[[106.24643,10.07746],[106.57496,9.73908],[106.56316,9.61432],[106.49724,9.54999],[106.3982,9.54206],[106.25034,9.63117],[105.99657,9.88856],[106.13257,9.94583],[106.24643,10.07746]]]}},{"type":"Feature","properties":{"id":"vn-52","lat":9.56863,"lng":105.87361},"geometry":{"type":"MultiPolygon","coordinates":[[[[106.66603,8.76317],[106.65577,8.69888],[106.58334,8.65107],[106.57097,8.70596],[106.66603,8.76317]]],[[[105.90211,9.9167],[106.20362,9.52684],[106.18393,9.36221],[105.86826,9.25471],[105.82303,9.37803],[105.59974,9.418],[105.5693,9.61042],[105.82628,9.7237],[105.90211,9.9167]]],[[[106.27931,9.59569],[106.27003,9.53449],[106.19703,9.61005],[106.20704,9.56289],[106.08717,9.75463],[106.27931,9.59569]]]]}},{"type":"Feature","properties":{"id":"vn-53","lat":22.15821,"lng":105.85412},"geometry":{"type":"Polygon","coordinates":[[[105.55752,21.95088],[105.49468,22.26856],[105.6093,22.46997],[105.56764,22.59224],[105.64847,22.67794],[105.77383,22.7137],[105.76525,22.6173],[105.86148,22.47501],[106.10792,22.53056],[106.26001,22.2621],[106.12348,22.05431],[106.11397,21.94812],[105.81373,21.77926],[105.73487,22.01974],[105.55752,21.95088]]]}},{"type":"Feature","properties":{"id":"vn-54","lat":21.3858,"lng":106.51566},"geometry":{"type":"Polygon","coordinates":[[[107.06533,21.36053],[106.94787,21.18969],[106.7592,21.16168],[106.42217,21.23095],[106.29804,21.13406],[105.94499,21.24749],[105.9208,21.32805],[106.06715,21.46138],[106.05035,21.63268],[106.14378,21.62098],[106.16549,21.51714],[106.39871,21.41107],[106.5804,21.59909],[106.74773,21.54925],[106.82793,21.59716],[106.92198,21.44502],[107.00683,21.44177],[107.06533,21.36053]]]}},{"type":"Feature","properties":{"id":"vn-55","lat":9.31637,"lng":105.56627},"geometry":{"type":"Polygon","coordinates":[[[105.86826,9.25471],[105.53875,9.12934],[105.42604,9.008],[105.28332,9.20518],[105.29603,9.60032],[105.5693,9.61042],[105.59974,9.418],[105.82303,9.37803],[105.86826,9.25471]]]}},{"type":"Feature","properties":{"id":"vn-56","lat":21.06729,"lng":106.13089},"geometry":{"type":"Polygon","coordinates":[[[106.29504,21.00053],[106.00472,20.9913],[105.92204,21.15047],[105.94499,21.24749],[106.29804,21.13406],[106.29504,21.00053]]]}},{"type":"Feature","properties":{"id":"vn-57","lat":11.20426,"lng":106.67302},"geometry":{"type":"Polygon","coordinates":[[[106.71233,10.88096],[106.51374,11.13583],[106.42961,11.1242],[106.34672,11.2727],[106.35292,11.3814],[106.46433,11.55333],[106.61905,11.43137],[106.63828,11.31964],[106.69621,11.36083],[106.71822,11.30691],[106.79129,11.3353],[106.96477,11.28363],[106.95469,11.064],[106.784,11.02589],[106.83599,10.88778],[106.71233,10.88096]]]}},{"type":"Feature","properties":{"id":"vn-58","lat":11.77192,"lng":106.89349},"geometry":{"type":"Polygon","coordinates":[[[106.87929,12.06273],[107.22782,12.31059],[107.25808,12.02012],[107.40019,11.79752],[107.28444,11.6549],[107.30852,11.56622],[107.11918,11.48793],[106.96477,11.28363],[106.79129,11.3353],[106.71822,11.30691],[106.69621,11.36083],[106.63828,11.31964],[106.61905,11.43137],[106.46433,11.55333],[106.47136,11.65358],[106.39886,11.74631],[106.43875,11.86372],[106.394,11.96981],[106.6805,11.96506],[106.77196,12.06583],[106.87929,12.06273]]]}},{"type":"Feature","properties":{"id":"vn-59","lat":9.10659,"lng":105.07663},"geometry":{"type":"Polygon","coordinates":[[[105.42604,9.008],[105.31513,8.81224],[105.10147,8.63428],[104.85621,8.56558],[104.72291,8.60269],[104.83277,8.69888],[104.91163,8.68521],[104.96314,8.71939],[104.85328,8.71255],[104.92897,8.7473],[104.92156,8.80931],[104.81666,8.77131],[104.7746,8.81787],[104.83414,9.53443],[105.0239,9.52826],[105.27991,9.40581],[105.31686,9.29721],[105.28332,9.20518],[105.42604,9.008]]]}},{"type":"Feature","properties":{"id":"vn-61","lat":20.92106,"lng":106.3387},"geometry":{"type":"Polygon","coordinates":[[[106.5356,20.78227],[106.25737,20.6959],[106.12203,20.83284],[106.15216,20.99781],[106.29504,21.00053],[106.32951,21.18801],[106.45772,21.23271],[106.54583,21.19372],[106.44449,21.06437],[106.60526,21.02544],[106.49074,20.84431],[106.5356,20.78227]]]}},{"type":"Feature","properties":{"id":"vn-63","lat":20.52959,"lng":105.97801},"geometry":{"type":"Polygon","coordinates":[[[105.95119,20.33677],[105.84132,20.41948],[105.78582,20.56831],[105.82551,20.66034],[106.02023,20.71246],[106.18445,20.49087],[105.97899,20.42627],[105.95119,20.33677]]]}},{"type":"Feature","properties":{"id":"vn-66","lat":20.75277,"lng":106.07591},"geometry":{"type":"Polygon","coordinates":[[[106.25737,20.6959],[106.05966,20.61662],[105.91506,20.80964],[105.91243,20.96593],[106.15216,20.99781],[106.12658,20.81354],[106.25737,20.6959]]]}},{"type":"Feature","properties":{"id":"vn-67","lat":20.2248,"lng":106.31781},"geometry":{"type":"Polygon","coordinates":[[[106.34941,20.36454],[106.56961,20.23199],[106.38071,20.21198],[106.10711,19.96499],[106.1551,20.2176],[105.9638,20.28261],[105.95243,20.39085],[106.07087,20.4833],[106.18445,20.49087],[106.27954,20.39261],[106.2676,20.33158],[106.34941,20.36454]]]}},{"type":"Feature","properties":{"id":"vn-68","lat":21.31551,"lng":105.13833},"geometry":{"type":"Polygon","coordinates":[[[105.11176,21.70395],[105.45778,21.30041],[105.35381,21.30141],[105.28487,21.19155],[105.33267,20.91883],[105.13811,20.94048],[104.87363,21.13762],[104.82852,21.3296],[104.91931,21.39792],[104.88996,21.56706],[105.11176,21.70395]]]}},{"type":"Feature","properties":{"id":"vn-69","lat":21.66019,"lng":105.8787},"geometry":{"type":"Polygon","coordinates":[[[105.77213,21.36247],[105.51829,21.6355],[105.53436,21.86678],[105.55752,21.95088],[105.68371,22.03075],[105.7729,21.97781],[105.80691,21.78004],[106.11397,21.94812],[106.14193,21.80534],[106.2567,21.68488],[106.16751,21.57078],[106.14378,21.62098],[106.04152,21.62842],[106.06715,21.46138],[105.9208,21.32805],[105.77213,21.36247]]]}},{"type":"Feature","properties":{"id":"vn-70","lat":21.34832,"lng":105.59808},"geometry":{"type":"Polygon","coordinates":[[[105.42939,21.27644],[105.45747,21.31172],[105.31743,21.51414],[105.57772,21.54383],[105.76422,21.38492],[105.76267,21.10496],[105.49452,21.17369],[105.42939,21.27644]]]}},{"type":"Feature","properties":{"id":"vn-71","lat":21.69268,"lng":103.25664},"geometry":{"type":"Polygon","coordinates":[[[102.65345,21.6563],[102.59103,21.90135],[102.47807,21.95758],[102.48287,22.0214],[102.20697,22.24541],[102.11866,22.39755],[102.21803,22.41068],[102.32465,22.56512],[102.5232,22.56196],[102.77679,22.36038],[102.93466,22.1374],[103.04029,22.14773],[103.26441,22.04804],[103.32398,22.14948],[103.38323,22.14997],[103.5504,21.88691],[103.56157,21.61054],[103.37625,21.39536],[103.44643,21.2895],[103.43775,21.07282],[103.28768,21.07796],[103.22583,20.82641],[103.11529,20.86839],[102.88786,21.22692],[102.8013,21.25483],[102.8752,21.30532],[102.91804,21.45011],[102.84967,21.42541],[102.97411,21.57532],[102.9478,21.73712],[102.84719,21.70446],[102.80673,21.83608],[102.75216,21.6809],[102.65345,21.6563]]]}},{"type":"Feature","properties":{"id":"vn-72","lat":12.22682,"lng":107.66667},"geometry":{"type":"Polygon","coordinates":[[[107.39301,12.25285],[107.5143,12.34385],[107.55667,12.47268],[107.54008,12.71669],[107.84221,12.72074],[107.91017,12.53787],[108.00587,12.48684],[107.93531,12.42499],[107.94117,12.35383],[108.12867,12.20079],[107.98486,12.08107],[108.0879,11.94018],[108.07953,11.85049],[107.99793,11.76964],[107.71831,11.90963],[107.56344,11.7869],[107.39043,11.75176],[107.35968,11.91821],[107.25808,12.02012],[107.22782,12.31059],[107.3202,12.32922],[107.39301,12.25285]]]}},{"type":"Feature","properties":{"id":"vn-73","lat":9.81578,"lng":105.65952},"geometry":{"type":"Polygon","coordinates":[[[105.69224,10.12318],[105.90211,9.9167],[105.82628,9.7237],[105.39226,9.58683],[105.3676,9.70189],[105.52853,9.90787],[105.42278,10.04363],[105.69224,10.12318]]]}},{"type":"Feature","properties":{"id":"vn-ct","lat":10.25423,"lng":105.64834},"geometry":{"type":"Polygon","coordinates":[[[105.42278,10.04363],[105.24146,10.19961],[105.32027,10.27694],[105.37753,10.23312],[105.47344,10.27534],[105.58299,10.44652],[105.71161,10.40234],[105.9146,10.21395],[105.86789,10.14072],[105.72753,10.18563],[105.69224,10.12318],[105.42278,10.04363]]]}},{"type":"Feature","properties":{"id":"vn-dn","lat":16.09869,"lng":108.03987},"geometry":{"type":"Polygon","coordinates":[[[108.20012,16.21157],[108.14226,16.14838],[108.22828,16.08975],[108.19752,16.00373],[108.25896,16.01056],[108.24537,16.16201],[108.3484,16.13471],[108.2658,16.10741],[108.28232,15.99006],[108.05535,15.97809],[108.00088,16.08997],[107.85624,16.08765],[107.95308,16.21591],[108.20012,16.21157]]]}},{"type":"Feature","properties":{"id":"vn-hn","lat":20.9508,"lng":105.7221},"geometry":{"type":"Polygon","coordinates":[[[105.78582,20.56831],[105.51597,20.82863],[105.5045,20.98725],[105.29097,21.0382],[105.28487,21.19155],[105.35381,21.30141],[105.41468,21.30723],[105.49452,21.17369],[105.76267,21.10496],[105.77213,21.36247],[105.9208,21.32805],[105.92204,21.15047],[106.01278,21.01691],[105.89532,20.91436],[106.0072,20.71323],[105.82551,20.66034],[105.78582,20.56831]]]}},{"type":"Feature","properties":{"id":"vn-hp","lat":20.82138,"lng":106.62387},"geometry":{"type":"Polygon","coordinates":[[[106.60526,21.02544],[106.75514,20.93854],[106.69996,20.88276],[106.80592,20.67756],[106.66261,20.69798],[106.70289,20.67158],[106.66969,20.63646],[106.58676,20.66327],[106.46899,20.60065],[106.4172,20.71928],[106.5356,20.78227],[106.49658,20.86048],[106.60526,21.02544]]]}},{"type":"Feature","properties":{"id":"vn-sg","lat":10.82394,"lng":106.68398},"geometry":{"type":"MultiPolygon","coordinates":[[[[106.96892,10.41641],[106.88795,10.371],[106.88836,10.50487],[106.94809,10.50703],[106.92205,10.4256],[106.96892,10.41641]]],[[[107.02564,10.50137],[106.99147,10.48086],[107.02024,10.51191],[107.02564,10.50137]]],[[[106.84783,10.61384],[106.8401,10.40518],[106.7588,10.48774],[106.7859,10.60139],[106.75196,10.66584],[106.84783,10.61384]]],[[[106.87574,10.5351],[106.85377,10.63105],[106.8777,10.63556],[106.9297,10.54906],[106.89527,10.57648],[106.87574,10.5351]]],[[[107.00359,10.51777],[106.95721,10.47167],[106.94313,10.60065],[106.8816,10.65217],[106.74147,10.66926],[106.77247,10.60375],[106.74407,10.55223],[106.72473,10.64372],[106.50454,10.72322],[106.51167,10.88561],[106.36367,10.98215],[106.42961,11.1242],[106.52242,11.13056],[106.72179,10.87538],[106.83599,10.88778],[106.88116,10.7625],[106.75114,10.77249],[106.75703,10.70539],[106.8925,10.67007],[107.00359,10.51777]]]]}}]}
