{"type":"FeatureCollection","features":[{"type":"Feature","properties":{"id":"vu-map","lat":-16.2645,"lng":167.52781},"geometry":{"type":"MultiPolygon","coordinates":[[[[168.35043,-16.53924],[168.29542,-16.49798],[168.36118,-16.51425],[168.35043,-16.53924]]],[[[168.23414,-16.43231],[168.25082,-16.47959],[168.21013,-16.50465],[168.20314,-16.49537],[168.23414,-16.43231]]],[[[167.83058,-16.43141],[167.76059,-16.54632],[167.62192,-16.49424],[167.52101,-16.5805],[167.45875,-16.56797],[167.37485,-16.19297],[167.32244,-16.115],[167.23308,-16.16961],[167.14747,-16.08294],[167.18531,-15.89072],[167.33611,-15.90895],[167.39763,-16.08709],[167.77247,-16.33603],[167.77394,-16.45957],[167.83058,-16.43141]]],[[[168.15406,-16.35784],[167.91285,-16.23309],[168.17164,-16.08026],[168.23072,-16.22772],[168.32985,-16.30625],[168.15406,-16.35784]]]]}},{"type":"Feature","properties":{"id":"vu-pam","lat":-15.3849,"lng":167.82894},"geometry":{"type":"MultiPolygon","coordinates":[[[[168.15455,-15.46331],[168.27036,-15.91424],[168.20427,-15.99245],[168.11964,-15.66277],[168.15455,-15.46331]]],[[[168.00245,-15.28183],[167.83855,-15.4848],[167.67286,-15.4498],[167.80445,-15.32],[168.00245,-15.28183]]],[[[168.13111,-15.39512],[168.11069,-14.91578],[168.19207,-15.20631],[168.17897,-15.39512],[168.13111,-15.39512]]]]}},{"type":"Feature","properties":{"id":"vu-sam","lat":-15.14857,"lng":167.03398},"geometry":{"type":"MultiPolygon","coordinates":[[[[167.23373,-15.74139],[167.08912,-15.70355],[167.09498,-15.62957],[167.23357,-15.64153],[167.23373,-15.74139]]],[[[167.1574,-15.53899],[167.19484,-15.60752],[167.10955,-15.5875],[167.1574,-15.53899]]],[[[167.09409,-15.58636],[166.9463,-15.57676],[166.79314,-15.65634],[166.64137,-15.43475],[166.64918,-15.21836],[166.52263,-14.83213],[166.55616,-14.64593],[166.60987,-14.6347],[166.74708,-14.81959],[166.81316,-15.16041],[166.91977,-15.15594],[166.96453,-14.95135],[167.08286,-14.92889],[167.04127,-15.02508],[167.08912,-15.14121],[167.14422,-15.12811],[167.17172,-15.36639],[167.24724,-15.49822],[167.1574,-15.52288],[167.09409,-15.58636]]],[[[167.09645,-14.92889],[167.13982,-14.9533],[167.1574,-14.95623],[167.13103,-14.96893],[167.09645,-14.92889]]]]}},{"type":"Feature","properties":{"id":"vu-see","lat":-17.61431,"lng":168.37594},"geometry":{"type":"MultiPolygon","coordinates":[[[[168.56984,-17.69158],[168.48414,-17.82073],[168.38836,-17.82366],[168.3156,-17.75921],[168.24732,-17.78655],[168.30934,-17.73121],[168.25172,-17.69557],[168.15113,-17.71819],[168.32301,-17.53265],[168.43922,-17.53704],[168.56984,-17.69158]]],[[[168.20786,-17.55039],[168.29542,-17.52646],[168.20541,-17.58115],[168.20786,-17.55039]]],[[[168.32277,-17.44736],[168.37208,-17.4791],[168.35629,-17.48415],[168.32277,-17.44736]]],[[[168.42514,-17.04665],[168.34327,-17.09344],[168.32277,-17.08945],[168.42514,-17.04665]]],[[[168.55926,-16.94362],[168.55274,-16.87908],[168.59702,-16.8952],[168.55926,-16.94362]]],[[[168.14422,-16.76922],[168.12672,-16.65162],[168.1753,-16.57301],[168.24732,-16.69036],[168.46412,-16.77801],[168.47389,-16.84808],[168.14422,-16.76922]]]]}},{"type":"Feature","properties":{"id":"vu-tae","lat":-18.8318,"lng":169.12216},"geometry":{"type":"MultiPolygon","coordinates":[[[[169.75554,-20.14381],[169.89894,-20.19232],[169.86052,-20.2444],[169.73797,-20.20892],[169.75554,-20.14381]]],[[[169.48064,-19.52012],[169.43621,-19.65732],[169.27833,-19.5783],[169.21437,-19.47975],[169.24342,-19.34197],[169.3366,-19.31463],[169.36647,-19.46966],[169.48064,-19.52012]]],[[[169.30787,-18.97283],[168.98731,-18.87656],[169.00815,-18.65],[169.11842,-18.6194],[169.17213,-18.72649],[169.24806,-18.73447],[169.26832,-18.76995],[169.19321,-18.78704],[169.31984,-18.88201],[169.30787,-18.97283]]]]}},{"type":"Feature","properties":{"id":"vu-tob","lat":-13.81707,"lng":167.48824},"geometry":{"type":"MultiPolygon","coordinates":[[[[167.58644,-14.17246],[167.54802,-14.31308],[167.39682,-14.29957],[167.44793,-14.16139],[167.58644,-14.17246]]],[[[167.48487,-13.94215],[167.3908,-13.77752],[167.48894,-13.70819],[167.59002,-13.85662],[167.48699,-13.88738],[167.48487,-13.94215]]],[[[167.68393,-13.62469],[167.70427,-13.67254],[167.63502,-13.69354],[167.68393,-13.62469]]],[[[167.33481,-13.48358],[167.3156,-13.55153],[167.29664,-13.50449],[167.33481,-13.48358]]],[[[166.68873,-13.42343],[166.6727,-13.45501],[166.65846,-13.41546],[166.68873,-13.42343]]],[[[166.59067,-13.22275],[166.63054,-13.26165],[166.58277,-13.25254],[166.59067,-13.22275]]],[[[166.56666,-13.08912],[166.52963,-13.16985],[166.52052,-13.06487],[166.56666,-13.08912]]]]}}]}
