{"type":"FeatureCollection","features":[{"type":"Feature","properties":{"id":"ws-aa","lat":-13.86688,"lng":-171.93312},"geometry":{"type":"MultiPolygon","coordinates":[[[[-171.9652,-13.81854],[-171.85789,-13.80635],[-171.87565,-14.00469],[-172.04064,-13.91522],[-171.9652,-13.81854]]],[[[-172.05561,-13.86191],[-172.02805,-13.84072],[-172.01801,-13.86381],[-172.05561,-13.86191]]]]}},{"type":"Feature","properties":{"id":"ws-al","lat":-13.87899,"lng":-172.02041},"geometry":{"type":"Polygon","coordinates":[[[-172.02805,-13.84072],[-171.97224,-13.87296],[-172.04064,-13.91522],[-172.06367,-13.88502],[-172.02805,-13.84072]]]}},{"type":"Feature","properties":{"id":"ws-at","lat":-13.93291,"lng":-171.61547},"geometry":{"type":"Polygon","coordinates":[[[-171.56758,-13.89674],[-171.59231,-13.96909],[-171.46935,-13.96941],[-171.44074,-14.05185],[-171.65241,-14.04518],[-171.65022,-13.87127],[-171.56758,-13.89674]]]}},{"type":"Feature","properties":{"id":"ws-fa","lat":-13.65989,"lng":-172.24106},"geometry":{"type":"Polygon","coordinates":[[[-172.22277,-13.55836],[-172.17565,-13.68027],[-172.21296,-13.80096],[-172.31097,-13.63951],[-172.29724,-13.5617],[-172.22277,-13.55836]]]}},{"type":"Feature","properties":{"id":"ws-ge","lat":-13.51059,"lng":-172.3369},"geometry":{"type":"MultiPolygon","coordinates":[[[[-171.85407,-14.00189],[-171.87153,-13.94162],[-171.84793,-13.94374],[-171.85407,-14.00189]]],[[[-171.79231,-13.8165],[-171.81203,-13.86609],[-171.81491,-13.81162],[-171.79231,-13.8165]]],[[[-172.36616,-13.46282],[-172.22277,-13.55836],[-172.29724,-13.5617],[-172.31097,-13.63951],[-172.41419,-13.63687],[-172.36616,-13.46282]]]]}},{"type":"Feature","properties":{"id":"ws-gi","lat":-13.57736,"lng":-172.50332},"geometry":{"type":"Polygon","coordinates":[[[-172.63899,-13.52207],[-172.53063,-13.48398],[-172.36616,-13.46282],[-172.41419,-13.63687],[-172.57875,-13.63265],[-172.63899,-13.52207]]]}},{"type":"Feature","properties":{"id":"ws-pa","lat":-13.74102,"lng":-172.47506},"geometry":{"type":"MultiPolygon","coordinates":[[[[-172.21907,-13.80535],[-172.31843,-13.77125],[-172.34744,-13.63858],[-172.31097,-13.63951],[-172.21907,-13.80535]]],[[[-172.36864,-13.78899],[-172.53291,-13.7986],[-172.60896,-13.69305],[-172.57875,-13.63265],[-172.39102,-13.63746],[-172.36864,-13.78899]]]]}},{"type":"Feature","properties":{"id":"ws-sa","lat":-13.6602,"lng":-172.62728},"geometry":{"type":"MultiPolygon","coordinates":[[[[-172.35449,-13.78399],[-172.39102,-13.63746],[-172.34744,-13.63858],[-172.31843,-13.77125],[-172.35449,-13.78399]]],[[[-172.62255,-13.68776],[-172.70348,-13.61663],[-172.65656,-13.58458],[-172.57875,-13.63265],[-172.62255,-13.68776]]]]}},{"type":"Feature","properties":{"id":"ws-tu","lat":-13.93658,"lng":-171.7532},"geometry":{"type":"Polygon","coordinates":[[[-171.79231,-13.8165],[-171.65022,-13.87127],[-171.65241,-14.04518],[-171.85407,-14.00189],[-171.85789,-13.80635],[-171.79143,-13.87067],[-171.79231,-13.8165]]]}},{"type":"Feature","properties":{"id":"ws-vf","lat":-13.95924,"lng":-171.54794},"geometry":{"type":"MultiPolygon","coordinates":[[[[-171.59231,-13.96909],[-171.56428,-13.9494],[-171.46935,-13.96941],[-171.59231,-13.96909]]],[[[-171.58515,-13.88388],[-171.58774,-13.90958],[-171.59918,-13.90729],[-171.58515,-13.88388]]]]}},{"type":"Feature","properties":{"id":"ws-vs","lat":-13.54355,"lng":-172.70423},"geometry":{"type":"Polygon","coordinates":[[[-172.63181,-13.59987],[-172.76118,-13.56504],[-172.78258,-13.52028],[-172.63899,-13.52207],[-172.63181,-13.59987]]]}}]}
