{"type":"FeatureCollection","features":[{"type":"Feature","properties":{"id":"ye-ab","lat":13.57019,"lng":46.19338},"geometry":{"type":"Polygon","coordinates":[[[47.32448,13.63279],[46.68385,13.42723],[46.23455,13.43635],[45.66578,13.34199],[45.40301,13.07014],[45.09946,12.93618],[45.13128,13.16297],[45.25355,13.39538],[45.21102,13.51223],[45.30367,13.62816],[45.21551,13.667],[45.35752,13.80386],[45.36837,13.88662],[45.70572,13.83102],[45.98596,14.02364],[46.04384,14.19169],[46.36738,14.2999],[46.49228,14.12511],[46.86503,14.21386],[47.2419,14.13756],[47.22283,13.95196],[47.32448,13.63279]]]}},{"type":"Feature","properties":{"id":"ye-ad","lat":12.79291,"lng":44.76938},"geometry":{"type":"Polygon","coordinates":[[[45.09319,12.92471],[45.0586,12.76203],[44.97934,12.78229],[45.03517,12.80366],[45.01515,12.85871],[44.87159,12.80353],[44.92091,12.77139],[44.88136,12.72988],[44.72779,12.74201],[44.61061,12.81957],[44.41554,12.67015],[44.5278,12.80364],[45.09319,12.92471]]]}},{"type":"Feature","properties":{"id":"ye-am","lat":16.11189,"lng":44.02173},"geometry":{"type":"Polygon","coordinates":[[[43.81793,16.67898],[44.18876,16.63147],[44.3289,16.5339],[44.35247,16.1955],[44.42585,16.02827],[44.25454,15.97381],[44.25283,15.80141],[44.16721,15.62062],[43.98422,15.50474],[43.86257,15.56368],[43.70527,15.52629],[43.72186,15.63824],[43.79353,15.65504],[43.81668,15.73051],[43.75023,15.97008],[43.65654,15.94758],[43.69902,16.01189],[43.60858,16.21415],[43.5999,16.60852],[43.81793,16.67898]]]}},{"type":"Feature","properties":{"id":"ye-ba","lat":14.32447,"lng":45.29921},"geometry":{"type":"Polygon","coordinates":[[[45.00592,14.81426],[45.10663,14.76812],[45.18311,14.49842],[45.51488,14.59174],[45.49839,14.65461],[45.56857,14.68928],[45.70417,14.67781],[45.69579,14.57958],[45.7807,14.5365],[45.8592,14.35527],[46.00162,14.29368],[46.04384,14.19169],[45.98596,14.02364],[45.63699,13.8228],[45.40501,13.89659],[45.38357,14.03181],[45.18048,13.96437],[45.00747,14.20515],[44.67167,14.18559],[44.63038,14.2766],[44.74908,14.4276],[44.79254,14.66675],[45.00592,14.81426]]]}},{"type":"Feature","properties":{"id":"ye-da","lat":13.88786,"lng":44.80428},"geometry":{"type":"Polygon","coordinates":[[[44.90659,14.22166],[45.00747,14.20515],[45.17412,14.01478],[45.11872,13.83022],[44.85755,13.70805],[44.85306,13.5909],[44.65488,13.52191],[44.42926,13.62733],[44.41112,13.79254],[44.50967,13.94551],[44.62248,13.98101],[44.65162,14.11733],[44.90659,14.22166]]]}},{"type":"Feature","properties":{"id":"ye-dh","lat":14.51613,"lng":44.33332},"geometry":{"type":"Polygon","coordinates":[[[43.72573,14.07604],[43.57939,14.15557],[43.53159,14.35985],[43.83033,14.45803],[43.97259,14.57423],[43.83792,14.86333],[44.16426,14.99157],[44.3565,14.91532],[44.41468,14.97702],[44.5092,14.93289],[44.63503,15.02624],[44.75513,15.01203],[44.86871,14.75623],[44.79254,14.66675],[44.74908,14.4276],[44.63038,14.2766],[44.25299,14.44356],[44.1377,14.36486],[44.10153,14.43372],[43.96252,14.33533],[43.94593,14.20849],[43.87968,14.19789],[43.86567,14.24554],[43.72573,14.07604]]]}},{"type":"Feature","properties":{"id":"ye-hd","lat":16.73112,"lng":48.79466},"geometry":{"type":"MultiPolygon","coordinates":[[[[53.26807,12.12883],[53.31027,12.11144],[53.24833,12.1213],[53.26807,12.12883]]],[[[53.08292,12.16479],[53.05659,12.12825],[52.98526,12.16273],[53.03855,12.18033],[53.08292,12.16479]]],[[[52.37468,12.20059],[52.38846,12.14887],[52.33058,12.14619],[52.06412,12.23547],[52.37468,12.20059]]],[[[54.52683,12.55721],[54.1405,12.35134],[53.73116,12.30041],[53.57215,12.33461],[53.30689,12.5434],[53.38941,12.56078],[53.39603,12.65647],[53.51895,12.71435],[53.65476,12.70476],[53.8461,12.5986],[53.876,12.64729],[54.11939,12.70112],[54.52683,12.55721]]],[[[51.71227,18.5962],[51.26243,17.33811],[51.13241,17.15275],[50.29246,16.51481],[50.23335,16.10832],[50.30192,16.00174],[50.19237,15.60931],[50.33639,15.4996],[50.25707,15.32775],[50.34135,15.27351],[50.70582,15.27183],[50.80499,15.09738],[50.45948,15.01044],[50.17954,14.84333],[49.94215,14.83877],[49.57814,14.73729],[49.18189,14.51659],[49.11354,14.53022],[49.00367,14.32477],[48.67246,14.04387],[48.58042,14.23309],[48.18691,14.3353],[48.0493,14.53519],[47.74451,14.60079],[47.48602,14.79388],[47.67934,15.01022],[47.61511,15.17137],[47.8398,15.64501],[46.33973,15.57073],[47.03866,16.34536],[46.99703,16.94851],[47.16134,16.94744],[47.42757,17.09183],[47.58901,17.46328],[48.18443,18.16393],[49.12882,18.6121],[51.97861,18.99564],[51.71227,18.5962]]]]}},{"type":"Feature","properties":{"id":"ye-hj","lat":16.11302,"lng":43.23436},"geometry":{"type":"Polygon","coordinates":[[[43.08495,16.67257],[43.5999,16.60852],[43.60858,16.21415],[43.69902,16.01189],[43.65654,15.94758],[43.75023,15.97008],[43.81668,15.73051],[43.79353,15.65504],[43.72186,15.63824],[43.70527,15.52629],[43.31387,15.50967],[43.31139,15.84446],[42.9972,15.82017],[42.83456,15.91406],[42.78948,16.37096],[43.03627,16.5363],[43.08495,16.67257]]]}},{"type":"Feature","properties":{"id":"ye-hu","lat":14.73387,"lng":43.25718},"geometry":{"type":"MultiPolygon","coordinates":[[[[42.78256,13.77993],[42.75408,13.6979],[42.68849,13.66376],[42.71925,13.74262],[42.78256,13.77993]]],[[[42.76759,14.07152],[42.78858,13.9267],[42.75408,13.92072],[42.6919,14.01317],[42.76759,14.07152]]],[[[43.28429,13.66487],[43.09552,14.08396],[42.95932,14.5135],[43.0215,14.44208],[42.99985,14.66332],[42.88364,14.88369],[42.94565,14.81143],[42.87745,15.11986],[42.73341,15.2093],[42.63771,15.19086],[42.61012,15.2436],[42.68263,15.24649],[42.71241,15.36628],[42.69939,15.31167],[42.79493,15.2093],[42.80689,15.34431],[42.6919,15.70209],[42.83456,15.91406],[42.9972,15.82017],[43.31139,15.84446],[43.33222,15.30555],[43.5459,15.05774],[43.72465,14.97314],[43.54104,14.80442],[43.59706,14.43436],[43.53159,14.35985],[43.57939,14.15557],[43.72573,14.07604],[43.79756,14.11405],[43.79896,14.04168],[43.70181,13.9761],[43.72217,13.9176],[43.54104,13.87548],[43.44441,13.74681],[43.28429,13.66487]]],[[[42.63103,15.45425],[42.61411,15.30805],[42.56837,15.26887],[42.55893,15.39297],[42.63103,15.45425]]]]}},{"type":"Feature","properties":{"id":"ye-ib","lat":14.11006,"lng":44.23618},"geometry":{"type":"Polygon","coordinates":[[[43.74465,13.97152],[43.86567,14.24554],[43.87968,14.19789],[43.94593,14.20849],[43.96252,14.33533],[44.10153,14.43372],[44.16349,14.35938],[44.26927,14.43798],[44.66345,14.25665],[44.71802,14.16169],[44.61503,14.05842],[44.62248,13.98101],[44.50967,13.94551],[44.34533,13.70542],[43.96345,13.80182],[43.8865,13.87773],[43.71178,13.86125],[43.70181,13.9761],[43.74465,13.97152]]]}},{"type":"Feature","properties":{"id":"ye-ja","lat":16.57457,"lng":45.64234},"geometry":{"type":"Polygon","coordinates":[[[44.97247,17.4297],[45.22213,17.41739],[45.43038,17.31202],[46.32263,17.22407],[46.7101,17.27538],[46.99703,16.94851],[47.03866,16.34536],[46.83273,16.14969],[45.99448,16.00003],[45.69285,15.89774],[45.56423,15.79035],[45.23898,15.81296],[44.59483,16.0508],[44.42585,16.02827],[44.35247,16.1955],[44.33495,16.51767],[44.18876,16.63147],[44.21542,16.7165],[44.49086,16.97922],[44.95021,17.11144],[44.97247,17.4297]]]}},{"type":"Feature","properties":{"id":"ye-la","lat":13.30964,"lng":44.78208},"geometry":{"type":"Polygon","coordinates":[[[44.41469,12.67329],[43.9463,12.59805],[43.60963,12.75434],[43.53075,12.69548],[43.73953,13.06721],[43.86211,13.11576],[44.0207,13.04732],[44.02179,13.11222],[44.09222,13.09225],[44.19651,13.22744],[44.35681,13.25126],[44.35464,13.36802],[44.45163,13.38675],[44.37665,13.46727],[44.53323,13.57705],[44.62806,13.5168],[44.85306,13.5909],[44.85755,13.70805],[45.08302,13.79668],[45.18048,13.96437],[45.39912,14.0232],[45.35752,13.80386],[45.21551,13.667],[45.30367,13.62816],[45.21102,13.51223],[45.25355,13.39538],[45.13128,13.16297],[45.09319,12.92471],[44.5278,12.80364],[44.41469,12.67329]]]}},{"type":"Feature","properties":{"id":"ye-ma","lat":15.3467,"lng":45.49477},"geometry":{"type":"Polygon","coordinates":[[[45.44956,15.78007],[45.99448,16.00003],[46.83273,16.14969],[46.33973,15.57073],[45.6143,15.06019],[45.5372,14.87537],[45.56857,14.68928],[45.49839,14.65461],[45.51488,14.59174],[45.18311,14.49842],[45.10663,14.76812],[45.00592,14.81426],[44.99894,14.92224],[45.15361,15.10789],[45.15407,15.23848],[44.92101,15.37413],[44.80913,15.31927],[44.64697,15.41472],[44.8282,15.59556],[44.74211,15.70837],[44.66098,16.01143],[45.44956,15.78007]]]}},{"type":"Feature","properties":{"id":"ye-mr","lat":16.94973,"lng":51.92062},"geometry":{"type":"Polygon","coordinates":[[[51.98569,18.97973],[52.72146,17.29817],[52.80156,17.26742],[53.09034,16.6424],[52.53256,16.44725],[52.31861,16.29116],[52.15553,15.98387],[52.22438,15.84675],[52.23357,15.62177],[51.7588,15.44562],[51.66725,15.39142],[51.67644,15.34028],[50.80499,15.09738],[50.70582,15.27183],[50.27913,15.29398],[50.25939,15.36377],[50.33639,15.4996],[50.19237,15.60931],[50.30192,16.00174],[50.23335,16.10832],[50.30967,16.55395],[50.65337,16.7467],[51.13241,17.15275],[51.26243,17.33811],[51.71227,18.5962],[51.98569,18.97973]]]}},{"type":"Feature","properties":{"id":"ye-mw","lat":15.26129,"lng":43.54367},"geometry":{"type":"Polygon","coordinates":[[[43.57102,15.04425],[43.33222,15.30555],[43.31387,15.50967],[43.86257,15.56368],[43.98422,15.50474],[43.94887,15.4002],[43.64005,15.21703],[43.57102,15.04425]]]}},{"type":"Feature","properties":{"id":"ye-ra","lat":14.70158,"lng":43.73728},"geometry":{"type":"Polygon","coordinates":[[[43.63153,14.93402],[43.82397,14.85036],[43.98143,14.59875],[43.83033,14.45803],[43.5583,14.37432],[43.59603,14.46036],[43.54104,14.80442],[43.63153,14.93402]]]}},{"type":"Feature","properties":{"id":"ye-sa","lat":15.44688,"lng":44.18592},"geometry":{"type":"Polygon","coordinates":[[[44.31943,15.61192],[44.39942,15.54922],[44.28267,15.51246],[44.23295,15.42887],[44.25817,15.32076],[44.18106,15.29338],[44.12196,15.4649],[44.31943,15.61192]]]}},{"type":"Feature","properties":{"id":"ye-sd","lat":17.04533,"lng":43.92455},"geometry":{"type":"Polygon","coordinates":[[[43.43495,17.52286],[43.61954,17.45883],[43.73064,17.35243],[43.89265,17.35103],[43.91513,17.30184],[44.14901,17.40483],[44.97247,17.4297],[44.95021,17.11144],[44.49086,16.97922],[44.24849,16.77027],[44.18876,16.63147],[43.81793,16.67898],[43.5999,16.60852],[43.39227,16.6164],[43.18568,16.68485],[43.2115,16.79686],[43.10872,16.92698],[43.15616,17.2097],[43.25217,17.27197],[43.16504,17.32592],[43.43495,17.52286]]]}},{"type":"Feature","properties":{"id":"ye-sh","lat":14.63201,"lng":46.70741},"geometry":{"type":"Polygon","coordinates":[[[48.68149,14.04361],[48.18873,13.96914],[48.01686,14.05728],[47.66725,13.88719],[47.32448,13.63279],[47.22283,13.95196],[47.2419,14.13756],[46.86503,14.21386],[46.49228,14.12511],[46.39658,14.30243],[46.04384,14.19169],[46.00162,14.29368],[45.8592,14.35527],[45.7807,14.5365],[45.69579,14.57958],[45.72184,14.66324],[45.53457,14.71559],[45.5372,14.87537],[45.6143,15.06019],[46.33973,15.57073],[47.74921,15.67517],[47.85174,15.61266],[47.64431,15.28095],[47.61263,15.11885],[47.67934,15.01022],[47.48602,14.79388],[47.74451,14.60079],[48.0493,14.53519],[48.18691,14.3353],[48.58042,14.23309],[48.68149,14.04361]]]}},{"type":"Feature","properties":{"id":"ye-sn","lat":15.40746,"lng":44.44862},"geometry":{"type":"Polygon","coordinates":[[[44.50951,16.05701],[44.66098,16.01143],[44.74211,15.70837],[44.8282,15.59556],[44.64697,15.41472],[44.80913,15.31927],[44.92101,15.37413],[45.15407,15.23848],[45.16492,15.13915],[45.00126,14.93054],[45.00592,14.81426],[44.86871,14.75623],[44.78448,14.97154],[44.70733,15.02906],[44.5092,14.93289],[44.41468,14.97702],[44.3565,14.91532],[44.16426,14.99157],[43.92464,14.86204],[43.7257,14.87999],[43.72465,14.97314],[43.57102,15.04425],[43.623,15.19546],[43.94887,15.4002],[44.00753,15.55944],[44.16721,15.62062],[44.25283,15.80141],[44.25454,15.97381],[44.50951,16.05701]],[[44.28267,15.51246],[44.39077,15.56651],[44.30645,15.6112],[44.12196,15.4649],[44.18106,15.29338],[44.25817,15.32076],[44.23295,15.42887],[44.28267,15.51246]]]}},{"type":"Feature","properties":{"id":"ye-ta","lat":13.32595,"lng":43.79407},"geometry":{"type":"MultiPolygon","coordinates":[[[[43.42897,12.67377],[43.4358,12.63215],[43.39015,12.66633],[43.42897,12.67377]]],[[[43.52556,12.69037],[43.46225,12.69335],[43.47315,12.84662],[43.22633,13.28388],[43.28429,13.66487],[43.44441,13.74681],[43.54104,13.87548],[43.68429,13.91199],[43.71178,13.86125],[43.8865,13.87773],[43.96345,13.80182],[44.32125,13.70301],[44.40693,13.76105],[44.41422,13.64322],[44.53323,13.57705],[44.37665,13.46727],[44.45163,13.38675],[44.35464,13.36802],[44.35681,13.25126],[44.19651,13.22744],[44.09222,13.09225],[44.02179,13.11222],[44.0207,13.04732],[43.86211,13.11576],[43.73953,13.06721],[43.52556,12.69037]]]]}}]}
