{"type":"FeatureCollection","features":[{"type":"Feature","properties":{"id":"za-ec","lat":-32.06311,"lng":26.59528},"geometry":{"type":"Polygon","coordinates":[[[28.63968,-30.13149],[29.01579,-29.97859],[29.12042,-30.08622],[29.12963,-30.24526],[29.29772,-30.31784],[29.15097,-30.51342],[29.1403,-30.60991],[29.32651,-30.65622],[29.47053,-30.61823],[29.79387,-30.70882],[30.06078,-30.8545],[30.19597,-31.0779],[29.86411,-31.41155],[29.41163,-31.6775],[29.21363,-31.94378],[28.54859,-32.56243],[28.15553,-32.78851],[27.89715,-33.03997],[27.10092,-33.52532],[26.47609,-33.76425],[25.95525,-33.71087],[25.78541,-33.74359],[25.63404,-33.85516],[25.61492,-33.93499],[25.69752,-34.03493],[25.41049,-34.03297],[25.19264,-33.96217],[24.95289,-33.98512],[24.82732,-34.20566],[23.63551,-33.97967],[23.68675,-33.87204],[23.50692,-33.78378],[23.36651,-33.78073],[23.63249,-33.61981],[23.51172,-33.46064],[23.26161,-33.39889],[22.74955,-33.40158],[22.74521,-33.32789],[22.91574,-33.0956],[22.95326,-32.94373],[23.07418,-32.84585],[23.06901,-32.78027],[23.1148,-32.8335],[23.37039,-32.76823],[23.2782,-32.66752],[23.23706,-32.5053],[23.24254,-32.42453],[23.32538,-32.35456],[23.60159,-32.32475],[23.75708,-32.19592],[23.88539,-32.22801],[24.0288,-32.17457],[24.1816,-31.95164],[24.1259,-31.88829],[24.15432,-31.75801],[24.49957,-31.70483],[24.55869,-31.4018],[24.76524,-31.38909],[25.21508,-31.20156],[25.37926,-31.2107],[25.50664,-30.93444],[25.46747,-30.61312],[25.61123,-30.6063],[25.72544,-30.68056],[25.89225,-30.5417],[26.13549,-30.5261],[26.14639,-30.48512],[26.28018,-30.57917],[26.44157,-30.55958],[26.62792,-30.67978],[26.78077,-30.64278],[26.85214,-30.67689],[27.03352,-30.5863],[27.01042,-30.53292],[27.2978,-30.48822],[27.2947,-30.42987],[27.3566,-30.43215],[27.32539,-30.392],[27.40456,-30.36781],[27.34932,-30.32001],[27.4521,-30.31009],[27.71353,-30.58376],[28.07878,-30.6588],[28.12539,-30.45726],[28.23143,-30.37385],[28.21603,-30.2674],[28.38388,-30.1442],[28.63968,-30.13149]]]}},{"type":"Feature","properties":{"id":"za-fs","lat":-28.66918,"lng":26.60068},"geometry":{"type":"Polygon","coordinates":[[[28.85901,-28.77299],[28.69952,-28.68848],[28.61942,-28.57241],[28.38295,-28.62647],[28.29706,-28.70688],[28.15495,-28.70233],[28.01357,-28.87844],[27.74743,-28.90862],[27.35025,-29.48027],[27.00215,-29.66651],[27.31278,-30.1316],[27.38136,-30.14266],[27.34932,-30.32001],[27.40456,-30.36781],[27.32539,-30.392],[27.3566,-30.43215],[27.2947,-30.42987],[27.2978,-30.48822],[27.01042,-30.53292],[27.03352,-30.5863],[26.85214,-30.67689],[26.78077,-30.64278],[26.62792,-30.67978],[26.44157,-30.55958],[26.28018,-30.57917],[26.14639,-30.48512],[26.13549,-30.5261],[25.89225,-30.5417],[25.72544,-30.68056],[25.61123,-30.6063],[25.29032,-30.5431],[24.90688,-30.20121],[24.78446,-29.98825],[24.4281,-29.77906],[24.34082,-29.64904],[24.87433,-28.64988],[24.84513,-28.5194],[24.89975,-28.27285],[25.01349,-28.06821],[25.2697,-27.79505],[25.79866,-27.58069],[25.99436,-27.63609],[26.05596,-27.71624],[26.07937,-27.6131],[26.24959,-27.42597],[26.51325,-27.39068],[26.45015,-27.3529],[26.48591,-27.25379],[26.41113,-27.17684],[26.58244,-27.09478],[26.62931,-27.00367],[26.69458,-27.01695],[26.85757,-26.91298],[26.91792,-26.95525],[26.93265,-26.86487],[27.1807,-26.96047],[27.30751,-26.86239],[27.46947,-26.87991],[27.61612,-26.72726],[27.7602,-26.77774],[27.95884,-26.66654],[28.04395,-26.818],[28.42636,-26.98264],[28.48718,-26.96605],[28.53483,-27.0583],[28.65771,-27.00585],[28.65182,-26.95572],[28.82267,-27.03912],[28.99041,-26.99623],[29.11267,-27.15131],[29.21122,-27.14268],[29.44226,-27.25317],[29.62598,-27.51031],[29.77124,-27.45233],[29.71941,-27.48287],[29.77372,-27.59465],[29.68339,-27.66162],[29.72189,-27.81096],[29.62567,-28.03772],[29.66385,-28.16469],[29.2306,-28.44261],[29.1889,-28.53547],[28.97304,-28.57484],[28.85901,-28.77299]]]}},{"type":"Feature","properties":{"id":"za-gt","lat":-25.98895,"lng":28.02546},"geometry":{"type":"Polygon","coordinates":[[[27.58253,-26.73764],[27.5686,-26.65005],[27.41387,-26.64444],[27.35458,-26.58038],[27.2434,-26.64002],[27.15732,-26.52512],[27.22978,-26.5035],[27.19127,-26.38192],[27.32444,-26.28655],[27.2905,-26.14599],[27.39459,-26.12287],[27.45934,-25.88529],[27.64072,-25.80365],[27.72764,-25.87842],[27.92422,-25.83036],[27.98321,-25.5474],[28.05429,-25.53573],[28.00098,-25.51824],[28.03329,-25.47158],[27.94928,-25.41031],[27.96867,-25.3636],[28.05106,-25.40009],[28.17353,-25.32897],[28.64392,-25.26295],[28.60573,-25.1579],[28.75176,-25.1149],[28.78289,-25.22776],[28.62942,-25.33294],[28.66981,-25.66394],[28.70858,-25.68287],[28.72958,-25.62899],[28.76351,-25.70616],[28.82974,-25.69452],[28.81197,-25.64793],[28.85882,-25.6319],[28.8039,-25.54156],[28.85398,-25.49929],[28.94606,-25.59549],[29.08895,-25.50247],[28.9623,-25.70148],[28.87013,-26.00492],[28.63426,-25.97298],[28.49533,-26.12682],[28.53249,-26.22107],[28.71827,-26.3384],[28.80713,-26.30799],[28.86367,-26.40064],[28.79582,-26.42668],[28.76674,-26.51634],[28.52926,-26.50478],[28.50641,-26.61295],[28.40163,-26.65937],[28.40809,-26.75895],[28.25583,-26.8936],[28.04395,-26.818],[27.95884,-26.66654],[27.7602,-26.77774],[27.58253,-26.73764]]]}},{"type":"Feature","properties":{"id":"za-lp","lat":-23.84083,"lng":29.35786},"geometry":{"type":"Polygon","coordinates":[[[29.03872,-22.22391],[29.75889,-22.1309],[30.33498,-22.34473],[30.83789,-22.28231],[31.25564,-22.35796],[31.53635,-23.15698],[31.52762,-23.45681],[31.85649,-23.96296],[31.77995,-23.96531],[31.71231,-24.04995],[31.4516,-24.02158],[31.24846,-24.1007],[31.20296,-24.03535],[31.07856,-24.08108],[31.11249,-24.12532],[31.0511,-24.19018],[31.05917,-24.32127],[31.19488,-24.31096],[31.24334,-24.36542],[31.16257,-24.37867],[31.2595,-24.50809],[31.22073,-24.55659],[30.97517,-24.58157],[30.96729,-24.52703],[30.73919,-24.45737],[30.73445,-24.5823],[30.67306,-24.61756],[30.71991,-24.70418],[30.63752,-24.73793],[30.61975,-24.85966],[30.49212,-24.94758],[30.42104,-24.85086],[30.18356,-24.85526],[30.1464,-25.11006],[29.97838,-25.09397],[30.00423,-25.33221],[29.76998,-25.39498],[29.14316,-25.39498],[29.16577,-25.30446],[29.03815,-25.26941],[29.04299,-25.14224],[29.127,-25.11152],[28.96868,-25.07202],[28.91698,-24.90362],[28.67633,-24.96673],[28.61165,-25.00176],[28.62942,-25.05153],[28.35964,-25.17727],[28.39204,-25.22368],[28.60573,-25.1579],[28.66314,-25.24745],[28.37468,-25.32218],[28.12751,-25.20017],[28.08731,-25.11568],[28.19888,-25.13361],[28.22198,-25.07759],[28.09816,-25.00938],[27.62243,-24.97589],[27.51969,-25.10343],[27.16979,-24.98137],[27.02298,-24.72397],[26.75282,-24.86944],[26.44488,-24.80882],[26.404,-24.63276],[26.53118,-24.45866],[26.83917,-24.2656],[26.96717,-23.71871],[27.01383,-23.6385],[27.07006,-23.65607],[27.12742,-23.52502],[27.20566,-23.52306],[27.34999,-23.39149],[27.54889,-23.36079],[27.60801,-23.21672],[27.75363,-23.22075],[27.7742,-23.12515],[27.93006,-23.05704],[27.9375,-22.96382],[28.30182,-22.60384],[28.62386,-22.56281],[28.91253,-22.45367],[29.03872,-22.22391]]]}},{"type":"Feature","properties":{"id":"za-mp","lat":-25.72491,"lng":30.453},"geometry":{"type":"Polygon","coordinates":[[[31.85649,-23.96296],[31.99193,-24.50042],[31.99575,-25.63688],[31.90583,-25.813],[31.94924,-25.9581],[31.83457,-25.98208],[31.4269,-25.74365],[31.33739,-25.74468],[31.11984,-25.91005],[30.78291,-26.47239],[30.80244,-26.8089],[30.88021,-26.77221],[30.97607,-27.03504],[31.24471,-27.23259],[31.15105,-27.32402],[30.98005,-27.35466],[30.69092,-27.27461],[30.44375,-27.30882],[30.38851,-27.26562],[30.15437,-27.37704],[29.86374,-27.3789],[29.80788,-27.45858],[29.62598,-27.51031],[29.44226,-27.25317],[29.21122,-27.14268],[29.11267,-27.15131],[28.99041,-26.99623],[28.82267,-27.03912],[28.65182,-26.95572],[28.65771,-27.00585],[28.53483,-27.0583],[28.48718,-26.96605],[28.25583,-26.8936],[28.40809,-26.75895],[28.40163,-26.65937],[28.50641,-26.61295],[28.52926,-26.50478],[28.76674,-26.51634],[28.79582,-26.42668],[28.86367,-26.40064],[28.80713,-26.30799],[28.71827,-26.3384],[28.53249,-26.22107],[28.50098,-26.08001],[28.63426,-25.97298],[28.87013,-26.00492],[28.9623,-25.70148],[29.08895,-25.50247],[28.94606,-25.59549],[28.85398,-25.49929],[28.8039,-25.54156],[28.85882,-25.6319],[28.81197,-25.64793],[28.82974,-25.69452],[28.76351,-25.70616],[28.72958,-25.62899],[28.70858,-25.68287],[28.6278,-25.52699],[28.62942,-25.33294],[28.78289,-25.22776],[28.75176,-25.1149],[28.43349,-25.21913],[28.3691,-25.21779],[28.37329,-25.1673],[28.62942,-25.05153],[28.61165,-25.00176],[28.67633,-24.96673],[28.91698,-24.90362],[28.96868,-25.07202],[29.127,-25.11152],[29.04299,-25.14224],[29.03815,-25.26941],[29.16577,-25.30446],[29.14316,-25.39498],[29.85884,-25.37309],[30.00423,-25.33221],[29.97838,-25.09397],[30.1464,-25.11006],[30.18356,-24.85526],[30.42104,-24.85086],[30.49212,-24.94758],[30.61975,-24.85966],[30.63752,-24.73793],[30.71991,-24.70418],[30.67306,-24.61756],[30.73445,-24.5823],[30.73919,-24.45737],[30.96729,-24.52703],[30.97517,-24.58157],[31.22073,-24.55659],[31.2595,-24.50809],[31.16257,-24.37867],[31.24334,-24.36542],[31.19488,-24.31096],[31.05917,-24.32127],[31.0511,-24.19018],[31.11249,-24.12532],[31.07856,-24.08108],[31.20296,-24.03535],[31.24846,-24.1007],[31.4516,-24.02158],[31.71231,-24.04995],[31.77995,-23.96531],[31.85649,-23.96296]]]}},{"type":"Feature","properties":{"id":"za-nc","lat":-28.8487,"lng":22.02552},"geometry":{"type":"Polygon","coordinates":[[[17.0764,-28.02681],[17.18089,-28.09947],[17.21314,-28.23207],[17.34574,-28.22763],[17.39969,-28.39527],[17.32424,-28.47051],[17.42057,-28.5934],[17.40362,-28.70429],[17.58294,-28.68021],[17.62872,-28.76413],[17.91325,-28.78129],[18.16647,-28.9019],[18.74566,-28.83989],[18.95453,-28.86666],[19.12021,-28.95751],[19.28836,-28.88309],[19.26593,-28.74264],[19.45507,-28.70522],[19.56876,-28.53118],[19.98165,-28.42235],[19.98145,-24.75249],[20.36489,-25.0332],[20.54224,-25.38222],[20.65655,-25.4678],[20.63794,-25.62035],[20.79411,-25.89392],[20.84145,-26.13132],[20.60528,-26.49327],[20.61469,-26.7532],[20.69076,-26.89179],[20.9077,-26.80002],[21.12246,-26.86534],[21.42663,-26.82265],[21.66455,-26.86306],[21.76232,-26.80446],[21.78061,-26.67816],[22.0577,-26.6176],[22.24828,-26.34692],[22.45086,-26.21008],[22.54511,-26.20739],[22.62086,-26.11153],[22.70516,-26.12971],[22.70204,-26.41004],[22.81513,-26.44766],[22.91529,-26.1551],[23.05746,-26.09999],[23.09946,-25.98677],[23.3741,-26.01581],[23.35149,-26.07968],[23.22871,-26.05936],[23.22224,-26.1203],[23.30302,-26.1435],[23.22224,-26.26816],[23.28363,-26.34347],[23.27071,-26.47948],[23.58089,-26.61532],[23.49365,-26.73658],[23.98801,-26.91247],[24.01062,-27.06507],[23.8943,-27.25767],[24.08494,-27.35888],[24.03221,-27.50897],[24.11563,-27.62829],[24.1124,-27.74274],[24.44035,-27.7027],[24.36257,-27.89887],[24.51972,-28.09958],[24.69134,-27.82642],[24.69419,-27.64366],[24.79577,-27.61112],[24.78927,-27.68069],[25.02667,-27.70771],[24.82451,-27.90905],[24.93236,-28.09663],[25.01349,-28.06821],[24.8951,-28.28602],[24.8411,-28.58265],[24.87433,-28.64988],[24.34082,-29.64904],[24.4281,-29.77906],[24.78446,-29.98825],[24.90688,-30.20121],[25.1849,-30.45566],[25.46747,-30.61312],[25.52199,-30.80189],[25.47729,-31.02963],[25.35006,-31.22771],[25.21508,-31.20156],[24.76524,-31.38909],[24.55869,-31.4018],[24.49957,-31.70483],[24.14703,-31.78989],[23.9951,-31.7162],[23.86323,-31.79982],[23.6989,-31.66737],[23.40093,-31.68127],[23.06984,-31.97655],[23.02653,-31.88648],[22.60553,-31.77661],[22.29149,-31.57017],[22.08881,-31.89309],[22.10121,-32.05742],[21.97135,-32.19576],[21.85265,-32.24305],[21.6028,-32.22036],[21.30519,-32.37673],[21.19223,-32.45905],[21.11776,-32.60716],[20.86511,-32.67687],[20.70512,-32.91815],[20.42116,-32.93685],[20.18578,-32.73723],[20.0787,-32.45838],[20.21275,-32.28356],[20.16826,-32.18605],[19.9246,-32.3574],[19.62994,-32.44262],[19.59646,-32.60468],[19.53357,-32.63759],[19.4729,-32.58349],[19.4251,-32.31002],[19.49264,-32.23199],[19.47584,-32.08099],[19.32614,-32.0305],[19.24852,-31.9518],[19.25953,-31.88327],[19.18522,-31.92208],[19.02864,-31.89325],[19.06667,-31.57725],[18.90498,-31.00953],[18.93867,-30.72402],[18.56081,-30.47075],[18.46428,-30.5263],[18.41059,-30.49995],[18.24719,-30.78282],[17.97459,-30.81631],[17.8284,-31.06296],[17.82065,-31.16957],[17.6172,-30.93401],[17.28199,-30.34775],[16.82407,-29.10101],[16.60035,-28.85752],[16.56275,-28.71282],[16.46998,-28.62005],[16.67312,-28.45976],[16.7404,-28.48095],[16.80386,-28.36612],[16.76872,-28.26535],[16.82464,-28.26453],[16.89295,-28.08263],[17.0764,-28.02681]]]}},{"type":"Feature","properties":{"id":"za-nl","lat":-29.00605,"lng":30.42252},"geometry":{"type":"Polygon","coordinates":[[[28.98085,-28.90903],[28.85901,-28.77299],[28.93935,-28.60756],[29.1889,-28.53547],[29.2306,-28.44261],[29.66385,-28.16469],[29.62567,-28.03772],[29.72189,-27.81096],[29.68339,-27.66162],[29.77496,-27.58307],[29.71941,-27.48287],[29.85671,-27.38215],[30.15437,-27.37704],[30.39595,-27.26521],[30.44375,-27.30882],[30.69092,-27.27461],[30.98005,-27.35466],[31.15105,-27.32402],[31.24471,-27.23259],[31.52653,-27.31089],[31.96826,-27.31626],[31.94211,-27.10067],[31.99007,-26.80829],[32.35222,-26.86027],[32.89308,-26.84612],[32.67652,-27.52069],[32.55055,-28.17156],[32.39967,-28.38787],[32.3921,-28.53533],[32.08375,-28.79949],[32.01686,-28.78493],[32.01612,-28.83359],[32.07008,-28.8056],[32.01205,-28.86647],[31.76905,-28.9223],[31.365,-29.33262],[31.00123,-29.90244],[31.05828,-29.89593],[30.89064,-30.05006],[30.60955,-30.52955],[30.19597,-31.0779],[30.06078,-30.8545],[29.79387,-30.70882],[29.46418,-30.61741],[29.18699,-30.63746],[29.11762,-30.5812],[29.29772,-30.31784],[29.12963,-30.24526],[29.12042,-30.08622],[29.01579,-29.97859],[29.15065,-29.91115],[29.11376,-29.75012],[29.2786,-29.61359],[29.28274,-29.48564],[29.39953,-29.43035],[29.43591,-29.34239],[29.31178,-29.0898],[28.98085,-28.90903]]]}},{"type":"Feature","properties":{"id":"za-nw","lat":-26.36269,"lng":25.24996},"geometry":{"type":"Polygon","coordinates":[[[25.86837,-24.74815],[26.404,-24.63276],[26.44488,-24.80882],[26.72739,-24.86654],[27.02298,-24.72397],[27.16979,-24.98137],[27.51969,-25.10343],[27.62243,-24.97589],[28.09816,-25.00938],[28.22198,-25.07759],[28.19888,-25.13361],[28.10979,-25.10808],[28.08405,-25.14911],[28.2937,-25.31711],[28.05106,-25.40009],[27.96867,-25.3636],[27.94928,-25.41031],[28.03329,-25.47158],[28.00098,-25.51824],[28.05429,-25.53573],[27.98321,-25.5474],[27.92422,-25.83036],[27.72764,-25.87842],[27.64072,-25.80365],[27.52559,-25.84374],[27.45934,-25.88529],[27.39459,-26.12287],[27.2905,-26.14599],[27.32444,-26.28655],[27.19127,-26.38192],[27.22978,-26.5035],[27.15732,-26.52512],[27.2434,-26.64002],[27.35458,-26.58038],[27.41387,-26.64444],[27.5686,-26.65005],[27.60516,-26.69789],[27.48027,-26.87397],[27.30751,-26.86239],[27.1807,-26.96047],[26.93265,-26.86487],[26.91792,-26.95525],[26.85757,-26.91298],[26.69458,-27.01695],[26.62931,-27.00367],[26.58244,-27.09478],[26.41113,-27.17684],[26.48591,-27.25379],[26.45015,-27.3529],[26.51325,-27.39068],[26.24959,-27.42597],[26.07937,-27.6131],[26.06123,-27.71376],[25.99436,-27.63609],[25.82057,-27.57888],[25.64736,-27.67237],[25.50245,-27.68146],[25.2697,-27.79505],[25.06682,-28.04744],[24.94016,-28.09896],[24.82451,-27.90905],[25.02667,-27.70771],[24.78927,-27.68069],[24.76184,-27.61255],[24.67134,-27.67175],[24.69134,-27.82642],[24.51972,-28.09958],[24.36257,-27.89887],[24.44035,-27.7027],[24.1124,-27.74274],[24.11563,-27.62829],[24.03221,-27.50897],[24.08494,-27.35888],[23.8943,-27.25767],[24.01062,-27.06507],[23.98801,-26.91247],[23.49365,-26.73658],[23.58089,-26.61532],[23.27071,-26.47948],[23.28363,-26.34347],[23.22224,-26.26816],[23.30302,-26.1435],[23.22224,-26.1203],[23.22871,-26.05936],[23.35149,-26.07968],[23.3741,-26.01581],[23.09946,-25.98677],[23.05746,-26.09999],[22.91529,-26.1551],[22.81513,-26.44766],[22.70204,-26.41004],[22.70516,-26.12971],[22.62086,-26.11153],[22.71937,-25.98425],[22.84463,-25.48113],[23.007,-25.3108],[23.45927,-25.28218],[23.92477,-25.62924],[24.18346,-25.62593],[24.33891,-25.75181],[24.66499,-25.82333],[24.8289,-25.82602],[25.05173,-25.73786],[25.38649,-25.74354],[25.58725,-25.61952],[25.8352,-25.01635],[25.86837,-24.74815]]]}},{"type":"Feature","properties":{"id":"za-wc","lat":-32.65255,"lng":22.11462},"geometry":{"type":"MultiPolygon","coordinates":[[[[37.69483,-46.82203],[37.82106,-46.84417],[37.88494,-46.91644],[37.80649,-46.96575],[37.58741,-46.93841],[37.69483,-46.82203]]],[[[37.86109,-46.63616],[37.97779,-46.61565],[37.97641,-46.64471],[37.86109,-46.63616]]],[[[23.63993,-33.98046],[23.36118,-34.06666],[23.40838,-34.11004],[23.06284,-34.0827],[22.99806,-34.02752],[23.03224,-34.08611],[22.93605,-34.0827],[22.73048,-33.97967],[22.78517,-34.02752],[22.58367,-33.99407],[22.45541,-34.05706],[22.18922,-34.07529],[22.11101,-34.14153],[22.13404,-34.18808],[21.94695,-34.22373],[21.89454,-34.33603],[21.7461,-34.38836],[21.53761,-34.34889],[21.30592,-34.42457],[20.91342,-34.36045],[20.80519,-34.39805],[20.86818,-34.43792],[20.84108,-34.46502],[20.48268,-34.47047],[19.99928,-34.82195],[19.85841,-34.74969],[19.64243,-34.77207],[19.39869,-34.60182],[19.29689,-34.61777],[19.3602,-34.50042],[19.29038,-34.40911],[19.11931,-34.40057],[19.08522,-34.35654],[19.1399,-34.29437],[18.81764,-34.37689],[18.85816,-34.15032],[18.80006,-34.08953],[18.47836,-34.10687],[18.44028,-34.15781],[18.48878,-34.34271],[18.44516,-34.33652],[18.31381,-34.14463],[18.37208,-33.92506],[18.48878,-33.86297],[18.43181,-33.69671],[18.28272,-33.44524],[18.14617,-33.35589],[18.07521,-33.20224],[17.95493,-33.10198],[18.12745,-33.19736],[18.0232,-33.01434],[17.90187,-33.03688],[17.84303,-32.82334],[17.96746,-32.70355],[18.11883,-32.77305],[18.2964,-32.60858],[18.34938,-32.26035],[18.27687,-31.89267],[18.19679,-31.69736],[17.76711,-31.15581],[17.82065,-31.16957],[17.8284,-31.06296],[17.97459,-30.81631],[18.24719,-30.78282],[18.41059,-30.49995],[18.46428,-30.5263],[18.56081,-30.47075],[18.73522,-30.577],[18.93867,-30.72402],[18.90498,-31.00953],[19.06667,-31.57725],[19.02864,-31.89325],[19.18522,-31.92208],[19.25953,-31.88327],[19.24852,-31.9518],[19.32614,-32.0305],[19.47584,-32.08099],[19.49264,-32.23199],[19.4251,-32.31002],[19.4729,-32.58349],[19.53357,-32.63759],[19.59119,-32.61403],[19.60979,-32.4575],[19.9246,-32.3574],[20.16826,-32.18605],[20.21275,-32.28356],[20.08227,-32.41172],[20.09514,-32.52189],[20.18578,-32.73723],[20.42116,-32.93685],[20.70512,-32.91815],[20.86511,-32.67687],[21.11776,-32.60716],[21.19223,-32.45905],[21.55344,-32.24149],[21.97135,-32.19576],[22.10121,-32.05742],[22.08881,-31.89309],[22.29149,-31.57017],[22.60553,-31.77661],[23.02653,-31.88648],[23.06984,-31.97655],[23.40093,-31.68127],[23.6989,-31.66737],[23.86323,-31.79982],[24.02316,-31.71951],[24.14703,-31.78989],[24.1259,-31.88829],[24.1816,-31.95164],[24.09008,-32.12481],[23.88539,-32.22801],[23.75708,-32.19592],[23.60159,-32.32475],[23.32538,-32.35456],[23.24254,-32.42453],[23.2782,-32.66752],[23.37039,-32.76823],[23.1148,-32.8335],[23.06901,-32.78027],[23.07418,-32.84585],[22.95326,-32.94373],[22.91574,-33.0956],[22.74521,-33.32789],[22.74955,-33.40158],[23.26161,-33.39889],[23.5634,-33.49599],[23.61818,-33.64404],[23.36651,-33.78073],[23.50692,-33.78378],[23.68675,-33.87204],[23.63993,-33.98046]]]]}}]}
