{"type":"FeatureCollection","features":[{"type":"Feature","properties":{"id":"zm-01","lat":-15.67127,"lng":23.61607},"geometry":{"type":"Polygon","coordinates":[[[22.15165,-16.59769],[21.98153,-16.14428],[21.98035,-13.69482],[22.1192,-13.76164],[22.25082,-13.68655],[22.71027,-13.99036],[22.748,-13.9053],[22.8529,-13.86954],[23.00075,-13.99284],[23.08224,-13.98028],[23.12523,-14.05904],[23.22699,-14.07635],[23.1826,-14.15485],[23.22358,-14.16849],[23.83372,-13.9562],[24.00146,-14.00028],[24.22243,-13.90587],[24.29999,-13.93817],[24.30532,-13.89223],[24.38149,-13.95822],[24.48856,-13.91791],[24.61951,-14.00013],[24.66127,-13.95853],[24.74581,-14.12033],[25.08176,-14.23205],[25.05106,-14.42181],[24.96399,-14.48056],[25.01024,-14.62376],[25.54839,-14.58521],[25.42515,-14.86633],[25.45605,-15.0196],[25.41057,-15.13143],[25.32417,-15.17866],[25.34525,-15.34563],[25.2233,-15.59383],[25.27839,-15.7487],[25.39616,-15.75093],[25.3344,-16.009],[25.42814,-16.09292],[25.28986,-16.29265],[24.9969,-16.53698],[25.10088,-16.6704],[25.25136,-16.7057],[25.27901,-16.90548],[25.09142,-17.13833],[24.96999,-17.55996],[24.68442,-17.49242],[24.57124,-17.53345],[24.23876,-17.47816],[23.38165,-17.64114],[23.32016,-17.54637],[23.18973,-17.53655],[22.99863,-17.29378],[22.76515,-17.16965],[22.33365,-16.67366],[22.15165,-16.59769]]]}},{"type":"Feature","properties":{"id":"zm-02","lat":-13.87584,"lng":29.7493},"geometry":{"type":"Polygon","coordinates":[[[29.76715,-13.45835],[29.79958,-12.15904],[29.86265,-12.04448],[29.99205,-12.00056],[30.16181,-12.2023],[30.5052,-12.3146],[30.49729,-12.45071],[30.5699,-12.509],[30.56447,-12.57401],[30.63475,-12.62517],[30.68658,-12.58853],[30.76296,-12.66812],[30.7502,-12.87146],[31.02051,-12.95084],[31.12077,-13.0407],[31.21962,-12.94805],[31.33584,-12.97699],[31.42943,-13.35252],[31.42912,-13.43572],[31.13518,-13.60749],[31.0616,-13.77353],[30.88249,-13.92721],[30.09773,-13.93186],[30.32025,-14.14275],[30.03458,-14.44243],[29.99422,-14.60707],[30.05117,-14.6712],[29.9042,-14.6544],[29.52185,-14.81641],[29.45978,-14.96312],[29.0011,-15.01851],[28.74386,-15.17571],[28.40434,-15.14569],[28.25986,-15.35255],[27.828,-15.26636],[27.77338,-15.33493],[27.89177,-15.37425],[27.93429,-15.50086],[27.79932,-15.56101],[27.74314,-15.66313],[27.69193,-15.66933],[27.65979,-15.55766],[27.54651,-15.47988],[27.45918,-15.57931],[27.40983,-15.56809],[27.3009,-15.74441],[27.22767,-15.49709],[26.95859,-15.46769],[26.98727,-15.43518],[26.80418,-15.34299],[25.32479,-15.29886],[25.32417,-15.17866],[25.41057,-15.13143],[25.45605,-15.0196],[25.42318,-14.87646],[25.47868,-14.6835],[25.5856,-14.55937],[26.17373,-14.62107],[26.32483,-14.71657],[26.55547,-14.45069],[26.94433,-14.39561],[26.97906,-14.16906],[26.85772,-14.03775],[26.95456,-13.82174],[26.8526,-13.71658],[27.34715,-13.74035],[27.41681,-13.91962],[27.48988,-13.79482],[27.55432,-13.81337],[27.63669,-13.64775],[27.80831,-13.68506],[27.94391,-13.91951],[28.1902,-13.86608],[28.50036,-13.88561],[28.6695,-13.85605],[28.6712,-13.7312],[29.06539,-13.38868],[29.18414,-13.43685],[29.55104,-13.22415],[29.66659,-13.27118],[29.6174,-13.42125],[29.76715,-13.45835]]]}},{"type":"Feature","properties":{"id":"zm-03","lat":-13.26903,"lng":32.31529},"geometry":{"type":"Polygon","coordinates":[[[33.30505,-11.64403],[33.25273,-12.13952],[33.34947,-12.32793],[33.52713,-12.35563],[33.3504,-12.53267],[33.25511,-12.53195],[33.17325,-12.62],[33.02484,-12.61267],[32.94112,-12.76986],[33.01357,-12.91725],[32.96592,-13.11682],[32.99817,-13.20245],[32.81307,-13.52822],[32.66331,-13.59633],[32.76987,-13.64687],[32.81338,-13.71115],[32.76304,-13.77719],[32.87415,-13.8206],[32.99983,-14.05046],[33.14028,-13.92499],[33.20271,-14.01387],[31.41088,-14.63358],[30.81577,-14.76825],[30.21442,-14.98197],[30.20651,-14.83067],[30.00011,-14.61735],[30.00027,-14.55673],[30.03458,-14.44243],[30.31901,-14.13133],[30.09773,-13.93186],[30.8922,-13.9221],[31.0616,-13.77353],[31.13518,-13.60749],[31.35936,-13.46109],[31.53464,-13.42523],[31.6381,-13.33562],[31.75556,-13.09222],[31.91323,-13.03078],[31.91323,-12.93518],[32.06779,-12.78465],[32.14081,-12.44337],[32.29129,-12.20117],[32.43291,-12.21913],[32.54213,-12.0679],[33.08822,-11.95028],[33.21635,-11.67334],[33.30505,-11.64403]]]}},{"type":"Feature","properties":{"id":"zm-04","lat":-10.50559,"lng":29.02839},"geometry":{"type":"Polygon","coordinates":[[[28.69849,-9.79196],[28.4954,-9.35323],[28.35246,-9.27199],[28.59906,-9.09639],[28.8931,-8.76577],[28.93547,-8.59079],[28.88917,-8.4831],[29.57584,-8.37273],[29.52391,-8.47292],[29.39307,-8.55064],[29.25049,-8.90116],[29.10988,-9.09102],[29.33411,-9.21649],[29.36904,-9.53699],[29.54329,-9.65057],[29.79976,-9.70871],[29.91944,-9.83857],[29.93758,-10.07251],[29.85351,-10.22992],[29.6977,-10.22279],[29.44133,-10.38076],[29.35726,-10.63041],[29.16388,-10.74208],[29.1614,-10.87277],[29.0843,-10.95783],[29.38206,-11.11906],[29.33783,-10.90802],[29.65486,-10.73826],[29.78069,-10.80358],[29.88575,-10.94946],[29.8347,-11.39532],[29.95991,-11.24644],[30.1047,-11.24241],[30.45693,-11.49646],[30.44763,-11.58999],[30.26144,-11.81887],[29.78953,-11.89902],[29.81351,-12.14009],[29.47425,-12.24266],[29.44655,-12.33506],[29.52345,-12.39252],[29.49968,-12.45309],[29.25499,-12.36617],[29.03035,-12.37619],[28.75109,-11.99224],[28.50785,-11.87276],[28.36031,-11.53356],[28.55441,-10.835],[28.69962,-10.64317],[28.56992,-10.21963],[28.69849,-9.79196]]]}},{"type":"Feature","properties":{"id":"zm-05","lat":-9.89764,"lng":30.57225},"geometry":{"type":"Polygon","coordinates":[[[30.75211,-8.19412],[30.82828,-8.38812],[30.99235,-8.57591],[31.26091,-8.62397],[31.35331,-8.58718],[31.53904,-8.70355],[31.55335,-8.80907],[31.67267,-8.91305],[31.93663,-8.93258],[31.93808,-9.06177],[32.13414,-9.06415],[32.23145,-9.13381],[32.3293,-9.46215],[31.90181,-9.437],[31.75093,-9.52083],[31.60005,-9.50406],[31.57491,-9.57112],[31.36535,-9.50406],[31.20609,-9.61303],[31.11388,-9.75553],[31.26476,-9.9567],[31.3402,-10.18302],[31.54976,-10.30875],[31.55283,-10.55804],[31.46119,-10.55047],[31.33497,-10.61248],[31.27548,-10.72804],[31.13063,-10.75001],[31.20419,-10.81072],[31.14356,-10.82667],[31.14527,-10.91684],[31.08538,-10.96136],[31.00099,-10.9201],[30.48439,-11.49106],[30.1047,-11.24241],[29.95991,-11.24644],[29.8347,-11.39532],[29.88885,-10.96574],[29.77573,-10.79908],[29.64913,-10.73723],[29.34935,-10.89504],[29.38206,-11.11906],[29.0843,-10.95783],[29.1614,-10.87277],[29.16388,-10.74208],[29.35726,-10.63041],[29.44133,-10.38076],[29.6977,-10.22279],[29.85351,-10.22992],[29.93758,-10.07251],[29.91944,-9.83857],[29.79976,-9.70871],[29.54329,-9.65057],[29.36904,-9.53699],[29.33411,-9.21649],[29.12011,-9.10709],[29.11686,-9.05232],[29.25049,-8.90116],[29.39307,-8.55064],[29.52391,-8.47292],[29.57584,-8.37273],[30.75211,-8.19412]]]}},{"type":"Feature","properties":{"id":"zm-06","lat":-12.84102,"lng":25.389},"geometry":{"type":"Polygon","coordinates":[[[21.98035,-13.69482],[21.97988,-13.00148],[24.00063,-13.00148],[23.86565,-12.78971],[24.03081,-12.38508],[23.95433,-12.15192],[23.99019,-11.82408],[23.95464,-11.63691],[24.06171,-11.40695],[23.96746,-10.87231],[24.11422,-10.91923],[24.12424,-11.04325],[24.37053,-11.1002],[24.39224,-11.2791],[24.28547,-11.38122],[24.4465,-11.46359],[24.56473,-11.44468],[24.71253,-11.32603],[25.31032,-11.19477],[25.279,-11.39631],[25.34494,-11.64218],[25.48116,-11.71525],[25.49558,-11.77654],[25.62146,-11.72889],[25.72564,-11.80052],[25.8507,-11.7938],[25.98113,-11.90305],[26.41459,-11.91183],[26.71742,-12.01301],[26.94769,-11.90914],[27.02376,-11.59557],[27.18013,-11.56963],[27.23418,-11.8091],[27.42073,-11.92196],[27.58982,-12.24297],[27.51055,-12.3007],[27.4134,-12.24783],[27.27651,-12.34571],[27.05151,-12.33418],[27.07683,-12.51598],[26.86749,-12.6631],[26.88314,-12.89234],[27.09419,-13.00081],[27.06102,-13.13026],[26.9651,-13.21103],[26.97363,-13.33484],[26.79333,-13.57876],[26.79907,-13.67606],[26.95456,-13.82174],[26.85772,-14.03775],[26.97906,-14.16906],[26.95596,-14.37395],[26.55547,-14.45069],[26.33496,-14.71398],[26.17373,-14.62107],[25.621,-14.55544],[25.02574,-14.63228],[24.96352,-14.48325],[25.05106,-14.42181],[25.08176,-14.23205],[24.74581,-14.12033],[24.66468,-13.96018],[24.61734,-13.99977],[24.48856,-13.91791],[24.41642,-13.96333],[24.30108,-13.89243],[24.29999,-13.93817],[24.22243,-13.90587],[23.99231,-14.00152],[23.83372,-13.9562],[23.22358,-14.16849],[23.1826,-14.15485],[23.22699,-14.07635],[23.12523,-14.05904],[23.08224,-13.98028],[23.00075,-13.99284],[22.8529,-13.86954],[22.748,-13.9053],[22.71027,-13.99036],[22.25082,-13.68655],[22.1192,-13.76164],[21.98035,-13.69482]]]}},{"type":"Feature","properties":{"id":"zm-07","lat":-16.68805,"lng":26.78107},"geometry":{"type":"Polygon","coordinates":[[[28.94686,-15.95724],[28.85724,-16.06047],[28.85724,-16.3882],[28.80887,-16.48628],[27.81689,-16.95964],[27.57731,-17.36313],[27.02127,-17.95854],[26.7,-18.06923],[26.21192,-17.88278],[25.9245,-17.99895],[25.68141,-17.81147],[25.51646,-17.86232],[25.33554,-17.84124],[24.96999,-17.55996],[25.09142,-17.13833],[25.27901,-16.90548],[25.25136,-16.7057],[25.10088,-16.6704],[24.99783,-16.53217],[25.28986,-16.29265],[25.42814,-16.09292],[25.3344,-16.009],[25.39616,-15.75093],[25.27839,-15.7487],[25.2233,-15.59383],[25.32479,-15.29886],[26.84392,-15.35162],[26.98727,-15.43518],[26.95859,-15.46769],[27.22767,-15.49709],[27.3009,-15.74441],[27.40983,-15.56809],[27.56161,-15.47895],[27.65979,-15.55766],[27.69193,-15.66933],[27.97067,-15.66592],[28.23614,-15.81862],[28.39111,-15.78436],[28.75393,-15.95189],[28.94686,-15.95724]]]}},{"type":"Feature","properties":{"id":"zm-08","lat":-13.06553,"lng":27.9541},"geometry":{"type":"Polygon","coordinates":[[[27.58982,-12.24297],[27.71074,-12.30633],[27.85668,-12.2624],[27.95869,-12.36782],[28.33975,-12.4505],[28.5123,-12.66837],[28.474,-12.73648],[28.54284,-12.88562],[28.66789,-12.84934],[28.90343,-13.1623],[28.95036,-13.35097],[29.06539,-13.38868],[28.6712,-13.7312],[28.6695,-13.85605],[27.94391,-13.91951],[27.80831,-13.68506],[27.63669,-13.64775],[27.55432,-13.81337],[27.48988,-13.79482],[27.41681,-13.91962],[27.34715,-13.74035],[26.79907,-13.67606],[26.80403,-13.54527],[26.97363,-13.33484],[26.9651,-13.21103],[27.06102,-13.13026],[27.09419,-13.00081],[26.88314,-12.89234],[26.87059,-12.65742],[27.07683,-12.51598],[27.05151,-12.33418],[27.27651,-12.34571],[27.4134,-12.24783],[27.51055,-12.3007],[27.58982,-12.24297]]]}},{"type":"Feature","properties":{"id":"zm-09","lat":-15.29059,"lng":29.3162},"geometry":{"type":"Polygon","coordinates":[[[30.4127,-15.62793],[29.83733,-15.61481],[29.58722,-15.65574],[29.18631,-15.81283],[29.04234,-15.94626],[28.75393,-15.95189],[28.4107,-15.78875],[28.23614,-15.81862],[27.97067,-15.66592],[27.75679,-15.64886],[27.79932,-15.56101],[27.93476,-15.49554],[27.89177,-15.37425],[27.76702,-15.32056],[27.86247,-15.26062],[28.25986,-15.35255],[28.40434,-15.14569],[28.74386,-15.17571],[29.0011,-15.01851],[29.45978,-14.96312],[29.53043,-14.81067],[29.97112,-14.64913],[30.20651,-14.83067],[30.22583,-15.10631],[30.36495,-15.35415],[30.4127,-15.62793]]]}},{"type":"Feature","properties":{"id":"zm-10","lat":-11.22763,"lng":32.04768},"geometry":{"type":"Polygon","coordinates":[[[32.92086,-9.4079],[32.92779,-9.47983],[32.99197,-9.50185],[32.98691,-9.62846],[33.08044,-9.66225],[33.09832,-9.58846],[33.17542,-9.60231],[33.21671,-9.72705],[33.34347,-9.83144],[33.3041,-10.06378],[33.53328,-10.23121],[33.55917,-10.40433],[33.66542,-10.51512],[33.6742,-10.57703],[33.50098,-10.76916],[33.23258,-10.88326],[33.39091,-11.16479],[33.2303,-11.41656],[33.21263,-11.56384],[33.28322,-11.57841],[33.30505,-11.64403],[33.21635,-11.67334],[33.08822,-11.95028],[32.54213,-12.0679],[32.43291,-12.21913],[32.29129,-12.20117],[32.14081,-12.44337],[32.06779,-12.78465],[31.91323,-12.93518],[31.91323,-13.03078],[31.75556,-13.09222],[31.61376,-13.36657],[31.42912,-13.43572],[31.33584,-12.97699],[31.21962,-12.94805],[31.12077,-13.0407],[31.02051,-12.95084],[30.7502,-12.87146],[30.76296,-12.66812],[30.68658,-12.58853],[30.63475,-12.62517],[30.56447,-12.57401],[30.5699,-12.509],[30.49729,-12.45071],[30.50008,-12.30938],[30.16181,-12.2023],[29.99732,-12.00051],[29.86265,-12.04448],[29.83888,-12.13378],[29.79958,-12.15904],[29.77868,-11.91013],[30.26144,-11.81887],[30.44763,-11.58999],[30.45585,-11.50173],[30.70631,-11.29046],[30.84856,-11.05657],[30.97063,-10.99936],[31.00099,-10.9201],[31.08538,-10.96136],[31.14527,-10.91684],[31.14356,-10.82667],[31.20419,-10.81072],[31.13063,-10.75001],[31.27548,-10.72804],[31.33497,-10.61248],[31.46119,-10.55047],[31.55283,-10.55804],[31.54976,-10.30875],[31.3402,-10.18302],[31.26476,-9.9567],[31.11388,-9.75553],[31.20609,-9.61303],[31.36535,-9.50406],[31.57491,-9.57112],[31.60005,-9.50406],[31.75093,-9.52083],[31.90181,-9.437],[32.3293,-9.46215],[32.23145,-9.13381],[32.42343,-9.14383],[32.51805,-9.25825],[32.71323,-9.28584],[32.92086,-9.4079]]]}}]}
