{"type":"FeatureCollection","features":[{"type":"Feature","properties":{"id":"zw-bu","lat":-20.12634,"lng":28.53512},"geometry":{"type":"Polygon","coordinates":[[[28.69931,-20.19918],[28.51741,-20.249],[28.49374,-20.17143],[28.39204,-20.16166],[28.41623,-20.03206],[28.65818,-20.09102],[28.69931,-20.19918]]]}},{"type":"Feature","properties":{"id":"zw-ha","lat":-17.88741,"lng":31.06803},"geometry":{"type":"Polygon","coordinates":[[[31.05824,-17.73613],[31.08868,-17.66611],[31.19172,-17.70218],[31.2221,-17.85183],[31.13012,-18.02593],[31.06325,-18.05419],[30.87902,-17.94903],[30.94403,-17.92299],[30.90605,-17.8032],[30.98207,-17.72171],[31.05824,-17.73613]]]}},{"type":"Feature","properties":{"id":"zw-ma","lat":-19.35621,"lng":32.10275},"geometry":{"type":"Polygon","coordinates":[[[33.01165,-17.38399],[32.93657,-17.49831],[33.02453,-17.61923],[32.92737,-17.97291],[32.95497,-18.2563],[33.04277,-18.352],[32.99641,-18.46714],[32.87074,-18.53577],[32.90252,-18.77451],[32.69142,-18.83425],[32.68109,-18.95497],[32.69897,-19.02225],[32.8142,-19.0238],[32.85591,-19.08374],[32.76335,-19.46398],[32.83219,-19.50088],[32.81963,-19.6743],[32.94319,-19.64929],[33.0328,-19.78417],[33.00727,-20.03201],[32.88531,-20.10301],[32.85296,-20.27385],[32.67178,-20.53182],[32.48161,-20.60303],[32.49102,-20.93634],[32.33981,-21.13406],[32.4472,-21.31368],[32.29687,-21.21323],[32.13549,-20.92834],[32.27331,-20.59316],[32.32834,-20.00508],[32.01896,-19.86432],[31.69665,-19.4955],[31.1987,-19.24844],[31.30825,-19.23262],[31.33833,-19.09894],[31.54193,-19.15428],[31.59624,-19.02359],[31.98516,-19.13222],[31.991,-18.98747],[31.74352,-18.50905],[31.85132,-18.42094],[31.91173,-18.16628],[32.14618,-17.93859],[32.16556,-17.84702],[32.59122,-17.59867],[32.85777,-17.30711],[32.96909,-17.26611],[33.01165,-17.38399]]]}},{"type":"Feature","properties":{"id":"zw-mc","lat":-16.65656,"lng":31.56508},"geometry":{"type":"Polygon","coordinates":[[[30.2962,-15.63904],[30.39626,-15.63599],[30.40257,-16.00124],[30.85742,-15.99814],[30.98977,-16.06429],[31.1141,-15.9969],[31.25998,-16.02347],[31.40457,-16.16227],[31.71071,-16.21787],[31.91028,-16.42892],[32.29046,-16.45176],[32.67178,-16.59976],[32.73095,-16.70866],[32.66512,-16.74523],[32.41299,-16.71226],[32.04195,-16.8152],[31.60715,-17.45588],[31.38458,-17.62187],[31.29631,-17.62988],[31.31662,-17.48369],[31.15105,-17.46834],[31.08775,-17.54327],[31.07782,-17.72512],[31.00346,-17.73902],[30.77397,-17.62745],[30.78161,-17.56353],[30.62597,-17.55691],[30.62271,-17.36349],[30.73474,-17.07327],[30.54943,-17.04966],[30.54804,-16.78611],[30.37906,-16.60446],[30.41445,-16.342],[30.26671,-16.26567],[30.20217,-16.34381],[30.04869,-16.38381],[30.14692,-16.17596],[30.04512,-16.00166],[30.31172,-15.77681],[30.2962,-15.63904]]]}},{"type":"Feature","properties":{"id":"zw-me","lat":-17.98022,"lng":31.62915},"geometry":{"type":"Polygon","coordinates":[[[32.66512,-16.74523],[32.96851,-16.68162],[32.82878,-16.93514],[32.96909,-17.26611],[32.76733,-17.37501],[32.59122,-17.59867],[32.16091,-17.85137],[32.14618,-17.93859],[31.91173,-18.16628],[31.85132,-18.42094],[31.74352,-18.50905],[31.991,-18.98747],[31.98516,-19.13222],[31.59624,-19.02359],[31.53495,-19.15661],[31.44323,-19.09237],[31.32871,-19.104],[31.29616,-19.23805],[30.99835,-19.24637],[31.0063,-19.16095],[30.96439,-19.15568],[30.85934,-19.27236],[30.71888,-19.17196],[30.68911,-18.98375],[30.36309,-18.86154],[30.44985,-18.68139],[30.49869,-18.76702],[30.60684,-18.74439],[30.75552,-18.5845],[30.79634,-18.38492],[30.7026,-18.2331],[30.81836,-17.92521],[31.05715,-18.05249],[31.13322,-18.02184],[31.2221,-17.85183],[31.19653,-17.70667],[31.08868,-17.66611],[31.13772,-17.47516],[31.31662,-17.48369],[31.28432,-17.61257],[31.38458,-17.62187],[31.72931,-17.32463],[31.75861,-17.18644],[32.04195,-16.8152],[32.41299,-16.71226],[32.66512,-16.74523]]]}},{"type":"Feature","properties":{"id":"zw-mi","lat":-19.05574,"lng":29.84028},"geometry":{"type":"Polygon","coordinates":[[[30.16739,-18.74676],[30.68911,-18.98375],[30.71888,-19.17196],[30.85934,-19.27236],[30.70927,-19.39354],[30.76497,-19.42321],[30.70183,-19.8561],[30.47249,-19.84695],[30.43321,-19.99113],[30.16708,-20.0473],[30.15297,-20.20192],[30.22578,-20.20492],[30.23462,-20.32165],[30.45807,-20.54443],[30.49063,-20.68985],[30.43957,-20.94032],[30.3235,-21.03835],[30.15762,-21.03117],[29.96973,-20.91485],[29.79811,-21.02828],[29.48138,-21.02533],[29.62665,-20.90477],[29.68266,-20.66308],[29.61858,-20.66752],[29.59357,-20.61233],[29.62913,-20.49177],[29.68623,-20.51833],[29.72612,-20.47363],[29.87412,-20.04079],[29.79997,-19.96204],[29.707,-19.97537],[29.69181,-19.92199],[29.42919,-19.87698],[29.40552,-19.73042],[28.99821,-19.18374],[29.0163,-19.09935],[28.94385,-19.01212],[28.88183,-18.72904],[29.12823,-18.63282],[29.12368,-18.57091],[28.01067,-18.54342],[28.00923,-18.2223],[28.1069,-18.19708],[28.00892,-18.00273],[28.08715,-17.75452],[28.20105,-17.68512],[28.24756,-17.40958],[28.50718,-17.39501],[28.65601,-17.22417],[28.91697,-17.13012],[28.98012,-17.22401],[29.25463,-17.31579],[29.40242,-17.48539],[29.31902,-17.58167],[29.32057,-17.76687],[29.20068,-18.00102],[29.24801,-18.13703],[29.58784,-18.37846],[29.58102,-18.59225],[29.89511,-18.71126],[30.16739,-18.74676]]]}},{"type":"Feature","properties":{"id":"zw-mn","lat":-18.60062,"lng":27.42761},"geometry":{"type":"Polygon","coordinates":[[[25.96745,-18.99993],[25.81525,-18.81399],[25.76192,-18.63033],[25.5085,-18.39913],[25.38753,-18.139],[25.25503,-18.00112],[25.21937,-17.87979],[25.25978,-17.79411],[25.51646,-17.86232],[25.68141,-17.81147],[25.9245,-17.99895],[26.21192,-17.88278],[26.71194,-18.06582],[27.04846,-17.94428],[27.15708,-17.7693],[27.57731,-17.36313],[27.7773,-17.00118],[28.02299,-16.86539],[28.04406,-17.08847],[28.13862,-17.14929],[28.16456,-17.30943],[28.24756,-17.40958],[28.20105,-17.68512],[28.08715,-17.75452],[28.00892,-18.00273],[28.1069,-18.19708],[28.00923,-18.2223],[28.01067,-18.54342],[29.12368,-18.57091],[29.12823,-18.63282],[28.88121,-18.74738],[28.94385,-19.01212],[29.0163,-19.09935],[28.99821,-19.18374],[29.22393,-19.48744],[29.09454,-19.50015],[29.08503,-19.81181],[28.96214,-19.83579],[28.97113,-19.97118],[28.84111,-20.03774],[28.67265,-20.27623],[28.59989,-20.2367],[28.69931,-20.19918],[28.65818,-20.09102],[28.41923,-20.02958],[28.39204,-20.16166],[28.51245,-20.20228],[28.33231,-20.33705],[28.14234,-20.08384],[27.99806,-20.1213],[27.95197,-20.06115],[27.91445,-20.18735],[27.82867,-20.17655],[27.52605,-19.86054],[27.3889,-19.80582],[26.93839,-19.81016],[26.67717,-19.88681],[26.59557,-19.85558],[26.31217,-19.65136],[26.3132,-19.58418],[26.15549,-19.53715],[25.94858,-19.10328],[25.96745,-18.99993]]]}},{"type":"Feature","properties":{"id":"zw-ms","lat":-20.96097,"lng":28.61007},"geometry":{"type":"Polygon","coordinates":[[[27.21491,-20.11045],[26.67717,-19.88681],[26.93839,-19.81016],[27.36916,-19.80117],[27.52605,-19.86054],[27.82867,-20.17655],[27.91445,-20.18735],[27.95197,-20.06115],[27.99806,-20.1213],[28.14234,-20.08384],[28.33231,-20.33705],[28.49974,-20.22977],[28.67265,-20.27623],[28.84111,-20.03774],[28.97113,-19.97118],[28.96214,-19.83579],[29.08503,-19.81181],[29.09454,-19.50015],[29.22393,-19.48744],[29.41183,-19.74128],[29.42919,-19.87698],[29.69181,-19.92199],[29.707,-19.97537],[29.79997,-19.96204],[29.87412,-20.04079],[29.72612,-20.47363],[29.68623,-20.51833],[29.62913,-20.49177],[29.59357,-20.61233],[29.61858,-20.66752],[29.68266,-20.66308],[29.62665,-20.90477],[29.46805,-21.01717],[29.72798,-21.02419],[30.11158,-21.49703],[30.6348,-21.74865],[30.78358,-22.00946],[30.90559,-22.08289],[31.09705,-22.33492],[30.83789,-22.28231],[30.33498,-22.34473],[29.75889,-22.1309],[29.35695,-22.19094],[29.23933,-22.0726],[29.04053,-22.02093],[29.03872,-21.79789],[28.6157,-21.6471],[28.01656,-21.57289],[27.88499,-21.31017],[27.66661,-21.07122],[27.69813,-20.50908],[27.26839,-20.49575],[27.284,-20.35147],[27.21491,-20.11045]]]}},{"type":"Feature","properties":{"id":"zw-mv","lat":-20.80235,"lng":31.32749},"geometry":{"type":"Polygon","coordinates":[[[31.28892,-22.39734],[31.04863,-22.29781],[31.00909,-22.19337],[30.78358,-22.00946],[30.6348,-21.74865],[30.11158,-21.49703],[29.72798,-21.02419],[29.96973,-20.91485],[30.15762,-21.03117],[30.33286,-21.03742],[30.43957,-20.94032],[30.49063,-20.68985],[30.45807,-20.54443],[30.23462,-20.32165],[30.22578,-20.20492],[30.15297,-20.20192],[30.16708,-20.0473],[30.43321,-19.99113],[30.47249,-19.84695],[30.70183,-19.8561],[30.76497,-19.42321],[30.70927,-19.39354],[30.96439,-19.15568],[31.0063,-19.16095],[30.99835,-19.24637],[31.1987,-19.24844],[31.69665,-19.4955],[32.01896,-19.86432],[32.33718,-20.02338],[32.27331,-20.59316],[32.13549,-20.92834],[32.29687,-21.21323],[32.40854,-21.29033],[31.43382,-22.30205],[31.28892,-22.39734]]]}},{"type":"Feature","properties":{"id":"zw-mw","lat":-17.2668,"lng":29.88164},"geometry":{"type":"Polygon","coordinates":[[[29.83733,-15.61481],[30.2962,-15.63904],[30.31172,-15.77681],[30.04512,-16.00166],[30.14692,-16.17596],[30.04869,-16.38381],[30.20217,-16.34381],[30.26671,-16.26567],[30.41445,-16.342],[30.37906,-16.60446],[30.54804,-16.78611],[30.54943,-17.04966],[30.73474,-17.07327],[30.62271,-17.36349],[30.62597,-17.55691],[30.78161,-17.56353],[30.77397,-17.62745],[30.98207,-17.72171],[30.90357,-17.81002],[30.94295,-17.9281],[30.81836,-17.92521],[30.7026,-18.2331],[30.79634,-18.38492],[30.75149,-18.5924],[30.60684,-18.74439],[30.49869,-18.76702],[30.44985,-18.68139],[30.36309,-18.86154],[30.16739,-18.74676],[29.89511,-18.71126],[29.58102,-18.59225],[29.58784,-18.37846],[29.24801,-18.13703],[29.20068,-18.00102],[29.32057,-17.76687],[29.31902,-17.58167],[29.40242,-17.48539],[29.26414,-17.32271],[28.98012,-17.22401],[28.91697,-17.13012],[28.65601,-17.22417],[28.50718,-17.39501],[28.24756,-17.40958],[28.16456,-17.30943],[28.13862,-17.14929],[28.04261,-17.08464],[28.02299,-16.86539],[28.28011,-16.70652],[28.73285,-16.55811],[28.82251,-16.47078],[28.85724,-16.06047],[28.93237,-15.96373],[29.04234,-15.94626],[29.18631,-15.81283],[29.40697,-15.71423],[29.83733,-15.61481]]]}}]}
